{
  "type": "FeatureCollection",
  "features": [
    {
      "type": "Feature",
      "properties": {
        "image_id": "0002_top_20250707_t1",
        "zone_type": "parking_spot",
        "generated_at": "2025-11-03T11:20:39",
        "source": "merged_t1_polygons"
      },
      "geometry": {
        "type": "MultiPolygon",
        "coordinates": [
          [
            [
              [
                608.5249955731069,
                723.4096470431015
              ],
              [
                608.5233946296166,
                723.3941638729887
              ],
              [
                608.5225266530731,
                723.3628317173627
              ],
              [
                608.5217247544066,
                723.3564279036246
              ],
              [
                608.5215038500545,
                723.3498551764291
              ],
              [
                608.5197932797141,
                723.3368553574638
              ],
              [
                608.5195356270873,
                723.3306540962006
              ],
              [
                608.5192343378354,
                723.3285270038637
              ],
              [
                608.5187508010007,
                723.3186751919972
              ],
              [
                608.518533713214,
                723.3172117050154
              ],
              [
                608.5185066603757,
                723.3166610318409
              ],
              [
                608.515215805596,
                723.2944758909706
              ],
              [
                608.5147475730238,
                723.2872596193226
              ],
              [
                608.5133375261066,
                723.2785705187054
              ],
              [
                608.5124445550064,
                723.2664914118997
              ],
              [
                608.5069299133309,
                723.2349290188785
              ],
              [
                608.5038109747145,
                723.2047648953717
              ],
              [
                608.5011228954312,
                723.1919052861714
              ],
              [
                608.4984614900058,
                723.1706517969974
              ],
              [
                608.4971669197979,
                723.1649018424199
              ],
              [
                608.4961431216976,
                723.157121285464
              ],
              [
                608.4936210796284,
                723.1462554187913
              ],
              [
                608.493291305808,
                723.1438998630463
              ],
              [
                608.4927706864036,
                723.1416944838584
              ],
              [
                608.4917273759753,
                723.1343287461045
              ],
              [
                608.4910485577852,
                723.1315535400847
              ],
              [
                608.4897077678377,
                723.1225146684677
              ],
              [
                608.4896691061494,
                723.1223603223566
              ],
              [
                608.4896467326814,
                723.1222094926865
              ],
              [
                608.4876868093376,
                723.1143850400986
              ],
              [
                608.4874470837304,
                723.1128092711182
              ],
              [
                608.4847110656968,
                723.1021663212325
              ],
              [
                608.4839786492197,
                723.0976529675376
              ],
              [
                608.4808930463279,
                723.0859101201469
              ],
              [
                608.4783168255092,
                723.0711654279661
              ],
              [
                608.46862568967,
                723.0364406133904
              ],
              [
                608.4616664696274,
                723.003148124347
              ],
              [
                608.4585558408272,
                722.9934071263217
              ],
              [
                608.4559202179381,
                722.9817007609167
              ],
              [
                608.4542513944755,
                722.9766366185994
              ],
              [
                608.4521910472267,
                722.9677598996985
              ],
              [
                608.449752725889,
                722.9605306759797
              ],
              [
                608.4493417921364,
                722.9587899326696
              ],
              [
                608.4479166499625,
                722.9546428623244
              ],
              [
                608.446514394512,
                722.9488580674036
              ],
              [
                608.4461966899622,
                722.9479393591058
              ],
              [
                608.4461403081641,
                722.9477066455677
              ],
              [
                608.4459345973789,
                722.9471145602188
              ],
              [
                608.4446155350619,
                722.9417218501584
              ],
              [
                608.4442517013565,
                722.9406902694496
              ],
              [
                608.443299542022,
                722.9368546966197
              ],
              [
                608.443020808177,
                722.9360683679397
              ],
              [
                608.4419568433394,
                722.9318207822098
              ],
              [
                608.4419062671103,
                722.9316794311186
              ],
              [
                608.4418958081832,
                722.931637676741
              ],
              [
                608.4382617139524,
                722.9214810637686
              ],
              [
                608.4373490567446,
                722.9179308806899
              ],
              [
                608.4352628978528,
                722.9122559304313
              ],
              [
                608.4351621618644,
                722.9118725605096
              ],
              [
                608.429797602836,
                722.8973136691375
              ],
              [
                608.4250155218823,
                722.8801787453101
              ],
              [
                608.4101490983195,
                722.8418204171799
              ],
              [
                608.3990090580775,
                722.8069351521833
              ],
              [
                608.3962445623526,
                722.8006114968103
              ],
              [
                608.3953017916198,
                722.7977506039291
              ],
              [
                608.3937804971396,
                722.7942996863956
              ],
              [
                608.3915778070872,
                722.7877528380048
              ],
              [
                608.3911566674929,
                722.7868029524748
              ],
              [
                608.3900628585832,
                722.7835599880667
              ],
              [
                608.3869820548457,
                722.7767080163981
              ],
              [
                608.3843581669267,
                722.7691205027605
              ],
              [
                608.3842360966142,
                722.7688153269793
              ],
              [
                608.3832118852575,
                722.7665834380252
              ],
              [
                608.3827009924997,
                722.765112965213
              ],
              [
                608.3814814961805,
                722.7624614420218
              ],
              [
                608.3782880995935,
                722.7534526353467
              ],
              [
                608.3776612844906,
                722.7521142094902
              ],
              [
                608.3757742017414,
                722.7468401665199
              ],
              [
                608.3757213165186,
                722.7467283501109
              ],
              [
                608.3756521314289,
                722.7465349907386
              ],
              [
                608.3697729645149,
                722.7341045366888
              ],
              [
                608.3697729645147,
                722.7341045366884
              ],
              [
                608.3679231851579,
                722.7290726065313
              ],
              [
                608.3606972283868,
                722.7142247620766
              ],
              [
                608.3555303403035,
                722.7008931636813
              ],
              [
                608.3346955203052,
                722.6594541411782
              ],
              [
                608.3232123848704,
                722.633553788096
              ],
              [
                608.3165033077811,
                722.6182070863439
              ],
              [
                608.3163812374686,
                722.6179629457189
              ],
              [
                608.3124992083904,
                722.6110517795186
              ],
              [
                608.3103455043624,
                722.606261757096
              ],
              [
                608.3067864003167,
                722.6000424262277
              ],
              [
                608.30131621826,
                722.5881221923536
              ],
              [
                608.2990369160817,
                722.5842291551381
              ],
              [
                608.2957619489164,
                722.5772361827088
              ],
              [
                608.2948623726678,
                722.575719397529
              ],
              [
                608.291735595103,
                722.5691083818167
              ],
              [
                608.2828987321582,
                722.5543649666997
              ],
              [
                608.2798721872178,
                722.5481460437344
              ],
              [
                608.2737565768956,
                722.5382507783712
              ],
              [
                608.2692446087989,
                722.5292767844747
              ],
              [
                608.2444280847463,
                722.4898649363865
              ],
              [
                608.2221205635269,
                722.4501509147872
              ],
              [
                608.2190122850454,
                722.4456852065732
              ],
              [
                608.2174559067555,
                722.4429285340638
              ],
              [
                608.214389377626,
                722.4385839108326
              ],
              [
                608.2137921046877,
                722.4375402105153
              ],
              [
                608.2113307800337,
                722.4340706632099
              ],
              [
                608.2045844993243,
                722.4224973284082
              ],
              [
                608.2033123272727,
                722.4207320154371
              ],
              [
                608.2008663541852,
                722.4165543051063
              ],
              [
                608.1986955802748,
                722.4135715354533
              ],
              [
                608.1965022578518,
                722.4098733509462
              ],
              [
                608.1953599249096,
                722.4083152902284
              ],
              [
                608.1908322910114,
                722.4007613894296
              ],
              [
                608.1785401223626,
                722.3841873186484
              ],
              [
                608.1740873019037,
                722.3769825038001
              ],
              [
                608.1699622955567,
                722.3716036373786
              ],
              [
                608.1668932221954,
                722.366729552159
              ],
              [
                608.1383896705411,
                722.3298535415641
              ],
              [
                608.1121654301332,
                722.2921767997628
              ],
              [
                608.1055910728655,
                722.2844397229214
              ],
              [
                608.1014253679434,
                722.2785378000586
              ],
              [
                608.0979921325426,
                722.2745858195325
              ],
              [
                608.0915711524551,
                722.265675830179
              ],
              [
                608.0886093055029,
                722.2623065888821
              ],
              [
                608.0838790925679,
                722.2558070010964
              ],
              [
                608.0820031773283,
                722.2537047655929
              ],
              [
                608.08144858895,
                722.2529483465712
              ],
              [
                608.0800357016216,
                722.2513694824906
              ],
              [
                608.0739139731318,
                722.2431152871414
              ],
              [
                608.057742165979,
                722.2252724475479
              ],
              [
                608.0516392679401,
                722.217314478378
              ],
              [
                608.0503082322123,
                722.2158996002308
              ],
              [
                608.0494203057382,
                722.2147508596647
              ],
              [
                608.0174903285396,
                722.1807577657536
              ],
              [
                607.9875341854465,
                722.1455036760311
              ],
              [
                607.9768495041957,
                722.1351391308551
              ],
              [
                607.9694640647232,
                722.1266377874972
              ],
              [
                607.9687758578306,
                722.1259903621595
              ],
              [
                607.9639465369463,
                722.1204967807482
              ],
              [
                607.9589959002176,
                722.1158572447372
              ],
              [
                607.9515104347022,
                722.1074686933605
              ],
              [
                607.9482958833817,
                722.1045170832258
              ],
              [
                607.9421066287794,
                722.0976882930956
              ],
              [
                607.9243205238464,
                722.0815679072417
              ],
              [
                607.9179094709907,
                722.0747426119891
              ],
              [
                607.9156461690976,
                722.0727551253307
              ],
              [
                607.9137674859403,
                722.0707581032456
              ],
              [
                607.8822858928025,
                722.0434088490364
              ],
              [
                607.8493811002556,
                722.0114899549815
              ],
              [
                607.8461229673102,
                722.0088878504046
              ],
              [
                607.8459450738421,
                722.0087158788813
              ],
              [
                607.8376617274172,
                722.0021302897339
              ],
              [
                607.8375354702914,
                722.0020294546083
              ],
              [
                607.8229028262018,
                721.9883163338703
              ],
              [
                607.8157121794474,
                721.9827783504425
              ],
              [
                607.8050683720537,
                721.973005176322
              ],
              [
                607.8020105148026,
                721.9707125768022
              ],
              [
                607.7966796347336,
                721.9658809487432
              ],
              [
                607.7790558313262,
                721.9528102453188
              ],
              [
                607.7735738202197,
                721.9479962945289
              ],
              [
                607.7670171132162,
                721.9432704875029
              ],
              [
                607.7618674733789,
                721.9387968000253
              ],
              [
                607.7316987157916,
                721.9175030378233
              ],
              [
                607.6989856777141,
                721.8913768030958
              ],
              [
                607.695491257171,
                721.889099123597
              ],
              [
                607.6945177526521,
                721.8883251488692
              ],
              [
                607.6854053796172,
                721.8824206326113
              ],
              [
                607.669757544745,
                721.8703692201078
              ],
              [
                607.6601273207746,
                721.8643369955439
              ],
              [
                607.645999961435,
                721.8537451416482
              ],
              [
                607.6431943977694,
                721.8520485389041
              ],
              [
                607.6390335324454,
                721.8489626308636
              ],
              [
                607.6384258538272,
                721.8485984023168
              ],
              [
                607.6384231808829,
                721.8485964199261
              ],
              [
                607.6220385397321,
                721.8387758439537
              ],
              [
                607.6177447563127,
                721.8356810599653
              ],
              [
                607.6174032931189,
                721.8354817046517
              ],
              [
                607.6172564750627,
                721.835375884184
              ],
              [
                607.606179441351,
                721.828908816666
              ],
              [
                607.5974767393737,
                721.8227662612132
              ],
              [
                607.5694260660487,
                721.8069292479913
              ],
              [
                607.5377408032374,
                721.7862766469002
              ],
              [
                607.5340610969134,
                721.7843545444127
              ],
              [
                607.5321674491387,
                721.783127523303
              ],
              [
                607.5223846301058,
                721.7780570871314
              ],
              [
                607.5059412608933,
                721.7677572129039
              ],
              [
                607.4946349378662,
                721.762114520015
              ],
              [
                607.4920761242344,
                721.7605330862197
              ],
              [
                607.4914392570762,
                721.7602231439538
              ],
              [
                607.4870923268699,
                721.7575650186301
              ],
              [
                607.486389325057,
                721.7572241298515
              ],
              [
                607.4758770260172,
                721.7508670488784
              ],
              [
                607.473417137678,
                721.749695603711
              ],
              [
                607.4700761884958,
                721.7476931158345
              ],
              [
                607.4542457309303,
                721.7402058670199
              ],
              [
                607.451371420199,
                721.7385277678056
              ],
              [
                607.4344029601793,
                721.7306971130924
              ],
              [
                607.4222592222499,
                721.7238409305002
              ],
              [
                607.3963841506214,
                721.7124386963405
              ],
              [
                607.3671398443107,
                721.69716287024
              ],
              [
                607.3633261061119,
                721.6956170367989
              ],
              [
                607.3604131192957,
                721.6941072354143
              ],
              [
                607.3500002792973,
                721.6899311092427
              ],
              [
                607.3329842234623,
                721.6814388366421
              ],
              [
                607.319190660563,
                721.6761487364844
              ],
              [
                607.3120070514188,
                721.6726653717163
              ],
              [
                607.3109768805456,
                721.6722844563944
              ],
              [
                607.2997052074436,
                721.6669079582439
              ],
              [
                607.2991530101341,
                721.6667077433157
              ],
              [
                607.2963806234707,
                721.6653874805593
              ],
              [
                607.2950271405759,
                721.6649010821151
              ],
              [
                607.2926495795739,
                721.6637765795086
              ],
              [
                607.2781452581479,
                721.6585868503187
              ],
              [
                607.2769605565605,
                721.6580401307543
              ],
              [
                607.2620672552217,
                721.6528340488843
              ],
              [
                607.2570477112797,
                721.6510380273435
              ],
              [
                607.2442451951506,
                721.6453964086909
              ],
              [
                607.2186762169833,
                721.6369856824101
              ],
              [
                607.1887628196839,
                721.6248607992968
              ],
              [
                607.1848643737015,
                721.6237024552594
              ],
              [
                607.1808617035665,
                721.6220971626101
              ],
              [
                607.1698663344516,
                721.6188799476378
              ],
              [
                607.1525020673291,
                721.6122204128305
              ],
              [
                607.137270882683,
                721.6080127479643
              ],
              [
                607.131381533917,
                721.605877396126
              ],
              [
                607.12950016523,
                721.605181742446
              ],
              [
                607.1293649875965,
                721.6051462395816
              ],
              [
                607.1169518102462,
                721.6006454870999
              ],
              [
                607.1144271113932,
                721.5999992104028
              ],
              [
                607.1092844347139,
                721.5981510969577
              ],
              [
                607.1091315915612,
                721.5981127934335
              ],
              [
                607.1078520693527,
                721.5976549730668
              ],
              [
                607.0711953627573,
                721.5884729460612
              ],
              [
                607.0595838578537,
                721.5846534273924
              ],
              [
                607.0345652893362,
                721.5790441352526
              ],
              [
                607.0042617660471,
                721.5700400588399
              ],
              [
                607.0003241704795,
                721.5692723735159
              ],
              [
                606.9951930922449,
                721.5677710340385
              ],
              [
                606.983671773024,
                721.5655804886087
              ],
              [
                606.9661807213845,
                721.560748528051
              ],
              [
                606.9501810078388,
                721.5579552140642
              ],
              [
                606.9286287383826,
                721.5524382275514
              ],
              [
                606.9252542926753,
                721.5519166110493
              ],
              [
                606.917463358876,
                721.5499650837248
              ],
              [
                606.8802388249821,
                721.544443345729
              ],
              [
                606.8698977058377,
                721.5421248134639
              ],
              [
                606.8456873471739,
                721.5391239192696
              ],
              [
                606.8153454377117,
                721.5332083705043
              ],
              [
                606.8114090761699,
                721.5328282268158
              ],
              [
                606.8051444083538,
                721.5316371271517
              ],
              [
                606.7931645621464,
                721.530542458664
              ],
              [
                606.7757606598485,
                721.527503994033
              ],
              [
                606.7590999209957,
                721.5262327299929
              ],
              [
                606.736515151441,
                721.5227416118895
              ],
              [
                606.7323659622607,
                721.522508478607
              ],
              [
                606.7233169955028,
                721.5211661911868
              ],
              [
                606.7208879818826,
                721.5210468613996
              ],
              [
                606.7197446374089,
                721.5208786161832
              ],
              [
                606.685644219654,
                721.5192864398307
              ],
              [
                606.6769787762269,
                721.5182123508743
              ],
              [
                606.6538003769913,
                721.5176075841957
              ],
              [
                606.6237634810036,
                721.514706850533
              ],
              [
                606.6198626427779,
                721.514706850533
              ],
              [
                606.6124937550518,
                721.514033512241
              ],
              [
                606.6001350403004,
                721.5141032357211
              ],
              [
                606.5830206440679,
                721.5127973562705
              ],
              [
                606.5658190551844,
                721.5131505955505
              ],
              [
                606.5424260194455,
                721.5118361953216
              ],
              [
                606.5375134853588,
                721.5120382500573
              ],
              [
                606.5272827148438,
                721.5115356445312
              ],
              [
                606.5235593167425,
                721.5117185633504
              ],
              [
                606.5211502386254,
                721.5116060815258
              ],
              [
                606.488964654659,
                721.5133067197879
              ],
              [
                606.482649647423,
                721.5131419497401
              ],
              [
                606.4606923944109,
                721.514706850533
              ],
              [
                606.4312902299339,
                721.514706850533
              ],
              [
                606.4274527181858,
                721.5150774480645
              ],
              [
                606.4190435796281,
                721.5151248894383
              ],
              [
                606.4063988269996,
                721.5164243330524
              ],
              [
                606.3897611066608,
                721.5167659931394
              ],
              [
                606.3721519995795,
                721.5188396423151
              ],
              [
                606.3481949761443,
                721.5198250054602
              ],
              [
                606.3425498812868,
                721.5206109866929
              ],
              [
                606.3312484341847,
                721.5211661911868
              ],
              [
                606.3262847585639,
                721.5219024829119
              ],
              [
                606.3226164374689,
                721.5220963115283
              ],
              [
                606.2927785268922,
                721.5266741282376
              ],
              [
                606.2887462205158,
                721.5269615120666
              ],
              [
                606.2687578711678,
                721.5303594452391
              ],
              [
                606.2679920500893,
                721.530476939677
              ],
              [
                606.2397082732258,
                721.5332083705043
              ],
              [
                606.2359555557597,
                721.5339400114448
              ],
              [
                606.2266038097334,
                721.5349010477744
              ],
              [
                606.2137794335562,
                721.5374896022176
              ],
              [
                606.1977873332269,
                721.5393728326115
              ],
              [
                606.1799175693044,
                721.5432547062866
              ],
              [
                606.1556569959758,
                721.5466325689815
              ],
              [
                606.1493303803163,
                721.5481511853585
              ],
              [
                606.1371020708115,
                721.5499650837248
              ],
              [
                606.1309889256613,
                721.5514963468706
              ],
              [
                606.1261050315564,
                721.5522456477302
              ],
              [
                606.0989740055489,
                721.5592219700584
              ],
              [
                606.0971003748267,
                721.5595404791995
              ],
              [
                606.0861546004915,
                721.5625182811419
              ],
              [
                606.0760636548642,
                721.5651130112223
              ],
              [
                606.0507919448904,
                721.5700400588399
              ],
              [
                606.0471398370413,
                721.5711252085048
              ],
              [
                606.0369749196236,
                721.5731769607135
              ],
              [
                606.0240907531268,
                721.5771051823314
              ],
              [
                606.0088925987232,
                721.5804066985542
              ],
              [
                605.9909227671203,
                721.5861747367449
              ],
              [
                605.966631058368,
                721.5920056246509
              ],
              [
                605.9596949266058,
                721.5944032599931
              ],
              [
                605.9467133603348,
                721.5976549730668
              ],
              [
                605.9395766727445,
                721.6002085207178
              ],
              [
                605.9335578343502,
                721.6017561716128
              ],
              [
                605.8884912740494,
                721.6182644064887
              ],
              [
                605.8662908912536,
                721.6248607992968
              ],
              [
                605.8627507355567,
                721.6262957407579
              ],
              [
                605.8519310848494,
                721.6295945172691
              ],
              [
                605.839119611035,
                721.6349012034769
              ],
              [
                605.8248414160355,
                721.6394842833785
              ],
              [
                605.8069457944545,
                721.6472045518786
              ],
              [
                605.7829029631487,
                721.6555155159781
              ],
              [
                605.7754507785211,
                721.6589337046869
              ],
              [
                605.7619158501136,
                721.6637765795086
              ],
              [
                605.7539145077485,
                721.6675609326072
              ],
              [
                605.7468774872664,
                721.6701386484606
              ],
              [
                605.7070422838035,
                721.6894094940492
              ],
              [
                605.6879138666268,
                721.69716287024
              ],
              [
                605.6844941502402,
                721.6989491664264
              ],
              [
                605.6732035829991,
                721.7036258725045
              ],
              [
                605.6606085569033,
                721.7103352322156
              ],
              [
                605.6473530532224,
                721.7160537286119
              ],
              [
                605.629719271016,
                721.7257782366412
              ],
              [
                605.6062084594166,
                721.7365622408976
              ],
              [
                605.5983553658128,
                721.7411349273106
              ],
              [
                605.5844892411917,
                721.7476931158345
              ],
              [
                605.5758123970884,
                721.7528938160472
              ],
              [
                605.5679086588599,
                721.7567173616986
              ],
              [
                605.5334251758089,
                721.7778603691092
              ],
              [
                605.5173129077001,
                721.7862766469002
              ],
              [
                605.5140212370127,
                721.7884221731039
              ],
              [
                605.5024645957951,
                721.7945783860716
              ],
              [
                605.4902390782473,
                721.8026974272395
              ],
              [
                605.4780854734034,
                721.8093997799456
              ],
              [
                605.4609138226164,
                721.8211641627776
              ],
              [
                605.4382168472602,
                721.834380120216
              ],
              [
                605.430099562564,
                721.8402307280026
              ],
              [
                605.4161422488046,
                721.8485964199261
              ],
              [
                605.4070061368196,
                721.8553722223705
              ],
              [
                605.3984198168627,
                721.860636789938
              ],
              [
                605.3692739674765,
                721.8827691139694
              ],
              [
                605.3560680332233,
                721.8913768030958
              ],
              [
                605.3529133666115,
                721.8938962743902
              ],
              [
                605.3413115640941,
                721.9016011025818
              ],
              [
                605.329615410919,
                721.9111173536257
              ],
              [
                605.3186198473107,
                721.9186504686037
              ],
              [
                605.3021221955547,
                721.9324715952331
              ],
              [
                605.2805152072453,
                721.9480450312747
              ],
              [
                605.2722915330104,
                721.9552833818765
              ],
              [
                605.2584961465164,
                721.9655147378057
              ],
              [
                605.2491404611036,
                721.9739942367939
              ],
              [
                605.2400857531964,
                721.9808700607495
              ],
              [
                605.2161333039699,
                722.0031355328821
              ],
              [
                605.2056726106819,
                722.0114899549815
              ],
              [
                605.2026676356805,
                722.0144048944563
              ],
              [
                605.1912522421665,
                722.0236927131791
              ],
              [
                605.1802491152098,
                722.0345723851547
              ],
              [
                605.1704457831795,
                722.0427852566215
              ],
              [
                605.154844053187,
                722.058658833284
              ],
              [
                605.1345934066634,
                722.0764831384868
              ],
              [
                605.1264413040882,
                722.0852022703959
              ],
              [
                605.1130691524706,
                722.0973220821581
              ],
              [
                605.1037530517381,
                722.1076008153533
              ],
              [
                605.0944710346346,
                722.1162290976304
              ],
              [
                605.075444373526,
                722.1378162735206
              ],
              [
                605.067519525491,
                722.1455036760311
              ],
              [
                605.0646830564377,
                722.1488417938317
              ],
              [
                605.0536905910856,
                722.1597109238259
              ],
              [
                605.0435445776038,
                722.1718976060998
              ],
              [
                605.0349474119446,
                722.1806445699453
              ],
              [
                605.0204716057631,
                722.1985428189892
              ],
              [
                605.0018300241879,
                722.2184810382704
              ],
              [
                604.9939462139715,
                722.2287539910016
              ],
              [
                604.9812618081182,
                722.242749076204
              ],
              [
                604.9723876209553,
                722.2547145324522
              ],
              [
                604.9722855897528,
                722.2548287120355
              ],
              [
                604.9721603296299,
                722.2549997777377
              ],
              [
                604.9630145426485,
                722.2653763598977
              ],
              [
                604.9485317510424,
                722.2855352436218
              ],
              [
                604.9428882808043,
                722.2921767997628
              ],
              [
                604.9402475477104,
                722.2959707788217
              ],
              [
                604.9299136432124,
                722.3083831426525
              ],
              [
                604.9207855872957,
                722.3217971070308
              ],
              [
                604.9133904577284,
                722.3309406303031
              ],
              [
                604.9002762184558,
                722.3508101300837
              ],
              [
                604.8834793259191,
                722.3726972225332
              ],
              [
                604.8761104386521,
                722.3845208160229
              ],
              [
                604.871431281095,
                722.390761705712
              ],
              [
                604.871164678364,
                722.3911978710004
              ],
              [
                604.8643434902386,
                722.4003951784921
              ],
              [
                604.8582377772201,
                722.4105819452417
              ],
              [
                604.8574394479812,
                722.4116722104328
              ],
              [
                604.8552239183207,
                722.4154122591552
              ],
              [
                604.8470152552017,
                722.4268380595015
              ],
              [
                604.8365912779128,
                722.4448952262995
              ],
              [
                604.8329331474106,
                722.4501509147872
              ],
              [
                604.8305269475577,
                722.454435008169
              ],
              [
                604.8210794606679,
                722.4683183863779
              ],
              [
                604.8131231237714,
                722.4828565538008
              ],
              [
                604.8069104143952,
                722.4922694846633
              ],
              [
                604.7953961346295,
                722.5140292594258
              ],
              [
                604.780659415855,
                722.5376747524084
              ],
              [
                604.7764937014582,
                722.5460807328316
              ],
              [
                604.7726887903647,
                722.5523056133434
              ],
              [
                604.7707310490715,
                722.5563179672746
              ],
              [
                604.7692764430868,
                722.5587162642751
              ],
              [
                604.7685661216092,
                722.5601900642262
              ],
              [
                604.763440186147,
                722.5687421708792
              ],
              [
                604.7596610044885,
                722.5767325791531
              ],
              [
                604.7583626069417,
                722.5789244117306
              ],
              [
                604.754701325016,
                722.5867509208748
              ],
              [
                604.7476194109915,
                722.5990187241562
              ],
              [
                604.7406488876375,
                722.6144574606736
              ],
              [
                604.7386114383127,
                722.6180850160314
              ],
              [
                604.7366067986709,
                722.622670535961
              ],
              [
                604.7282063004575,
                722.6380202944054
              ],
              [
                604.721564477331,
                722.6535568951845
              ],
              [
                604.7165019386201,
                722.6631241199104
              ],
              [
                604.7068254418175,
                722.6866640688137
              ],
              [
                604.6943416727389,
                722.7118550225099
              ],
              [
                604.6925936423609,
                722.7164591116051
              ],
              [
                604.6896643016462,
                722.722462740263
              ],
              [
                604.6872228587532,
                722.728963923109
              ],
              [
                604.6858780534101,
                722.7317541724701
              ],
              [
                604.6842446614493,
                722.7361870393656
              ],
              [
                604.6795236498211,
                722.7461687798011
              ],
              [
                604.6793852796419,
                722.7465554985454
              ],
              [
                604.6792795091961,
                722.7467791313636
              ],
              [
                604.6774586548088,
                722.7518680784622
              ],
              [
                604.6759910831827,
                722.7550052208578
              ],
              [
                604.6716240906652,
                722.7673377538
              ],
              [
                604.665809182974,
                722.7802169628861
              ],
              [
                604.6607125854376,
                722.795360220416
              ],
              [
                604.6598739896302,
                722.7972623226791
              ],
              [
                604.6590090909932,
                722.7998869081347
              ],
              [
                604.6521630876173,
                722.8159011288327
              ],
              [
                604.6469638085066,
                722.8322890628746
              ],
              [
                604.6430095585521,
                722.8419085402309
              ],
              [
                604.6356202198758,
                722.8663737276328
              ],
              [
                604.6305769749088,
                722.8798031048929
              ],
              [
                604.6253415730749,
                722.8935924856695
              ],
              [
                604.6251918311967,
                722.8941429053544
              ],
              [
                604.623101849555,
                722.8997082015311
              ],
              [
                604.6206321247296,
                722.9088252761907
              ],
              [
                604.6194643029794,
                722.911994630822
              ],
              [
                604.6175285552567,
                722.9193614861467
              ],
              [
                604.6131579027543,
                722.9315766415848
              ],
              [
                604.6124118064165,
                722.9345552251295
              ],
              [
                604.6111030717753,
                722.9382511355324
              ],
              [
                604.6068515879041,
                722.9553946258474
              ],
              [
                604.6023929730908,
                722.9686422782003
              ],
              [
                604.6001009924302,
                722.9786469756034
              ],
              [
                604.5992555633119,
                722.9812124796667
              ],
              [
                604.5981302841773,
                722.9862105121193
              ],
              [
                604.5936612855164,
                723.0002966293922
              ],
              [
                604.5900142353502,
                723.0173695077642
              ],
              [
                604.5871197848655,
                723.0269526757086
              ],
              [
                604.5870587497093,
                723.0271968163336
              ],
              [
                604.5837648952814,
                723.0449219295089
              ],
              [
                604.5735979420517,
                723.0824535891894
              ],
              [
                604.5715766060985,
                723.0942403494338
              ],
              [
                604.570647815624,
                723.09777503785
              ],
              [
                604.5690297062008,
                723.1077462774007
              ],
              [
                604.5654680134123,
                723.1219653520615
              ],
              [
                604.565356345792,
                723.1227181540091
              ],
              [
                604.5653426636146,
                723.1227733253992
              ],
              [
                604.5651628376311,
                723.1234912309677
              ],
              [
                604.5651601738093,
                723.1235091889952
              ],
              [
                604.5643115944089,
                723.1269309619981
              ],
              [
                604.5610607407571,
                723.1490611118326
              ],
              [
                604.5579974241036,
                723.1624327587643
              ],
              [
                604.5574116477787,
                723.1670661415196
              ],
              [
                604.5567142912442,
                723.1701635157474
              ],
              [
                604.5557784562743,
                723.1776369199167
              ],
              [
                604.553248239377,
                723.1894815843368
              ],
              [
                604.5517739178237,
                723.2023936728189
              ],
              [
                604.5513037713793,
                723.2046428250592
              ],
              [
                604.5492694684515,
                723.2243171349163
              ],
              [
                604.5415962147592,
                723.2690612069836
              ],
              [
                604.5405096481684,
                723.2834947938803
              ],
              [
                604.53987889182,
                723.2873816896351
              ],
              [
                604.5392572033857,
                723.2969629808302
              ],
              [
                604.5387132602323,
                723.3003149095728
              ],
              [
                604.5386391289685,
                723.3016959830281
              ],
              [
                604.5360587079423,
                723.3192621702708
              ],
              [
                604.534797180128,
                723.3451894923916
              ],
              [
                604.5326491281769,
                723.3623434361127
              ],
              [
                604.5323731623746,
                723.3723052300435
              ],
              [
                604.5313020552901,
                723.3816859715907
              ],
              [
                604.530970146001,
                723.401294975903
              ],
              [
                604.5301191729868,
                723.409524972789
              ],
              [
                604.5301191729868,
                723.4215183882797
              ],
              [
                604.5273834552654,
                723.4578587467877
              ],
              [
                604.527715657513,
                723.4748381121008
              ],
              [
                604.5274413549594,
                723.4790655876287
              ],
              [
                604.5277709048485,
                723.4895957436025
              ],
              [
                604.526611328125,
                723.513427734375
              ],
              [
                604.5277710657334,
                723.5384313877514
              ],
              [
                604.5272857587362,
                723.5559499652726
              ],
              [
                604.5281429995176,
                723.5683211164636
              ],
              [
                604.52802806264,
                723.5751115191479
              ],
              [
                604.5301191729868,
                723.6012472311805
              ],
              [
                604.5301191729868,
                723.6154994412735
              ],
              [
                604.5305490442773,
                723.6196568461775
              ],
              [
                604.5310870330394,
                723.6471542752087
              ],
              [
                604.5329936052369,
                723.6637672974165
              ],
              [
                604.5330986780012,
                723.6676758217044
              ],
              [
                604.5334241745318,
                723.6702354995016
              ],
              [
                604.5334499332633,
                723.6710585720317
              ],
              [
                604.5341911387686,
                723.6768465599837
              ],
              [
                604.5352039325419,
                723.6986821409487
              ],
              [
                604.5361521911719,
                723.7054554987042
              ],
              [
                604.5363639450931,
                723.7097671908153
              ],
              [
                604.5393297333818,
                723.7297609114082
              ],
              [
                604.5406744809412,
                723.7491674489091
              ],
              [
                604.5431231482102,
                723.7637772249848
              ],
              [
                604.5434568930341,
                723.7679485297767
              ],
              [
                604.5476395705455,
                723.7913857255271
              ],
              [
                604.5526737579935,
                723.8352513960645
              ],
              [
                604.557005879583,
                723.8556800777897
              ],
              [
                604.5582187724882,
                723.865218167288
              ],
              [
                604.5589850969851,
                723.8685496533706
              ],
              [
                604.560907912942,
                723.882284218985
              ],
              [
                604.5637238628609,
                723.8942127742625
              ],
              [
                604.5651628376311,
                723.9039135541885
              ],
              [
                604.5652179601777,
                723.9041336157305
              ],
              [
                604.5652849079436,
                723.9045849409073
              ],
              [
                604.5696316711083,
                723.9219381921959
              ],
              [
                604.5726897345055,
                723.9401838811978
              ],
              [
                604.577155241581,
                723.9567736995893
              ],
              [
                604.5774441937124,
                723.9583928126215
              ],
              [
                604.5811155949924,
                723.9714868201271
              ],
              [
                604.5832287311487,
                723.9793373384393
              ],
              [
                604.5851736196003,
                723.9885087124068
              ],
              [
                604.5868146090843,
                723.9973393164789
              ],
              [
                604.5868756442405,
                723.9975834571039
              ],
              [
                604.587628517504,
                724.0000851021516
              ],
              [
                604.5919501779202,
                724.0204644528565
              ],
              [
                604.5983465199414,
                724.0408767032171
              ],
              [
                604.6035024051897,
                724.0627173836133
              ],
              [
                604.6089529383469,
                724.0789174904736
              ],
              [
                604.6129747972856,
                724.094973651384
              ],
              [
                604.615041369005,
                724.1007493324207
              ],
              [
                604.6151060654279,
                724.1010048800368
              ],
              [
                604.6175330031015,
                724.1077129832178
              ],
              [
                604.6185454487419,
                724.1105425792251
              ],
              [
                604.623031278349,
                724.1272078979136
              ],
              [
                604.637207019924,
                724.16488981136
              ],
              [
                604.6377041989899,
                724.1664764281381
              ],
              [
                604.6414379281779,
                724.1788828524147
              ],
              [
                604.6421037167296,
                724.1805163367719
              ],
              [
                604.6485643121399,
                724.2011336349963
              ],
              [
                604.6560838623873,
                724.219000301435
              ],
              [
                604.6626214116628,
                724.2384312440264
              ],
              [
                604.6657293953458,
                724.2454419845126
              ],
              [
                604.6665755519875,
                724.2479474296144
              ],
              [
                604.6719746429919,
                724.2598671737392
              ],
              [
                604.6790964037274,
                724.2797711616051
              ],
              [
                604.6820142789974,
                724.285940490525
              ],
              [
                604.6825647577557,
                724.2874620245759
              ],
              [
                604.686087266278,
                724.2948231346093
              ],
              [
                604.6912270062788,
                724.3084855759582
              ],
              [
                604.7087871746353,
                724.3442248785932
              ],
              [
                604.7101234557687,
                724.3473999207823
              ],
              [
                604.7128993583497,
                724.3542104816302
              ],
              [
                604.7133632817788,
                724.3550978400381
              ],
              [
                604.7220088058197,
                724.3756398524116
              ],
              [
                604.7302362580663,
                724.3909513951934
              ],
              [
                604.7377569461252,
                724.4079159605311
              ],
              [
                604.7378179812814,
                724.4080380308436
              ],
              [
                604.744368085098,
                724.419692467572
              ],
              [
                604.7487380421355,
                724.4293401600596
              ],
              [
                604.7547353965857,
                724.4396963753079
              ],
              [
                604.7630129400533,
                724.457197770527
              ],
              [
                604.7632906432905,
                724.4576610903874
              ],
              [
                604.7635622564595,
                724.4582353681833
              ],
              [
                604.7671461417883,
                724.4642147196188
              ],
              [
                604.7681550173492,
                724.4663230023855
              ],
              [
                604.7714307902997,
                724.471720190309
              ],
              [
                604.7766373744302,
                724.4823168817617
              ],
              [
                604.7972614055207,
                724.5156872650512
              ],
              [
                604.7994918262831,
                724.519838146989
              ],
              [
                604.8006195239744,
                724.5219951236903
              ],
              [
                604.8008001402698,
                724.5222729597327
              ],
              [
                604.8116254766999,
                724.54241924523
              ],
              [
                604.8118085821686,
                724.5427244210113
              ],
              [
                604.822208740019,
                724.5581924078904
              ],
              [
                604.8325999645851,
                724.5766812551861
              ],
              [
                604.8412494730352,
                724.5890886457114
              ],
              [
                604.8485315286888,
                724.6016632794814
              ],
              [
                604.8544582302653,
                724.6098861386714
              ],
              [
                604.8644655605511,
                724.6265823605704
              ],
              [
                604.8697364650388,
                724.633689352555
              ],
              [
                604.8710355573919,
                724.6358297467964
              ],
              [
                604.8737209692944,
                724.6394014380019
              ],
              [
                604.8784613989499,
                724.6470716143058
              ],
              [
                604.9022709789133,
                724.6783621773452
              ],
              [
                604.9038123095254,
                724.6807331549832
              ],
              [
                604.9089573764993,
                724.6872122545265
              ],
              [
                604.926741724093,
                724.7136626276061
              ],
              [
                604.9349896294115,
                724.7235553306998
              ],
              [
                604.9432317576391,
                724.7353783498077
              ],
              [
                604.9521126357573,
                724.7458039319193
              ],
              [
                604.9543607648691,
                724.7489890554101
              ],
              [
                604.9564576314481,
                724.7514027483028
              ],
              [
                604.9649667089819,
                724.7632084627454
              ],
              [
                604.9700944658108,
                724.7690064520656
              ],
              [
                604.9813838784307,
                724.7842284628586
              ],
              [
                604.9885809565586,
                724.7921692148947
              ],
              [
                604.9901951408295,
                724.7943161361023
              ],
              [
                604.9919708521222,
                724.7962457998866
              ],
              [
                604.9957441676736,
                724.8012046932525
              ],
              [
                605.0354932794382,
                724.8441014246647
              ],
              [
                605.0586472241614,
                724.8718727304383
              ],
              [
                605.0636962298992,
                724.8767959247778
              ],
              [
                605.068678284921,
                724.8826445382846
              ],
              [
                605.0798784899254,
                724.8934718965724
              ],
              [
                605.0863220680893,
                724.9008890679715
              ],
              [
                605.0887608405062,
                724.9031833243538
              ],
              [
                605.0968893029296,
                724.9123742317805
              ],
              [
                605.100868516721,
                724.9160594459238
              ],
              [
                605.1131912227831,
                724.9296554569044
              ],
              [
                605.1225040987149,
                724.9380961556406
              ],
              [
                605.1244625200567,
                724.9402243702625
              ],
              [
                605.1250385375428,
                724.9407375182933
              ],
              [
                605.1273857953528,
                724.9432706488052
              ],
              [
                605.1701024212748,
                724.9812367605427
              ],
              [
                605.1791214722973,
                724.9894111519043
              ],
              [
                605.1870244007612,
                724.9970509976006
              ],
              [
                605.2061259113495,
                725.0156765357139
              ],
              [
                605.2070403134823,
                725.016400595077
              ],
              [
                605.2077658636579,
                725.0171019922125
              ],
              [
                605.2212564119848,
                725.0278275135291
              ],
              [
                605.2328784432217,
                725.0387608499714
              ],
              [
                605.2356724785383,
                725.0409035715992
              ],
              [
                605.2429914959808,
                725.0476818318306
              ],
              [
                605.2455372416331,
                725.04960689642
              ],
              [
                605.258618216829,
                725.0614628012568
              ],
              [
                605.2691801878387,
                725.0692960928259
              ],
              [
                605.2721517384481,
                725.0719371774161
              ],
              [
                605.3058324952021,
                725.096479296604
              ],
              [
                605.332250608491,
                725.1160723047562
              ],
              [
                605.3591931848479,
                725.1374927222246
              ],
              [
                605.3634437229496,
                725.1402469302919
              ],
              [
                605.367613424007,
                725.1435486626306
              ],
              [
                605.3788016248656,
                725.1506680815836
              ],
              [
                605.3925464686439,
                725.1612088839349
              ],
              [
                605.3956968650795,
                725.1631559360102
              ],
              [
                605.4018249041382,
                725.1677898910889
              ],
              [
                605.4027204410334,
                725.1683362945569
              ],
              [
                605.4162643191171,
                725.1783811191364
              ],
              [
                605.4273523221551,
                725.185027012398
              ],
              [
                605.4286843727576,
                725.1859976362141
              ],
              [
                605.4293313001122,
                725.1863791458492
              ],
              [
                605.4294778297889,
                725.1864859174641
              ],
              [
                605.4314500596303,
                725.1876489919294
              ],
              [
                605.4329061571375,
                725.1887074379854
              ],
              [
                605.4574899091012,
                725.2030907868503
              ],
              [
                605.496696329725,
                725.2265902110245
              ],
              [
                605.5215434883613,
                725.2426903477907
              ],
              [
                605.5316334016937,
                725.2479199509712
              ],
              [
                605.5413968036265,
                725.2541327236632
              ],
              [
                605.5481153924023,
                725.2574922025032
              ],
              [
                605.5537880336584,
                725.2610275958638
              ],
              [
                605.5551430306357,
                725.2616990856998
              ],
              [
                605.5637100085781,
                725.2669937692491
              ],
              [
                605.5658136829582,
                725.2680175582695
              ],
              [
                605.5846113115042,
                725.279284423228
              ],
              [
                605.59585067122,
                725.2846002444771
              ],
              [
                605.5963091823335,
                725.2848706402276
              ],
              [
                605.6002422270564,
                725.28670282969
              ],
              [
                605.6007880794754,
                725.2870229675513
              ],
              [
                605.6015440708417,
                725.2873733352108
              ],
              [
                605.6040506498499,
                725.2888398729625
              ],
              [
                605.6296519371737,
                725.3005870526537
              ],
              [
                605.6707696244902,
                725.3200342704205
              ],
              [
                605.6932978182043,
                725.3317106356794
              ],
              [
                605.7075007477074,
                725.3374067978812
              ],
              [
                605.7155391969767,
                725.3412087012383
              ],
              [
                605.7256326648367,
                725.3462557122741
              ],
              [
                605.7262054009302,
                725.3464717050516
              ],
              [
                605.7279683037599,
                725.3473453389798
              ],
              [
                605.7307348633436,
                725.3483957161761
              ],
              [
                605.7392336179407,
                725.3524153277394
              ],
              [
                605.744636571375,
                725.3550447671892
              ],
              [
                605.7453392600142,
                725.3553030813745
              ],
              [
                605.7620379204261,
                725.3632009595539
              ],
              [
                605.7805290966319,
                725.3698172081941
              ],
              [
                605.784269208003,
                725.3715333625338
              ],
              [
                605.8109672771112,
                725.3807081633161
              ],
              [
                605.8527143773144,
                725.3956455146171
              ],
              [
                605.8728492339335,
                725.4037207084837
              ],
              [
                605.8862037445319,
                725.4076282018107
              ],
              [
                605.8956146825026,
                725.4109954892594
              ],
              [
                605.9097057669195,
                725.4163454386438
              ],
              [
                605.9132982978889,
                725.4173227880183
              ],
              [
                605.9468354306473,
                725.4293225659957
              ],
              [
                605.9674794221579,
                725.4344936166754
              ],
              [
                605.9717904209508,
                725.4359750929176
              ],
              [
                605.9996444844303,
                725.4425505453484
              ],
              [
                606.0407245176193,
                725.4528405579864
              ],
              [
                606.0585178452551,
                725.4580468370552
              ],
              [
                606.0709319776046,
                725.4604071328132
              ],
              [
                606.0802089955365,
                725.4627309048346
              ],
              [
                606.0972834802955,
                725.4673760247067
              ],
              [
                606.1018576915342,
                725.4681536208872
              ],
              [
                606.137224141124,
                725.4770124553377
              ],
              [
                606.1598357186043,
                725.480366566013
              ],
              [
                606.1647710985337,
                725.4815316511712
              ],
              [
                606.1938075967197,
                725.4854058181019
              ],
              [
                606.232961193872,
                725.4912137056011
              ],
              [
                606.2485665291462,
                725.494180743942
              ],
              [
                606.2600167365073,
                725.4952270162363
              ],
              [
                606.2686521241393,
                725.4965079549885
              ],
              [
                606.2889293259846,
                725.4999549918397
              ],
              [
                606.2946283381954,
                725.500361162353
              ],
              [
                606.3313705044972,
                725.5058113478757
              ],
              [
                606.3557005994152,
                725.5070062367656
              ],
              [
                606.3613143882287,
                725.5077552511557
              ],
              [
                606.3915743073859,
                725.5087680504881
              ],
              [
                606.4275349573606,
                725.5105341340679
              ],
              [
                606.4412171824482,
                725.5117843588528
              ],
              [
                606.4517785622565,
                725.5117247752981
              ],
              [
                606.459155491257,
                725.5120870677814
              ],
              [
                606.4828327528918,
                725.5137745541662
              ],
              [
                606.4898092896544,
                725.5135925236074
              ],
              [
                606.5274658203125,
                725.5154418945312
              ],
              [
                606.553199924884,
                725.514177659042
              ],
              [
                606.5594884197593,
                725.5143881349319
              ],
              [
                606.589757984999,
                725.5123957785087
              ],
              [
                606.6239264100798,
                725.5107535782689
              ],
              [
                606.6346673578719,
                725.5106929816554
              ],
              [
                606.6429965111006,
                725.5098370325284
              ],
              [
                606.6539861150551,
                725.5093088510214
              ],
              [
                606.6771618816956,
                725.508704153032
              ],
              [
                606.6838713458884,
                725.5078725093367
              ],
              [
                606.719575331441,
                725.5061565071067
              ],
              [
                606.7211622861644,
                725.5059261973526
              ],
              [
                606.7235001009716,
                725.5058113478757
              ],
              [
                606.750386379427,
                725.5018231452098
              ],
              [
                606.7573452939034,
                725.5013651063233
              ],
              [
                606.7890978944661,
                725.4960808343973
              ],
              [
                606.7934350475514,
                725.4954374785112
              ],
              [
                606.8184655835802,
                725.4918048754419
              ],
              [
                606.8271071277666,
                725.4909168233194
              ],
              [
                606.8335611274462,
                725.4896141065777
              ],
              [
                606.847528376834,
                725.4875870835472
              ],
              [
                606.8700808113065,
                725.4847916904423
              ],
              [
                606.8761200264531,
                725.4834376672484
              ],
              [
                606.9096708681789,
                725.4785685389766
              ],
              [
                606.9135325590795,
                725.4776226955379
              ],
              [
                606.9176464643448,
                725.4770124553377
              ],
              [
                606.9452993532078,
                725.4700857672659
              ],
              [
                606.952940228854,
                725.4688141717445
              ],
              [
                606.9851849635896,
                725.460094941966
              ],
              [
                606.9891547254001,
                725.4591005683974
              ],
              [
                607.0098697080955,
                725.4540268504405
              ],
              [
                607.0167360178764,
                725.4526409103803
              ],
              [
                607.0216699045186,
                725.4511366298999
              ],
              [
                607.0376892497719,
                725.4472130137973
              ],
              [
                607.0597669633224,
                725.4422630765139
              ],
              [
                607.0652132107905,
                725.4404715736853
              ],
              [
                607.0962430629555,
                725.432871436121
              ],
              [
                607.1012114320821,
                725.4311346998633
              ],
              [
                607.1014413257399,
                725.4310779057485
              ],
              [
                607.1024555923184,
                725.430720178656
              ],
              [
                607.1080351748215,
                725.4293225659957
              ],
              [
                607.1360368559209,
                725.4193034042919
              ],
              [
                607.1443506759366,
                725.4170552819969
              ],
              [
                607.1768744862136,
                725.4046914665282
              ],
              [
                607.1775340496948,
                725.4044554709411
              ],
              [
                607.1963353407824,
                725.3978833175657
              ],
              [
                607.2017798526506,
                725.3962233538247
              ],
              [
                607.2055415498911,
                725.3946652078101
              ],
              [
                607.2226934343134,
                725.3886696187533
              ],
              [
                607.2444283006193,
                725.3815200952154
              ],
              [
                607.2493487848113,
                725.3793520112055
              ],
              [
                607.277570908123,
                725.3694867247144
              ],
              [
                607.2824326877826,
                725.3672430963733
              ],
              [
                607.2840945401805,
                725.3666569687823
              ],
              [
                607.2871439016574,
                725.3652364387964
              ],
              [
                607.2928326850426,
                725.3632009595539
              ],
              [
                607.2933577739661,
                725.3629526109888
              ],
              [
                607.2936871772301,
                725.3628347486164
              ],
              [
                607.3211519220998,
                725.3498448917143
              ],
              [
                607.3296952167935,
                725.3465971873958
              ],
              [
                607.3607320753763,
                725.3311248733901
              ],
              [
                607.3620914499381,
                725.3304819371051
              ],
              [
                607.3760925051997,
                725.3240206890456
              ],
              [
                607.3805073545009,
                725.3221919985892
              ],
              [
                607.3834376863754,
                725.3206310132869
              ],
              [
                607.4007831651048,
                725.3126263708733
              ],
              [
                607.4223202574061,
                725.3031366085623
              ],
              [
                607.4224423277186,
                725.3030755734061
              ],
              [
                607.4267947171371,
                725.3006224835268
              ],
              [
                607.4519817717616,
                725.2889990876631
              ],
              [
                607.4566567100975,
                725.2862697340611
              ],
              [
                607.4596600559478,
                725.2848706402276
              ],
              [
                607.4642439299635,
                725.2821674122831
              ],
              [
                607.471113786152,
                725.2789182122905
              ],
              [
                607.4990744196259,
                725.2621592535351
              ],
              [
                607.5071520562876,
                725.2581324371445
              ],
              [
                607.5344357468739,
                725.2409644896384
              ],
              [
                607.5411385390286,
                725.2369469906296
              ],
              [
                607.5474577936216,
                725.2332576413705
              ],
              [
                607.5512463417049,
                725.2312394850221
              ],
              [
                607.5536591500871,
                725.2296371241806
              ],
              [
                607.5792862364916,
                725.2146753480966
              ],
              [
                607.5951800193817,
                725.2057173082244
              ],
              [
                607.5978856935571,
                725.2038164893288
              ],
              [
                607.6178668266252,
                725.1921509712847
              ],
              [
                607.6222849066661,
                725.1889665993604
              ],
              [
                607.6264914084924,
                725.1864859174641
              ],
              [
                607.631885928823,
                725.1825550983949
              ],
              [
                607.6394607785392,
                725.1780149081989
              ],
              [
                607.6673599852561,
                725.1573234462967
              ],
              [
                607.6749769293561,
                725.152530572105
              ],
              [
                607.6989099212445,
                725.1339244190361
              ],
              [
                607.7078133971721,
                725.1273211512507
              ],
              [
                607.7088514306399,
                725.1265729790581
              ],
              [
                607.7123993734059,
                725.1242167685119
              ],
              [
                607.714563871024,
                725.1224556849822
              ],
              [
                607.7479830396713,
                725.098368511053
              ],
              [
                607.757428296117,
                725.0917329293969
              ],
              [
                607.7586445157398,
                725.0906841538772
              ],
              [
                607.7736958905322,
                725.0798357367211
              ],
              [
                607.7777980916803,
                725.0762334465992
              ],
              [
                607.7830240428019,
                725.0724254586661
              ],
              [
                607.7890341479014,
                725.0670837371036
              ],
              [
                607.7971068808273,
                725.0610965903193
              ],
              [
                607.824357338859,
                725.0363982148277
              ],
              [
                607.831520245802,
                725.0308295778758
              ],
              [
                607.8524510201786,
                725.0109355862965
              ],
              [
                607.8596547047187,
                725.004406547207
              ],
              [
                607.8624586953335,
                725.0021251579146
              ],
              [
                607.8645846758524,
                725.0000230308772
              ],
              [
                607.9180315413032,
                724.9530894192609
              ],
              [
                607.921769835186,
                724.9491095800573
              ],
              [
                607.9277899858972,
                724.9437589300552
              ],
              [
                607.9341924509063,
                724.9368494719648
              ],
              [
                607.9425338748731,
                724.9292892459669
              ],
              [
                607.9685332139342,
                724.9006033958316
              ],
              [
                607.9752433045054,
                724.8942256821875
              ],
              [
                607.9934536534349,
                724.873107927922
              ],
              [
                607.997888101775,
                724.8682152681425
              ],
              [
                608.0000203464144,
                724.8661069472679
              ],
              [
                608.0022467484838,
                724.8634327487088
              ],
              [
                608.0495423760507,
                724.8130811715853
              ],
              [
                608.0528789865899,
                724.8087644854722
              ],
              [
                608.0594316135764,
                724.8016929745025
              ],
              [
                608.0659783200541,
                724.7930892892609
              ],
              [
                608.0743412192255,
                724.783862251921
              ],
              [
                608.098487731281,
                724.751304449359
              ],
              [
                608.1047334176782,
                724.7440615968983
              ],
              [
                608.1204294105538,
                724.7217195196599
              ],
              [
                608.1220564635619,
                724.7195256926396
              ],
              [
                608.1237972942876,
                724.7174347284413
              ],
              [
                608.1259119879576,
                724.7143271197874
              ],
              [
                608.1259907657386,
                724.7142209002458
              ],
              [
                608.1281210978199,
                724.7114212166567
              ],
              [
                608.1670152925079,
                724.661102479091
              ],
              [
                608.1699212836162,
                724.65648738957
              ],
              [
                608.1767143823001,
                724.6475598955558
              ],
              [
                608.1831361053435,
                724.6371693294054
              ],
              [
                608.1912595371051,
                724.6262161496329
              ],
              [
                608.2129681632334,
                724.5899974950462
              ],
              [
                608.2187177965056,
                724.581813320163
              ],
              [
                608.2314090887064,
                724.5592958223943
              ],
              [
                608.2326314768321,
                724.5574994847159
              ],
              [
                608.2345720302357,
                724.553953620502
              ],
              [
                608.2347579882372,
                724.5536433683201
              ],
              [
                608.2389394936043,
                724.546877550512
              ],
              [
                608.2693666791114,
                724.4985552467753
              ],
              [
                608.271819964524,
                724.4936758309979
              ],
              [
                608.2785384068198,
                724.4828051630117
              ],
              [
                608.2845490808636,
                724.470571948937
              ],
              [
                608.2921628411967,
                724.4578691572458
              ],
              [
                608.3108809415445,
                724.4182930591896
              ],
              [
                608.3160760616873,
                724.4090756284999
              ],
              [
                608.3161370968436,
                724.4089535581874
              ],
              [
                608.3161481203528,
                724.4089285523639
              ],
              [
                608.3171746944998,
                724.4094418394374
              ],
              [
                608.3395822951957,
                724.3589012207154
              ],
              [
                608.355652410616,
                724.3269388675687
              ],
              [
                608.3576353078107,
                724.3218233304561
              ],
              [
                608.3639487749712,
                724.3089738572082
              ],
              [
                608.3670934423834,
                724.3006147117893
              ],
              [
                608.3672786167011,
                724.3002338865566
              ],
              [
                608.3693181694149,
                724.2947379217902
              ],
              [
                608.3760793775226,
                724.2804425483239
              ],
              [
                608.3832385501915,
                724.2604340011084
              ],
              [
                608.3923712641184,
                724.2398350526202
              ],
              [
                608.4118030613282,
                724.1820797501176
              ],
              [
                608.4250765570386,
                724.1478363914086
              ],
              [
                608.4264550972745,
                724.1428197400191
              ],
              [
                608.432144502901,
                724.1276961791636
              ],
              [
                608.4343552045507,
                724.1194831950016
              ],
              [
                608.434911809705,
                724.1179833159857
              ],
              [
                608.4368919433786,
                724.1104828125417
              ],
              [
                608.4422009839644,
                724.0956450381027
              ],
              [
                608.4460383415102,
                724.0803254480419
              ],
              [
                608.4514902705915,
                724.064121192207
              ],
              [
                608.460664874785,
                724.0252569451767
              ],
              [
                608.4616664696274,
                724.0221204303405
              ],
              [
                608.4636857543551,
                724.0124602939661
              ],
              [
                608.467415582838,
                723.9966604869679
              ],
              [
                608.4824860467445,
                723.9406721624478
              ],
              [
                608.4838145591325,
                723.9327457002664
              ],
              [
                608.484532132056,
                723.93002762206
              ],
              [
                608.4860887755103,
                723.9204351528757
              ],
              [
                608.4898908733064,
                723.905256327626
              ],
              [
                608.4914086838482,
                723.895024080098
              ],
              [
                608.4940847628393,
                723.8836880275787
              ],
              [
                608.5007094257618,
                723.8363684350517
              ],
              [
                608.500950979373,
                723.8352376539444
              ],
              [
                608.5012156841904,
                723.8329193726873
              ],
              [
                608.5038109747145,
                723.8205036593158
              ],
              [
                608.5057179197835,
                723.802061062761
              ],
              [
                608.5145013003088,
                723.7496557301591
              ],
              [
                608.5150220888814,
                723.742140042255
              ],
              [
                608.5156708017222,
                723.7381424936088
              ],
              [
                608.5162064655528,
                723.7297366793399
              ],
              [
                608.516279415549,
                723.7292871412085
              ],
              [
                608.5164415798183,
                723.7262660033462
              ],
              [
                608.5186897658444,
                723.7111099642528
              ],
              [
                608.5189299986188,
                723.7062199137915
              ],
              [
                608.5197887432394,
                723.7000859495424
              ],
              [
                608.521121156305,
                723.6713689208325
              ],
              [
                608.5211765315804,
                723.6709365017192
              ],
              [
                608.5212461659032,
                723.668711465983
              ],
              [
                608.5220292524397,
                723.6624578824192
              ],
              [
                608.5224154078394,
                723.6472524759838
              ],
              [
                608.5228971634599,
                723.6430332666905
              ],
              [
                608.5230412177152,
                723.6345226265697
              ],
              [
                608.5249955731069,
                723.615621511586
              ],
              [
                608.5249955731069,
                723.5982090908456
              ],
              [
                608.5278900225138,
                723.5564382465226
              ],
              [
                608.5276960900424,
                723.5494376859388
              ],
              [
                608.5280336398641,
                723.5441407423219
              ],
              [
                608.5276096351998,
                723.5315250244291
              ],
              [
                608.5276170644624,
                723.5313649041528
              ],
              [
                608.5277669545493,
                723.5287681723499
              ],
              [
                608.5277530618889,
                723.5284337996025
              ],
              [
                608.5283813476562,
                723.514892578125
              ],
              [
                608.5269638818621,
                723.486012448782
              ],
              [
                608.5271851098844,
                723.4789435173162
              ],
              [
                608.5268373881963,
                723.473584526277
              ],
              [
                608.5268524248576,
                723.4730417339462
              ],
              [
                608.5268430771363,
                723.4729068336056
              ],
              [
                608.527063260884,
                723.4642367920195
              ],
              [
                608.5261358742483,
                723.4516921506316
              ],
              [
                608.52617115611,
                723.4496077191334
              ],
              [
                608.5249955731069,
                723.4349147121939
              ],
              [
                608.5249955731069,
                723.4096470431015
              ]
            ]
          ]
        ]
      }
    }
  ]
}