{
  "type": "FeatureCollection",
  "features": [
    {
      "type": "Feature",
      "properties": {
        "image_id": "0002_top_20250705_t1",
        "zone_type": "parking_spot",
        "generated_at": "2025-11-03T11:20:39",
        "source": "merged_t1_polygons"
      },
      "geometry": {
        "type": "MultiPolygon",
        "coordinates": [
          [
            [
              [
                1285.585155079719,
                1123.5282532167425
              ],
              [
                1285.581192366947,
                1123.527179757275
              ],
              [
                1285.5572539248215,
                1123.5186144457232
              ],
              [
                1285.5287768750802,
                1123.5114813160983
              ],
              [
                1285.5246695399867,
                1123.5100698289575
              ],
              [
                1285.521678341205,
                1123.5093637027107
              ],
              [
                1285.5045712052759,
                1123.5037631224502
              ],
              [
                1285.4659859459443,
                1123.4952071738774
              ],
              [
                1285.4543095313227,
                1123.4915997653343
              ],
              [
                1285.4538212500727,
                1123.4914776950218
              ],
              [
                1285.4371910630869,
                1123.4881712366334
              ],
              [
                1285.4024096920605,
                1123.4787493092392
              ],
              [
                1285.3887546903193,
                1123.476407584678
              ],
              [
                1285.3668652143447,
                1123.470924556381
              ],
              [
                1285.3452912755545,
                1123.4677243648655
              ],
              [
                1285.3316888624038,
                1123.464513270704
              ],
              [
                1285.3224880016628,
                1123.4632856546812
              ],
              [
                1285.319353303798,
                1123.462573322583
              ],
              [
                1285.318079558223,
                1123.462410207656
              ],
              [
                1285.3129547988844,
                1123.4612738364585
              ],
              [
                1285.2848701598634,
                1123.4578863860409
              ],
              [
                1285.2627761864749,
                1123.4534936029827
              ],
              [
                1285.2446709954743,
                1123.4516983731023
              ],
              [
                1285.2158020742663,
                1123.4467475819467
              ],
              [
                1285.1945050834695,
                1123.4451443353767
              ],
              [
                1285.1703401143543,
                1123.4414949877216
              ],
              [
                1285.1524730525202,
                1123.4406015731
              ],
              [
                1285.135145572709,
                1123.4382896707193
              ],
              [
                1285.1236574041093,
                1123.4379051617777
              ],
              [
                1285.1208718959185,
                1123.4375563547394
              ],
              [
                1285.0947477362697,
                1123.4368326522892
              ],
              [
                1285.0689422104351,
                1123.434273891597
              ],
              [
                1285.0497483659406,
                1123.434246987808
              ],
              [
                1285.0270045344623,
                1123.432534822453
              ],
              [
                1285.0012329187925,
                1123.4330390455784
              ],
              [
                1284.9708251953125,
                1123.4315185546875
              ],
              [
                1284.970703125,
                1123.4315185546875
              ],
              [
                1284.9702916918359,
                1123.431540639002
              ],
              [
                1284.9698486328125,
                1123.4315185546875
              ],
              [
                1284.9548470068069,
                1123.432255078682
              ],
              [
                1284.9369715411783,
                1123.431656786943
              ],
              [
                1284.9283631347942,
                1123.43222339613
              ],
              [
                1284.9272653667588,
                1123.4321929852986
              ],
              [
                1284.900639529041,
                1123.4340379836806
              ],
              [
                1284.8741578860415,
                1123.4340008646689
              ],
              [
                1284.8542985216384,
                1123.4359138254113
              ],
              [
                1284.8377090060412,
                1123.436238400227
              ],
              [
                1284.8145363460196,
                1123.4388977808494
              ],
              [
                1284.7857538942076,
                1123.440233229417
              ],
              [
                1284.7821930094453,
                1123.4407317472612
              ],
              [
                1284.7736922818408,
                1123.4411491013432
              ],
              [
                1284.7731869202555,
                1123.441224064653
              ],
              [
                1284.7722274380908,
                1123.4412711716557
              ],
              [
                1284.7712236312645,
                1123.4414200723324
              ],
              [
                1284.7702204905925,
                1123.44146986048
              ],
              [
                1284.7618019487259,
                1123.4427316499432
              ],
              [
                1284.7566137376978,
                1123.4430101352323
              ],
              [
                1284.751244687464,
                1123.4438814121415
              ],
              [
                1284.739114667034,
                1123.4446798155518
              ],
              [
                1284.7058862467711,
                1123.4502096935848
              ],
              [
                1284.680270791676,
                1123.452677111927
              ],
              [
                1284.6601900065561,
                1123.4566111406418
              ],
              [
                1284.6496118851855,
                1123.457825125181
              ],
              [
                1284.629244059794,
                1123.4621443415308
              ],
              [
                1284.6021518161713,
                1123.465937209817
              ],
              [
                1284.5957425557335,
                1123.4674502309658
              ],
              [
                1284.5780810747178,
                1123.4700700641936
              ],
              [
                1284.576112260867,
                1123.4705632263904
              ],
              [
                1284.5741258563012,
                1123.47086095305
              ],
              [
                1284.5594128134605,
                1123.4745858214553
              ],
              [
                1284.5435197320835,
                1123.4772307501305
              ],
              [
                1284.5134882750372,
                1123.4853514922213
              ],
              [
                1284.4891199952676,
                1123.4901254844617
              ],
              [
                1284.4692662857155,
                1123.4960693484525
              ],
              [
                1284.4643988283935,
                1123.4971015451079
              ],
              [
                1284.4468709014743,
                1123.5025940612938
              ],
              [
                1284.421718651543,
                1123.5085317020646
              ],
              [
                1284.4135162130028,
                1123.5112914161589
              ],
              [
                1284.387692364241,
                1123.5177599535357
              ],
              [
                1284.384825784778,
                1123.518785632068
              ],
              [
                1284.3819052762133,
                1123.5195250107404
              ],
              [
                1284.3665026057868,
                1123.5250975727783
              ],
              [
                1284.352109285001,
                1123.528989639878
              ],
              [
                1284.3392642019764,
                1123.533872654348
              ],
              [
                1284.3382475929664,
                1123.5341519585866
              ],
              [
                1284.3378813820289,
                1123.534274028899
              ],
              [
                1284.325250836991,
                1123.5391851318052
              ],
              [
                1284.3025186102695,
                1123.545990775027
              ],
              [
                1284.266096530642,
                1123.5608908338443
              ],
              [
                1284.2460047911297,
                1123.5676507085377
              ],
              [
                1284.2365807133995,
                1123.571828566764
              ],
              [
                1284.2028948540199,
                1123.5838815599775
              ],
              [
                1284.1992250820142,
                1123.5856172328718
              ],
              [
                1284.195448131674,
                1123.5869837030682
              ],
              [
                1284.1821937430786,
                1123.5933263194092
              ],
              [
                1284.1747297560732,
                1123.5961342328412
              ],
              [
                1284.172161005495,
                1123.5973963641447
              ],
              [
                1284.166764744144,
                1123.599447734479
              ],
              [
                1284.1435132510048,
                1123.6110389334399
              ],
              [
                1284.1222365978222,
                1123.6197430872692
              ],
              [
                1284.0894311022644,
                1123.6370625589882
              ],
              [
                1284.076520074625,
                1123.6427862430003
              ],
              [
                1284.076031793375,
                1123.6430303836253
              ],
              [
                1284.0664200768945,
                1123.6484293223555
              ],
              [
                1284.025468245098,
                1123.6677980963034
              ],
              [
                1284.0211156323824,
                1123.6704069519665
              ],
              [
                1284.0165871538645,
                1123.6725739626618
              ],
              [
                1284.0056689825196,
                1123.6792006450876
              ],
              [
                1284.0008984502697,
                1123.6815446009928
              ],
              [
                1283.9959634322165,
                1123.6845946098847
              ],
              [
                1283.9893079046499,
                1123.6879124847305
              ],
              [
                1283.969469288755,
                1123.7003957048873
              ],
              [
                1283.9499839782256,
                1123.7106828619294
              ],
              [
                1283.9178582669992,
                1123.73187707187
              ],
              [
                1283.9082197624434,
                1123.7372910575668
              ],
              [
                1283.9001180669045,
                1123.7429301017455
              ],
              [
                1283.8571212527108,
                1123.768701400395
              ],
              [
                1283.8522299551908,
                1123.7723290338727
              ],
              [
                1283.8470804094536,
                1123.7754545027044
              ],
              [
                1283.8384507326377,
                1123.781942811884
              ],
              [
                1283.8361437177255,
                1123.7833686255124
              ],
              [
                1283.8291521185313,
                1123.7886886652916
              ],
              [
                1283.8214830315815,
                1123.79351434977
              ],
              [
                1283.804965564572,
                1123.8063554738935
              ],
              [
                1283.787394610966,
                1123.8179475123377
              ],
              [
                1283.7571090463823,
                1123.842469041562
              ],
              [
                1283.750245647419,
                1123.8472461909605
              ],
              [
                1283.7435873986203,
                1123.8529038453016
              ],
              [
                1283.6994751504228,
                1123.8856197182745
              ],
              [
                1283.6942107584093,
                1123.8903910850727
              ],
              [
                1283.6885940201478,
                1123.894614086142
              ],
              [
                1283.6821414477624,
                1123.9005518592119
              ],
              [
                1283.6820106387788,
                1123.900651394236
              ],
              [
                1283.6787574596979,
                1123.903665865843
              ],
              [
                1283.6732763104435,
                1123.9087097178901
              ],
              [
                1283.6660204514894,
                1123.914337205687
              ],
              [
                1283.6657936905801,
                1123.9145514404672
              ],
              [
                1283.6649397151355,
                1123.915215343999
              ],
              [
                1283.6515785985453,
                1123.9279146324322
              ],
              [
                1283.6360106971467,
                1123.9405196062655
              ],
              [
                1283.608044462753,
                1123.9680775347674
              ],
              [
                1283.6035725236873,
                1123.9718774356472
              ],
              [
                1283.598246086413,
                1123.9773683938622
              ],
              [
                1283.554048156377,
                1124.017427062627
              ],
              [
                1283.5485949622148,
                1124.0234437352094
              ],
              [
                1283.5426857859875,
                1124.028881465369
              ],
              [
                1283.5315611495762,
                1124.0413690609832
              ],
              [
                1283.5245778926308,
                1124.047966567241
              ],
              [
                1283.521252672819,
                1124.0517850073325
              ],
              [
                1283.5212166564322,
                1124.0518192396873
              ],
              [
                1283.5205876657278,
                1124.0525486530107
              ],
              [
                1283.51009945788,
                1124.0645925465278
              ],
              [
                1283.4972681513232,
                1124.0772365165274
              ],
              [
                1283.4720505756316,
                1124.1074617829208
              ],
              [
                1283.4695588026377,
                1124.110030520838
              ],
              [
                1283.4654173888405,
                1124.1152160452223
              ],
              [
                1283.4222408120245,
                1124.1628540566728
              ],
              [
                1283.4218103095814,
                1124.1634345220216
              ],
              [
                1283.420898038587,
                1124.1644409707353
              ],
              [
                1283.4158085845147,
                1124.1713033051565
              ],
              [
                1283.4107898733653,
                1124.176936894698
              ],
              [
                1283.4033325702446,
                1124.1871958591712
              ],
              [
                1283.3967904137799,
                1124.1947083948662
              ],
              [
                1283.382338642977,
                1124.214988656096
              ],
              [
                1283.3724829814905,
                1124.2268014487909
              ],
              [
                1283.3503799146667,
                1124.2592561379586
              ],
              [
                1283.349445650752,
                1124.2604259433797
              ],
              [
                1283.3475225732097,
                1124.263376332876
              ],
              [
                1283.3039797207075,
                1124.3220870730233
              ],
              [
                1283.2978716395546,
                1124.3322777907665
              ],
              [
                1283.2942027182646,
                1124.33732510245
              ],
              [
                1283.2898046696769,
                1124.3448421651744
              ],
              [
                1283.2838676129948,
                1124.3531736743084
              ],
              [
                1283.2700451668618,
                1124.377214396428
              ],
              [
                1283.2628388064174,
                1124.3877957419993
              ],
              [
                1283.2445318152895,
                1124.4212699111963
              ],
              [
                1283.2030764166159,
                1124.4904340654105
              ],
              [
                1283.196554207003,
                1124.5042241190156
              ],
              [
                1283.1940702832876,
                1124.5084695951623
              ],
              [
                1283.1920609905753,
                1124.512848559424
              ],
              [
                1283.1868783837356,
                1124.521862420624
              ],
              [
                1283.1743147660738,
                1124.5496611563506
              ],
              [
                1283.1693756287232,
                1124.558692324728
              ],
              [
                1283.156409617695,
                1124.5891027217237
              ],
              [
                1283.11915988029,
                1124.6678606743324
              ],
              [
                1283.1128794027122,
                1124.6854134332843
              ],
              [
                1283.111376793716,
                1124.6886881533155
              ],
              [
                1283.111044163909,
                1124.6896560842595
              ],
              [
                1283.1067407970406,
                1124.6991778765905
              ],
              [
                1283.096071813555,
                1124.7306186107494
              ],
              [
                1283.0929799701908,
                1124.7378701998425
              ],
              [
                1283.0846338685478,
                1124.7643254197233
              ],
              [
                1283.0844432691736,
                1124.7648871024985
              ],
              [
                1283.0530382738482,
                1124.8526581845535
              ],
              [
                1283.048468079424,
                1124.8709034234296
              ],
              [
                1283.0442134113382,
                1124.8834416271304
              ],
              [
                1283.0360598703628,
                1124.9182938060915
              ],
              [
                1283.034376462885,
                1124.9236298200633
              ],
              [
                1283.0303315824622,
                1124.9427792800295
              ],
              [
                1283.0284570771764,
                1124.9507918225404
              ],
              [
                1283.005348384506,
                1125.0430468950303
              ],
              [
                1283.0027043863515,
                1125.0608712827486
              ],
              [
                1282.999888092162,
                1125.0729094866892
              ],
              [
                1282.994834520635,
                1125.110831111805
              ],
              [
                1282.9941209758342,
                1125.114209208601
              ],
              [
                1282.9927942555619,
                1125.1261411092642
              ],
              [
                1282.990776022789,
                1125.1412857779803
              ],
              [
                1282.9765494919682,
                1125.2371932584033
              ],
              [
                1282.9757054415452,
                1125.2543742994633
              ],
              [
                1282.9741844097268,
                1125.265788009172
              ],
              [
                1282.9727585637042,
                1125.3063327366606
              ],
              [
                1282.9725953424738,
                1125.30780067195
              ],
              [
                1282.972527416265,
                1125.3129055431077
              ],
              [
                1282.971765178882,
                1125.3345801885398
              ],
              [
                1282.9669189453125,
                1125.4332275390625
              ],
              [
                1282.9677215110573,
                1125.4495641400981
              ],
              [
                1282.9673456674036,
                1125.4602514641688
              ],
              [
                1282.9716170163301,
                1125.5288589715583
              ],
              [
                1282.9765494919682,
                1125.6292618197217
              ],
              [
                1282.9788214150851,
                1125.6445778812829
              ],
              [
                1282.9794365986816,
                1125.6544591187724
              ],
              [
                1282.9903497027346,
                1125.722295283789
              ],
              [
                1283.005348384506,
                1125.8234081830947
              ],
              [
                1283.0088921611953,
                1125.8375557326779
              ],
              [
                1283.0103427544213,
                1125.846572661406
              ],
              [
                1283.0179913230352,
                1125.875694689203
              ],
              [
                1283.0181620490891,
                1125.876663176935
              ],
              [
                1283.0195386595497,
                1125.8815861937783
              ],
              [
                1283.0278070495515,
                1125.9130681998404
              ],
              [
                1283.0530382738482,
                1126.0137968935715
              ],
              [
                1283.057640293233,
                1126.026658676127
              ],
              [
                1283.0597715861961,
                1126.03477360273
              ],
              [
                1283.0704480272775,
                1126.0636476280072
              ],
              [
                1283.0710171929613,
                1126.0656830710961
              ],
              [
                1283.0747581862377,
                1126.0753042875451
              ],
              [
                1283.083660181398,
                1126.0993793919097
              ],
              [
                1283.11915988029,
                1126.1985944037926
              ],
              [
                1283.1245949333309,
                1126.2100858579513
              ],
              [
                1283.1272552154664,
                1126.217280488919
              ],
              [
                1283.1409186460535,
                1126.2454580561396
              ],
              [
                1283.1421450143603,
                1126.2486120727483
              ],
              [
                1283.1491822538198,
                1126.262499776507
              ],
              [
                1283.1574110339907,
                1126.279469673264
              ],
              [
                1283.2030764166159,
                1126.3760210127145
              ],
              [
                1283.2091124795718,
                1126.386091575355
              ],
              [
                1283.2121548623802,
                1126.39236576437
              ],
              [
                1283.2286936304097,
                1126.419412220638
              ],
              [
                1283.230860513483,
                1126.4236884756067
              ],
              [
                1283.242046848322,
                1126.4412492295169
              ],
              [
                1283.248397856595,
                1126.4516352671717
              ],
              [
                1283.3039797207075,
                1126.5443680051017
              ],
              [
                1283.3103829075471,
                1126.553001703104
              ],
              [
                1283.3136668922702,
                1126.5583721242283
              ],
              [
                1283.3329026502777,
                1126.5838782856326
              ],
              [
                1283.3363093115765,
                1126.589226198205
              ],
              [
                1283.3523913272404,
                1126.6097198116058
              ],
              [
                1283.3558030402949,
                1126.6142436626442
              ],
              [
                1283.420898038587,
                1126.7020141073897
              ],
              [
                1283.4274376105773,
                1126.7092294131949
              ],
              [
                1283.430830422621,
                1126.713728201939
              ],
              [
                1283.4497944884379,
                1126.7343523392617
              ],
              [
                1283.4500503063073,
                1126.7346849018738
              ],
              [
                1283.4519804406657,
                1126.7367296448122
              ],
              [
                1283.4525241951683,
                1126.7373209983562
              ],
              [
                1283.4574758790711,
                1126.7436310217827
              ],
              [
                1283.4789603070697,
                1126.7660759486655
              ],
              [
                1283.5218933365747,
                1126.8134452470676
              ],
              [
                1283.523643314535,
                1126.815463810218
              ],
              [
                1283.5242124947756,
                1126.8160040438293
              ],
              [
                1283.5527053829394,
                1126.8474411014356
              ],
              [
                1283.5584698615614,
                1126.8526657203154
              ],
              [
                1283.5588552009901,
                1126.8530879634789
              ],
              [
                1283.5595407894475,
                1126.853705583682
              ],
              [
                1283.562536418494,
                1126.856963443332
              ],
              [
                1283.5650360933037,
                1126.85920034194
              ],
              [
                1283.5650758719526,
                1126.8592435331777
              ],
              [
                1283.571041614177,
                1126.8645745375075
              ],
              [
                1283.5814611347605,
                1126.8738987147963
              ],
              [
                1283.5884814237097,
                1126.8813358583247
              ],
              [
                1283.5931789432618,
                1126.8854009285149
              ],
              [
                1283.5931933156849,
                1126.8854159434823
              ],
              [
                1283.593540363555,
                1126.8857136890779
              ],
              [
                1283.6243324457942,
                1126.9123600870792
              ],
              [
                1283.6553600794002,
                1126.9404818949592
              ],
              [
                1283.6646400743195,
                1126.949289939952
              ],
              [
                1283.667664094763,
                1126.9516469741718
              ],
              [
                1283.675078150253,
                1126.9586216898151
              ],
              [
                1283.6768223537279,
                1126.9599593044425
              ],
              [
                1283.689703339583,
                1126.9718489506783
              ],
              [
                1283.6912788888158,
                1126.9730368061878
              ],
              [
                1283.6981323769853,
                1126.979248445788
              ],
              [
                1283.7024728168462,
                1126.982467535382
              ],
              [
                1283.7040819674983,
                1126.9839171571518
              ],
              [
                1283.7059132959746,
                1126.9852679477483
              ],
              [
                1283.7075381903212,
                1126.98672202645
              ],
              [
                1283.7086212876518,
                1126.9875161275697
              ],
              [
                1283.710028907348,
                1126.9887739805597
              ],
              [
                1283.7269682312774,
                1127.001177529431
              ],
              [
                1283.7409773390073,
                1127.0133005244697
              ],
              [
                1283.7954212187985,
                1127.0515529438314
              ],
              [
                1283.8082536472327,
                1127.061227710254
              ],
              [
                1283.8179630221186,
                1127.0687955588471
              ],
              [
                1283.8200230241152,
                1127.0701010090886
              ],
              [
                1283.8483564341498,
                1127.0914624470606
              ],
              [
                1283.8543652707822,
                1127.095118656818
              ],
              [
                1283.8557784792733,
                1127.0961667636675
              ],
              [
                1283.8583687193309,
                1127.0977192938108
              ],
              [
                1283.86138622388,
                1127.0999450096351
              ],
              [
                1283.863903873138,
                1127.1014464618343
              ],
              [
                1283.8668724057452,
                1127.1036201223312
              ],
              [
                1283.8837961055233,
                1127.113645381788
              ],
              [
                1283.9059875622843,
                1127.1292371602124
              ],
              [
                1283.963577155744,
                1127.1615710474969
              ],
              [
                1284.0180950169677,
                1127.194743647844
              ],
              [
                1284.031776878583,
                1127.201306216238
              ],
              [
                1284.034124607043,
                1127.2026969633707
              ],
              [
                1284.0503212724523,
                1127.2102738481897
              ],
              [
                1284.0818343654078,
                1127.2279669891618
              ],
              [
                1284.141840821442,
                1127.2540988970163
              ],
              [
                1284.197243844907,
                1127.2806732142358
              ],
              [
                1284.230817794674,
                1127.29284702879
              ],
              [
                1284.266729840194,
                1127.3084861837478
              ],
              [
                1284.3271015125363,
                1127.327814338871
              ],
              [
                1284.3719555683222,
                1127.3443418493644
              ],
              [
                1284.3751477395103,
                1127.345180638486
              ],
              [
                1284.3840347999694,
                1127.348403060236
              ],
              [
                1284.419574166232,
                1127.357419710495
              ],
              [
                1284.4284551621486,
                1127.3602629854956
              ],
              [
                1284.4382813754996,
                1127.3635141304644
              ],
              [
                1284.439414237046,
                1127.3637715631348
              ],
              [
                1284.45879407682,
                1127.3699760715554
              ],
              [
                1284.5143353617534,
                1127.3817541981525
              ],
              [
                1284.5577359753502,
                1127.3931583367198
              ],
              [
                1284.5652362453257,
                1127.394375462982
              ],
              [
                1284.5766243398143,
                1127.3972647228625
              ],
              [
                1284.6066500295722,
                1127.4017744036387
              ],
              [
                1284.6255929852646,
                1127.406079021167
              ],
              [
                1284.6343005436809,
                1127.4071941047314
              ],
              [
                1284.6560742776544,
                1127.4118114591108
              ],
              [
                1284.7061990846048,
                1127.417250582711
              ],
              [
                1284.7473426271351,
                1127.4239272605237
              ],
              [
                1284.7593187256634,
                1127.4247043376201
              ],
              [
                1284.773111692689,
                1127.4267759595793
              ],
              [
                1284.7773015997532,
                1127.4269843412328
              ],
              [
                1284.7783309537158,
                1127.4271370314693
              ],
              [
                1284.797315519901,
                1127.4280696834003
              ],
              [
                1284.8161240451557,
                1127.4304782893928
              ],
              [
                1284.8329544373,
                1127.431005010353
              ],
              [
                1284.8565646121715,
                1127.4335669884863
              ],
              [
                1284.9008275569731,
                1127.4338862319992
              ],
              [
                1284.9390265251288,
                1127.4363647973844
              ],
              [
                1284.9555290175158,
                1127.4358483383166
              ],
              [
                1284.9715576171875,
                1127.4366455078125
              ],
              [
                1284.971880436081,
                1127.4366455078125
              ],
              [
                1284.974365234375,
                1127.436767578125
              ],
              [
                1284.974609375,
                1127.436767578125
              ],
              [
                1284.9910358100024,
                1127.4359522968866
              ],
              [
                1285.0081170295587,
                1127.4364868676969
              ],
              [
                1285.0334549745555,
                1127.4348427983298
              ],
              [
                1285.05822661107,
                1127.4350214620922
              ],
              [
                1285.096333415868,
                1127.4314417489006
              ],
              [
                1285.1310195095318,
                1127.4303562190803
              ],
              [
                1285.1482537630882,
                1127.4281492131704
              ],
              [
                1285.1726506031575,
                1127.426938342645
              ],
              [
                1285.1837430555358,
                1127.4252757816275
              ],
              [
                1285.1860132154272,
                1127.4251539272677
              ],
              [
                1285.188169158338,
                1127.4248040658968
              ],
              [
                1285.1998009275524,
                1127.4240493308362
              ],
              [
                1285.233854997297,
                1127.4185231160789
              ],
              [
                1285.2590098922456,
                1127.4161600916857
              ],
              [
                1285.290822681616,
                1127.4098919417008
              ],
              [
                1285.321550569423,
                1127.4059569508545
              ],
              [
                1285.3388215107018,
                1127.4020322836714
              ],
              [
                1285.3687452374488,
                1127.397547250075
              ],
              [
                1285.3787992074592,
                1127.3950019087988
              ],
              [
                1285.3894075793373,
                1127.3932804070323
              ],
              [
                1285.4058549730657,
                1127.3889586165872
              ],
              [
                1285.4072406986807,
                1127.3887221750754
              ],
              [
                1285.4199503364114,
                1127.3852548561233
              ],
              [
                1285.4322007524577,
                1127.3820358822304
              ],
              [
                1285.4568730078852,
                1127.3771746487282
              ],
              [
                1285.4573612891352,
                1127.3770525784157
              ],
              [
                1285.483670765528,
                1127.369116583957
              ],
              [
                1285.4871331134207,
                1127.3683297963157
              ],
              [
                1285.4883508315452,
                1127.3680696715148
              ],
              [
                1285.4885351292683,
                1127.368011200734
              ],
              [
                1285.5088621791879,
                1127.363392060152
              ],
              [
                1285.5226734414512,
                1127.3588224040477
              ],
              [
                1285.5582304873215,
                1127.3499158277143
              ],
              [
                1285.5687109878797,
                1127.3461658446522
              ],
              [
                1285.5751879863653,
                1127.3444639196769
              ],
              [
                1285.5914898201036,
                1127.3384571333684
              ],
              [
                1285.5949640286494,
                1127.3375093338016
              ],
              [
                1285.6035657302214,
                1127.3342356414662
              ],
              [
                1285.6043793601586,
                1127.3340121039134
              ],
              [
                1285.6051117820336,
                1127.3337679632884
              ],
              [
                1285.620031894171,
                1127.3279845923832
              ],
              [
                1285.6410419974559,
                1127.3216471016344
              ],
              [
                1285.6628780632395,
                1127.3126987023816
              ],
              [
                1285.6727463321047,
                1127.309567869414
              ],
              [
                1285.6768780826872,
                1127.3078015656413
              ],
              [
                1285.6912265105539,
                1127.303054180519
              ],
              [
                1285.6999093505092,
                1127.2992223198764
              ],
              [
                1285.7430279975426,
                1127.2837942212725
              ],
              [
                1285.7542711981962,
                1127.278476583395
              ],
              [
                1285.7554284447174,
                1127.2780501692462
              ],
              [
                1285.7688624617847,
                1127.271575429682
              ],
              [
                1285.7715634122987,
                1127.2702979752273
              ],
              [
                1285.7768221998815,
                1127.2682965511533
              ],
              [
                1285.7973050323349,
                1127.258123095676
              ],
              [
                1285.805417645262,
                1127.254286115521
              ],
              [
                1285.818568788485,
                1127.2488967893778
              ],
              [
                1285.8339873315708,
                1127.2407736602386
              ],
              [
                1285.8369685189566,
                1127.2393636636148
              ],
              [
                1285.8506271665321,
                1127.2335246565738
              ],
              [
                1285.8583306846685,
                1127.2293087341816
              ],
              [
                1285.8669613706875,
                1127.2254998898122
              ],
              [
                1285.8674496519375,
                1127.2252557491872
              ],
              [
                1285.8708431841137,
                1127.2233421402004
              ],
              [
                1285.9204546064645,
                1127.1998776849466
              ],
              [
                1285.9488958886316,
                1127.1828306364514
              ],
              [
                1285.9510937973166,
                1127.1817389746316
              ],
              [
                1285.9600383868024,
                1127.1761520800642
              ],
              [
                1285.984679507637,
                1127.1613827606159
              ],
              [
                1285.988308044294,
                1127.159471096739
              ],
              [
                1285.9929245167602,
                1127.1564408923296
              ],
              [
                1286.008117793277,
                1127.1473343928383
              ],
              [
                1286.0203290745596,
                1127.1406514963633
              ],
              [
                1286.0281733259733,
                1127.1353135691472
              ],
              [
                1286.0888015988517,
                1127.098974380855
              ],
              [
                1286.1692065634948,
                1127.0393419949044
              ],
              [
                1286.180264318285,
                1127.031817313819
              ],
              [
                1286.1877045631686,
                1127.0256229433414
              ],
              [
                1286.2464477011397,
                1126.9820560629755
              ],
              [
                1286.3188031053855,
                1126.916476947174
              ],
              [
                1286.3289365371115,
                1126.9080403659457
              ],
              [
                1286.3360586794363,
                1126.9008374064836
              ],
              [
                1286.3918746951856,
                1126.850248718623
              ],
              [
                1286.4555898436076,
                1126.7799498854606
              ],
              [
                1286.4649547477584,
                1126.7704787148648
              ],
              [
                1286.4718053781514,
                1126.7620588001262
              ],
              [
                1286.523682039538,
                1126.7048217245772
              ],
              [
                1286.5783724148207,
                1126.6310802899384
              ],
              [
                1286.5870463583556,
                1126.6204193929373
              ],
              [
                1286.5936175298264,
                1126.6105246319103
              ],
              [
                1286.6406003574175,
                1126.5471756222892
              ],
              [
                1286.6860876564067,
                1126.4712846487914
              ],
              [
                1286.6940690748659,
                1126.4592663612361
              ],
              [
                1286.7002841112424,
                1126.4475992948217
              ],
              [
                1286.7415036615091,
                1126.378828629902
              ],
              [
                1286.777810534199,
                1126.3020641972412
              ],
              [
                1286.785021588433,
                1126.2885273740321
              ],
              [
                1286.790722555823,
                1126.2747640212403
              ],
              [
                1286.825420197835,
                1126.2014020209801
              ],
              [
                1286.852760027743,
                1126.1249923151556
              ],
              [
                1286.8590529436683,
                1126.1097998721818
              ],
              [
                1286.8639903821982,
                1126.0936055770844
              ],
              [
                1286.8915418042768,
                1126.016604510759
              ],
              [
                1286.910303993323,
                1125.9417016534137
              ],
              [
                1286.915470500224,
                1125.9247560374079
              ],
              [
                1286.9192959582458,
                1125.9058037171856
              ],
              [
                1286.939231693619,
                1125.8262158002822
              ],
              [
                1286.944516407858,
                1125.7905891507642
              ],
              [
                1286.944690484979,
                1125.7898391637548
              ],
              [
                1286.9451839863034,
                1125.7860887024465
              ],
              [
                1286.947419310874,
                1125.771019368243
              ],
              [
                1286.947783780729,
                1125.769375697322
              ],
              [
                1286.9483087698736,
                1125.7650231227306
              ],
              [
                1286.9499630239366,
                1125.7538710476995
              ],
              [
                1286.9537464131631,
                1125.7351271472978
              ],
              [
                1286.9560082503158,
                1125.713117441784
              ],
              [
                1286.9680305861568,
                1125.6320694369092
              ],
              [
                1286.9695677734917,
                1125.6007792698808
              ],
              [
                1286.9700512133359,
                1125.5971052727898
              ],
              [
                1286.9706263525939,
                1125.579992737859
              ],
              [
                1286.9712867770004,
                1125.574517297994
              ],
              [
                1286.9715665606757,
                1125.5617211182528
              ],
              [
                1286.9735225714992,
                1125.5426873774031
              ],
              [
                1286.9736654025025,
                1125.5173701152132
              ],
              [
                1286.9776611328125,
                1125.43603515625
              ],
              [
                1286.9776611328125,
                1125.435791015625
              ],
              [
                1286.9776431420228,
                1125.4354248046875
              ],
              [
                1286.9776611328125,
                1125.43505859375
              ],
              [
                1286.9763637338408,
                1125.4092842778891
              ],
              [
                1286.9765810031454,
                1125.4028197068967
              ],
              [
                1286.9754343166078,
                1125.3848255219104
              ],
              [
                1286.975577136849,
                1125.3782934986352
              ],
              [
                1286.9745274714085,
                1125.3645655839491
              ],
              [
                1286.9746139486965,
                1125.3492372019796
              ],
              [
                1286.9720079293966,
                1125.3207174165157
              ],
              [
                1286.9680305861568,
                1125.2397567349658
              ],
              [
                1286.967910834116,
                1125.238949432282
              ],
              [
                1286.9679085158443,
                1125.2389022427783
              ],
              [
                1286.9677249344074,
                1125.2376646372584
              ],
              [
                1286.9675392829715,
                1125.2339764589483
              ],
              [
                1286.9645831201342,
                1125.2145449524153
              ],
              [
                1286.9642181650033,
                1125.20881795561
              ],
              [
                1286.961193525885,
                1125.19017928954
              ],
              [
                1286.960613541765,
                1125.1825940417004
              ],
              [
                1286.9580665483334,
                1125.1681455621888
              ],
              [
                1286.9570103337858,
                1125.1565865486775
              ],
              [
                1286.9510408336794,
                1125.1251895662742
              ],
              [
                1286.9391096233064,
                1125.0447558794053
              ],
              [
                1286.9389220548367,
                1125.0440070640993
              ],
              [
                1286.938743412369,
                1125.0428027544053
              ],
              [
                1286.938010310374,
                1125.0398760471849
              ],
              [
                1286.937276185293,
                1125.0350504820556
              ],
              [
                1286.933868452872,
                1125.0217946025496
              ],
              [
                1286.9330794953373,
                1125.0169328271586
              ],
              [
                1286.9280567874812,
                1124.9979074259572
              ],
              [
                1286.9265400993484,
                1124.98930361994
              ],
              [
                1286.9223683080927,
                1124.9743845130413
              ],
              [
                1286.920876426899,
                1124.9665378647865
              ],
              [
                1286.9122856582478,
                1124.9371774791377
              ],
              [
                1286.8910535230268,
                1124.8524140439285
              ],
              [
                1286.88846662198,
                1124.8451841398412
              ],
              [
                1286.887178158307,
                1124.8401720916274
              ],
              [
                1286.8844691594923,
                1124.8328028382189
              ],
              [
                1286.8834591729862,
                1124.828977133233
              ],
              [
                1286.8763564471471,
                1124.8098374803599
              ],
              [
                1286.8736849554762,
                1124.8002837257789
              ],
              [
                1286.8678097837037,
                1124.7851737549445
              ],
              [
                1286.8665502983274,
                1124.780869253465
              ],
              [
                1286.8563878994466,
                1124.7555301163807
              ],
              [
                1286.824931916585,
                1124.6676165337074
              ],
              [
                1286.8196049771245,
                1124.6563536665092
              ],
              [
                1286.8177522867204,
                1124.651313817469
              ],
              [
                1286.8168090946717,
                1124.649375753172
              ],
              [
                1286.8158259799825,
                1124.646726562662
              ],
              [
                1286.8066006167744,
                1124.627753893375
              ],
              [
                1286.8025571340772,
                1124.6173547241267
              ],
              [
                1286.7949553441142,
                1124.602352903079
              ],
              [
                1286.7945402255232,
                1124.6013178377357
              ],
              [
                1286.7896429764494,
                1124.5918691631393
              ],
              [
                1286.7815842752511,
                1124.5759656464882
              ],
              [
                1286.7410153802591,
                1124.4901899247855
              ],
              [
                1286.7341038989039,
                1124.4786588147829
              ],
              [
                1286.7308188727882,
                1124.4719029058083
              ],
              [
                1286.7194677606951,
                1124.453381249916
              ],
              [
                1286.7138416349544,
                1124.4422783212683
              ],
              [
                1286.6877157767535,
                1124.4012649086387
              ],
              [
                1286.6401120761675,
                1124.3218429323983
              ],
              [
                1286.6328657384063,
                1124.312072376983
              ],
              [
                1286.6292409458326,
                1124.3061577881585
              ],
              [
                1286.6157997140047,
                1124.2883682093786
              ],
              [
                1286.608392836861,
                1124.27674059867
              ],
              [
                1286.5768645160576,
                1124.2365634696812
              ],
              [
                1286.523193758288,
                1124.1641968301103
              ],
              [
                1286.5158967123875,
                1124.156145780634
              ],
              [
                1286.5120518443725,
                1124.1510570667924
              ],
              [
                1286.5015139841669,
                1124.139615169269
              ],
              [
                1286.5014683695026,
                1124.1395556893156
              ],
              [
                1286.501031859615,
                1124.1390916835132
              ],
              [
                1286.4965932194782,
                1124.1342722548438
              ],
              [
                1286.4872262693664,
                1124.1223357750923
              ],
              [
                1286.4500900286366,
                1124.083539293848
              ],
              [
                1286.3913864139356,
                1124.0187698360644
              ],
              [
                1286.3908981326856,
                1124.0182815548144
              ],
              [
                1286.3840542108198,
                1124.0120785856063
              ],
              [
                1286.38035869836,
                1124.0080660371348
              ],
              [
                1286.3641164175192,
                1123.9935518884793
              ],
              [
                1286.3635965875028,
                1123.9929993141832
              ],
              [
                1286.3625753943165,
                1123.9921121649234
              ],
              [
                1286.3515088327526,
                1123.9805508533927
              ],
              [
                1286.3095678983732,
                1123.9445681271898
              ],
              [
                1286.2454711386397,
                1123.886474210462
              ],
              [
                1286.2385221352065,
                1123.8813204782698
              ],
              [
                1286.2354056629645,
                1123.8785355897528
              ],
              [
                1286.2162660438016,
                1123.8645209099077
              ],
              [
                1286.2025475601245,
                1123.8527512998744
              ],
              [
                1286.1569030916835,
                1123.8207876700546
              ],
              [
                1286.0878250363517,
                1123.7695558925825
              ],
              [
                1286.0809293169461,
                1123.7654227574296
              ],
              [
                1286.0785621645673,
                1123.7636894479813
              ],
              [
                1286.0578185125114,
                1123.7514013256045
              ],
              [
                1286.0417770299682,
                1123.7401678941005
              ],
              [
                1285.9926889380204,
                1123.712533509682
              ],
              [
                1285.9194780439645,
                1123.6686525884909
              ],
              [
                1285.9127902372804,
                1123.6654894915014
              ],
              [
                1285.9113099632696,
                1123.6646126069418
              ],
              [
                1285.8891532404352,
                1123.6542475760766
              ],
              [
                1285.870745550375,
                1123.6438848758128
              ],
              [
                1285.8184992748172,
                1123.6208931875713
              ],
              [
                1285.7420514350426,
                1123.584736052165
              ],
              [
                1285.7357193185385,
                1123.5824703846517
              ],
              [
                1285.7352291541422,
                1123.5822410831827
              ],
              [
                1285.7206656863327,
                1123.577084108922
              ],
              [
                1285.711474238101,
                1123.5737953561575
              ],
              [
                1285.691100247989,
                1123.5648295031108
              ],
              [
                1285.636012933861,
                1123.5467948697626
              ],
              [
                1285.6045782341396,
                1123.5355473543545
              ],
              [
                1285.585155079719,
                1123.5282532167425
              ]
            ]
          ]
        ]
      }
    }
  ]
}