{
  "type": "FeatureCollection",
  "features": [
    {
      "type": "Feature",
      "properties": {
        "image_id": "0003_top_20250711_t1",
        "zone_type": "parking_spot",
        "generated_at": "2025-11-03T11:20:39",
        "source": "merged_t1_polygons"
      },
      "geometry": {
        "type": "MultiPolygon",
        "coordinates": [
          [
            [
              [
                1673.6289436188765,
                593.4536351470614
              ],
              [
                1673.6167114785478,
                593.4627071206182
              ],
              [
                1673.6039445508875,
                593.4742783893602
              ],
              [
                1673.5985145450288,
                593.4784101832986
              ],
              [
                1673.5969173959897,
                593.4798901388468
              ],
              [
                1673.5917110187393,
                593.4838856882504
              ],
              [
                1673.5851728198832,
                593.4899986898987
              ],
              [
                1673.5749724938423,
                593.498003222821
              ],
              [
                1673.5396281461392,
                593.5318350591798
              ],
              [
                1673.5333503175286,
                593.53704375572
              ],
              [
                1673.5315573166936,
                593.5388560997803
              ],
              [
                1673.5171467424373,
                593.5511010684597
              ],
              [
                1673.515249210833,
                593.5530572102887
              ],
              [
                1673.4994405218722,
                593.5667908180894
              ],
              [
                1673.486585499812,
                593.5804555826122
              ],
              [
                1673.4816402544316,
                593.5848610789562
              ],
              [
                1673.480157246623,
                593.5864726621406
              ],
              [
                1673.471284484502,
                593.5945144649706
              ],
              [
                1673.4712264478105,
                593.5945784985919
              ],
              [
                1673.4711624141894,
                593.5946365352831
              ],
              [
                1673.4610829829867,
                593.6057574738674
              ],
              [
                1673.4564485894762,
                593.6100518109777
              ],
              [
                1673.4548719230697,
                593.611825757953
              ],
              [
                1673.4497131189555,
                593.6166490707259
              ],
              [
                1673.4427086692383,
                593.6246070042163
              ],
              [
                1673.4331875721425,
                593.633720659435
              ],
              [
                1673.4039897453451,
                593.6677532152456
              ],
              [
                1673.4016673670371,
                593.6701473262794
              ],
              [
                1673.3953125623527,
                593.6765706877742
              ],
              [
                1673.394677209628,
                593.6773533929754
              ],
              [
                1673.3831330213877,
                593.6892541536507
              ],
              [
                1673.3769444088236,
                593.6970030053535
              ],
              [
                1673.3615687398724,
                593.7133471932217
              ],
              [
                1673.35238422841,
                593.7253234803221
              ],
              [
                1673.3473728752044,
                593.7307693131164
              ],
              [
                1673.3453970404637,
                593.7333972420238
              ],
              [
                1673.339355069837,
                593.740063529329
              ],
              [
                1673.3315907520616,
                593.7505324999437
              ],
              [
                1673.327782060865,
                593.7548177540731
              ],
              [
                1673.3262569458436,
                593.7569107692551
              ],
              [
                1673.3212750117434,
                593.7625708713078
              ],
              [
                1673.3140923058947,
                593.772536343339
              ],
              [
                1673.3053880186244,
                593.782681932063
              ],
              [
                1673.2831145086361,
                593.8144887865869
              ],
              [
                1673.263019869502,
                593.8396495761922
              ],
              [
                1673.253455983524,
                593.8543225096098
              ],
              [
                1673.2391207059088,
                593.8730152186439
              ],
              [
                1673.233102482248,
                593.8827529090789
              ],
              [
                1673.228213291767,
                593.8892557024224
              ],
              [
                1673.225990612367,
                593.8929178055645
              ],
              [
                1673.2224367519575,
                593.8977096316171
              ],
              [
                1673.2167604191263,
                593.9071800208033
              ],
              [
                1673.2137216020672,
                593.9113503883826
              ],
              [
                1673.2131473483748,
                593.9123241525759
              ],
              [
                1673.2127450395672,
                593.9128762672889
              ],
              [
                1673.211863053375,
                593.9143718546652
              ],
              [
                1673.2076101006849,
                593.9202725113225
              ],
              [
                1673.2005690694084,
                593.9323647198598
              ],
              [
                1673.1928046128505,
                593.9434524622194
              ],
              [
                1673.1766093536687,
                593.9722207662204
              ],
              [
                1673.1579197133065,
                594.0008944506689
              ],
              [
                1673.1479741088388,
                594.0199344882803
              ],
              [
                1673.147364419733,
                594.0208916025183
              ],
              [
                1673.1457089206235,
                594.0241586621854
              ],
              [
                1673.1333358205948,
                594.0441787585781
              ],
              [
                1673.1330737432409,
                594.0447172732565
              ],
              [
                1673.1322371877823,
                594.0460708484219
              ],
              [
                1673.129005740751,
                594.0527108027428
              ],
              [
                1673.1253327517243,
                594.0587624468333
              ],
              [
                1673.1230651513863,
                594.0635011310675
              ],
              [
                1673.1215334478659,
                594.0660566240042
              ],
              [
                1673.1214469415063,
                594.0662395263341
              ],
              [
                1673.1203127447409,
                594.0681318193167
              ],
              [
                1673.1167719419923,
                594.0756182177317
              ],
              [
                1673.1143603168036,
                594.0797076198335
              ],
              [
                1673.1134156232647,
                594.0817355334386
              ],
              [
                1673.1122211244376,
                594.0837734983311
              ],
              [
                1673.1114981681599,
                594.0853343446483
              ],
              [
                1673.1097922213664,
                594.0882641234791
              ],
              [
                1673.1032380830209,
                594.1025531675275
              ],
              [
                1673.0965215945628,
                594.1144839418125
              ],
              [
                1673.0854815363257,
                594.1395713524789
              ],
              [
                1673.0688059366462,
                594.1714954095957
              ],
              [
                1673.0598357165725,
                594.1936259121679
              ],
              [
                1673.0586489206103,
                594.1959680053766
              ],
              [
                1673.0561123953016,
                594.20249152927
              ],
              [
                1673.044186189842,
                594.2269974112188
              ],
              [
                1673.042061284994,
                594.2327777615868
              ],
              [
                1673.0397424921307,
                594.2376234246428
              ],
              [
                1673.0384189815343,
                594.2412816338083
              ],
              [
                1673.036396208415,
                594.2455584282386
              ],
              [
                1673.0340669190707,
                594.2520683558485
              ],
              [
                1673.032573988249,
                594.2552731356008
              ],
              [
                1673.0318986744157,
                594.2571878584873
              ],
              [
                1673.0312281686138,
                594.2586354654093
              ],
              [
                1673.0298704066768,
                594.2625061474224
              ],
              [
                1673.0287454964468,
                594.2649586272112
              ],
              [
                1673.0230411086181,
                594.2814608804546
              ],
              [
                1673.0174662218608,
                594.2941292441986
              ],
              [
                1673.0106111881946,
                594.3150681446818
              ],
              [
                1672.996503865703,
                594.3498724342223
              ],
              [
                1672.9890421180858,
                594.3749851978564
              ],
              [
                1672.9875210992116,
                594.3788970070289
              ],
              [
                1672.98489731816,
                594.3882801394986
              ],
              [
                1672.9747603182554,
                594.4158556853774
              ],
              [
                1672.9735348883075,
                594.4206225360937
              ],
              [
                1672.9722837998029,
                594.4240805691819
              ],
              [
                1672.9717124064855,
                594.4263375440447
              ],
              [
                1672.9702746019732,
                594.4303559384598
              ],
              [
                1672.9702027115159,
                594.4306429412535
              ],
              [
                1672.9701525316607,
                594.4307831845535
              ],
              [
                1672.9688784349532,
                594.4358696637316
              ],
              [
                1672.9681530512828,
                594.4379263500414
              ],
              [
                1672.9677165950145,
                594.4396930564759
              ],
              [
                1672.9674403170525,
                594.4404806644571
              ],
              [
                1672.9658861250023,
                594.4468048300761
              ],
              [
                1672.9652356051197,
                594.4486867224305
              ],
              [
                1672.9647921951805,
                594.450533985707
              ],
              [
                1672.9645854799242,
                594.4511331723738
              ],
              [
                1672.9625647581727,
                594.4595504583955
              ],
              [
                1672.961534631752,
                594.4626122062305
              ],
              [
                1672.959535786638,
                594.4710794500098
              ],
              [
                1672.9563998412002,
                594.4806582869116
              ],
              [
                1672.9527418207954,
                594.497155074469
              ],
              [
                1672.941683125246,
                594.5343734878592
              ],
              [
                1672.9362428524194,
                594.5622776218812
              ],
              [
                1672.9346659553391,
                594.56791690119
              ],
              [
                1672.9324764392848,
                594.5803374977482
              ],
              [
                1672.9246622912694,
                594.6107340758057
              ],
              [
                1672.9246345378854,
                594.6109165048855
              ],
              [
                1672.924540220957,
                594.6112833922119
              ],
              [
                1672.9240134310542,
                594.6147460977531
              ],
              [
                1672.9236197421126,
                594.61630114927
              ],
              [
                1672.9235259457835,
                594.6169269496484
              ],
              [
                1672.9224626423186,
                594.6211718950302
              ],
              [
                1672.9218307558247,
                594.6254317277547
              ],
              [
                1672.9217016495406,
                594.625954329718
              ],
              [
                1672.9214695019766,
                594.6275405893284
              ],
              [
                1672.9214497852006,
                594.6276208188963
              ],
              [
                1672.9202681178479,
                594.6357364766425
              ],
              [
                1672.9195041915139,
                594.6389186002812
              ],
              [
                1672.9164216744734,
                594.6609501525788
              ],
              [
                1672.9139105552085,
                594.672274693303
              ],
              [
                1672.912471642339,
                594.6842044172965
              ],
              [
                1672.9048514369106,
                594.7232898161946
              ],
              [
                1672.90191312996,
                594.7537157809734
              ],
              [
                1672.9005925129225,
                594.7612073229503
              ],
              [
                1672.8994411785857,
                594.7762649012378
              ],
              [
                1672.8970286217318,
                594.7921231664445
              ],
              [
                1672.8954833111084,
                594.8021201024652
              ],
              [
                1672.8954689912975,
                594.8023749592717
              ],
              [
                1672.8942771232785,
                594.8102093691044
              ],
              [
                1672.8942028543572,
                594.8116839105584
              ],
              [
                1672.8936637497807,
                594.8153182584034
              ],
              [
                1672.8930362073431,
                594.8280921781754
              ],
              [
                1672.892744571807,
                594.8301765733233
              ],
              [
                1672.8915934331276,
                594.8573012591115
              ],
              [
                1672.890407558937,
                594.8671330926311
              ],
              [
                1672.8902458317057,
                594.8745298455755
              ],
              [
                1672.8863499169393,
                594.9148717729026
              ],
              [
                1672.8863499169393,
                594.9238812133327
              ],
              [
                1672.8863107476857,
                594.9243020393735
              ],
              [
                1672.8863499169393,
                594.931602717868
              ],
              [
                1672.8863499169393,
                594.9474772857232
              ],
              [
                1672.8856289178384,
                594.9569067798851
              ],
              [
                1672.8859531070823,
                594.9717338916882
              ],
              [
                1672.8845778945404,
                594.9962092344607
              ],
              [
                1672.8846686938568,
                594.9984168280428
              ],
              [
                1672.884033203125,
                595.0113525390625
              ],
              [
                1672.8840347018909,
                595.0113830661393
              ],
              [
                1672.884033203125,
                595.0114135742188
              ],
              [
                1672.8845802376602,
                595.0225556518312
              ],
              [
                1672.884556125421,
                595.0231238170063
              ],
              [
                1672.8851047493154,
                595.0332389802031
              ],
              [
                1672.8862608541297,
                595.0567866883265
              ],
              [
                1672.8861171990884,
                595.0633568919899
              ],
              [
                1672.8863499169393,
                595.0664004625204
              ],
              [
                1672.8863499169393,
                595.1073450239724
              ],
              [
                1672.8873482652346,
                595.1176828513621
              ],
              [
                1672.887363754755,
                595.1205699119317
              ],
              [
                1672.8896986500015,
                595.14303995649
              ],
              [
                1672.889919277687,
                595.1531305792439
              ],
              [
                1672.8916080013842,
                595.1671314322724
              ],
              [
                1672.892566704679,
                595.1904402777619
              ],
              [
                1672.8929622117985,
                595.1932808992854
              ],
              [
                1672.8936637497807,
                595.2075699251903
              ],
              [
                1672.9004413383898,
                595.2532607162226
              ],
              [
                1672.9048514369106,
                595.2989269806804
              ],
              [
                1672.9070904487314,
                595.3104112734567
              ],
              [
                1672.907649306914,
                595.3157894882964
              ],
              [
                1672.912255096019,
                595.3383121517368
              ],
              [
                1672.9134222739585,
                595.347988978572
              ],
              [
                1672.9163256909876,
                595.3610826873598
              ],
              [
                1672.9193742682003,
                595.3829782579304
              ],
              [
                1672.920153276059,
                595.3862236353622
              ],
              [
                1672.921977610034,
                595.3986427684706
              ],
              [
                1672.9220500703063,
                595.3989349539786
              ],
              [
                1672.9224626423186,
                595.4017162885635
              ],
              [
                1672.9225177648652,
                595.4019363501056
              ],
              [
                1672.922584712631,
                595.4023876752823
              ],
              [
                1672.9335821066568,
                595.4462917332717
              ],
              [
                1672.941683125246,
                595.4878433090158
              ],
              [
                1672.9453732980112,
                595.500262710096
              ],
              [
                1672.9469720432064,
                595.5080806972294
              ],
              [
                1672.953862326946,
                595.5303638395949
              ],
              [
                1672.9559115599502,
                595.5396053849634
              ],
              [
                1672.959880331475,
                595.551728113464
              ],
              [
                1672.9647473238697,
                595.5720041955383
              ],
              [
                1672.965536105806,
                595.5742860669077
              ],
              [
                1672.9687690874002,
                595.5873225949364
              ],
              [
                1672.9692455168365,
                595.5886680476009
              ],
              [
                1672.9702746019732,
                595.592776385759
              ],
              [
                1672.974583629981,
                595.6048193122722
              ],
              [
                1672.9747603182554,
                595.6055066193101
              ],
              [
                1672.9773566761417,
                595.6125694571006
              ],
              [
                1672.9855316120627,
                595.6354168724268
              ],
              [
                1672.996503865703,
                595.6723443626527
              ],
              [
                1673.0018214757013,
                595.6854634813341
              ],
              [
                1673.0049532641856,
                595.6955916692715
              ],
              [
                1673.0140990510008,
                595.7173407753063
              ],
              [
                1673.0169779406108,
                595.7261344276764
              ],
              [
                1673.0218152306265,
                595.7371266777653
              ],
              [
                1673.0222571781837,
                595.7383747524495
              ],
              [
                1673.0282572151968,
                595.7557322907576
              ],
              [
                1673.0288990036108,
                595.7571314896201
              ],
              [
                1673.0336570988077,
                595.7705685096109
              ],
              [
                1673.0346460531825,
                595.7726825397826
              ],
              [
                1673.036396208415,
                595.7775738959801
              ],
              [
                1673.0436573376026,
                595.7929262637624
              ],
              [
                1673.044186189842,
                595.7943648934687
              ],
              [
                1673.049569498309,
                595.8054264773257
              ],
              [
                1673.0557020104225,
                595.818392584795
              ],
              [
                1673.0688059366462,
                595.8507213872793
              ],
              [
                1673.0758915478593,
                595.8642862042228
              ],
              [
                1673.081034578998,
                595.8765165712581
              ],
              [
                1673.0923640464464,
                595.8974416939087
              ],
              [
                1673.0960333133128,
                595.9057797300625
              ],
              [
                1673.1012179682355,
                595.914989445528
              ],
              [
                1673.1057183700152,
                595.9246096923149
              ],
              [
                1673.1093039401164,
                595.9324267944896
              ],
              [
                1673.1096666712508,
                595.9330497459221
              ],
              [
                1673.1160286225668,
                595.9466493187382
              ],
              [
                1673.1176870032841,
                595.9494488410348
              ],
              [
                1673.1203127447409,
                595.955000504902
              ],
              [
                1673.1312117567195,
                595.9731844078289
              ],
              [
                1673.1322371877823,
                595.9752914562656
              ],
              [
                1673.140104126342,
                595.9880204302427
              ],
              [
                1673.143374424237,
                595.9934765926529
              ],
              [
                1673.1579197133065,
                596.0213223462061
              ],
              [
                1673.1668775432777,
                596.0350654672595
              ],
              [
                1673.1744832829916,
                596.0491129974794
              ],
              [
                1673.1878827628861,
                596.0689356794679
              ],
              [
                1673.1923163316005,
                596.0768112096556
              ],
              [
                1673.1976227291273,
                596.0843888125692
              ],
              [
                1673.2151054636063,
                596.1139015200359
              ],
              [
                1673.2175794636264,
                596.1172802214203
              ],
              [
                1673.2212160488325,
                596.1233474972892
              ],
              [
                1673.2363638793931,
                596.143771982428
              ],
              [
                1673.2380220730963,
                596.1464549961999
              ],
              [
                1673.2477487954534,
                596.1591383076611
              ],
              [
                1673.263019869502,
                596.1825672206828
              ],
              [
                1673.2739179311893,
                596.1962128420541
              ],
              [
                1673.2843994140626,
                596.21171875
              ],
              [
                1673.2997155805579,
                596.2301786981817
              ],
              [
                1673.3048997373744,
                596.237581739812
              ],
              [
                1673.3101453959555,
                596.2436960020024
              ],
              [
                1673.3299516053778,
                596.2707450184331
              ],
              [
                1673.333373623046,
                596.2745744798317
              ],
              [
                1673.338134366712,
                596.2809935995773
              ],
              [
                1673.358049150344,
                596.3029661773187
              ],
              [
                1673.3604701070599,
                596.306123021622
              ],
              [
                1673.368596739923,
                596.314761554012
              ],
              [
                1673.3831330213877,
                596.3329626432243
              ],
              [
                1673.3960039377862,
                596.3462311115255
              ],
              [
                1673.4097244197824,
                596.362767846534
              ],
              [
                1673.4267676172913,
                596.3796291412712
              ],
              [
                1673.4326992908925,
                596.38654301244
              ],
              [
                1673.4377445445773,
                596.3913723616329
              ],
              [
                1673.4594820527598,
                596.4156980538286
              ],
              [
                1673.4639676827014,
                596.4198292690544
              ],
              [
                1673.4699417110644,
                596.4264205936231
              ],
              [
                1673.4950325705793,
                596.4491616231127
              ],
              [
                1673.4983418890597,
                596.4526793967543
              ],
              [
                1673.5041967188663,
                596.4577657095097
              ],
              [
                1673.5171467424373,
                596.4711157284153
              ],
              [
                1673.5319891132538,
                596.4837276037329
              ],
              [
                1673.5492513518368,
                596.5008056017097
              ],
              [
                1673.5677999595953,
                596.515862239205
              ],
              [
                1673.5744842125923,
                596.522260449054
              ],
              [
                1673.5792303339222,
                596.5259848873009
              ],
              [
                1673.6024730824174,
                596.5473911998413
              ],
              [
                1673.6081182356702,
                596.5516564955243
              ],
              [
                1673.6153687051103,
                596.5582279379755
              ],
              [
                1673.6459217502459,
                596.5808876205906
              ],
              [
                1673.650241901621,
                596.5846406999746
              ],
              [
                1673.6532385051285,
                596.5867557676008
              ],
              [
                1673.663819866169,
                596.595746973102
              ],
              [
                1673.6806000533368,
                596.6074265303391
              ],
              [
                1673.7016364895962,
                596.6245026364858
              ],
              [
                1673.7214421833194,
                596.6375832250292
              ],
              [
                1673.72888903617,
                596.6434270165483
              ],
              [
                1673.7332750006303,
                596.6462209095267
              ],
              [
                1673.7575738037835,
                596.6645803013014
              ],
              [
                1673.7644520123633,
                596.6687956542397
              ],
              [
                1673.7730148073983,
                596.6751462558551
              ],
              [
                1673.8081503002043,
                596.6962056597966
              ],
              [
                1673.8217939811934,
                596.7057021064956
              ],
              [
                1673.840448173266,
                596.7161802391231
              ],
              [
                1673.8654122808825,
                596.7326676807977
              ],
              [
                1673.8862060206254,
                596.7436391414352
              ],
              [
                1673.8944267587683,
                596.7488758146419
              ],
              [
                1673.8984248848903,
                596.7509017630204
              ],
              [
                1673.9233189214333,
                596.766158228257
              ],
              [
                1673.9314788844317,
                596.7701259684462
              ],
              [
                1673.9413617997855,
                596.7760495599467
              ],
              [
                1673.977261882078,
                596.7930290343227
              ],
              [
                1673.989606012125,
                596.7999627804373
              ],
              [
                1674.0099669737178,
                596.8089394886604
              ],
              [
                1674.0390014752963,
                596.8242590461397
              ],
              [
                1674.0605000236806,
                596.8330292033745
              ],
              [
                1674.0695031616267,
                596.8375913137647
              ],
              [
                1674.0731138911494,
                596.8389952645996
              ],
              [
                1674.0864653104013,
                596.8454873237864
              ],
              [
                1674.0906233107605,
                596.8475303179399
              ],
              [
                1674.09081583945,
                596.8476027462403
              ],
              [
                1674.098142578287,
                596.8511653354511
              ],
              [
                1674.1076060071634,
                596.8546772142324
              ],
              [
                1674.1187884087074,
                596.8599660962726
              ],
              [
                1674.1554982769128,
                596.8731010971452
              ],
              [
                1674.1669522640852,
                596.8781509127135
              ],
              [
                1674.1885758337312,
                596.8852766840898
              ],
              [
                1674.220732314002,
                596.8983946575944
              ],
              [
                1674.2426450710884,
                596.9049136448419
              ],
              [
                1674.2524321632789,
                596.9087191351636
              ],
              [
                1674.2556782648044,
                596.9096268341332
              ],
              [
                1674.256403198283,
                596.909895856972
              ],
              [
                1674.271900988805,
                596.9157260458697
              ],
              [
                1674.2726756329114,
                596.915934558022
              ],
              [
                1674.280393148858,
                596.918798528455
              ],
              [
                1674.2911529687003,
                596.92163912199
              ],
              [
                1674.3035859189285,
                596.9260877027144
              ],
              [
                1674.3404094845396,
                596.9353115257278
              ],
              [
                1674.350902421073,
                596.9387693390319
              ],
              [
                1674.3736992730044,
                596.943901923115
              ],
              [
                1674.4088546296784,
                596.9543605486971
              ],
              [
                1674.4308905608484,
                596.9586209950743
              ],
              [
                1674.4414520574398,
                596.9615742790359
              ],
              [
                1674.4437118131266,
                596.9619726311869
              ],
              [
                1674.458925005521,
                596.9660675897134
              ],
              [
                1674.4603424270501,
                596.9663051562364
              ],
              [
                1674.4683488427836,
                596.968418850806
              ],
              [
                1674.480367803853,
                596.970369259686
              ],
              [
                1674.4939746294053,
                596.9737775920564
              ],
              [
                1674.5303813488642,
                596.9791780187404
              ],
              [
                1674.5398534571536,
                596.9813106110995
              ],
              [
                1674.5636740862012,
                596.9842934790355
              ],
              [
                1674.601556701588,
                596.9916177373224
              ],
              [
                1674.6234311330068,
                596.9936537452396
              ],
              [
                1674.6347424792002,
                596.9956477214525
              ],
              [
                1674.635974561924,
                596.9957419291079
              ],
              [
                1674.6499414378097,
                596.9980828432775
              ],
              [
                1674.6520447112837,
                596.9982285865287
              ],
              [
                1674.660233971235,
                596.9995575204722
              ],
              [
                1674.6734437209639,
                597.0003993169855
              ],
              [
                1674.6881209927783,
                597.0025764845944
              ],
              [
                1674.7235964134852,
                597.0043192802581
              ],
              [
                1674.732033377519,
                597.0053757741669
              ],
              [
                1674.7567165020703,
                597.0060595564571
              ],
              [
                1674.796982703436,
                597.0098074163767
              ],
              [
                1674.817550493868,
                597.0096970670443
              ],
              [
                1674.8275186390022,
                597.0103877950446
              ],
              [
                1674.8304419361352,
                597.0106113165367
              ],
              [
                1674.8306718212496,
                597.0106062901848
              ],
              [
                1674.8431589214463,
                597.0114715654826
              ],
              [
                1674.84597076145,
                597.011393670709
              ],
              [
                1674.8542357225217,
                597.0119203586141
              ],
              [
                1674.8685363823677,
                597.0114397243349
              ],
              [
                1674.8841552734375,
                597.01220703125
              ],
              [
                1674.9182328354368,
                597.0105339498069
              ],
              [
                1674.9256399066787,
                597.0107391436076
              ],
              [
                1674.9510119357953,
                597.0089810260541
              ],
              [
                1674.9932505759941,
                597.0087544093076
              ],
              [
                1675.0121557588059,
                597.0067899440672
              ],
              [
                1675.036765450606,
                597.0061081960419
              ],
              [
                1675.040285946155,
                597.0056673523819
              ],
              [
                1675.0485212884148,
                597.0053905688045
              ],
              [
                1675.0637149982977,
                597.0033913171568
              ],
              [
                1675.0803116244092,
                597.0025764845944
              ],
              [
                1675.112637175291,
                596.9977814420816
              ],
              [
                1675.1188573903153,
                596.9973504214025
              ],
              [
                1675.1443734090094,
                596.9930738165123
              ],
              [
                1675.144886687784,
                596.9929976787984
              ],
              [
                1675.188470152359,
                596.9884688571485
              ],
              [
                1675.2055935397304,
                596.9849671970894
              ],
              [
                1675.2289453709714,
                596.9820430329745
              ],
              [
                1675.2331503257517,
                596.9810963108552
              ],
              [
                1675.2412551793798,
                596.9800298404476
              ],
              [
                1675.2570969291617,
                596.9763528618316
              ],
              [
                1675.2744579877822,
                596.9737775920564
              ],
              [
                1675.3047004521497,
                596.9662022490883
              ],
              [
                1675.309873822604,
                596.9653351678384
              ],
              [
                1675.3328221811082,
                596.9591581226863
              ],
              [
                1675.3373587638355,
                596.9580217678692
              ],
              [
                1675.380761361292,
                596.9491461208562
              ],
              [
                1675.3960296067658,
                596.9444249490488
              ],
              [
                1675.417896407052,
                596.9395017609069
              ],
              [
                1675.4227363664772,
                596.9379068140549
              ],
              [
                1675.430616565145,
                596.9360777659768
              ],
              [
                1675.4469283713681,
                596.930576009949
              ],
              [
                1675.464846698259,
                596.9260877027144
              ],
              [
                1675.492678214914,
                596.9161294268224
              ],
              [
                1675.49689783932,
                596.9149936239947
              ],
              [
                1675.5172361077537,
                596.9073424722609
              ],
              [
                1675.5253940909402,
                596.9044234992024
              ],
              [
                1675.568272333334,
                596.8911648998769
              ],
              [
                1675.581656150898,
                596.8855368275315
              ],
              [
                1675.6018465640398,
                596.8788833345885
              ],
              [
                1675.6072465887053,
                596.8765028002417
              ],
              [
                1675.614816476777,
                596.8739495773332
              ],
              [
                1675.631392008016,
                596.8664968380252
              ],
              [
                1675.6496442084801,
                596.8599660962726
              ],
              [
                1675.674805628593,
                596.8480656308477
              ],
              [
                1675.6781755173645,
                596.8467978960649
              ],
              [
                1675.6959219279508,
                596.8380783650543
              ],
              [
                1675.7072048829907,
                596.8327419247526
              ],
              [
                1675.7491972353205,
                596.8150835850645
              ],
              [
                1675.7607089544097,
                596.8088508069407
              ],
              [
                1675.7790707456875,
                596.8007562374686
              ],
              [
                1675.784704463773,
                596.7975640388928
              ],
              [
                1675.7921147077477,
                596.7942322231124
              ],
              [
                1675.8087275419498,
                596.7847252831101
              ],
              [
                1675.827070817402,
                596.7760495599467
              ],
              [
                1675.8356157220694,
                596.7709279411886
              ],
              [
                1675.836806400823,
                596.7703581662446
              ],
              [
                1675.8497999361252,
                596.762471860991
              ],
              [
                1675.8520068231678,
                596.7613875279136
              ],
              [
                1675.8672308035932,
                596.7519785905668
              ],
              [
                1675.8810673177306,
                596.7436853031502
              ],
              [
                1675.9217936615419,
                596.7216348810709
              ],
              [
                1675.936211649245,
                596.7118887964363
              ],
              [
                1675.950468436218,
                596.7038628676182
              ],
              [
                1675.9521492095648,
                596.7026858659156
              ],
              [
                1675.9597386920227,
                596.6983854847598
              ],
              [
                1675.960297184422,
                596.6979873141621
              ],
              [
                1675.9608362543283,
                596.6976788234377
              ],
              [
                1675.9772423547413,
                596.68604020437
              ],
              [
                1675.9954178097892,
                596.6751462558551
              ],
              [
                1675.9961106223425,
                596.6746324310465
              ],
              [
                1675.9968826535392,
                596.6741696933551
              ],
              [
                1675.9975945561996,
                596.6736417103581
              ],
              [
                1675.998354073987,
                596.6731855794699
              ],
              [
                1676.0047991834608,
                596.6683965112018
              ],
              [
                1676.006313145234,
                596.6674776262018
              ],
              [
                1676.0297158708765,
                596.6498820518998
              ],
              [
                1676.0475884628136,
                596.6366017401747
              ],
              [
                1676.0843994140625,
                596.61171875
              ],
              [
                1676.0846435546875,
                596.6115356445313
              ],
              [
                1676.097254194493,
                596.601072632557
              ],
              [
                1676.1112389663745,
                596.5912794618444
              ],
              [
                1676.1132421108568,
                596.5895608878421
              ],
              [
                1676.119387139985,
                596.5852015549486
              ],
              [
                1676.1235140189494,
                596.5816237886394
              ],
              [
                1676.1287113833746,
                596.5779183887049
              ],
              [
                1676.1394861122217,
                596.568407760323
              ],
              [
                1676.1545287558272,
                596.5572513754755
              ],
              [
                1676.1552153295409,
                596.5566291013337
              ],
              [
                1676.1559587834627,
                596.5560766744743
              ],
              [
                1676.1630749688272,
                596.5496146748145
              ],
              [
                1676.1647995345397,
                596.5483180427642
              ],
              [
                1676.1869770529124,
                596.5279098918
              ],
              [
                1676.195299586714,
                596.5203524424306
              ],
              [
                1676.1959015295952,
                596.5198800779602
              ],
              [
                1676.1974124935123,
                596.5184337736058
              ],
              [
                1676.2033098488414,
                596.5130785578297
              ],
              [
                1676.2356926512214,
                596.4862106388113
              ],
              [
                1676.2468456510944,
                596.4749373183091
              ],
              [
                1676.2602002390026,
                596.4634799083261
              ],
              [
                1676.262198377871,
                596.4613924391691
              ],
              [
                1676.2662694742805,
                596.4578630331212
              ],
              [
                1676.2742523958977,
                596.4494523730812
              ],
              [
                1676.2842917261883,
                596.4405908656643
              ],
              [
                1676.2895551149172,
                596.4348706171714
              ],
              [
                1676.299955749873,
                596.4254440311231
              ],
              [
                1676.3006050788304,
                596.4247276070204
              ],
              [
                1676.3013205928175,
                596.4240778697097
              ],
              [
                1676.3088163218665,
                596.4157912069048
              ],
              [
                1676.3107077687,
                596.4140506635371
              ],
              [
                1676.3313254208608,
                596.3909069945506
              ],
              [
                1676.3357454020086,
                596.3860206261754
              ],
              [
                1676.337686451295,
                596.3841626413463
              ],
              [
                1676.342479073643,
                596.3785764314999
              ],
              [
                1676.345690808736,
                596.3750258007929
              ],
              [
                1676.3737304063973,
                596.3466837067571
              ],
              [
                1676.3833958966975,
                596.3347765735459
              ],
              [
                1676.3959176756164,
                596.3216949866264
              ],
              [
                1676.3978517618716,
                596.3192303443311
              ],
              [
                1676.4000956040145,
                596.3168662733366
              ],
              [
                1676.4060616586614,
                596.3092119630735
              ],
              [
                1676.4084507913776,
                596.3066723380283
              ],
              [
                1676.4131066861999,
                596.3006012112918
              ],
              [
                1676.413493002491,
                596.3001749769477
              ],
              [
                1676.4248047389285,
                596.2878813868974
              ],
              [
                1676.4255847843726,
                596.2868337515374
              ],
              [
                1676.4317630942255,
                596.2800170370773
              ],
              [
                1676.4323630732915,
                596.2792080589555
              ],
              [
                1676.4330384416976,
                596.2784614270784
              ],
              [
                1676.4405980503188,
                596.2682465894882
              ],
              [
                1676.4426036813225,
                596.2659952342082
              ],
              [
                1676.4613621029089,
                596.2401893929393
              ],
              [
                1676.4623384639483,
                596.238870095877
              ],
              [
                1676.465486004813,
                596.2352013687182
              ],
              [
                1676.473097367125,
                596.2243322468819
              ],
              [
                1676.4736079135296,
                596.223642376696
              ],
              [
                1676.4974274411734,
                596.1942985689974
              ],
              [
                1676.505597976527,
                596.1819273274257
              ],
              [
                1676.5170842431107,
                596.1672901630488
              ],
              [
                1676.5173036365877,
                596.1669457504319
              ],
              [
                1676.5181828759232,
                596.1658253192988
              ],
              [
                1676.5220462936818,
                596.1597603722463
              ],
              [
                1676.52435674398,
                596.1567884527935
              ],
              [
                1676.5287509955165,
                596.1498050088358
              ],
              [
                1676.5308988253412,
                596.1470043126061
              ],
              [
                1676.5318550978247,
                596.1454570312253
              ],
              [
                1676.5321195284662,
                596.1451122227624
              ],
              [
                1676.5336404334246,
                596.1426513468459
              ],
              [
                1676.548681412105,
                596.1223709347892
              ],
              [
                1676.5492199197536,
                596.121472489056
              ],
              [
                1676.5498427761756,
                596.1206308612004
              ],
              [
                1676.5499648464881,
                596.1204477557317
              ],
              [
                1676.5572094156832,
                596.1083328543657
              ],
              [
                1676.5591908364229,
                596.1056070264564
              ],
              [
                1676.57419017575,
                596.0799704350688
              ],
              [
                1676.578069410587,
                596.0744308385619
              ],
              [
                1676.5865914510007,
                596.0592927881867
              ],
              [
                1676.6055924854852,
                596.0305227777112
              ],
              [
                1676.6114819819304,
                596.0193606671824
              ],
              [
                1676.623631674017,
                596.0002875967004
              ],
              [
                1676.62693461124,
                595.9937693854116
              ],
              [
                1676.6299586090195,
                595.9889635797251
              ],
              [
                1676.635522322359,
                595.9778029877119
              ],
              [
                1676.6379044137802,
                595.9739486828281
              ],
              [
                1676.639036246917,
                595.9716230001685
              ],
              [
                1676.6495847161966,
                595.954023942402
              ],
              [
                1676.6499644451565,
                595.9532210729725
              ],
              [
                1676.650647260652,
                595.9520792186872
              ],
              [
                1676.657438778217,
                595.9376834743903
              ],
              [
                1676.6593232714001,
                595.9344625337438
              ],
              [
                1676.670157272988,
                595.9108513866594
              ],
              [
                1676.6743524288747,
                595.9033993589687
              ],
              [
                1676.6828223570305,
                595.8841523077854
              ],
              [
                1676.697183850827,
                595.8569335832974
              ],
              [
                1676.70094677998,
                595.84770940267
              ],
              [
                1676.7123471731397,
                595.8252111938422
              ],
              [
                1676.715025970702,
                595.8183217692249
              ],
              [
                1676.7184233592707,
                595.8115067402309
              ],
              [
                1676.723647329972,
                595.7977647499522
              ],
              [
                1676.7259554117204,
                595.7930221200312
              ],
              [
                1676.7267317720018,
                595.7909101974939
              ],
              [
                1676.7335012525225,
                595.7765973334801
              ],
              [
                1676.7335704376121,
                595.776403974108
              ],
              [
                1676.733623322835,
                595.7762921576989
              ],
              [
                1676.7336720001178,
                595.7761561138072
              ],
              [
                1676.73386746346,
                595.7757428412926
              ],
              [
                1676.7339601853748,
                595.7754837009006
              ],
              [
                1676.7343502948272,
                595.7746567994211
              ],
              [
                1676.7402909375057,
                595.75800515943
              ],
              [
                1676.7420167609714,
                595.7542439755907
              ],
              [
                1676.749239782126,
                595.7332254573107
              ],
              [
                1676.7534078015767,
                595.7237540565826
              ],
              [
                1676.7611066216562,
                595.7002377858636
              ],
              [
                1676.771319462282,
                595.6752027445917
              ],
              [
                1676.773420094239,
                595.6681417340304
              ],
              [
                1676.7834749945384,
                595.6422821921899
              ],
              [
                1676.7854820885564,
                595.6351044480564
              ],
              [
                1676.788881453872,
                595.6261621993741
              ],
              [
                1676.7932962817974,
                595.60983564772
              ],
              [
                1676.795381283307,
                595.6041638458726
              ],
              [
                1676.7956923097538,
                595.6029539712135
              ],
              [
                1676.7999890699018,
                595.5909453310715
              ],
              [
                1676.8002196606553,
                595.5900247611805
              ],
              [
                1676.800268623021,
                595.5898875195165
              ],
              [
                1676.8041631082065,
                595.5742816360777
              ],
              [
                1676.8049756995056,
                595.5710375897665
              ],
              [
                1676.806458491355,
                595.5667227626429
              ],
              [
                1676.8107017604038,
                595.5487479865048
              ],
              [
                1676.8144741822373,
                595.5372250138696
              ],
              [
                1676.8206406240772,
                595.5094158521481
              ],
              [
                1676.8272853533847,
                595.4870804289152
              ],
              [
                1676.8282078238906,
                595.4823092160477
              ],
              [
                1676.8363301384109,
                595.4532622980288
              ],
              [
                1676.837632096841,
                595.4458766018319
              ],
              [
                1676.8406403436195,
                595.4347517522915
              ],
              [
                1676.843662860494,
                595.4165897855418
              ],
              [
                1676.847678959244,
                595.4005566205948
              ],
              [
                1676.8477684531163,
                595.3999533019138
              ],
              [
                1676.847923099869,
                595.3993359174698
              ],
              [
                1676.851220021116,
                595.3771098797982
              ],
              [
                1676.8520150496086,
                595.37374208506
              ],
              [
                1676.8522221139335,
                595.372190158412
              ],
              [
                1676.8522591902336,
                595.372033100685
              ],
              [
                1676.8540042781558,
                595.3589538392098
              ],
              [
                1676.856963468229,
                595.3456086074782
              ],
              [
                1676.8605517428323,
                595.3158589773705
              ],
              [
                1676.86222863155,
                595.3063463920698
              ],
              [
                1676.8645425420098,
                595.2943783570058
              ],
              [
                1676.8647709417282,
                595.2919244795246
              ],
              [
                1676.8704035808275,
                595.2599718762684
              ],
              [
                1676.8709784596838,
                595.252453396962
              ],
              [
                1676.8731912781982,
                595.2391568173409
              ],
              [
                1676.8743940527204,
                595.2208832486958
              ],
              [
                1676.8767219924068,
                595.2051895540966
              ],
              [
                1676.8780039334922,
                595.1790787948161
              ],
              [
                1676.8784827902182,
                595.1754898109901
              ],
              [
                1676.8788669790886,
                595.1640112053229
              ],
              [
                1676.8804664645004,
                595.1507502081502
              ],
              [
                1676.8811518933192,
                595.1194014514632
              ],
              [
                1676.8826384069412,
                595.0999602739315
              ],
              [
                1676.8827322210643,
                595.0989523551577
              ],
              [
                1676.8827311230486,
                595.0987476982245
              ],
              [
                1676.8853671759116,
                595.0642724193336
              ],
              [
                1676.8852013734895,
                595.0566892835681
              ],
              [
                1676.886214306807,
                595.0412999431967
              ],
              [
                1676.8856281624194,
                595.0237874101435
              ],
              [
                1676.8863525390625,
                595.009033203125
              ],
              [
                1676.8856279796369,
                595.0237819490575
              ],
              [
                1676.8855797291967,
                595.0223403461927
              ],
              [
                1676.885136809963,
                595.03135617432
              ],
              [
                1676.8851331648377,
                595.0312472670719
              ],
              [
                1676.88623046875,
                595.0089111328125
              ],
              [
                1676.8849385991261,
                594.9826063350762
              ],
              [
                1676.8851156739945,
                594.9773157794596
              ],
              [
                1676.8844722722747,
                594.967540675917
              ],
              [
                1676.884756824349,
                594.9545264087914
              ],
              [
                1676.882251099128,
                594.9217556032288
              ],
              [
                1676.881076816063,
                594.8680486199748
              ],
              [
                1676.8801616279309,
                594.8604609876388
              ],
              [
                1676.8795814230307,
                594.8431259116661
              ],
              [
                1676.8772188775001,
                594.82541886645
              ],
              [
                1676.8765999220943,
                594.8128158169972
              ],
              [
                1676.8724442229186,
                594.7848003687925
              ],
              [
                1676.8720926453857,
                594.7794589053153
              ],
              [
                1676.8707572344608,
                594.771434570027
              ],
              [
                1676.869793229265,
                594.7588269518566
              ],
              [
                1676.8638071183964,
                594.724869188496
              ],
              [
                1676.8575738197915,
                594.6731902206468
              ],
              [
                1676.8559019131915,
                594.6656503261291
              ],
              [
                1676.853357823046,
                594.6465826219712
              ],
              [
                1676.8495469545887,
                594.6304395241324
              ],
              [
                1676.8478010295564,
                594.618669453624
              ],
              [
                1676.8404503569182,
                594.5893239234908
              ],
              [
                1676.839541710807,
                594.5838639703647
              ],
              [
                1676.8378434720944,
                594.5775836843533
              ],
              [
                1676.8357197868484,
                594.5655365300962
              ],
              [
                1676.8261268835388,
                594.5312305111281
              ],
              [
                1676.8256093987438,
                594.529038410359
              ],
              [
                1676.8150845337998,
                594.4815738142554
              ],
              [
                1676.8126465666378,
                594.474126972377
              ],
              [
                1676.8078012647925,
                594.4536019443883
              ],
              [
                1676.8028307851228,
                594.4391381742339
              ],
              [
                1676.8001111402143,
                594.4282807431473
              ],
              [
                1676.7893015513905,
                594.3980699662371
              ],
              [
                1676.7877828210594,
                594.3924535232821
              ],
              [
                1676.786036418462,
                594.38785949914
              ],
              [
                1676.782864642976,
                594.3765166359351
              ],
              [
                1676.7694917463111,
                594.3421237557935
              ],
              [
                1676.7682084499322,
                594.3383894474174
              ],
              [
                1676.7540181531392,
                594.2950447715424
              ],
              [
                1676.75079975957,
                594.2877312991477
              ],
              [
                1676.743359534409,
                594.2660807314405
              ],
              [
                1676.7375266319366,
                594.2533687600526
              ],
              [
                1676.7339895337725,
                594.2434832329261
              ],
              [
                1676.7195319784296,
                594.2129153004292
              ],
              [
                1676.7173247264582,
                594.2071089824253
              ],
              [
                1676.7158229431423,
                594.2040964636528
              ],
              [
                1676.7117368215772,
                594.1935876342828
              ],
              [
                1676.6943691791153,
                594.1593133034338
              ],
              [
                1676.6923783109855,
                594.1549744928977
              ],
              [
                1676.6749627804372,
                594.1153994691563
              ],
              [
                1676.6709421320768,
                594.1082574263512
              ],
              [
                1676.6606660448376,
                594.0858621732874
              ],
              [
                1676.654269339123,
                594.0749290430302
              ],
              [
                1676.6500729974466,
                594.0660566240042
              ],
              [
                1676.6318599995648,
                594.0356700728069
              ],
              [
                1676.628859976207,
                594.0296521429311
              ],
              [
                1676.627867273643,
                594.0280745175573
              ],
              [
                1676.6230213224544,
                594.0185112314246
              ],
              [
                1676.601424867004,
                593.9846082556098
              ],
              [
                1676.5990008265894,
                593.9804651308855
              ],
              [
                1676.5786797621495,
                593.9443679895631
              ],
              [
                1676.5738258915176,
                593.9374366007903
              ],
              [
                1676.5605336098604,
                593.9147176805749
              ],
              [
                1676.553866499494,
                593.9055457792482
              ],
              [
                1676.549169693355,
                593.8977096316171
              ],
              [
                1676.527199213597,
                593.8680858689587
              ],
              [
                1676.5269572439852,
                593.867706015426
              ],
              [
                1676.5232581111675,
                593.8618272698627
              ],
              [
                1676.523005243139,
                593.8615020071148
              ],
              [
                1676.5175725243607,
                593.8529735088262
              ],
              [
                1676.491502177511,
                593.8197515781468
              ],
              [
                1676.4890993082379,
                593.8164459661706
              ],
              [
                1676.4660963563756,
                593.7835974594068
              ],
              [
                1676.4603683980283,
                593.7769210357302
              ],
              [
                1676.44394645476,
                593.7543294728231
              ],
              [
                1676.4372907080015,
                593.7468582826683
              ],
              [
                1676.4322513754755,
                593.740063529329
              ],
              [
                1676.409944460032,
                593.7154516408539
              ],
              [
                1676.4089390726276,
                593.714140650253
              ],
              [
                1676.407049979809,
                593.7121325627983
              ],
              [
                1676.3964059568664,
                593.6985686852486
              ],
              [
                1676.365616241489,
                593.6664024618593
              ],
              [
                1676.3638316417891,
                593.6643992180173
              ],
              [
                1676.3382968028575,
                593.6346361867787
              ],
              [
                1676.331644268773,
                593.6282683384765
              ],
              [
                1676.3120505421375,
                593.6062740434942
              ],
              [
                1676.305670276092,
                593.6004028080179
              ],
              [
                1676.300444031123,
                593.5946365352831
              ],
              [
                1676.273846098729,
                593.570529574556
              ],
              [
                1676.2733786425588,
                593.570041219941
              ],
              [
                1676.2710672906278,
                593.5675842751207
              ],
              [
                1676.2708271352103,
                593.5673756429993
              ],
              [
                1676.2606885202526,
                593.5567837635489
              ],
              [
                1676.2249462350455,
                593.5261190947352
              ],
              [
                1676.2244811876399,
                593.5256911497551
              ],
              [
                1676.1965118811577,
                593.4989187501648
              ],
              [
                1676.1888760418287,
                593.4929266547107
              ],
              [
                1676.1661423079772,
                593.472006664267
              ],
              [
                1676.1602784896104,
                593.4675978935392
              ],
              [
                1676.1550170370772,
                593.4628291909307
              ],
              [
                1676.126682284661,
                593.4418147063227
              ],
              [
                1676.1117272476245,
                593.4289842100306
              ],
              [
                1676.0714564599634,
                593.4007836285955
              ],
              [
                1676.04210705758,
                593.3777521826704
              ],
              [
                1676.0334234504269,
                593.3722206583564
              ],
              [
                1676.0076559186714,
                593.3528470808294
              ],
              [
                1676.0025215050186,
                593.3497307962754
              ],
              [
                1675.9973709347892,
                593.3459108730511
              ],
              [
                1675.9677110128528,
                593.3281333999876
              ],
              [
                1675.950956717468,
                593.3164008042568
              ],
              [
                1675.9065570867724,
                593.291405812315
              ],
              [
                1675.8765693349817,
                593.2723033845768
              ],
              [
                1675.866771369152,
                593.267338515441
              ],
              [
                1675.8381491742605,
                593.2499665407867
              ],
              [
                1675.8339249903186,
                593.2479451440315
              ],
              [
                1675.829023942402,
                593.2450075689595
              ],
              [
                1675.798458652188,
                593.2305512633234
              ],
              [
                1675.779925237875,
                593.2201177859689
              ],
              [
                1675.7798031675625,
                593.2200567508127
              ],
              [
                1675.7316062074797,
                593.1988470192371
              ],
              [
                1675.7014929321233,
                593.183587885454
              ],
              [
                1675.6905165054409,
                593.1793199492076
              ],
              [
                1675.6824578133567,
                593.1754636270746
              ],
              [
                1675.680006572052,
                593.1742592328413
              ],
              [
                1675.6796997075273,
                593.1741437919892
              ],
              [
                1675.659288196451,
                593.1643762811932
              ],
              [
                1675.6561196281248,
                593.1632299187067
              ],
              [
                1675.6515973334801,
                593.1610910326336
              ],
              [
                1675.6206339201076,
                593.1500121461775
              ],
              [
                1675.6001578651762,
                593.1410013781108
              ],
              [
                1675.5483284099737,
                593.1240333113968
              ],
              [
                1675.5185639304711,
                593.1124600640552
              ],
              [
                1675.507532475133,
                593.1093753667454
              ],
              [
                1675.4987288940074,
                593.1060635049115
              ],
              [
                1675.4963135023809,
                593.1054133502116
              ],
              [
                1675.4728310519117,
                593.0969175888654
              ],
              [
                1675.4708256087238,
                593.0964098752639
              ],
              [
                1675.466799823259,
                593.0949694261918
              ],
              [
                1675.4664710660877,
                593.0948870768074
              ],
              [
                1675.4661894716965,
                593.0947863207231
              ],
              [
                1675.435548972256,
                593.0871112751595
              ],
              [
                1675.4136288224634,
                593.0799349974501
              ],
              [
                1675.3586529732133,
                593.0677445768832
              ],
              [
                1675.3295440363102,
                593.0596049201829
              ],
              [
                1675.3196524419861,
                593.057861219349
              ],
              [
                1675.3117048772915,
                593.0557219610679
              ],
              [
                1675.307265046068,
                593.0549778244473
              ],
              [
                1675.2983923382615,
                593.0527553268402
              ],
              [
                1675.2806104718238,
                593.0482535311752
              ],
              [
                1675.2801366375036,
                593.0481825118512
              ],
              [
                1675.2758007612197,
                593.0470964313811
              ],
              [
                1675.2447896619592,
                593.0424963693476
              ],
              [
                1675.222012416072,
                593.0374457114585
              ],
              [
                1675.1644645410825,
                593.0305045300881
              ],
              [
                1675.1362536145498,
                593.0255314777662
              ],
              [
                1675.1276514292592,
                593.0248737364544
              ],
              [
                1675.1206884450028,
                593.0237067075037
              ],
              [
                1675.1158684368538,
                593.0233727121068
              ],
              [
                1675.0816543978467,
                593.0182975388431
              ],
              [
                1675.050617674721,
                593.0167728024087
              ],
              [
                1675.027154016744,
                593.0139427151872
              ],
              [
                1674.9676865211127,
                593.0126424806774
              ],
              [
                1674.9405541576148,
                593.010567882682
              ],
              [
                1674.9333503754879,
                593.010725390679
              ],
              [
                1674.9274709613662,
                593.0103179852987
              ],
              [
                1674.9221994414988,
                593.0104640191577
              ],
              [
                1674.8856201171875,
                593.0086669921875
              ],
              [
                1674.8536536656493,
                593.0101491950202
              ],
              [
                1674.8309302173852,
                593.0096523553383
              ],
              [
                1674.7794105269863,
                593.0135916600153
              ],
              [
                1674.7590223560817,
                593.0145370075036
              ],
              [
                1674.744330358256,
                593.014858242531
              ],
              [
                1674.7394818252424,
                593.0154430520837
              ],
              [
                1674.7350517613365,
                593.0156484628488
              ],
              [
                1674.7338644322065,
                593.0156813547394
              ],
              [
                1674.7335833892007,
                593.0157165475199
              ],
              [
                1674.7003046754576,
                593.0172595966044
              ],
              [
                1674.6940717208877,
                593.0181321997024
              ],
              [
                1674.6894637662158,
                593.0183585739993
              ],
              [
                1674.6605479864343,
                593.0226478247487
              ],
              [
                1674.6505517893722,
                593.0233404965662
              ],
              [
                1674.6494109887283,
                593.0235317001262
              ],
              [
                1674.6462980435908,
                593.0237697225065
              ],
              [
                1674.6460460252033,
                593.0237876839416
              ],
              [
                1674.6460320363778,
                593.0237900619816
              ],
              [
                1674.6352307604502,
                593.0246159504225
              ],
              [
                1674.5868914348507,
                593.0331372584742
              ],
              [
                1674.5502294972239,
                593.0382698677358
              ],
              [
                1674.549471958928,
                593.0383612388023
              ],
              [
                1674.549292334968,
                593.0384010688667
              ],
              [
                1674.5167025974213,
                593.0429635770045
              ],
              [
                1674.505056952807,
                593.0457127407752
              ],
              [
                1674.4953174028428,
                593.0471574665373
              ],
              [
                1674.4687611233778,
                593.0538094682545
              ],
              [
                1674.4595353570835,
                593.0553557501304
              ],
              [
                1674.4581444651149,
                593.0557301386729
              ],
              [
                1674.4544001795143,
                593.0563666510745
              ],
              [
                1674.453081304978,
                593.0567254513783
              ],
              [
                1674.4419403386898,
                593.0586893928391
              ],
              [
                1674.3977901014935,
                593.0710350094176
              ],
              [
                1674.336269432793,
                593.0855580692522
              ],
              [
                1674.3195316302722,
                593.0911895103534
              ],
              [
                1674.304928692366,
                593.0948473558793
              ],
              [
                1674.2809637902635,
                593.1034221349623
              ],
              [
                1674.2725113403676,
                593.105697293974
              ],
              [
                1674.2710491136786,
                593.1062473761161
              ],
              [
                1674.2668224661384,
                593.1073972371373
              ],
              [
                1674.2642244168294,
                593.1083836361886
              ],
              [
                1674.2529204445289,
                593.1115445367114
              ],
              [
                1674.2136601660552,
                593.1268100115684
              ],
              [
                1674.1605555723797,
                593.1446770757253
              ],
              [
                1674.1391806306158,
                593.1541529606703
              ],
              [
                1674.1201311821449,
                593.1609689623211
              ],
              [
                1674.098916311201,
                593.1710028490027
              ],
              [
                1674.091233662323,
                593.1738930219038
              ],
              [
                1674.0897126026964,
                593.1746403801665
              ],
              [
                1674.0850850029788,
                593.1763973368014
              ],
              [
                1674.0812791405172,
                593.178283391164
              ],
              [
                1674.0699914428767,
                593.1826723581103
              ],
              [
                1674.036030253626,
                593.1998813240588
              ],
              [
                1673.991070855875,
                593.2198126101877
              ],
              [
                1673.9670761650632,
                593.2333585941742
              ],
              [
                1673.942704573223,
                593.244885498647
              ],
              [
                1673.9243229288272,
                593.2559030323009
              ],
              [
                1673.9174023565197,
                593.2593033900552
              ],
              [
                1673.915837125671,
                593.2602707559199
              ],
              [
                1673.9109047328773,
                593.2627150799175
              ],
              [
                1673.9060089999477,
                593.2657662761615
              ],
              [
                1673.8949150400183,
                593.2713878572331
              ],
              [
                1673.8575373291692,
                593.2951977455332
              ],
              [
                1673.8157312684386,
                593.3187989760571
              ],
              [
                1673.7951441243752,
                593.3333298280103
              ],
              [
                1673.7743575808358,
                593.3457888027386
              ],
              [
                1673.7588166157689,
                593.3573147679703
              ],
              [
                1673.7526476239755,
                593.3611274145749
              ],
              [
                1673.7510557925693,
                593.3623386691344
              ],
              [
                1673.745927203002,
                593.3655349899816
              ],
              [
                1673.7401058090963,
                593.3700025238979
              ],
              [
                1673.72937731742,
                593.3768366553267
              ],
              [
                1673.692464921416,
                593.405803032271
              ],
              [
                1673.6513405344335,
                593.4348295148692
              ],
              [
                1673.6344058468414,
                593.4495413203957
              ],
              [
                1673.6296956837607,
                593.4529651663339
              ],
              [
                1673.6289436188765,
                593.4536351470614
              ]
            ],
            [
              [
                1676.8478128547756,
                595.3996539702412
              ],
              [
                1676.8510503228956,
                595.377828732995
              ],
              [
                1676.8511712979298,
                595.3773162745275
              ],
              [
                1676.847923099869,
                595.3992138471573
              ],
              [
                1676.8478128547756,
                595.3996539702412
              ]
            ],
            [
              [
                1676.8744084965283,
                595.2206638061397
              ],
              [
                1676.8744443591286,
                595.2201189511607
              ],
              [
                1676.8764778517818,
                595.2064102572216
              ],
              [
                1676.8765250026436,
                595.2054504793829
              ],
              [
                1676.8765999220943,
                595.2049454134716
              ],
              [
                1676.877793002667,
                595.1806597005005
              ],
              [
                1676.8779957051383,
                595.1791404655149
              ],
              [
                1676.8767219924068,
                595.2050674837841
              ],
              [
                1676.8744084965283,
                595.2206638061397
              ]
            ]
          ]
        ]
      }
    }
  ]
}