{
  "type": "FeatureCollection",
  "features": [
    {
      "type": "Feature",
      "properties": {
        "image_id": "0005_top_20250709_t1",
        "zone_type": "parking_spot",
        "generated_at": "2025-11-03T11:20:39",
        "source": "merged_t1_polygons"
      },
      "geometry": {
        "type": "MultiPolygon",
        "coordinates": [
          [
            [
              [
                1328.7866099664584,
                250.31075388843402
              ],
              [
                1328.7640870683688,
                250.32376326592146
              ],
              [
                1328.7434110247004,
                250.33863378709427
              ],
              [
                1328.7425473046767,
                250.3391487350578
              ],
              [
                1328.7421648967206,
                250.33943109399414
              ],
              [
                1328.73382507985,
                250.34445521538535
              ],
              [
                1328.724550010097,
                250.35136325779823
              ],
              [
                1328.7215704272269,
                250.35322207773967
              ],
              [
                1328.724177743442,
                250.3512883602445
              ],
              [
                1328.7109079807249,
                250.35956673363876
              ],
              [
                1328.6987098064565,
                250.3689219462597
              ],
              [
                1328.6844607285723,
                250.3781113038568
              ],
              [
                1328.6686351247135,
                250.3906710300531
              ],
              [
                1328.6499755859375,
                250.40331115722657
              ],
              [
                1328.636492233977,
                250.41455366493702
              ],
              [
                1328.633897196889,
                250.41634469792822
              ],
              [
                1328.625484557963,
                250.42344827329794
              ],
              [
                1328.602249950341,
                250.44015895209748
              ],
              [
                1328.5856322454908,
                250.45482876645218
              ],
              [
                1328.5767580506233,
                250.46143823852694
              ],
              [
                1328.5692227020902,
                250.46829281088958
              ],
              [
                1328.568425438778,
                250.46890426040966
              ],
              [
                1328.5688745421912,
                250.46849721680232
              ],
              [
                1328.5578555674713,
                250.47694805945318
              ],
              [
                1328.557478456524,
                250.47729988948404
              ],
              [
                1328.5561465830963,
                250.4783213504688
              ],
              [
                1328.5444882768275,
                250.48919810248026
              ],
              [
                1328.5309042189238,
                250.49997886316586
              ],
              [
                1328.511353031346,
                250.5188955566686
              ],
              [
                1328.4917784425627,
                250.5352169777787
              ],
              [
                1328.4745275053629,
                250.55291005543253
              ],
              [
                1328.4528038886417,
                250.5720872779962
              ],
              [
                1328.4402934866932,
                250.5855740000353
              ],
              [
                1328.4318855652539,
                250.59322231327147
              ],
              [
                1328.425964568997,
                250.5997761699817
              ],
              [
                1328.4151131251185,
                250.60990015037038
              ],
              [
                1328.4022659752252,
                250.624442413991
              ],
              [
                1328.39001642602,
                250.6362944289613
              ],
              [
                1328.3684135339693,
                250.6617437213524
              ],
              [
                1328.3479868411898,
                250.6826939490049
              ],
              [
                1328.3350606535125,
                250.69901927352407
              ],
              [
                1328.317233600323,
                250.71823756180405
              ],
              [
                1328.3083807825146,
                250.72992779558717
              ],
              [
                1328.3005967726601,
                250.73854379245722
              ],
              [
                1328.2961370551056,
                250.74457448584923
              ],
              [
                1328.2874103540485,
                250.75445262912368
              ],
              [
                1328.2739494901828,
                250.7730271117955
              ],
              [
                1328.2631509752496,
                250.7857483050172
              ],
              [
                1328.2457034068448,
                250.81093804589003
              ],
              [
                1328.2286315131562,
                250.83225299257236
              ],
              [
                1328.2242422640022,
                250.83897903711542
              ],
              [
                1328.2201258888056,
                250.8441778755204
              ],
              [
                1328.2110000712507,
                250.85851999134556
              ],
              [
                1328.1968859493747,
                250.87715782936976
              ],
              [
                1328.1911578705583,
                250.88653353747966
              ],
              [
                1328.1841505708576,
                250.896009221867
              ],
              [
                1328.1809749491474,
                250.90132155252522
              ],
              [
                1328.1742260147425,
                250.9106343251977
              ],
              [
                1328.1607973669009,
                250.93352023586124
              ],
              [
                1328.1515267677778,
                250.94690456450982
              ],
              [
                1328.1383078580452,
                250.97066412081887
              ],
              [
                1328.1225120415615,
                250.99486948295137
              ],
              [
                1328.114617024692,
                251.0099953861822
              ],
              [
                1328.109551726033,
                251.01795599898415
              ],
              [
                1328.1036312876063,
                251.02979687583738
              ],
              [
                1328.0929565658962,
                251.04726923928013
              ],
              [
                1328.0897553715288,
                251.05391798970686
              ],
              [
                1328.0836635356743,
                251.06410870173985
              ],
              [
                1328.081574431389,
                251.06853673536386
              ],
              [
                1328.0766128182397,
                251.07699261540643
              ],
              [
                1328.06391960639,
                251.10436893382484
              ],
              [
                1328.0562162695583,
                251.11821484615257
              ],
              [
                1328.046736925358,
                251.14004549637082
              ],
              [
                1328.0326624659501,
                251.16701046864955
              ],
              [
                1328.0227255307227,
                251.19160838960485
              ],
              [
                1328.017437143401,
                251.2021851642484
              ],
              [
                1328.0140711615695,
                251.21111101377963
              ],
              [
                1328.0064779677482,
                251.22688176833714
              ],
              [
                1328.005159963576,
                251.2305036774767
              ],
              [
                1328.0000992141631,
                251.24123036485256
              ],
              [
                1327.9988824441252,
                251.24463903128242
              ],
              [
                1327.9954786506498,
                251.25198022554554
              ],
              [
                1327.9842656028925,
                251.28391511019362
              ],
              [
                1327.978135207266,
                251.29803323058164
              ],
              [
                1327.971852020898,
                251.3175408370605
              ],
              [
                1327.9599297413333,
                251.34705328568072
              ],
              [
                1327.949604076414,
                251.38206366017454
              ],
              [
                1327.9447591422934,
                251.39491136854477
              ],
              [
                1327.943402847272,
                251.40005988602772
              ],
              [
                1327.9405192820536,
                251.40813792185295
              ],
              [
                1327.9383093026918,
                251.414211001604
              ],
              [
                1327.9382045898155,
                251.41462231371105
              ],
              [
                1327.93425888537,
                251.42567583234322
              ],
              [
                1327.9336874948026,
                251.42796212421936
              ],
              [
                1327.9315781290377,
                251.43396962136399
              ],
              [
                1327.9226137776643,
                251.47041236059346
              ],
              [
                1327.9180337701548,
                251.48463205406276
              ],
              [
                1327.9143691966012,
                251.50153164089528
              ],
              [
                1327.904999473015,
                251.53330078450205
              ],
              [
                1327.8973751382982,
                251.5730148930697
              ],
              [
                1327.8935789996694,
                251.58844731917185
              ],
              [
                1327.8867738770539,
                251.6156764990754
              ],
              [
                1327.8866119865231,
                251.61677028786403
              ],
              [
                1327.8855055828385,
                251.62126814602294
              ],
              [
                1327.8795630593734,
                251.66204399787168
              ],
              [
                1327.8764894023698,
                251.67621850758368
              ],
              [
                1327.8748519429844,
                251.69033511275973
              ],
              [
                1327.868389453826,
                251.72399732796748
              ],
              [
                1327.8646284555784,
                251.7645208657102
              ],
              [
                1327.8576895260883,
                251.81213376325022
              ],
              [
                1327.8555263375968,
                251.85694195717787
              ],
              [
                1327.8539012549647,
                251.87095186185093
              ],
              [
                1327.853704978113,
                251.88221779673793
              ],
              [
                1327.8504447832165,
                251.91734534060643
              ],
              [
                1327.8506325176909,
                251.9583123334733
              ],
              [
                1327.848388671875,
                252.00479125976562
              ],
              [
                1327.848388671875,
                252.0054168701172
              ],
              [
                1327.850768162298,
                252.05078569175015
              ],
              [
                1327.8504863509274,
                252.0669611526965
              ],
              [
                1327.8511691266094,
                252.07540991950836
              ],
              [
                1327.8513346142254,
                252.1115222532286
              ],
              [
                1327.8565426712069,
                252.16255042656078
              ],
              [
                1327.8587363064532,
                252.20614931772678
              ],
              [
                1327.8589498928936,
                252.20755456365552
              ],
              [
                1327.8591171126043,
                252.21079764257794
              ],
              [
                1327.8591824008456,
                252.21121671687501
              ],
              [
                1327.8593615338002,
                252.21463217549018
              ],
              [
                1327.8656016824268,
                252.25400049006683
              ],
              [
                1327.8662775000614,
                252.26236315697588
              ],
              [
                1327.8673173922696,
                252.26812038018764
              ],
              [
                1327.8710505589793,
                252.3046976831289
              ],
              [
                1327.8809904318423,
                252.35402697627512
              ],
              [
                1327.8832058226233,
                252.36998859925976
              ],
              [
                1327.8840485229928,
                252.37359001018638
              ],
              [
                1327.887428462631,
                252.39637571239163
              ],
              [
                1327.887989926057,
                252.3986172000336
              ],
              [
                1327.8889447077233,
                252.40489898013163
              ],
              [
                1327.889991354575,
                252.40897423578522
              ],
              [
                1327.8908237287615,
                252.41431710641203
              ],
              [
                1327.8912988415534,
                252.41612064213075
              ],
              [
                1327.8921597158774,
                252.42155179020466
              ],
              [
                1327.900954808131,
                252.4543494045475
              ],
              [
                1327.901122983755,
                252.4552804862481
              ],
              [
                1327.902052328331,
                252.45855230375153
              ],
              [
                1327.9094067677613,
                252.49505068794514
              ],
              [
                1327.922572472122,
                252.53822809077914
              ],
              [
                1327.925086973829,
                252.5489742044046
              ],
              [
                1327.9265193255972,
                252.55327056962395
              ],
              [
                1327.9310418504865,
                252.57193580761665
              ],
              [
                1327.932357080799,
                252.5757408104134
              ],
              [
                1327.9351183519732,
                252.5867644228683
              ],
              [
                1327.9364799009231,
                252.59056969726367
              ],
              [
                1327.9370874274814,
                252.59296997194198
              ],
              [
                1327.9376375552324,
                252.5944909153641
              ],
              [
                1327.9389528059103,
                252.59961201495224
              ],
              [
                1327.9413722545933,
                252.6062001148096
              ],
              [
                1327.9432942985434,
                252.61349622422867
              ],
              [
                1327.944463347976,
                252.61659628829682
              ],
              [
                1327.9464233281828,
                252.62390521389872
              ],
              [
                1327.9572519651645,
                252.65209129634047
              ],
              [
                1327.9599797770504,
                252.66146272023263
              ],
              [
                1327.960690305584,
                252.66323690196208
              ],
              [
                1327.9660416808974,
                252.68078693052792
              ],
              [
                1327.981294136853,
                252.7175686137388
              ],
              [
                1327.9832244379788,
                252.72335858712728
              ],
              [
                1327.983966681805,
                252.7250490146935
              ],
              [
                1327.9931462653738,
                252.75160583962432
              ],
              [
                1327.9963150479073,
                252.75855390341619
              ],
              [
                1327.9974717750083,
                252.76184629133516
              ],
              [
                1327.998747517791,
                252.7645960281985
              ],
              [
                1328.001239958415,
                252.77156193308954
              ],
              [
                1328.0031293701823,
                252.77555675863186
              ],
              [
                1328.0045157340323,
                252.77938965194474
              ],
              [
                1328.0064936080873,
                252.78352397486896
              ],
              [
                1328.0082553444965,
                252.78832114021867
              ],
              [
                1328.0098086667758,
                252.79151623428933
              ],
              [
                1328.0111124674092,
                252.79504948845357
              ],
              [
                1328.011184920549,
                252.79519776683512
              ],
              [
                1328.0119194391934,
                252.79718362943785
              ],
              [
                1328.014718843344,
                252.8028985358397
              ],
              [
                1328.015972299651,
                252.80622242852505
              ],
              [
                1328.0177548807417,
                252.80978759070643
              ],
              [
                1328.019960795296,
                252.8155541259967
              ],
              [
                1328.0203494748082,
                252.816329105006
              ],
              [
                1328.0215569435911,
                252.8194720503941
              ],
              [
                1328.0294877726888,
                252.8350234008752
              ],
              [
                1328.0325745070018,
                252.84273094161802
              ],
              [
                1328.035669841681,
                252.8486970008766
              ],
              [
                1328.0404214369512,
                252.8601555930197
              ],
              [
                1328.0557620909635,
                252.88890107714403
              ],
              [
                1328.0720285398613,
                252.924567874539
              ],
              [
                1328.0768328451827,
                252.9329011960937
              ],
              [
                1328.078693548497,
                252.93691175728625
              ],
              [
                1328.0825551760709,
                252.94348851578826
              ],
              [
                1328.0851564947409,
                252.94898854201136
              ],
              [
                1328.085606322956,
                252.94973903504805
              ],
              [
                1328.0863771978659,
                252.9513689131051
              ],
              [
                1328.0864300883152,
                252.9514571554888
              ],
              [
                1328.0890661006817,
                252.95700210100523
              ],
              [
                1328.095151213228,
                252.9670990016648
              ],
              [
                1328.1009347640688,
                252.97890596127024
              ],
              [
                1328.1058420458144,
                252.98679074726348
              ],
              [
                1328.1091496303459,
                252.9933856628743
              ],
              [
                1328.113629572689,
                253.00046209037276
              ],
              [
                1328.114595040338,
                253.00237634443724
              ],
              [
                1328.1157545863111,
                253.0041816864735
              ],
              [
                1328.1167361313148,
                253.0061063717967
              ],
              [
                1328.1197159614123,
                253.01069051134832
              ],
              [
                1328.1224997595266,
                253.0160561038399
              ],
              [
                1328.127350181413,
                253.02352010576118
              ],
              [
                1328.12811593281,
                253.0249787690001
              ],
              [
                1328.1295278498153,
                253.02712415735002
              ],
              [
                1328.1318449050968,
                253.0314658807053
              ],
              [
                1328.1453691034446,
                253.05178095915153
              ],
              [
                1328.1669760065427,
                253.08925927480303
              ],
              [
                1328.1736960341498,
                253.0987109969292
              ],
              [
                1328.1764103981027,
                253.10333384464397
              ],
              [
                1328.1811035314126,
                253.10980507783378
              ],
              [
                1328.18837913477,
                253.12194368869547
              ],
              [
                1328.1888729231566,
                253.12260948526105
              ],
              [
                1328.1908302522008,
                253.12585724062598
              ],
              [
                1328.200155205515,
                253.13835561309241
              ],
              [
                1328.2066080755808,
                253.14876754989328
              ],
              [
                1328.206838740161,
                253.1490674132902
              ],
              [
                1328.2078569654345,
                253.15070344904117
              ],
              [
                1328.2127652550603,
                253.1570548353439
              ],
              [
                1328.2155645819605,
                253.16147659623675
              ],
              [
                1328.2223687429762,
                253.1701733962692
              ],
              [
                1328.2267418893719,
                253.17698211726932
              ],
              [
                1328.2285225216413,
                253.17920770562534
              ],
              [
                1328.2288983634558,
                253.17978606439328
              ],
              [
                1328.235142443689,
                253.1876040711403
              ],
              [
                1328.2365242820006,
                253.18970375533127
              ],
              [
                1328.2518153938581,
                253.20858591468325
              ],
              [
                1328.2771308559136,
                253.24419212448376
              ],
              [
                1328.2860060652285,
                253.25445231320805
              ],
              [
                1328.2897124604021,
                253.25956296016346
              ],
              [
                1328.294254616598,
                253.26470025020592
              ],
              [
                1328.3052974526495,
                253.27958979098355
              ],
              [
                1328.306607550532,
                253.28103526124832
              ],
              [
                1328.3087246223236,
                253.2838728037966
              ],
              [
                1328.3202661196328,
                253.29652273263798
              ],
              [
                1328.3295669078698,
                253.30861373488165
              ],
              [
                1328.3313404999064,
                253.31049264024193
              ],
              [
                1328.3315915145572,
                253.31081745624442
              ],
              [
                1328.3362295389704,
                253.31570560398757
              ],
              [
                1328.3381527086774,
                253.31816372076813
              ],
              [
                1328.3458005516052,
                253.32615543530838
              ],
              [
                1328.3507561229637,
                253.33236014262627
              ],
              [
                1328.3524428079631,
                253.33409400700657
              ],
              [
                1328.3564997220076,
                253.33916468937858
              ],
              [
                1328.379978989018,
                253.3630897434742
              ],
              [
                1328.4014978863113,
                253.38796667195382
              ],
              [
                1328.4127207964764,
                253.39868840473406
              ],
              [
                1328.4175447545745,
                253.4041444196385
              ],
              [
                1328.4207703624768,
                253.40715102973957
              ],
              [
                1328.4213586347507,
                253.40781632916637
              ],
              [
                1328.4223436788957,
                253.4087304009475
              ],
              [
                1328.437104797002,
                253.42501678502936
              ],
              [
                1328.439394454455,
                253.42709200957987
              ],
              [
                1328.4416036314344,
                253.42951335326177
              ],
              [
                1328.455433571264,
                253.44195417826174
              ],
              [
                1328.4679980252722,
                253.45526469133253
              ],
              [
                1328.4826542474138,
                253.46794767669712
              ],
              [
                1328.486911484924,
                253.47232399621151
              ],
              [
                1328.4884709095552,
                253.47364153653749
              ],
              [
                1328.494713806042,
                253.48000296324184
              ],
              [
                1328.5196342173103,
                253.50082743212963
              ],
              [
                1328.5389534951325,
                253.51928397604485
              ],
              [
                1328.5526644036377,
                253.53009032317794
              ],
              [
                1328.558717005563,
                253.5357319927911
              ],
              [
                1328.5615222026722,
                253.53788112151867
              ],
              [
                1328.5659601968348,
                253.54199935850264
              ],
              [
                1328.5672844585188,
                253.54300475270904
              ],
              [
                1328.5825317910478,
                253.55682412938174
              ],
              [
                1328.5859376235826,
                253.5593500669417
              ],
              [
                1328.588176094178,
                253.56136369977642
              ],
              [
                1328.6043166300587,
                253.57323007509316
              ],
              [
                1328.6204939405698,
                253.58722935747753
              ],
              [
                1328.634852678281,
                253.59731784600083
              ],
              [
                1328.636066610881,
                253.59834348399656
              ],
              [
                1328.6375792262775,
                253.59938688780082
              ],
              [
                1328.646133944451,
                253.60653554439924
              ],
              [
                1328.6718808969767,
                253.62405162490597
              ],
              [
                1328.6882558301004,
                253.63695764142184
              ],
              [
                1328.7045385829367,
                253.6474493976044
              ],
              [
                1328.7119147269914,
                253.65310043832258
              ],
              [
                1328.714050538257,
                253.65443119359603
              ],
              [
                1328.7230772780558,
                253.66128439489694
              ],
              [
                1328.7248378659265,
                253.66236550755332
              ],
              [
                1328.7401778933358,
                253.67374244726133
              ],
              [
                1328.7448048538781,
                253.67651574068336
              ],
              [
                1328.7470177659081,
                253.67814265350003
              ],
              [
                1328.7654425851856,
                253.689070672994
              ],
              [
                1328.7855041638468,
                253.7031659932201
              ],
              [
                1328.8007702088516,
                253.71173716986536
              ],
              [
                1328.8092861169866,
                253.71753068396495
              ],
              [
                1328.8352262677602,
                253.7316577215298
              ],
              [
                1328.8480560088653,
                253.73992453715456
              ],
              [
                1328.8665802180108,
                253.7495050850353
              ],
              [
                1328.8681654723891,
                253.75045524994374
              ],
              [
                1328.8757114606412,
                253.75515691240886
              ],
              [
                1328.8769464356044,
                253.75576982015494
              ],
              [
                1328.891181337507,
                253.76451095308374
              ],
              [
                1328.8934701431579,
                253.76562228591692
              ],
              [
                1328.908524885723,
                253.77464575135295
              ],
              [
                1328.9144421339781,
                253.7774444013479
              ],
              [
                1328.9165851820721,
                253.7787154733185
              ],
              [
                1328.9370693762878,
                253.78827723289035
              ],
              [
                1328.9484902293216,
                253.79478216464187
              ],
              [
                1328.949427940367,
                253.79520159539862
              ],
              [
                1328.9613509669703,
                253.8018958221697
              ],
              [
                1328.9755599980344,
                253.80808364119807
              ],
              [
                1328.9825820962928,
                253.8119078844242
              ],
              [
                1329.008083271622,
                253.8226891421661
              ],
              [
                1329.0169103055762,
                253.82725440164793
              ],
              [
                1329.0172765165137,
                253.82742224832762
              ],
              [
                1329.032830649668,
                253.8336302281551
              ],
              [
                1329.035829327557,
                253.83515329420928
              ],
              [
                1329.0393389683572,
                253.83651620462953
              ],
              [
                1329.0446702980255,
                253.83903773577126
              ],
              [
                1329.0472740980772,
                253.84030201458296
              ],
              [
                1329.0485820585232,
                253.84095114441376
              ],
              [
                1329.0488261991482,
                253.8410579559372
              ],
              [
                1329.0488480704682,
                253.84106625911198
              ],
              [
                1329.0686369455486,
                253.85067477550146
              ],
              [
                1329.0715336891014,
                253.85174317351118
              ],
              [
                1329.0859514946449,
                253.85856228767884
              ],
              [
                1329.093189314588,
                253.86115202106433
              ],
              [
                1329.0952306560569,
                253.8621048931238
              ],
              [
                1329.11286144074,
                253.86830411142628
              ],
              [
                1329.125770204313,
                253.87407809958563
              ],
              [
                1329.1315573321722,
                253.8760181307622
              ],
              [
                1329.1462464417566,
                253.88241501675571
              ],
              [
                1329.1590501930723,
                253.88651417256807
              ],
              [
                1329.1643349087267,
                253.88874841788532
              ],
              [
                1329.1941159278056,
                253.89800255563884
              ],
              [
                1329.203002538136,
                253.90154938766844
              ],
              [
                1329.217616140236,
                253.90574716844276
              ],
              [
                1329.2213477234613,
                253.907196266499
              ],
              [
                1329.2235156473926,
                253.9077982639221
              ],
              [
                1329.2537176943708,
                253.91893760238705
              ],
              [
                1329.2572836738696,
                253.91986592165074
              ],
              [
                1329.270749004866,
                253.92468389412068
              ],
              [
                1329.2792968868011,
                253.92682502708266
              ],
              [
                1329.2812182897603,
                253.9275006179089
              ],
              [
                1329.2956207152793,
                253.93101744750678
              ],
              [
                1329.309905191201,
                253.93580606274116
              ],
              [
                1329.3209769935502,
                253.93835547821317
              ],
              [
                1329.3309354921546,
                253.94154371863038
              ],
              [
                1329.3343149734667,
                253.9426283616785
              ],
              [
                1329.3343411769429,
                253.9426340578795
              ],
              [
                1329.3383106783824,
                253.94390490456317
              ],
              [
                1329.349410845589,
                253.94625881435775
              ],
              [
                1329.3527752564353,
                253.94730426956355
              ],
              [
                1329.3861551361408,
                253.95416026686217
              ],
              [
                1329.3952026109378,
                253.95675916859074
              ],
              [
                1329.4077769231744,
                253.9590433152486
              ],
              [
                1329.4123095725238,
                253.9602232843729
              ],
              [
                1329.4131075990108,
                253.96044488342528
              ],
              [
                1329.4132662283564,
                253.96047232731846
              ],
              [
                1329.444622993653,
                253.96863532693237
              ],
              [
                1329.4488958121478,
                253.9693073463444
              ],
              [
                1329.4611377153428,
                253.9723737834627
              ],
              [
                1329.470943680164,
                253.97382836093823
              ],
              [
                1329.4727408413125,
                253.9742671974044
              ],
              [
                1329.4836664643628,
                253.97581668289763
              ],
              [
                1329.499158979591,
                253.97938402060632
              ],
              [
                1329.5096901085483,
                253.98075200657976
              ],
              [
                1329.522794889449,
                253.98360076853987
              ],
              [
                1329.5289051354082,
                253.9843225082652
              ],
              [
                1329.535590879217,
                253.98574029211858
              ],
              [
                1329.544745911755,
                253.9867337194566
              ],
              [
                1329.5460687408292,
                253.98700541943393
              ],
              [
                1329.576117884366,
                253.99013794277414
              ],
              [
                1329.5831617004603,
                253.99090227861268
              ],
              [
                1329.5919552633227,
                253.99249964527934
              ],
              [
                1329.6008936342405,
                253.99321322654058
              ],
              [
                1329.6394955879202,
                253.99928445616283
              ],
              [
                1329.6444850873693,
                253.99957079695486
              ],
              [
                1329.6552840787158,
                254.00117267600064
              ],
              [
                1329.6662552800542,
                254.0017116565606
              ],
              [
                1329.667937286046,
                254.00195020074904
              ],
              [
                1329.6752654684058,
                254.00226012510652
              ],
              [
                1329.6917470938636,
                254.00440107623695
              ],
              [
                1329.7015496323465,
                254.00471520483273
              ],
              [
                1329.7143451139868,
                254.0062266018315
              ],
              [
                1329.7268079235675,
                254.00648956183028
              ],
              [
                1329.736081213734,
                254.00749582149416
              ],
              [
                1329.7841402827385,
                254.00784244429755
              ],
              [
                1329.7912935104325,
                254.00841351136185
              ],
              [
                1329.7966638811251,
                254.00830413719805
              ],
              [
                1329.8364396251768,
                254.01058681468322
              ],
              [
                1329.8421252028807,
                254.01035159183826
              ],
              [
                1329.851318359375,
                254.01080322265625
              ],
              [
                1329.8633229556278,
                254.0102134746596
              ],
              [
                1329.8649109000728,
                254.0102806321944
              ],
              [
                1329.868646336529,
                254.0100699252591
              ],
              [
                1329.885853619013,
                254.01062134359765
              ],
              [
                1329.894845508895,
                254.01003508364445
              ],
              [
                1329.9071840663676,
                254.01029542197642
              ],
              [
                1329.9261057606436,
                254.0088663607602
              ],
              [
                1329.9377432126325,
                254.0089502951001
              ],
              [
                1329.98557902223,
                254.00445664942285
              ],
              [
                1329.9912245185794,
                254.00434167198873
              ],
              [
                1329.9932167928632,
                254.00410065385134
              ],
              [
                1330.0335391010328,
                254.0024324455289
              ],
              [
                1330.0398685243817,
                254.00154034702595
              ],
              [
                1330.0473526400342,
                254.00117267600064
              ],
              [
                1330.0602228845971,
                253.99926355556354
              ],
              [
                1330.0617476907498,
                253.99917754493663
              ],
              [
                1330.0620143946571,
                253.99913588176037
              ],
              [
                1330.0796483229228,
                253.9979861717333
              ],
              [
                1330.0877710685074,
                253.99665658619654
              ],
              [
                1330.0995181796084,
                253.9957693854717
              ],
              [
                1330.1248349035761,
                253.99137509828967
              ],
              [
                1330.138526493808,
                253.9900889246934
              ],
              [
                1330.1822774775285,
                253.98146856371983
              ],
              [
                1330.228876498887,
                253.9749006799013
              ],
              [
                1330.2357662702395,
                253.97322415409843
              ],
              [
                1330.2414990034072,
                253.9723737834627
              ],
              [
                1330.2516420373988,
                253.969833085711
              ],
              [
                1330.2713039136427,
                253.96661469778945
              ],
              [
                1330.2785220842543,
                253.96469922944664
              ],
              [
                1330.2895585821618,
                253.96278359686514
              ],
              [
                1330.321030887483,
                253.9541296474623
              ],
              [
                1330.3363896094477,
                253.95110348173597
              ],
              [
                1330.3366337500727,
                253.95104244657972
              ],
              [
                1330.3776455736906,
                253.93869988602574
              ],
              [
                1330.420551444821,
                253.9282593653806
              ],
              [
                1330.427888702831,
                253.9256855942431
              ],
              [
                1330.431887713884,
                253.92468389412068
              ],
              [
                1330.4392756587636,
                253.92204044517402
              ],
              [
                1330.4590132689386,
                253.91680272366713
              ],
              [
                1330.4653135923204,
                253.9144561880628
              ],
              [
                1330.4755377359493,
                253.91164485216768
              ],
              [
                1330.5052524913292,
                253.90029642163128
              ],
              [
                1330.5179331453835,
                253.89648016264246
              ],
              [
                1330.5579180505777,
                253.88018279682942
              ],
              [
                1330.5614204789547,
                253.87884517635644
              ],
              [
                1330.6066991957182,
                253.86296226012374
              ],
              [
                1330.6143450750076,
                253.8593996064147
              ],
              [
                1330.6166852241051,
                253.85856228767884
              ],
              [
                1330.6215001585351,
                253.85628499329528
              ],
              [
                1330.641006475665,
                253.84901992690405
              ],
              [
                1330.6463965719292,
                253.8463917613428
              ],
              [
                1330.6557258759744,
                253.84282878538838
              ],
              [
                1330.683792678837,
                253.8288778142775
              ],
              [
                1330.693260774599,
                253.82501873247065
              ],
              [
                1330.701199932795,
                253.8208680291445
              ],
              [
                1330.701391595685,
                253.82078932353807
              ],
              [
                1330.703932085533,
                253.81943962134886
              ],
              [
                1330.7261589137968,
                253.8078191235926
              ],
              [
                1330.7428760385483,
                253.79950965829272
              ],
              [
                1330.7855087807422,
                253.77964461839915
              ],
              [
                1330.7933030909985,
                253.77502825784526
              ],
              [
                1330.794111833027,
                253.77464575135295
              ],
              [
                1330.796605073497,
                253.77315136052522
              ],
              [
                1330.815567518291,
                253.76390543208112
              ],
              [
                1330.8200743293635,
                253.76113723909555
              ],
              [
                1330.828447098616,
                253.75697544473192
              ],
              [
                1330.8545165975702,
                253.74071192509365
              ],
              [
                1330.8610454166592,
                253.73729856684585
              ],
              [
                1330.872236300133,
                253.73002357150273
              ],
              [
                1330.8756536276665,
                253.7282080261832
              ],
              [
                1330.8921182080473,
                253.71725406993872
              ],
              [
                1330.9159107457895,
                253.70241103803025
              ],
              [
                1330.9552406196824,
                253.67911701040492
              ],
              [
                1330.963585318236,
                253.6729892989333
              ],
              [
                1330.9810504592253,
                253.66226178451126
              ],
              [
                1330.9847184319246,
                253.65948519750336
              ],
              [
                1330.9920949489626,
                253.65488333960343
              ],
              [
                1331.0158662764359,
                253.63665226519
              ],
              [
                1331.019783447952,
                253.6341057812949
              ],
              [
                1331.0336652421279,
                253.62308221848713
              ],
              [
                1331.0399441265154,
                253.6189048496595
              ],
              [
                1331.053953998609,
                253.60744143975538
              ],
              [
                1331.0788537760113,
                253.58834491705542
              ],
              [
                1331.1142434467627,
                253.5623574364954
              ],
              [
                1331.1207394930764,
                253.5565197879553
              ],
              [
                1331.135894958377,
                253.54504738303243
              ],
              [
                1331.1387840404268,
                253.54238227103133
              ],
              [
                1331.1451473622162,
                253.537502013789
              ],
              [
                1331.1663773802966,
                253.51769522225908
              ],
              [
                1331.1680523172295,
                253.51636515121464
              ],
              [
                1331.1761677191264,
                253.508561212129
              ],
              [
                1331.1859275626691,
                253.4994556529306
              ],
              [
                1331.192663783682,
                253.49394382083378
              ],
              [
                1331.2045204489027,
                253.48210920413447
              ],
              [
                1331.2301321039736,
                253.45821451356932
              ],
              [
                1331.2609703752687,
                253.43050181253417
              ],
              [
                1331.2658007051416,
                253.42521230781946
              ],
              [
                1331.2786409856153,
                253.41336744325693
              ],
              [
                1331.2808244931678,
                253.41092046129313
              ],
              [
                1331.286180820194,
                253.40592321388743
              ],
              [
                1331.325959254657,
                253.36089622461873
              ],
              [
                1331.3323259285723,
                253.3545413900987
              ],
              [
                1331.3422822402463,
                253.34241950709875
              ],
              [
                1331.368286152184,
                253.31298451601435
              ],
              [
                1331.393993946705,
                253.2848329189387
              ],
              [
                1331.3973684803516,
                253.28031361529693
              ],
              [
                1331.407942587406,
                253.26846357648353
              ],
              [
                1331.4095050000903,
                253.26632705833933
              ],
              [
                1331.413883591264,
                253.26137073513414
              ],
              [
                1331.4488883376896,
                253.21306811039904
              ],
              [
                1331.448926223357,
                253.2130226544021
              ],
              [
                1331.449000412506,
                253.21291345972014
              ],
              [
                1331.4516122755326,
                253.20930938163025
              ],
              [
                1331.4575710007493,
                253.202054589668
              ],
              [
                1331.4658314470237,
                253.1896885194698
              ],
              [
                1331.491984286163,
                253.15360053416228
              ],
              [
                1331.5120200180738,
                253.12676792092745
              ],
              [
                1331.5141700655645,
                253.12320302093443
              ],
              [
                1331.5225805778205,
                253.11170208253384
              ],
              [
                1331.523615313222,
                253.10995326383366
              ],
              [
                1331.52706793057,
                253.10518903906012
              ],
              [
                1331.5579544753996,
                253.05255032859475
              ],
              [
                1331.5590658744825,
                253.05091452509984
              ],
              [
                1331.5610274975043,
                253.04731309918907
              ],
              [
                1331.5616797236025,
                253.04620153617887
              ],
              [
                1331.5671797847615,
                253.0379678233593
              ],
              [
                1331.573901506388,
                253.02537243765195
              ],
              [
                1331.6000359998077,
                252.98083245948766
              ],
              [
                1331.6139003521698,
                252.95784458138115
              ],
              [
                1331.6150730951565,
                252.95537937075377
              ],
              [
                1331.6214740342484,
                252.94456106689938
              ],
              [
                1331.6220812482509,
                252.94326161896998
              ],
              [
                1331.6246811270728,
                252.9388307488514
              ],
              [
                1331.6508074459496,
                252.8824823294645
              ],
              [
                1331.6528104869824,
                252.87880486249156
              ],
              [
                1331.655470847105,
                252.87252509208665
              ],
              [
                1331.6600852787633,
                252.86387841646007
              ],
              [
                1331.6653802378353,
                252.85105219218846
              ],
              [
                1331.6914036488224,
                252.7949257212874
              ],
              [
                1331.6986437884077,
                252.77970630044845
              ],
              [
                1331.6990969326328,
                252.7784467905933
              ],
              [
                1331.7036904894283,
                252.76861650367204
              ],
              [
                1331.703974942359,
                252.7678123524354
              ],
              [
                1331.7058152946627,
                252.76384313871228
              ],
              [
                1331.726647345862,
                252.7045132253441
              ],
              [
                1331.7292598831762,
                252.69834634050508
              ],
              [
                1331.731866383798,
                252.68999972558873
              ],
              [
                1331.735383081393,
                252.68148106634393
              ],
              [
                1331.7393215699062,
                252.66841689438937
              ],
              [
                1331.753117453086,
                252.6291260657498
              ],
              [
                1331.7533385594907,
                252.62854764750332
              ],
              [
                1331.7533999378443,
                252.62832154601816
              ],
              [
                1331.7645489084714,
                252.59656915374896
              ],
              [
                1331.768454723688,
                252.58552737567055
              ],
              [
                1331.7685237449489,
                252.5852487752804
              ],
              [
                1331.7697158162748,
                252.58185374289383
              ],
              [
                1331.7848439971049,
                252.52035321418478
              ],
              [
                1331.7876799617818,
                252.5112718025486
              ],
              [
                1331.789853608542,
                252.50079948489181
              ],
              [
                1331.792340195792,
                252.49255134520516
              ],
              [
                1331.7949557071431,
                252.47924612269156
              ],
              [
                1331.8054518876188,
                252.43657604517605
              ],
              [
                1331.8057367903757,
                252.43552653940236
              ],
              [
                1331.805792852097,
                252.43518992374305
              ],
              [
                1331.8078360239053,
                252.42688382614546
              ],
              [
                1331.808518357003,
                252.42429380713753
              ],
              [
                1331.8086072799426,
                252.4237484422814
              ],
              [
                1331.815788362474,
                252.39455521823487
              ],
              [
                1331.819890041862,
                252.3664106981436
              ],
              [
                1331.8207373942398,
                252.3627567918958
              ],
              [
                1331.8232116206452,
                252.34361899943863
              ],
              [
                1331.824940525249,
                252.3317557634904
              ],
              [
                1331.827509747086,
                252.31937762197367
              ],
              [
                1331.828857292257,
                252.3067872521519
              ],
              [
                1331.8304021650642,
                252.29892841550583
              ],
              [
                1331.8316975269806,
                252.28539120083227
              ],
              [
                1331.8361648794696,
                252.25473753925013
              ],
              [
                1331.8393930237974,
                252.2349393130877
              ],
              [
                1331.8396749082124,
                252.23065275223342
              ],
              [
                1331.8436044192242,
                252.2036896010076
              ],
              [
                1331.8449763191468,
                252.17527212466754
              ],
              [
                1331.8461918718556,
                252.16586999581912
              ],
              [
                1331.8470399055814,
                252.13690365122602
              ],
              [
                1331.8483667756832,
                252.1245064524949
              ],
              [
                1331.8484925022633,
                252.1098748582877
              ],
              [
                1331.8491984697134,
                252.10249712639492
              ],
              [
                1331.8491530424606,
                252.08875565652056
              ],
              [
                1331.8495588832116,
                252.080349088557
              ],
              [
                1331.8519822303165,
                252.0434977257934
              ],
              [
                1331.8517337450521,
                252.0352990933794
              ],
              [
                1331.8529052734375,
                252.0110321044922
              ],
              [
                1331.8528698421978,
                252.0103307889308
              ],
              [
                1331.8529052734375,
                252.0095977783203
              ],
              [
                1331.8529052734375,
                252.0094757080078
              ],
              [
                1331.8528989775095,
                252.00933999173205
              ],
              [
                1331.85302734375,
                252.0067596435547
              ],
              [
                1331.853022341491,
                252.00666332472872
              ],
              [
                1331.85302734375,
                252.00656127929688
              ],
              [
                1331.8516738434257,
                251.97862192688567
              ],
              [
                1331.8520015156626,
                251.9674296044194
              ],
              [
                1331.849965859326,
                251.93841101483758
              ],
              [
                1331.8500507690596,
                251.92852953420547
              ],
              [
                1331.848568725325,
                251.91200324871173
              ],
              [
                1331.8485461345163,
                251.90516966538397
              ],
              [
                1331.8477286173522,
                251.89718340807366
              ],
              [
                1331.8472454029281,
                251.88720875358584
              ],
              [
                1331.8461701295187,
                251.85173070842376
              ],
              [
                1331.8452518256674,
                251.84449646639217
              ],
              [
                1331.8443126690206,
                251.8242518190122
              ],
              [
                1331.844133506534,
                251.8229720715051
              ],
              [
                1331.8436545771858,
                251.81308587081415
              ],
              [
                1331.8425917423879,
                251.8058214595203
              ],
              [
                1331.8422613208363,
                251.79945917101944
              ],
              [
                1331.8385678738211,
                251.77593100410348
              ],
              [
                1331.8381090827452,
                251.7693908677852
              ],
              [
                1331.8332098766518,
                251.74073656331265
              ],
              [
                1331.8325455567583,
                251.7333287250929
              ],
              [
                1331.8300972464033,
                251.7204223383007
              ],
              [
                1331.8285561063312,
                251.70988873950776
              ],
              [
                1331.8284515097198,
                251.7088669438936
              ],
              [
                1331.8282916595429,
                251.70808126176996
              ],
              [
                1331.8256011662918,
                251.68969190380207
              ],
              [
                1331.8220102048929,
                251.66140291878546
              ],
              [
                1331.8207061288774,
                251.65563163808804
              ],
              [
                1331.8186086886205,
                251.64064974097593
              ],
              [
                1331.8181280943616,
                251.63861391102486
              ],
              [
                1331.8156241262461,
                251.62149944103103
              ],
              [
                1331.8126365011813,
                251.60940244706262
              ],
              [
                1331.8118191885521,
                251.60406078163098
              ],
              [
                1331.8112301283384,
                251.60178283405986
              ],
              [
                1331.810079159345,
                251.59445087817187
              ],
              [
                1331.8047968040153,
                251.57455518232484
              ],
              [
                1331.8046514564287,
                251.57370507846642
              ],
              [
                1331.8023928673779,
                251.56550088945883
              ],
              [
                1331.7964952892844,
                251.54328799148823
              ],
              [
                1331.7960192316539,
                251.54077843059747
              ],
              [
                1331.7940262634131,
                251.53398854366387
              ],
              [
                1331.793812429286,
                251.53318314938633
              ],
              [
                1331.7847070416012,
                251.4963151296366
              ],
              [
                1331.7797247782964,
                251.4742657707787
              ],
              [
                1331.7783339889904,
                251.47004337556882
              ],
              [
                1331.776014196373,
                251.46021657634756
              ],
              [
                1331.7751775426932,
                251.4577298693363
              ],
              [
                1331.7691987138044,
                251.43352139088543
              ],
              [
                1331.763648029439,
                251.41777867953573
              ],
              [
                1331.7611586468606,
                251.4081520185171
              ],
              [
                1331.7592368850321,
                251.40295629615375
              ],
              [
                1331.7568273331635,
                251.39388085383402
              ],
              [
                1331.7347220920142,
                251.33573966354237
              ],
              [
                1331.7252159645652,
                251.30877862403125
              ],
              [
                1331.7197029641313,
                251.29204131772465
              ],
              [
                1331.71854612556,
                251.2894096366602
              ],
              [
                1331.7168951898998,
                251.28450271593448
              ],
              [
                1331.7163126847627,
                251.28318874753424
              ],
              [
                1331.710143121059,
                251.2652618244141
              ],
              [
                1331.708931311795,
                251.26259250154078
              ],
              [
                1331.7048134744143,
                251.25091359476056
              ],
              [
                1331.696001208386,
                251.2319907714825
              ],
              [
                1331.6909614201816,
                251.21836507661683
              ],
              [
                1331.6870966442275,
                251.21047524304765
              ],
              [
                1331.6830791526731,
                251.1999084394837
              ],
              [
                1331.6570015968362,
                251.14820389266953
              ],
              [
                1331.631878414708,
                251.09286359557086
              ],
              [
                1331.628329876022,
                251.0866782424234
              ],
              [
                1331.6230718758943,
                251.0753875929023
              ],
              [
                1331.6163825283347,
                251.0640405349906
              ],
              [
                1331.6160153802591,
                251.06326426560582
              ],
              [
                1331.610512010901,
                251.05408244854044
              ],
              [
                1331.610374760361,
                251.05384963213965
              ],
              [
                1331.6019460953062,
                251.03664274478444
              ],
              [
                1331.5955589155703,
                251.02638012936364
              ],
              [
                1331.5896285924746,
                251.0146219465784
              ],
              [
                1331.56492980308,
                250.9761674447589
              ],
              [
                1331.5376624605549,
                250.92863854403623
              ],
              [
                1331.5310381400698,
                250.91927189986635
              ],
              [
                1331.5247400631665,
                250.90858854955204
              ],
              [
                1331.5166456990255,
                250.89747596837663
              ],
              [
                1331.5151120761675,
                250.8949172732186
              ],
              [
                1331.5065801695239,
                250.88341332882533
              ],
              [
                1331.4950238939405,
                250.8648452570135
              ],
              [
                1331.4855803068617,
                250.85262514080281
              ],
              [
                1331.4774817434406,
                250.8400161737463
              ],
              [
                1331.4559651936763,
                250.81312039689615
              ],
              [
                1331.4283395869697,
                250.77405839369473
              ],
              [
                1331.4179426876644,
                250.76196869357327
              ],
              [
                1331.410739677357,
                250.75207983320624
              ],
              [
                1331.4012783078656,
                250.74143020457936
              ],
              [
                1331.398193758288,
                250.7372711709305
              ],
              [
                1331.3862643974214,
                250.72410914949504
              ],
              [
                1331.3712893448178,
                250.70473124981027
              ],
              [
                1331.3583148241385,
                250.69105702813158
              ],
              [
                1331.3478459811174,
                250.6779709307386
              ],
              [
                1331.3269335564698,
                250.65614165109113
              ],
              [
                1331.3048895049203,
                250.63050843441053
              ],
              [
                1331.2933354462753,
                250.61939781154754
              ],
              [
                1331.2856538639112,
                250.6106757543225
              ],
              [
                1331.28243975001,
                250.60766664013227
              ],
              [
                1331.2821392174703,
                250.60732836352847
              ],
              [
                1331.2759280143216,
                250.6015702300902
              ],
              [
                1331.2731358953786,
                250.59895619555653
              ],
              [
                1331.2732810318919,
                250.59911632902228
              ],
              [
                1331.2713812244313,
                250.59735510102772
              ],
              [
                1331.2663864139356,
                250.5918441768847
              ],
              [
                1331.266197424058,
                250.59167288644406
              ],
              [
                1331.265287781123,
                250.5906692501269
              ],
              [
                1331.257113583848,
                250.5832605895676
              ],
              [
                1331.2443802804721,
                250.56996902510713
              ],
              [
                1331.240239589261,
                250.56624781736446
              ],
              [
                1331.2320862513382,
                250.55762664927818
              ],
              [
                1331.2028101313833,
                250.53234678781487
              ],
              [
                1331.168418528167,
                250.49927510757442
              ],
              [
                1331.156859655085,
                250.49009618143623
              ],
              [
                1331.145147685218,
                250.47913121385662
              ],
              [
                1331.12985347699,
                250.46735427168417
              ],
              [
                1331.1310205193774,
                250.4684120172481
              ],
              [
                1331.127573401635,
                250.46585221214457
              ],
              [
                1331.1198607870772,
                250.45886190577454
              ],
              [
                1331.0979468516146,
                250.4426094235677
              ],
              [
                1331.0918324378674,
                250.43734934842266
              ],
              [
                1331.0986568970336,
                250.44241071229123
              ],
              [
                1331.0792592585353,
                250.42566089658123
              ],
              [
                1331.049107313659,
                250.40452981383717
              ],
              [
                1331.0201496588895,
                250.38153447749417
              ],
              [
                1331.0089363236082,
                250.3742448866282
              ],
              [
                1330.9926474160998,
                250.36170199987535
              ],
              [
                1330.9744720469132,
                250.3503089503607
              ],
              [
                1330.9794134967224,
                250.35397377931102
              ],
              [
                1330.9735740292103,
                250.3503266445809
              ],
              [
                1330.9692633712373,
                250.3470959819872
              ],
              [
                1330.9687088529959,
                250.346759991293
              ],
              [
                1330.9622146847892,
                250.34194358789492
              ],
              [
                1330.954433303366,
                250.33727960735766
              ],
              [
                1330.9531817844684,
                250.33635023833105
              ],
              [
                1330.9431186938232,
                250.3304978913841
              ],
              [
                1330.938027859935,
                250.32744656297834
              ],
              [
                1330.9294774020566,
                250.3214542320137
              ],
              [
                1330.9370032066079,
                250.3259650256691
              ],
              [
                1330.9139049577984,
                250.309777313439
              ],
              [
                1330.8841434967867,
                250.29311927790283
              ],
              [
                1330.8614116275967,
                250.2783416919432
              ],
              [
                1330.8613875697151,
                250.2783291141451
              ],
              [
                1330.8612895572842,
                250.2782653979979
              ],
              [
                1330.8507514852522,
                250.2727559460441
              ],
              [
                1330.8295654359838,
                250.25947568164585
              ],
              [
                1330.808497946503,
                250.24894193690542
              ],
              [
                1330.8135616780753,
                250.25197702080828
              ],
              [
                1330.8063768807958,
                250.2484006805395
              ],
              [
                1330.8010211411388,
                250.24515555972877
              ],
              [
                1330.7995945668267,
                250.24447284023557
              ],
              [
                1330.793867692402,
                250.2410402838033
              ],
              [
                1330.7693893668331,
                250.22946289803636
              ],
              [
                1330.7601236484309,
                250.22407427532454
              ],
              [
                1330.7644022161721,
                250.22609788715738
              ],
              [
                1330.7377087662273,
                250.21115707368094
              ],
              [
                1330.709662587726,
                250.1989926903202
              ],
              [
                1330.693504915224,
                250.1905452323731
              ],
              [
                1330.6837638808067,
                250.1865749040574
              ],
              [
                1330.6574121266867,
                250.1733990269974
              ],
              [
                1330.633622739582,
                250.16424380132077
              ],
              [
                1330.6386634767357,
                250.166627892439
              ],
              [
                1330.6300376995393,
                250.16332755566665
              ],
              [
                1330.6235781878013,
                250.16023620981582
              ],
              [
                1330.6211913474294,
                250.15937045500164
              ],
              [
                1330.6164410834801,
                250.1571237474774
              ],
              [
                1330.6163014975575,
                250.1570738028357
              ],
              [
                1330.6153424506676,
                250.15662020743835
              ],
              [
                1330.5882359835177,
                250.1469213584075
              ],
              [
                1330.5747770593616,
                250.14108333947456
              ],
              [
                1330.5826027693572,
                250.1438834232843
              ],
              [
                1330.5523445394267,
                250.1307596136119
              ],
              [
                1330.5263812598605,
                250.12242764314175
              ],
              [
                1330.5181772860085,
                250.1190838022013
              ],
              [
                1330.5094591278141,
                250.11646006138844
              ],
              [
                1330.4777818840334,
                250.1042692338422
              ],
              [
                1330.4513781936307,
                250.09693051931228
              ],
              [
                1330.4562463420825,
                250.0986723706805
              ],
              [
                1330.4462597209065,
                250.09591924996872
              ],
              [
                1330.4386511519215,
                250.09315946958895
              ],
              [
                1330.4363235161989,
                250.0925662084618
              ],
              [
                1330.4305449404465,
                250.0904986009965
              ],
              [
                1330.4045077193311,
                250.0839766166275
              ],
              [
                1330.3898095006837,
                250.07927256565108
              ],
              [
                1330.399360745607,
                250.081665027958
              ],
              [
                1330.3686879562208,
                250.0718217115637
              ],
              [
                1330.3414874710522,
                250.06590877734288
              ],
              [
                1330.3368778906977,
                250.06452151826403
              ],
              [
                1330.3367558203852,
                250.0644910006859
              ],
              [
                1330.3295742920388,
                250.0630760069778
              ],
              [
                1330.2923383513776,
                250.05272654693647
              ],
              [
                1330.2634886758992,
                250.04763084624201
              ],
              [
                1330.268033133837,
                250.04876917369654
              ],
              [
                1330.2568177636333,
                250.04681429631165
              ],
              [
                1330.2480290776384,
                250.0445742611941
              ],
              [
                1330.2459253899099,
                250.04425381099077
              ],
              [
                1330.2401562299697,
                250.0428087116545
              ],
              [
                1330.21466073574,
                250.03902681234013
              ],
              [
                1330.199302460223,
                250.03572628850725
              ],
              [
                1330.2098194882235,
                250.03728634224169
              ],
              [
                1330.1802080402385,
                250.03084930470231
              ],
              [
                1330.1487449139686,
                250.02713289324137
              ],
              [
                1330.1464270563088,
                250.02667161291572
              ],
              [
                1330.1431582188945,
                250.02634600218423
              ],
              [
                1330.1388927047456,
                250.02550555772848
              ],
              [
                1330.1374659662129,
                250.02537153141023
              ],
              [
                1330.102799011789,
                250.01924832826143
              ],
              [
                1330.0717307022983,
                250.01680280581346
              ],
              [
                1330.0762858139185,
                250.017478492794
              ],
              [
                1330.0642529284858,
                250.016580037733
              ],
              [
                1330.0535561047402,
                250.01495061369928
              ],
              [
                1330.0516864862861,
                250.01485186610407
              ],
              [
                1330.0460098665967,
                250.01400981911655
              ],
              [
                1330.0212531749341,
                250.01279360084445
              ],
              [
                1330.005522060697,
                250.01099844189145
              ],
              [
                1330.0168706877537,
                250.01155596418795
              ],
              [
                1329.9886578157007,
                250.0082234714107
              ],
              [
                1329.979514144553,
                250.00803054382578
              ],
              [
                1329.9785860241327,
                250.00792463119575
              ],
              [
                1329.9629846024454,
                250.00768177749467
              ],
              [
                1329.953851746527,
                250.0074890781065
              ],
              [
                1329.9531988645012,
                250.00742404416107
              ],
              [
                1329.9525640490053,
                250.00742267762328
              ],
              [
                1329.9109192816045,
                250.0041446359407
              ],
              [
                1329.9002417669278,
                250.00433387624636
              ],
              [
                1329.89876274003,
                250.00422344228528
              ],
              [
                1329.8805413572975,
                250.00468303161196
              ],
              [
                1329.8779160503893,
                250.00472956059338
              ],
              [
                1329.8781808527988,
                250.00474256950156
              ],
              [
                1329.8660683525673,
                250.0050480773715
              ],
              [
                1329.8571136278576,
                250.00457511588087
              ],
              [
                1329.8554802419317,
                250.004649698869
              ],
              [
                1329.8499755859375,
                250.00437927246094
              ],
              [
                1329.8261183993006,
                250.00555130088478
              ],
              [
                1329.8103154647524,
                250.00530531040906
              ],
              [
                1329.822344939249,
                250.00471434022265
              ],
              [
                1329.79581886332,
                250.00415465126576
              ],
              [
                1329.785664163146,
                250.0049215851338
              ],
              [
                1329.7825707342865,
                250.00487343242932
              ],
              [
                1329.7587715124364,
                250.00684118951318
              ],
              [
                1329.718476252661,
                250.00755535264088
              ],
              [
                1329.7048615599945,
                250.00911412012707
              ],
              [
                1329.6994791644938,
                250.00924987774548
              ],
              [
                1329.6679108825438,
                250.0132144128678
              ],
              [
                1329.6606020952418,
                250.01354814367076
              ],
              [
                1329.6592001697607,
                250.01375146767117
              ],
              [
                1329.6539413052783,
                250.01400981911655
              ],
              [
                1329.6311112069088,
                250.0173963443038
              ],
              [
                1329.6155396895233,
                250.01868382184546
              ],
              [
                1329.6280870225596,
                250.01682260080852
              ],
              [
                1329.6034847500791,
                250.01868068777048
              ],
              [
                1329.5924841430783,
                250.02059009067744
              ],
              [
                1329.5871983671998,
                250.0210271269383
              ],
              [
                1329.5642967056085,
                250.0252076104527
              ],
              [
                1329.52725223378,
                250.02944889004988
              ],
              [
                1329.510968969757,
                250.03292412422923
              ],
              [
                1329.5016858901488,
                250.03408994931937
              ],
              [
                1329.4716622586714,
                250.0409504585062
              ],
              [
                1329.4659226232113,
                250.0417828890871
              ],
              [
                1329.4647415894358,
                250.04207494580805
              ],
              [
                1329.4597949419053,
                250.0428087116545
              ],
              [
                1329.452665357078,
                250.0445945796853
              ],
              [
                1329.4524730851294,
                250.044623708685
              ],
              [
                1329.4462594226857,
                250.04619918271842
              ],
              [
                1329.4380908210017,
                250.04824531092328
              ],
              [
                1329.4230445525802,
                250.05099186609522
              ],
              [
                1329.4359383752276,
                250.04776213165502
              ],
              [
                1329.4134443475257,
                250.05166647637705
              ],
              [
                1329.4017834065064,
                250.0548728888893
              ],
              [
                1329.3943460265643,
                250.05623051283786
              ],
              [
                1329.3725402460132,
                250.06246809228605
              ],
              [
                1329.3390182439352,
                250.06962248143165
              ],
              [
                1329.3204123606142,
                250.07551161130687
              ],
              [
                1329.3073479540387,
                250.07849687581088
              ],
              [
                1329.2792439450552,
                250.087946482156
              ],
              [
                1329.2749586041366,
                250.0890062000428
              ],
              [
                1329.2739832989278,
                250.089352105272
              ],
              [
                1329.2694062314285,
                250.0904986009965
              ],
              [
                1329.2642102955308,
                250.09235773658827
              ],
              [
                1329.2626356128176,
                250.09275699737017
              ],
              [
                1329.2477162582416,
                250.0981401507455
              ],
              [
                1329.236814011857,
                250.10113794476243
              ],
              [
                1329.2477196257087,
                250.0972358537318
              ],
              [
                1329.2274651937382,
                250.1028052210745
              ],
              [
                1329.2153452166167,
                250.1074339893988
              ],
              [
                1329.2058666040966,
                250.11014536212465
              ],
              [
                1329.1853415200683,
                250.11826420244196
              ],
              [
                1329.155517609983,
                250.12770405954788
              ],
              [
                1329.1350037916584,
                250.13644535182132
              ],
              [
                1329.118396065106,
                250.142029483192
              ],
              [
                1329.0925328316346,
                250.15370597615788
              ],
              [
                1329.0895574858907,
                250.15476122290755
              ],
              [
                1329.0887693655993,
                250.15513150507056
              ],
              [
                1329.0846087212074,
                250.15662020743835
              ],
              [
                1329.0812927594052,
                250.15818854056894
              ],
              [
                1329.078415962278,
                250.15922653722535
              ],
              [
                1329.0654130851206,
                250.16541552327155
              ],
              [
                1329.057299138038,
                250.16851433945445
              ],
              [
                1329.0652133528693,
                250.16477119461055
              ],
              [
                1329.047277053713,
                250.1716212878538
              ],
              [
                1329.0349105202622,
                250.1777682348987
              ],
              [
                1329.0235709772767,
                250.1822536703124
              ],
              [
                1329.0044947588667,
                250.19205750465883
              ],
              [
                1328.9784498208599,
                250.2031557025544
              ],
              [
                1328.956502294247,
                250.2151197825442
              ],
              [
                1328.9367074229795,
                250.2240565875794
              ],
              [
                1328.9133434515654,
                250.23755177467848
              ],
              [
                1328.9115128990393,
                250.2384118222579
              ],
              [
                1328.9108912155993,
                250.23878246854667
              ],
              [
                1328.9071821122855,
                250.24053674376424
              ],
              [
                1328.9056258235532,
                250.24146954733246
              ],
              [
                1328.9015805733407,
                250.2433949671312
              ],
              [
                1328.8904715469403,
                250.25008733196836
              ],
              [
                1328.8850275179686,
                250.25279335770563
              ],
              [
                1328.890147234558,
                250.24972471767498
              ],
              [
                1328.8745558310716,
                250.25747462851027
              ],
              [
                1328.862162177574,
                250.26520643906036
              ],
              [
                1328.8492106107524,
                250.27186263332888
              ],
              [
                1328.8317312827733,
                250.2831352080642
              ],
              [
                1328.8094547877865,
                250.29527861595773
              ],
              [
                1328.7866099664584,
                250.31075388843402
              ]
            ],
            [
              [
                1330.7565948328802,
                250.2224052698684
              ],
              [
                1330.758145476514,
                250.2231386696872
              ],
              [
                1330.7570189042517,
                250.22264263039224
              ],
              [
                1330.7565948328802,
                250.2224052698684
              ]
            ]
          ]
        ]
      }
    }
  ]
}