{
  "type": "FeatureCollection",
  "features": [
    {
      "type": "Feature",
      "properties": {
        "image_id": "0005_top_20250704_t1",
        "zone_type": "parking_spot",
        "generated_at": "2025-11-03T11:20:39",
        "source": "merged_t1_polygons"
      },
      "geometry": {
        "type": "MultiPolygon",
        "coordinates": [
          [
            [
              [
                1631.0961369298607,
                912.5995795416995
              ],
              [
                1631.094142630595,
                912.5992405194265
              ],
              [
                1631.0936872991665,
                912.5991179571616
              ],
              [
                1631.0929020293709,
                912.598986342246
              ],
              [
                1631.0927107366665,
                912.5989348516929
              ],
              [
                1631.0801462221796,
                912.5968289798975
              ],
              [
                1631.0616163311988,
                912.5921378085189
              ],
              [
                1631.0602283370947,
                912.5919297729276
              ],
              [
                1631.0559521284072,
                912.5908586384123
              ],
              [
                1631.0550561776838,
                912.590725736677
              ],
              [
                1631.0548948503833,
                912.59068545511
              ],
              [
                1631.0264181217601,
                912.5864744530534
              ],
              [
                1631.0108057225339,
                912.5829594084317
              ],
              [
                1631.0091233053085,
                912.5827487327025
              ],
              [
                1631.0089746678464,
                912.5827152678067
              ],
              [
                1630.9960091985904,
                912.581091705203
              ],
              [
                1630.9938370371108,
                912.5806179140544
              ],
              [
                1630.9934708261733,
                912.5805568788982
              ],
              [
                1630.9800849973815,
                912.5790412122602
              ],
              [
                1630.9545665328706,
                912.5740132481582
              ],
              [
                1630.9423651284098,
                912.5728670610471
              ],
              [
                1630.924781266122,
                912.569702517651
              ],
              [
                1630.92268682078,
                912.5695359992203
              ],
              [
                1630.9175036145498,
                912.5686222980787
              ],
              [
                1630.9111919711809,
                912.5681396964549
              ],
              [
                1630.9044910841717,
                912.5670005745666
              ],
              [
                1630.8864423135208,
                912.5657142326236
              ],
              [
                1630.8618057650342,
                912.5620597458743
              ],
              [
                1630.8325433318516,
                912.5606221747155
              ],
              [
                1630.816794747481,
                912.5586501047394
              ],
              [
                1630.7945574573532,
                912.5580340779823
              ],
              [
                1630.7852981927922,
                912.5569856588962
              ],
              [
                1630.7721953889811,
                912.5568814945766
              ],
              [
                1630.753783251695,
                912.5551518777514
              ],
              [
                1630.7427649187869,
                912.5552313467366
              ],
              [
                1630.7280330092703,
                912.5540600894093
              ],
              [
                1630.727251749215,
                912.5540752373895
              ],
              [
                1630.7218041576148,
                912.5536587029945
              ],
              [
                1630.7183498909535,
                912.5537342292408
              ],
              [
                1630.7105876572643,
                912.5531810122401
              ],
              [
                1630.691312332032,
                912.5536839406046
              ],
              [
                1630.665771484375,
                912.5524291992188
              ],
              [
                1630.6392556055723,
                912.5537318408132
              ],
              [
                1630.6231882183213,
                912.5532867352987
              ],
              [
                1630.5919856954051,
                912.5554488683705
              ],
              [
                1630.5758019541972,
                912.5553202112972
              ],
              [
                1630.5634011478585,
                912.5565249958729
              ],
              [
                1630.5521212527965,
                912.5566063513575
              ],
              [
                1630.55110741451,
                912.5567163645842
              ],
              [
                1630.5494357059215,
                912.55672842167
              ],
              [
                1630.541460210185,
                912.5575938555683
              ],
              [
                1630.5395676410583,
                912.557643236146
              ],
              [
                1630.525580358256,
                912.5579490628435
              ],
              [
                1630.5249548342188,
                912.5580245109081
              ],
              [
                1630.5162585284606,
                912.5582514133744
              ],
              [
                1630.495905611615,
                912.5607741744308
              ],
              [
                1630.4697372037158,
                912.5620597458743
              ],
              [
                1630.4462036166644,
                912.56555062375
              ],
              [
                1630.4299707346847,
                912.5666754575037
              ],
              [
                1630.390045093758,
                912.5733671829362
              ],
              [
                1630.3672808836882,
                912.5755788108273
              ],
              [
                1630.3577358132932,
                912.5775300860265
              ],
              [
                1630.3489453714044,
                912.5784839510454
              ],
              [
                1630.343201772568,
                912.5797019429284
              ],
              [
                1630.3233395988495,
                912.5821638759639
              ],
              [
                1630.3045584636548,
                912.5863747033719
              ],
              [
                1630.2985629489838,
                912.5872140652857
              ],
              [
                1630.2958617369673,
                912.5878517349432
              ],
              [
                1630.2755908403428,
                912.5908586384123
              ],
              [
                1630.2551809655074,
                912.5959710459177
              ],
              [
                1630.238954302396,
                912.5986907110679
              ],
              [
                1630.190740017781,
                912.6116686246293
              ],
              [
                1630.1823382438565,
                912.6133861785507
              ],
              [
                1630.1821650780523,
                912.6126935153343
              ],
              [
                1630.1819209374273,
                912.6127545504905
              ],
              [
                1630.1745703148104,
                912.6149741571271
              ],
              [
                1630.1620230541805,
                912.6175391626714
              ],
              [
                1630.156429899883,
                912.6193089265242
              ],
              [
                1630.15166517057,
                912.6203193386009
              ],
              [
                1630.1481754528645,
                912.6214365812169
              ],
              [
                1630.1336534468337,
                912.6246924898924
              ],
              [
                1630.1117351417106,
                912.6319023542727
              ],
              [
                1630.085202129866,
                912.6385485277543
              ],
              [
                1630.0679639324874,
                912.6447164534017
              ],
              [
                1630.05193028568,
                912.6490322549115
              ],
              [
                1630.0118606253761,
                912.6641062545445
              ],
              [
                1629.9971293145986,
                912.6685545464609
              ],
              [
                1629.984847036846,
                912.6736005002263
              ],
              [
                1629.962280731496,
                912.6807408416822
              ],
              [
                1629.9604660117282,
                912.6815322694026
              ],
              [
                1629.959600933944,
                912.6818092264084
              ],
              [
                1629.9583192795772,
                912.6823673675824
              ],
              [
                1629.948992109537,
                912.685435471191
              ],
              [
                1629.926656720303,
                912.6952769823841
              ],
              [
                1629.9004046196449,
                912.7046701341961
              ],
              [
                1629.8862959487803,
                912.7113430385497
              ],
              [
                1629.8706526076355,
                912.7172279828413
              ],
              [
                1629.8298214606016,
                912.7372899807888
              ],
              [
                1629.8185777295992,
                912.7419092662284
              ],
              [
                1629.8073415315514,
                912.7478501322552
              ],
              [
                1629.77110015275,
                912.7638189578439
              ],
              [
                1629.7491770269683,
                912.776195458675
              ],
              [
                1629.722978010723,
                912.788586670522
              ],
              [
                1629.721059611088,
                912.7897365150128
              ],
              [
                1629.720780745098,
                912.7898684088033
              ],
              [
                1629.711545927814,
                912.79540354527
              ],
              [
                1629.6968213018322,
                912.8026383509927
              ],
              [
                1629.6559890525189,
                912.8278740689054
              ],
              [
                1629.6479294611236,
                912.8321353815404
              ],
              [
                1629.6350770532724,
                912.8406095588056
              ],
              [
                1629.5957605653136,
                912.8628053237134
              ],
              [
                1629.576996861473,
                912.8760491520833
              ],
              [
                1629.5524337527108,
                912.8907717128949
              ],
              [
                1629.5435105871645,
                912.8973895834968
              ],
              [
                1629.532066569288,
                912.9044623755124
              ],
              [
                1629.4920296770713,
                912.9349272024161
              ],
              [
                1629.486774165345,
                912.9383924004167
              ],
              [
                1629.4753841942515,
                912.9475930644438
              ],
              [
                1629.4749301523839,
                912.9479385534701
              ],
              [
                1629.4351376218517,
                912.9758940237281
              ],
              [
                1629.433916281514,
                912.9769472149637
              ],
              [
                1629.4338484327573,
                912.9769948856865
              ],
              [
                1629.4332747571148,
                912.9774913246533
              ],
              [
                1629.4313698313085,
                912.9788358625254
              ],
              [
                1629.417812437218,
                912.99061368507
              ],
              [
                1629.3947876504228,
                913.0076900307745
              ],
              [
                1629.3863266768658,
                913.015358610205
              ],
              [
                1629.3779334903413,
                913.0217451442361
              ],
              [
                1629.339500343668,
                913.0573581942817
              ],
              [
                1629.3366130676372,
                913.0596904966638
              ],
              [
                1629.3303521927708,
                913.0658350842564
              ],
              [
                1629.3238522249978,
                913.0718581059872
              ],
              [
                1629.2849735365623,
                913.1053841369009
              ],
              [
                1629.2826072150865,
                913.1078737801038
              ],
              [
                1629.2813525174597,
                913.1089595518315
              ],
              [
                1629.2802927111725,
                913.1100822878795
              ],
              [
                1629.2794698187472,
                913.1107971657457
              ],
              [
                1629.2704630097076,
                913.1203713169259
              ],
              [
                1629.249360656377,
                913.1394973751269
              ],
              [
                1629.2415151360829,
                913.1481535728426
              ],
              [
                1629.2358675347887,
                913.1533867719152
              ],
              [
                1629.19983350355,
                913.1939295655392
              ],
              [
                1629.1988449780677,
                913.1948997304991
              ],
              [
                1629.1967063073987,
                913.1974480524756
              ],
              [
                1629.1900789482158,
                913.2049046607536
              ],
              [
                1629.1838398802126,
                913.2117884115021
              ],
              [
                1629.148369640874,
                913.2491071956042
              ],
              [
                1629.1451457013372,
                913.2532541312174
              ],
              [
                1629.1429214000573,
                913.2556105082824
              ],
              [
                1629.1361867428166,
                913.2643655464292
              ],
              [
                1629.1175533120245,
                913.2849243691727
              ],
              [
                1629.1104718899644,
                913.2944725615062
              ],
              [
                1629.1072010061775,
                913.2981527150106
              ],
              [
                1629.0768065159573,
                913.3398650636441
              ],
              [
                1629.0559621028428,
                913.3679705011972
              ],
              [
                1629.026668646645,
                913.4056505120502
              ],
              [
                1629.0229058504488,
                913.4116304328953
              ],
              [
                1629.0199625677683,
                913.4154566932708
              ],
              [
                1629.0159897389415,
                913.4218669947712
              ],
              [
                1629.000634994145,
                913.4425704714608
              ],
              [
                1628.9944540840274,
                913.4528826969909
              ],
              [
                1628.9931405473797,
                913.4546853493201
              ],
              [
                1628.978899334234,
                913.478834229189
              ],
              [
                1628.9443896997989,
                913.5364100758657
              ],
              [
                1628.9210667816055,
                913.5734753851186
              ],
              [
                1628.9171088335254,
                913.5814148746349
              ],
              [
                1628.9137261946,
                913.5868728836066
              ],
              [
                1628.9118993961051,
                913.5906168727374
              ],
              [
                1628.8997316900534,
                913.610917463848
              ],
              [
                1628.8503110896768,
                913.7154085441477
              ],
              [
                1628.8326020313543,
                913.7509322246128
              ],
              [
                1628.8288848249204,
                913.760710574761
              ],
              [
                1628.8282201377995,
                913.7621159376016
              ],
              [
                1628.8252924303056,
                913.768116219004
              ],
              [
                1628.8249756776797,
                913.768975772171
              ],
              [
                1628.8158151537275,
                913.7883440727699
              ],
              [
                1628.7747364963857,
                913.9031512289853
              ],
              [
                1628.762143936753,
                913.9362767654696
              ],
              [
                1628.759854221727,
                913.9447444002856
              ],
              [
                1628.7496935472857,
                913.973141582991
              ],
              [
                1628.7434459220487,
                913.9980835010539
              ],
              [
                1628.7429799852075,
                913.9994393467321
              ],
              [
                1628.7409119496576,
                914.0081996859017
              ],
              [
                1628.7184865358345,
                914.0977269563269
              ],
              [
                1628.7103850470055,
                914.1276872125522
              ],
              [
                1628.7092035416235,
                914.1347867466003
              ],
              [
                1628.7020036579436,
                914.1635302934677
              ],
              [
                1628.6982167895824,
                914.1890592862898
              ],
              [
                1628.697423426954,
                914.192420024315
              ],
              [
                1628.694785319998,
                914.212192375175
              ],
              [
                1628.6821832026592,
                914.2971489494214
              ],
              [
                1628.6778341124268,
                914.3232821475028
              ],
              [
                1628.6774571347703,
                914.3290095111593
              ],
              [
                1628.6732047654057,
                914.3576766568409
              ],
              [
                1628.6719416925894,
                914.3834031045211
              ],
              [
                1628.6711998269693,
                914.3889633140099
              ],
              [
                1628.6701955310514,
                914.4189691723415
              ],
              [
                1628.666260535394,
                914.4991177263968
              ],
              [
                1628.664811083818,
                914.5211390216471
              ],
              [
                1628.664960377173,
                914.5255995349032
              ],
              [
                1628.66357421875,
                914.5538330078125
              ],
              [
                1628.6648276676983,
                914.579347547301
              ],
              [
                1628.664566943193,
                914.5871373455404
              ],
              [
                1628.6671038265044,
                914.6256798241868
              ],
              [
                1628.6708886634906,
                914.7027219509225
              ],
              [
                1628.6714439675943,
                914.7193130531776
              ],
              [
                1628.6718551180331,
                914.7223945850743
              ],
              [
                1628.6732047654057,
                914.7498672884716
              ],
              [
                1628.673697356794,
                914.7531880698718
              ],
              [
                1628.6737686667304,
                914.7546077769989
              ],
              [
                1628.676984902546,
                914.7758014953836
              ],
              [
                1628.6775899718018,
                914.7849942196847
              ],
              [
                1628.6851855830703,
                914.8306354005352
              ],
              [
                1628.6962418065655,
                914.9051704050122
              ],
              [
                1628.697667567579,
                914.9158563428725
              ],
              [
                1628.6980733169087,
                914.9175751246148
              ],
              [
                1628.7012426651656,
                914.939231217157
              ],
              [
                1628.7013717714497,
                914.9397538191203
              ],
              [
                1628.7020036579436,
                914.9440136518448
              ],
              [
                1628.7032928347285,
                914.9491603340666
              ],
              [
                1628.7038843469425,
                914.9530581649484
              ],
              [
                1628.7086563052258,
                914.9716683518985
              ],
              [
                1628.7101409063805,
                914.9805891546353
              ],
              [
                1628.7240467080849,
                915.032014440886
              ],
              [
                1628.7326056093068,
                915.0661834899064
              ],
              [
                1628.7476940669078,
                915.1272591968336
              ],
              [
                1628.7484194505782,
                915.1293158831434
              ],
              [
                1628.7496935472857,
                915.1344023623215
              ],
              [
                1628.7521301201832,
                915.1412121273763
              ],
              [
                1628.753739993194,
                915.1474904801863
              ],
              [
                1628.75957862813,
                915.1634156501215
              ],
              [
                1628.761899796128,
                915.1719996017179
              ],
              [
                1628.7831058197382,
                915.2277834081303
              ],
              [
                1628.7860932179701,
                915.2361326268649
              ],
              [
                1628.812115003874,
                915.3099124112742
              ],
              [
                1628.8137407418117,
                915.3134022796249
              ],
              [
                1628.8158151537275,
                915.3191998725426
              ],
              [
                1628.8197227964092,
                915.3274618888297
              ],
              [
                1628.8228334405865,
                915.3359463270028
              ],
              [
                1628.8292493720671,
                915.3491669846846
              ],
              [
                1628.8323578907293,
                915.3573441425747
              ],
              [
                1628.8606329853833,
                915.4140628799188
              ],
              [
                1628.8939013324286,
                915.4854779270415
              ],
              [
                1628.8967170250373,
                915.4902525078205
              ],
              [
                1628.8997316900534,
                915.4966264814645
              ],
              [
                1628.905401642013,
                915.5060862248097
              ],
              [
                1628.9104687538238,
                915.516527506935
              ],
              [
                1628.9169855787272,
                915.5271039848076
              ],
              [
                1628.9208226409805,
                915.5348009820689
              ],
              [
                1628.9553121843617,
                915.5896125447051
              ],
              [
                1628.9922860551922,
                915.6523092795861
              ],
              [
                1628.9965597870928,
                915.6581744016431
              ],
              [
                1629.000634994145,
                915.6649734738517
              ],
              [
                1629.0083213270634,
                915.6753372940593
              ],
              [
                1629.0157632369342,
                915.6874151381388
              ],
              [
                1629.021930126105,
                915.695483284895
              ],
              [
                1629.02642450602,
                915.7026258551373
              ],
              [
                1629.0666952728561,
                915.7544259200118
              ],
              [
                1629.10634651399,
                915.8088419138957
              ],
              [
                1629.1123180347493,
                915.8155606218902
              ],
              [
                1629.1175533120245,
                915.8226195761398
              ],
              [
                1629.1180208433207,
                915.8231354174334
              ],
              [
                1629.118407804212,
                915.823657173796
              ],
              [
                1629.127931369702,
                915.8341648090772
              ],
              [
                1629.137656324117,
                915.8468879758541
              ],
              [
                1629.1430595582037,
                915.8526528783211
              ],
              [
                1629.148125500249,
                915.8591691715833
              ],
              [
                1629.1936080713388,
                915.9070220838429
              ],
              [
                1629.2350130426012,
                915.9536078569911
              ],
              [
                1629.2423507875321,
                915.9604071825751
              ],
              [
                1629.2502151485644,
                915.9690841678419
              ],
              [
                1629.2633118758783,
                915.9809543495662
              ],
              [
                1629.2749202621633,
                915.9933397494316
              ],
              [
                1629.2791934016411,
                915.9970677255812
              ],
              [
                1629.2847293959373,
                916.0028922302866
              ],
              [
                1629.3347462058625,
                916.0460229320471
              ],
              [
                1629.3770789981538,
                916.0852494846702
              ],
              [
                1629.377491344526,
                916.085563246807
              ],
              [
                1629.3778114200288,
                916.0858598362327
              ],
              [
                1629.385575720393,
                916.0917678389154
              ],
              [
                1629.3956421426103,
                916.1008915121943
              ],
              [
                1629.4127061971342,
                916.1135470775537
              ],
              [
                1629.4261724768487,
                916.1252953412975
              ],
              [
                1629.4290049124957,
                916.127304488592
              ],
              [
                1629.4348934812267,
                916.1323823434594
              ],
              [
                1629.4877754945228,
                916.1695335758669
              ],
              [
                1629.5319444989755,
                916.2031426049564
              ],
              [
                1629.5413475735238,
                916.208954024626
              ],
              [
                1629.5532882448983,
                916.2178098300739
              ],
              [
                1629.5746304167835,
                916.2306018356165
              ],
              [
                1629.5898894987438,
                916.2414256448952
              ],
              [
                1629.591033186596,
                916.2420752639941
              ],
              [
                1629.597141757962,
                916.2463667222869
              ],
              [
                1629.6509872452111,
                916.2767150682441
              ],
              [
                1629.6966992315197,
                916.3049666294761
              ],
              [
                1629.7078025456449,
                916.3104221378653
              ],
              [
                1629.7216352372855,
                916.3187131341655
              ],
              [
                1629.7456771862992,
                916.3300841291928
              ],
              [
                1629.769879449625,
                916.3437249874686
              ],
              [
                1629.8282749583127,
                916.3696151184996
              ],
              [
                1629.870530537323,
                916.3903769976274
              ],
              [
                1629.883361292005,
                916.3952038613917
              ],
              [
                1629.8990618462074,
                916.4026296704914
              ],
              [
                1629.9181214873536,
                916.4094493191396
              ],
              [
                1629.9394862364422,
                916.4189215570872
              ],
              [
                1630.0049993891034,
                916.4409634864327
              ],
              [
                1630.0518082153676,
                916.4585727255572
              ],
              [
                1630.0663571213115,
                916.4624888770725
              ],
              [
                1630.0838593564285,
                916.4687512769332
              ],
              [
                1630.098462294335,
                916.4724091224592
              ],
              [
                1630.1152000968555,
                916.4780405635603
              ],
              [
                1630.1341874793513,
                916.4825228765441
              ],
              [
                1630.138812214292,
                916.4840337009864
              ],
              [
                1630.1630002048887,
                916.489324638388
              ],
              [
                1630.1878371954258,
                916.4951878565113
              ],
              [
                1630.2388322320835,
                916.5089142694009
              ],
              [
                1630.2550517231678,
                916.5116327324856
              ],
              [
                1630.2742480669053,
                916.5164411662752
              ],
              [
                1630.2839876168694,
                916.5178858920373
              ],
              [
                1630.2956332614838,
                916.520635055808
              ],
              [
                1630.3248158416707,
                916.524720567678
              ],
              [
                1630.3348983144517,
                916.5269260312581
              ],
              [
                1630.3352645253892,
                916.5269870664143
              ],
              [
                1630.3795807706501,
                916.5325043872615
              ],
              [
                1630.4298486643722,
                916.540929522965
              ],
              [
                1630.4476516086615,
                916.5421631518843
              ],
              [
                1630.4683944302783,
                916.5452400588132
              ],
              [
                1630.4730023849509,
                916.5454664331102
              ],
              [
                1630.47923533952,
                916.5463390362081
              ],
              [
                1630.4975164707214,
                916.5471872443675
              ],
              [
                1630.4991014369102,
                916.5473845708094
              ],
              [
                1630.4999998056676,
                916.5474216830023
              ],
              [
                1630.5009628257287,
                916.5475501730307
              ],
              [
                1630.5122765615429,
                916.547928843708
              ],
              [
                1630.523433698495,
                916.5483897522334
              ],
              [
                1630.566035549002,
                916.5503663934384
              ],
              [
                1630.6230661480088,
                916.5543182451701
              ],
              [
                1630.6406874386657,
                916.5538300927703
              ],
              [
                1630.6644287109375,
                916.554931640625
              ],
              [
                1630.664794921875,
                916.554931640625
              ],
              [
                1630.6876343504507,
                916.5537980679655
              ],
              [
                1630.6991368572592,
                916.5541830568069
              ],
              [
                1630.7508749554765,
                916.5507776318694
              ],
              [
                1630.8166726771685,
                916.5489548757294
              ],
              [
                1630.8370621749232,
                916.5464016610782
              ],
              [
                1630.8607071322217,
                916.5452400588132
              ],
              [
                1630.861031189758,
                916.5451919894185
              ],
              [
                1630.8628361500325,
                916.5451024051449
              ],
              [
                1630.882989309245,
                916.542081805575
              ],
              [
                1630.8969937314034,
                916.5411600281983
              ],
              [
                1630.9519263676823,
                916.5320181317059
              ],
              [
                1631.0088525975339,
                916.524889712662
              ],
              [
                1631.0288711271103,
                916.5203826523633
              ],
              [
                1631.0357876369537,
                916.519414352683
              ],
              [
                1631.037440778962,
                916.5190240987926
              ],
              [
                1631.0548534955947,
                916.5164411662752
              ],
              [
                1631.055339449177,
                916.5163194412396
              ],
              [
                1631.0553417768447,
                916.5163190959627
              ],
              [
                1631.0555847536357,
                916.5162582334449
              ],
              [
                1631.0555859174697,
                916.5162580608064
              ],
              [
                1631.0556715178332,
                916.5162366190316
              ],
              [
                1631.0571728315322,
                916.5160139201814
              ],
              [
                1631.0575616977544,
                916.5159165142635
              ],
              [
                1631.0589307843238,
                916.5157113125748
              ],
              [
                1631.0636912794264,
                916.5145061085941
              ],
              [
                1631.066634088257,
                916.5140584118554
              ],
              [
                1631.0790986741242,
                916.5108540998855
              ],
              [
                1631.092588666354,
                916.5086090936195
              ],
              [
                1631.1494135557582,
                916.4932431967711
              ],
              [
                1631.1978036336145,
                916.4823484405944
              ],
              [
                1631.2098710950427,
                916.4783717627083
              ],
              [
                1631.2124536827391,
                916.477767552302
              ],
              [
                1631.2130540582784,
                916.4775674271223
              ],
              [
                1631.216220801582,
                916.4768198604353
              ],
              [
                1631.223728440436,
                916.4742939120043
              ],
              [
                1631.2288644076605,
                916.4730074191866
              ],
              [
                1631.2382476803573,
                916.470697401832
              ],
              [
                1631.2386476539075,
                916.4705568435734
              ],
              [
                1631.247561542009,
                916.4683240308394
              ],
              [
                1631.2510779394252,
                916.4670658437255
              ],
              [
                1631.2511513644117,
                916.4670472548846
              ],
              [
                1631.2530787640605,
                916.4663499372236
              ],
              [
                1631.2552773573973,
                916.4655632679489
              ],
              [
                1631.261512478685,
                916.4639603848696
              ],
              [
                1631.2721052090646,
                916.4600664091231
              ],
              [
                1631.2839991134365,
                916.4568502038719
              ],
              [
                1631.341426909325,
                916.4350192232737
              ],
              [
                1631.3817537906023,
                916.421730014276
              ],
              [
                1631.383847792924,
                916.4208068991502
              ],
              [
                1631.3841951968523,
                916.4206924166198
              ],
              [
                1631.384407134798,
                916.4205989863874
              ],
              [
                1631.3850496890398,
                916.4203872408385
              ],
              [
                1631.386460707674,
                916.4197652106571
              ],
              [
                1631.3868147726898,
                916.4196471889851
              ],
              [
                1631.3889963386216,
                916.4186894541679
              ],
              [
                1631.3919346619953,
                916.4177008539622
              ],
              [
                1631.4029463632683,
                916.4128191744953
              ],
              [
                1631.4203623944034,
                916.406698852271
              ],
              [
                1631.4222817276432,
                916.4058081487904
              ],
              [
                1631.4323590522301,
                916.4022024243976
              ],
              [
                1631.4325826850484,
                916.4020966539518
              ],
              [
                1631.4329694037926,
                916.4019582837726
              ],
              [
                1631.4427162184816,
                916.3973483837476
              ],
              [
                1631.4503707528436,
                916.3945345132829
              ],
              [
                1631.459100720684,
                916.3902859255219
              ],
              [
                1631.4693436542934,
                916.3863921092708
              ],
              [
                1631.5193613576143,
                916.3614575750761
              ],
              [
                1631.5551042190973,
                916.3457660104019
              ],
              [
                1631.5581654699881,
                916.3440712815524
              ],
              [
                1631.5622738706875,
                916.3422601437186
              ],
              [
                1631.5763876971675,
                916.3342923116267
              ],
              [
                1631.595459166747,
                916.3254418296035
              ],
              [
                1631.598392761223,
                916.3237188625983
              ],
              [
                1631.6103960127145,
                916.3180417474467
              ],
              [
                1631.6104743326716,
                916.317994804271
              ],
              [
                1631.610762223652,
                916.317858641978
              ],
              [
                1631.62301823784,
                916.3105126697749
              ],
              [
                1631.6312973156405,
                916.3064835153428
              ],
              [
                1631.638221709332,
                916.30220400469
              ],
              [
                1631.6468004937876,
                916.2979273590195
              ],
              [
                1631.6854749079198,
                916.2735919301464
              ],
              [
                1631.7159008274177,
                916.2567479387897
              ],
              [
                1631.726389118528,
                916.2496103764583
              ],
              [
                1631.7376134581239,
                916.2432737778491
              ],
              [
                1631.7445173506112,
                916.2384008610752
              ],
              [
                1631.7478896270668,
                916.236482217583
              ],
              [
                1631.752133424914,
                916.2334234611566
              ],
              [
                1631.7619069016412,
                916.2276832751617
              ],
              [
                1631.7652167597157,
                916.2252821557588
              ],
              [
                1631.7791092160392,
                916.2169553378864
              ],
              [
                1631.7938693822193,
                916.2060084525757
              ],
              [
                1631.8024608555747,
                916.2006986300287
              ],
              [
                1631.807682376745,
                916.1966942904
              ],
              [
                1631.814625366856,
                916.19232549398
              ],
              [
                1631.8431314063698,
                916.170164130409
              ],
              [
                1631.8678466796875,
                916.1533447265625
              ],
              [
                1631.8680908203125,
                916.1531616210938
              ],
              [
                1631.8837428213046,
                916.1401679331108
              ],
              [
                1631.8966494875233,
                916.1311006051782
              ],
              [
                1631.8971472413837,
                916.1306713800169
              ],
              [
                1631.902004192129,
                916.127243239037
              ],
              [
                1631.9103285132537,
                916.1200115854939
              ],
              [
                1631.9181550725464,
                916.1143338485783
              ],
              [
                1631.9216497337788,
                916.1112430185922
              ],
              [
                1631.9218179881143,
                916.1111217477286
              ],
              [
                1631.921859181955,
                916.1110847476846
              ],
              [
                1631.9367553183272,
                916.1000370200068
              ],
              [
                1631.9534463239816,
                916.084909174284
              ],
              [
                1631.962128880997,
                916.0782505960651
              ],
              [
                1631.9657924087946,
                916.0748041604842
              ],
              [
                1631.971168683302,
                916.0706244997509
              ],
              [
                1631.996389220776,
                916.0466532337523
              ],
              [
                1632.0199505891992,
                916.0270934937614
              ],
              [
                1632.0353929219016,
                916.0114587947878
              ],
              [
                1632.0468135728127,
                916.0016104920054
              ],
              [
                1632.0477332895225,
                916.000642843916
              ],
              [
                1632.0539042046903,
                915.9952819358168
              ],
              [
                1632.0595638257555,
                915.9892658131855
              ],
              [
                1632.0627481658987,
                915.9864494446318
              ],
              [
                1632.0663774716083,
                915.9825543483382
              ],
              [
                1632.082182312373,
                915.9682296756544
              ],
              [
                1632.1001321432946,
                915.9484250891393
              ],
              [
                1632.1086852561293,
                915.9403788140653
              ],
              [
                1632.1109738360865,
                915.937744440838
              ],
              [
                1632.1148917420055,
                915.9340206040625
              ],
              [
                1632.1356183620787,
                915.9099848389512
              ],
              [
                1632.1586450817445,
                915.8866712737498
              ],
              [
                1632.173488624699,
                915.8683337225048
              ],
              [
                1632.176388067562,
                915.8652831740949
              ],
              [
                1632.1782663084289,
                915.8633209631889
              ],
              [
                1632.1783289320838,
                915.863241160694
              ],
              [
                1632.183417468501,
                915.857887433302
              ],
              [
                1632.184657250229,
                915.8562927089154
              ],
              [
                1632.1917759866901,
                915.8487255606846
              ],
              [
                1632.1988229454876,
                915.8395365687508
              ],
              [
                1632.2139896567255,
                915.8228026816086
              ],
              [
                1632.232439703952,
                915.7979256727273
              ],
              [
                1632.2406465593497,
                915.7884788015039
              ],
              [
                1632.2417768035552,
                915.7868774845018
              ],
              [
                1632.244381855178,
                915.7838565187733
              ],
              [
                1632.2608867453453,
                915.7603630364655
              ],
              [
                1632.2828236021414,
                915.7332624825826
              ],
              [
                1632.2957451488735,
                915.7136154791759
              ],
              [
                1632.2994328759232,
                915.7089161396113
              ],
              [
                1632.3003451951033,
                915.7074839446307
              ],
              [
                1632.30511846273,
                915.701344116856
              ],
              [
                1632.3065671464547,
                915.6990418359056
              ],
              [
                1632.3142240206537,
                915.6890575352624
              ],
              [
                1632.319434624631,
                915.6806266009254
              ],
              [
                1632.330907974605,
                915.6651565793204
              ],
              [
                1632.3490276879022,
                915.6349256640499
              ],
              [
                1632.3566770981618,
                915.6240880674987
              ],
              [
                1632.3568940900009,
                915.6237037294226
              ],
              [
                1632.3583662340056,
                915.621608242038
              ],
              [
                1632.3710044067125,
                915.5991849914169
              ],
              [
                1632.3912768204182,
                915.5683611133317
              ],
              [
                1632.4020395751452,
                915.5478400570045
              ],
              [
                1632.404881674017,
                915.543378417013
              ],
              [
                1632.4063918187567,
                915.5403982082394
              ],
              [
                1632.4107203277695,
                915.5335192437876
              ],
              [
                1632.4113343492722,
                915.5322875405956
              ],
              [
                1632.4143549269952,
                915.5274371735362
              ],
              [
                1632.4153465831887,
                915.5254377920511
              ],
              [
                1632.4200089059677,
                915.5178939953281
              ],
              [
                1632.4236149151675,
                915.510484393334
              ],
              [
                1632.4318112786966,
                915.4968095869333
              ],
              [
                1632.4480167174302,
                915.462546065505
              ],
              [
                1632.4557244991872,
                915.4488705503749
              ],
              [
                1632.4558465694997,
                915.4486264097499
              ],
              [
                1632.4651868455137,
                915.4274388469971
              ],
              [
                1632.4829485496666,
                915.3935730811558
              ],
              [
                1632.491474630647,
                915.3724907648038
              ],
              [
                1632.4935971731397,
                915.3683020141547
              ],
              [
                1632.4947371365056,
                915.3653702167745
              ],
              [
                1632.5001253411804,
                915.3545064953195
              ],
              [
                1632.5022883886802,
                915.3488267008722
              ],
              [
                1632.508059903908,
                915.3369674325312
              ],
              [
                1632.5103240943054,
                915.3308081855376
              ],
              [
                1632.5157278150225,
                915.3193829780114
              ],
              [
                1632.5282499479806,
                915.2843859608811
              ],
              [
                1632.5339736666197,
                915.2714022281021
              ],
              [
                1632.541089529257,
                915.2498087271032
              ],
              [
                1632.556946031869,
                915.2106005838697
              ],
              [
                1632.5632064194585,
                915.1892785366397
              ],
              [
                1632.5647249945384,
                915.1853730125024
              ],
              [
                1632.5652450177124,
                915.183513312233
              ],
              [
                1632.5688250800515,
                915.1741126780834
              ],
              [
                1632.5714501167115,
                915.1645278806029
              ],
              [
                1632.5774857754946,
                915.1481091583726
              ],
              [
                1632.5786985253299,
                915.1433916325515
              ],
              [
                1632.5818494214643,
                915.1345854677902
              ],
              [
                1632.581993202379,
                915.1340114622029
              ],
              [
                1632.5820935620893,
                915.1337309756027
              ],
              [
                1632.5908141264085,
                915.0989165313196
              ],
              [
                1632.5945920929382,
                915.0874520711145
              ],
              [
                1632.5994862060684,
                915.0657144102099
              ],
              [
                1632.6125486321455,
                915.0212255248522
              ],
              [
                1632.6165643503227,
                914.9999857667997
              ],
              [
                1632.6175801384109,
                914.9963531183413
              ],
              [
                1632.617708662314,
                914.995624033233
              ],
              [
                1632.6198141783457,
                914.987936161645
              ],
              [
                1632.6210161394517,
                914.9809660785404
              ],
              [
                1632.6216462029945,
                914.9786360296353
              ],
              [
                1632.6227355872306,
                914.9720900412775
              ],
              [
                1632.6275838024806,
                914.9532307679443
              ],
              [
                1632.6280127113903,
                914.9504114556335
              ],
              [
                1632.6297834514314,
                914.943342265126
              ],
              [
                1632.6350863427415,
                914.9075930757489
              ],
              [
                1632.6371333650056,
                914.8985010350339
              ],
              [
                1632.6398433803365,
                914.8768593561881
              ],
              [
                1632.6492148567593,
                914.8272921597292
              ],
              [
                1632.6509996859997,
                914.807093720998
              ],
              [
                1632.6526176524283,
                914.7977112539539
              ],
              [
                1632.6533136707837,
                914.7883497480756
              ],
              [
                1632.6541971375732,
                914.7830410946847
              ],
              [
                1632.6547038625815,
                914.7753424994348
              ],
              [
                1632.6569497531348,
                914.760201935162
              ],
              [
                1632.657846900159,
                914.7543047910518
              ],
              [
                1632.6578584104227,
                914.7540762653025
              ],
              [
                1632.6585823439693,
                914.7491959017528
              ],
              [
                1632.6603594695025,
                914.7130216804954
              ],
              [
                1632.661198528073,
                914.7063211146685
              ],
              [
                1632.6617894996741,
                914.6849882637905
              ],
              [
                1632.6665876265292,
                914.630689135831
              ],
              [
                1632.6663941324093,
                914.6124164304515
              ],
              [
                1632.6669299249527,
                914.6052099753266
              ],
              [
                1632.666669418554,
                914.5935516446934
              ],
              [
                1632.667220166182,
                914.5851842205404
              ],
              [
                1632.6669849575512,
                914.5781567730236
              ],
              [
                1632.668212890625,
                914.5531616210938
              ],
              [
                1632.6664409292625,
                914.5170812888547
              ],
              [
                1632.666561897514,
                914.5127145855087
              ],
              [
                1632.665410240908,
                914.4960946132653
              ],
              [
                1632.665094236837,
                914.4896601999003
              ],
              [
                1632.6644977542953,
                914.4333310993353
              ],
              [
                1632.6627292031806,
                914.4172168835477
              ],
              [
                1632.6626176714349,
                914.4122255513759
              ],
              [
                1632.660969436898,
                914.3984280125379
              ],
              [
                1632.6605872824057,
                914.3870101890099
              ],
              [
                1632.6597416802151,
                914.3806724841794
              ],
              [
                1632.6585823439693,
                914.3570663052784
              ],
              [
                1632.6533166816087,
                914.3215680930906
              ],
              [
                1632.653173175309,
                914.3194971018722
              ],
              [
                1632.6517492999062,
                914.3110016639429
              ],
              [
                1632.6491454060533,
                914.2934476374652
              ],
              [
                1632.6429655925722,
                914.237140049216
              ],
              [
                1632.6400551836682,
                914.2233526729808
              ],
              [
                1632.6397210622233,
                914.2205557084047
              ],
              [
                1632.638870786564,
                914.2166704325924
              ],
              [
                1632.6388238197915,
                914.2162810409593
              ],
              [
                1632.6362731388963,
                914.2047780868478
              ],
              [
                1632.634363682421,
                914.190466899315
              ],
              [
                1632.6330343647421,
                914.1848358192631
              ],
              [
                1632.6297834514314,
                914.1629199419052
              ],
              [
                1632.6211600631523,
                914.1284934461204
              ],
              [
                1632.6211579217445,
                914.1284806695835
              ],
              [
                1632.6211426664586,
                914.1284239946264
              ],
              [
                1632.6139818673983,
                914.0998364823071
              ],
              [
                1632.6022008353427,
                914.0440266195861
              ],
              [
                1632.598602206108,
                914.0326659395698
              ],
              [
                1632.5984533882963,
                914.0319859268737
              ],
              [
                1632.5968680872381,
                914.0270708315672
              ],
              [
                1632.5963345337998,
                914.0246646345679
              ],
              [
                1632.592349725057,
                914.0124929199163
              ],
              [
                1632.5888071241675,
                913.9974862217321
              ],
              [
                1632.5872619042373,
                913.9929897329839
              ],
              [
                1632.5840930424672,
                913.9801626781664
              ],
              [
                1632.583789713163,
                913.9793026460861
              ],
              [
                1632.5820935620893,
                913.9725312314285
              ],
              [
                1632.5599531176645,
                913.9106528345612
              ],
              [
                1632.5426004759238,
                913.8558714727193
              ],
              [
                1632.536171886831,
                913.840896072803
              ],
              [
                1632.5352681531392,
                913.8381355918549
              ],
              [
                1632.5296908495297,
                913.8254617360604
              ],
              [
                1632.524365393784,
                913.8099650087843
              ],
              [
                1632.5230674730342,
                913.8071363773245
              ],
              [
                1632.519672105501,
                913.7975094637258
              ],
              [
                1632.518799683057,
                913.7956366898886
              ],
              [
                1632.5159719556475,
                913.7877337212074
              ],
              [
                1632.4875926149382,
                913.7277306466533
              ],
              [
                1632.4647449407917,
                913.6745069839551
              ],
              [
                1632.4574165261681,
                913.6612256793408
              ],
              [
                1632.4562127804372,
                913.6584902894688
              ],
              [
                1632.4489031071257,
                913.6455058165676
              ],
              [
                1632.4416719042126,
                913.6297464506312
              ],
              [
                1632.440929116656,
                913.6284768919752
              ],
              [
                1632.4378857769464,
                913.6219439479585
              ],
              [
                1632.436236495363,
                913.6191472548383
              ],
              [
                1632.4320554193216,
                913.6103071122855
              ],
              [
                1632.3976116917343,
                913.5528412245413
              ],
              [
                1632.3693924370166,
                913.5016993968554
              ],
              [
                1632.3614609437695,
                913.490178710671
              ],
              [
                1632.3599297621495,
                913.4874588098756
              ],
              [
                1632.351357106773,
                913.4752169493615
              ],
              [
                1632.3395010541828,
                913.4551125954139
              ],
              [
                1632.3368767330728,
                913.4515110677594
              ],
              [
                1632.33115211523,
                913.4419601198983
              ],
              [
                1632.2908922800334,
                913.3876760161529
              ],
              [
                1632.2574715683568,
                913.3391316223925
              ],
              [
                1632.249236811374,
                913.3293878734136
              ],
              [
                1632.2473463563756,
                913.3266882797193
              ],
              [
                1632.2378948182638,
                913.3156717064476
              ],
              [
                1632.225440595385,
                913.2985799611043
              ],
              [
                1632.221656530424,
                913.2943224145714
              ],
              [
                1632.2142337973505,
                913.2843140176102
              ],
              [
                1632.1917955473318,
                913.2595572237615
              ],
              [
                1632.1904332132526,
                913.2577807869717
              ],
              [
                1632.1836574233494,
                913.2505781876256
              ],
              [
                1632.1684779751645,
                913.2338302474282
              ],
              [
                1632.1300722919202,
                913.1883868496843
              ],
              [
                1632.1218286005865,
                913.1803866368335
              ],
              [
                1632.1195468028575,
                913.1777270070912
              ],
              [
                1632.1093681375128,
                913.1679839233263
              ],
              [
                1632.0967740667738,
                913.1538140180089
              ],
              [
                1632.0941326058758,
                913.1513663787367
              ],
              [
                1632.0930564015125,
                913.1501583208379
              ],
              [
                1632.0905604233583,
                913.1478614768845
              ],
              [
                1632.082426452998,
                913.1388870235644
              ],
              [
                1632.0563568966736,
                913.1152589549922
              ],
              [
                1632.0525614312528,
                913.1112244118394
              ],
              [
                1632.0367532440614,
                913.0974912399446
              ],
              [
                1632.0315635392042,
                913.0927875656392
              ],
              [
                1632.0163968747258,
                913.0780688505453
              ],
              [
                1631.9979816589253,
                913.0599956724451
              ],
              [
                1631.9967408180596,
                913.0589933380386
              ],
              [
                1631.9884353034647,
                913.0509331278846
              ],
              [
                1631.980463213597,
                913.0445953032173
              ],
              [
                1631.9777618811577,
                913.0420095704773
              ],
              [
                1631.9670142754946,
                913.0335755691501
              ],
              [
                1631.9547081112212,
                913.0221723903298
              ],
              [
                1631.950468617726,
                913.0189464797173
              ],
              [
                1631.9471481673522,
                913.0158909416108
              ],
              [
                1631.944643164262,
                913.0140075298804
              ],
              [
                1631.9369994589522,
                913.007079679212
              ],
              [
                1631.907479114707,
                912.9851858997763
              ],
              [
                1631.9006614186915,
                912.9792631086192
              ],
              [
                1631.879883705181,
                912.964597748625
              ],
              [
                1631.8478205612175,
                912.9386975761979
              ],
              [
                1631.844528426304,
                912.9365269218612
              ],
              [
                1631.833939954707,
                912.9281090693798
              ],
              [
                1631.8264984097173,
                912.9233081258134
              ],
              [
                1631.82335705758,
                912.9208430029829
              ],
              [
                1631.8122047844126,
                912.9137389194963
              ],
              [
                1631.8005750322745,
                912.9048896216061
              ],
              [
                1631.7946058179375,
                912.9012004442596
              ],
              [
                1631.7886617780464,
                912.8967313581732
              ],
              [
                1631.786185352296,
                912.8952283146248
              ],
              [
                1631.7793533566642,
                912.8901613613324
              ],
              [
                1631.746661352801,
                912.870566528301
              ],
              [
                1631.7362706846864,
                912.8632325698071
              ],
              [
                1631.7160606330408,
                912.851822260635
              ],
              [
                1631.686665265439,
                912.8324405573217
              ],
              [
                1631.681051207021,
                912.8294722606803
              ],
              [
                1631.6680908203125,
                912.8211108135248
              ],
              [
                1631.661410126125,
                912.81768156637
              ],
              [
                1631.6578193349817,
                912.8153942048893
              ],
              [
                1631.6464317750922,
                912.8096238495308
              ],
              [
                1631.6358202997303,
                912.8030655970864
              ],
              [
                1631.6280344175393,
                912.7992400775045
              ],
              [
                1631.6191550336355,
                912.7938508181304
              ],
              [
                1631.6167440297213,
                912.7926970815612
              ],
              [
                1631.611006364277,
                912.7892580572408
              ],
              [
                1631.575511802556,
                912.772470379811
              ],
              [
                1631.5610531675625,
                912.7643072390939
              ],
              [
                1631.56093109725,
                912.7642462039377
              ],
              [
                1631.5414122172185,
                912.7556415461437
              ],
              [
                1631.5160169969633,
                912.7422144420096
              ],
              [
                1631.5078607380144,
                912.738863589148
              ],
              [
                1631.4925030453842,
                912.7309803778711
              ],
              [
                1631.4867787959745,
                912.7287237767761
              ],
              [
                1631.4827429321233,
                912.7266787057665
              ],
              [
                1631.4712929343198,
                912.722226632058
              ],
              [
                1631.461988993927,
                912.7176552289351
              ],
              [
                1631.4523441884753,
                912.7140269028465
              ],
              [
                1631.440294055826,
                912.708260558537
              ],
              [
                1631.4379860279994,
                912.7074255326686
              ],
              [
                1631.4335797553551,
                912.7053415209149
              ],
              [
                1631.4002984390736,
                912.6934332755364
              ],
              [
                1631.3837069156023,
                912.6861191068177
              ],
              [
                1631.3623266095076,
                912.6790734998399
              ],
              [
                1631.3374654119639,
                912.6688597222421
              ],
              [
                1631.326603706656,
                912.6655799030428
              ],
              [
                1631.3088866161443,
                912.6585955103327
              ],
              [
                1631.3042747715447,
                912.6572853819285
              ],
              [
                1631.2998139304711,
                912.6555508843677
              ],
              [
                1631.2884755140074,
                912.6523803523127
              ],
              [
                1631.2807113158824,
                912.6494595010053
              ],
              [
                1631.2692094407168,
                912.6463635234774
              ],
              [
                1631.2538369112867,
                912.6408018662091
              ],
              [
                1631.2516709977406,
                912.6402535266832
              ],
              [
                1631.248782245134,
                912.6392199144731
              ],
              [
                1631.2468984887112,
                912.638748058053
              ],
              [
                1631.246340838884,
                912.6385485277543
              ],
              [
                1631.2453014880643,
                912.638288183927
              ],
              [
                1631.2447367625955,
                912.6380867918742
              ],
              [
                1631.216727878422,
                912.6310932964146
              ],
              [
                1631.1997567586145,
                912.6255006804994
              ],
              [
                1631.176633057854,
                912.620294508225
              ],
              [
                1631.1526737891352,
                912.6130597262718
              ],
              [
                1631.1524296485102,
                912.6129986911155
              ],
              [
                1631.1392106053327,
                912.6103941114187
              ],
              [
                1631.1190297069932,
                912.6046611411145
              ],
              [
                1631.1156429646096,
                912.6040516337681
              ],
              [
                1631.1107940363102,
                912.6026957404954
              ],
              [
                1631.101696419106,
                912.6010920027979
              ],
              [
                1631.0961369298607,
                912.5995795416995
              ]
            ]
          ]
        ]
      }
    }
  ]
}