{
  "type": "FeatureCollection",
  "features": [
    {
      "type": "Feature",
      "properties": {
        "image_id": "0007_top_20250702_t1",
        "zone_type": "parking_spot",
        "generated_at": "2025-11-03T11:20:39",
        "source": "merged_t1_polygons"
      },
      "geometry": {
        "type": "MultiPolygon",
        "coordinates": [
          [
            [
              [
                477.03381716614354,
                285.05498603153177
              ],
              [
                477.03341990445887,
                285.05744507497025
              ],
              [
                477.0330947054132,
                285.05868738509076
              ],
              [
                477.0328862291224,
                285.06000568209
              ],
              [
                477.0283891559904,
                285.0779590044052
              ],
              [
                477.0091200175312,
                285.2078609842213
              ],
              [
                477.0031477601232,
                285.2448291615209
              ],
              [
                477.0028001946033,
                285.2502543136483
              ],
              [
                477.00212268406034,
                285.25453854238526
              ],
              [
                477.00207594473,
                285.25534826575114
              ],
              [
                476.9995902634525,
                285.27210536777835
              ],
              [
                476.99364581375363,
                285.3931450950894
              ],
              [
                476.9908528654926,
                285.436740239981
              ],
              [
                476.99111114001806,
                285.44475562815995
              ],
              [
                476.99093022427496,
                285.4484393992943
              ],
              [
                476.9906961802164,
                285.4524940346813
              ],
              [
                476.9907121811717,
                285.45287915050767
              ],
              [
                476.9899597167969,
                285.46820068359375
              ],
              [
                476.9959546461164,
                285.5950708071659
              ],
              [
                476.9970461517076,
                285.628944999744
              ],
              [
                476.99784918238225,
                285.63516469941186
              ],
              [
                476.99887101114354,
                285.6567895650787
              ],
              [
                477.01757529959184,
                285.78794905564075
              ],
              [
                477.02167036024787,
                285.81966645848286
              ],
              [
                477.02280961607073,
                285.8246534876059
              ],
              [
                477.0255254830166,
                285.8436978755303
              ],
              [
                477.0320593712622,
                285.87085754904115
              ],
              [
                477.0326676497989,
                285.8747925686286
              ],
              [
                477.03692827735443,
                285.89109632491943
              ],
              [
                477.0579481384598,
                285.97847041878254
              ],
              [
                477.0644978339864,
                286.007141347369
              ],
              [
                477.0657581225716,
                286.0109344908064
              ],
              [
                477.0696856065716,
                286.0272600199782
              ],
              [
                477.0737197563001,
                286.0390176958884
              ],
              [
                477.07384759970375,
                286.03954035687286
              ],
              [
                477.0757415843657,
                286.04491038722165
              ],
              [
                477.080276269176,
                286.0581268908082
              ],
              [
                477.08064025522293,
                286.0595452961267
              ],
              [
                477.08174050275403,
                286.06257519563684
              ],
              [
                477.08434760202493,
                286.0725515455019
              ],
              [
                477.0949892308695,
                286.10100835206174
              ],
              [
                477.1170022972482,
                286.1651662335715
              ],
              [
                477.1251326219383,
                286.1896364129454
              ],
              [
                477.12631096112966,
                286.19229667255934
              ],
              [
                477.1309578579491,
                286.2058402221223
              ],
              [
                477.1379516076472,
                286.22129497983906
              ],
              [
                477.13979995704045,
                286.2265356201337
              ],
              [
                477.14637077381565,
                286.2405562599771
              ],
              [
                477.14691793800057,
                286.2420630595371
              ],
              [
                477.15069940583146,
                286.2499830715776
              ],
              [
                477.1559422389884,
                286.2640029449591
              ],
              [
                477.1713242728866,
                286.29504175058423
              ],
              [
                477.1947665009074,
                286.346844284281
              ],
              [
                477.20301413992894,
                286.36546444149934
              ],
              [
                477.2039207364787,
                286.36707327429986
              ],
              [
                477.20879622208184,
                286.3778471012168
              ],
              [
                477.219423444454,
                286.3964341697802
              ],
              [
                477.22394456954976,
                286.406081230233
              ],
              [
                477.230407376837,
                286.41692567649295
              ],
              [
                477.23058290351247,
                286.41729330447384
              ],
              [
                477.23434309429956,
                286.423529722478
              ],
              [
                477.23824076359176,
                286.4300699244831
              ],
              [
                477.2467037649015,
                286.4471470843957
              ],
              [
                477.26518923637065,
                286.4764787837372
              ],
              [
                477.2917467650598,
                286.5229280429448
              ],
              [
                477.2974223533388,
                286.53299985778636
              ],
              [
                477.29788144731,
                286.53365763489325
              ],
              [
                477.30250705839546,
                286.5417478533325
              ],
              [
                477.31734731828686,
                286.56280895615737
              ],
              [
                477.32545436002084,
                286.57641239108966
              ],
              [
                477.34385590401746,
                286.601302597264
              ],
              [
                477.3556841885505,
                286.6200710493552
              ],
              [
                477.37567095258026,
                286.6455810954572
              ],
              [
                477.41125528204424,
                286.6960819106236
              ],
              [
                477.4114689050911,
                286.69635656882673
              ],
              [
                477.4278431880498,
                286.7149050654036
              ],
              [
                477.4433315648197,
                286.73585487761403
              ],
              [
                477.466097943101,
                286.76099917124463
              ],
              [
                477.47324411038454,
                286.77022758019064
              ],
              [
                477.473738369164,
                286.7707491473955
              ],
              [
                477.4817452249294,
                286.7809686736482
              ],
              [
                477.5044666251403,
                286.8045497098354
              ],
              [
                477.532182829757,
                286.8370882092749
              ],
              [
                477.55489209239124,
                286.85906774125823
              ],
              [
                477.5635015030635,
                286.86857639244795
              ],
              [
                477.57595977747064,
                286.88268890417
              ],
              [
                477.57620391809564,
                286.882933044795
              ],
              [
                477.6034787046598,
                286.9076578012503
              ],
              [
                477.6102176520376,
                286.91476908403195
              ],
              [
                477.61290909518,
                286.91709496613544
              ],
              [
                477.62357018446437,
                286.9281594045009
              ],
              [
                477.64493742987617,
                286.9462195967399
              ],
              [
                477.6703646719173,
                286.9708297696325
              ],
              [
                477.6910625456307,
                286.9873250313886
              ],
              [
                477.7135059539101,
                287.0077781271257
              ],
              [
                477.7160038219611,
                287.009662490227
              ],
              [
                477.72136140355013,
                287.0145191698445
              ],
              [
                477.7352539721431,
                287.02482823329615
              ],
              [
                477.73981466312,
                287.02891641350055
              ],
              [
                477.75438366581153,
                287.03935397534474
              ],
              [
                477.7608859052481,
                287.0449730583192
              ],
              [
                477.76618111922784,
                287.048698147216
              ],
              [
                477.7796777256491,
                287.06010585568964
              ],
              [
                477.7986805633587,
                287.07309168532964
              ],
              [
                477.8207524338983,
                287.0906819599172
              ],
              [
                477.83997842520733,
                287.10318751360205
              ],
              [
                477.86150768717386,
                287.1194289427007
              ],
              [
                477.8688724021342,
                287.12398058686364
              ],
              [
                477.878697259975,
                287.1312711812708
              ],
              [
                477.88735558422064,
                287.1364659117992
              ],
              [
                477.88843285950264,
                287.1372756375038
              ],
              [
                477.8993792149647,
                287.1442032558576
              ],
              [
                477.90545790382913,
                287.1486007727924
              ],
              [
                477.90970943242354,
                287.15107389711136
              ],
              [
                477.91486061707394,
                287.15478666094236
              ],
              [
                477.92670439845944,
                287.16152513401204
              ],
              [
                477.9272119813293,
                287.1618833969898
              ],
              [
                477.92817300322594,
                287.1624259763535
              ],
              [
                477.92939561609546,
                287.16319973117845
              ],
              [
                477.9315506067507,
                287.1647088148839
              ],
              [
                477.93362820523276,
                287.1658784092365
              ],
              [
                477.94488812644,
                287.1730044738968
              ],
              [
                477.94843732744573,
                287.1754298653211
              ],
              [
                477.95042497512975,
                287.1765085785039
              ],
              [
                477.96893329383244,
                287.18822193540944
              ],
              [
                477.9693910575043,
                287.18849659361257
              ],
              [
                477.9805490048027,
                287.19462170294355
              ],
              [
                477.98195574224826,
                287.19553671587386
              ],
              [
                477.9871113193598,
                287.19822405856075
              ],
              [
                478.00401440558085,
                287.2075029383014
              ],
              [
                478.0192120557431,
                287.2168956026508
              ],
              [
                478.03192992442587,
                287.2232100426232
              ],
              [
                478.03516363825224,
                287.22519141236404
              ],
              [
                478.03558843321815,
                287.2254011011214
              ],
              [
                478.0467016294047,
                287.23206867995776
              ],
              [
                478.0474331891344,
                287.23241522833416
              ],
              [
                478.05531582882156,
                287.2371419023151
              ],
              [
                478.06681606652575,
                287.2425847902206
              ],
              [
                478.06745593425615,
                287.2429633855833
              ],
              [
                478.06851403499473,
                287.2434509130156
              ],
              [
                478.07726767030994,
                287.248542923547
              ],
              [
                478.0861291971047,
                287.252579515769
              ],
              [
                478.10395537735945,
                287.26236512418734
              ],
              [
                478.1455022495134,
                287.28078527306815
              ],
              [
                478.152484231014,
                287.2844246283759
              ],
              [
                478.1528809595296,
                287.28460773384467
              ],
              [
                478.1537098480194,
                287.2849410417146
              ],
              [
                478.163710365439,
                287.2901640375897
              ],
              [
                478.1765499419828,
                287.29539347375936
              ],
              [
                478.18604979248596,
                287.30020728056155
              ],
              [
                478.19115287246495,
                287.30219135659166
              ],
              [
                478.1986449991179,
                287.305889646011
              ],
              [
                478.207096804055,
                287.30914176532934
              ],
              [
                478.2163728286229,
                287.31366237448924
              ],
              [
                478.2165864516698,
                287.3137539272236
              ],
              [
                478.21900754609806,
                287.3146147068878
              ],
              [
                478.23258558210495,
                287.32104098518425
              ],
              [
                478.2505426543801,
                287.32747293969084
              ],
              [
                478.2581491434546,
                287.33093783861244
              ],
              [
                478.26018336343935,
                287.3316300920114
              ],
              [
                478.2735621641767,
                287.337561693806
              ],
              [
                478.28713611057304,
                287.3421286541071
              ],
              [
                478.29191829604065,
                287.34423067059464
              ],
              [
                478.30276797549584,
                287.3477672063562
              ],
              [
                478.3043143961201,
                287.34836636295057
              ],
              [
                478.3048026773701,
                287.3485494684193
              ],
              [
                478.3052262770426,
                287.3486852941097
              ],
              [
                478.30547406408886,
                287.3487936090443
              ],
              [
                478.30645062658886,
                287.3491598199818
              ],
              [
                478.30872789486665,
                287.34989018531775
              ],
              [
                478.32319722343595,
                287.3552338196331
              ],
              [
                478.32453999687345,
                287.3557221008831
              ],
              [
                478.32506970888727,
                287.3558841479113
              ],
              [
                478.33874144775365,
                287.36145251579995
              ],
              [
                478.35847320810694,
                287.3673889837194
              ],
              [
                478.3688872414038,
                287.3713961371167
              ],
              [
                478.3881549403584,
                287.3767636007403
              ],
              [
                478.41722034056795,
                287.3871743920429
              ],
              [
                478.43217287131245,
                287.3909263367534
              ],
              [
                478.4492760245898,
                287.3966807002791
              ],
              [
                478.4509324381573,
                287.39707172647985
              ],
              [
                478.45498279303337,
                287.3985117624691
              ],
              [
                478.45519641608024,
                287.3985727976254
              ],
              [
                478.46741557526786,
                287.401435347158
              ],
              [
                478.4801561819333,
                287.40558824506456
              ],
              [
                478.48724495833847,
                287.40714416645955
              ],
              [
                478.490785715286,
                287.4082797578005
              ],
              [
                478.5036795887475,
                287.41107555830473
              ],
              [
                478.51972000969295,
                287.4159014553688
              ],
              [
                478.51996415031795,
                287.41596249052503
              ],
              [
                478.5200703168856,
                287.41553782425444
              ],
              [
                478.5229548729742,
                287.4164202541969
              ],
              [
                478.5233210839117,
                287.4165118069313
              ],
              [
                478.5478266115333,
                287.4213507712531
              ],
              [
                478.55809024103365,
                287.4242207634108
              ],
              [
                478.5592413602257,
                287.424423683934
              ],
              [
                478.56172289491656,
                287.4251149728738
              ],
              [
                478.5833726634458,
                287.4288659517942
              ],
              [
                478.6074446738427,
                287.43490619030797
              ],
              [
                478.61524713834706,
                287.43606744952245
              ],
              [
                478.6427720488324,
                287.44251563621305
              ],
              [
                478.6573091711918,
                287.4444717011668
              ],
              [
                478.6735382531264,
                287.4480338357806
              ],
              [
                478.6748230661197,
                287.44818488947294
              ],
              [
                478.67997293727717,
                287.4493015447916
              ],
              [
                478.7031125637187,
                287.45201418703044
              ],
              [
                478.71953899667443,
                287.4552578194155
              ],
              [
                478.7513170831696,
                287.45828299794323
              ],
              [
                478.751380662794,
                287.4582942058275
              ],
              [
                478.75165583370756,
                287.4583152459785
              ],
              [
                478.75540957992484,
                287.4586725913604
              ],
              [
                478.75896258372256,
                287.45928817495576
              ],
              [
                478.7706887763342,
                287.4601271250343
              ],
              [
                478.7793590383968,
                287.4609525079794
              ],
              [
                478.7827178189165,
                287.4613462554728
              ],
              [
                478.8337054049848,
                287.46820696887374
              ],
              [
                478.8447733214931,
                287.4686209786783
              ],
              [
                478.87223986407463,
                287.4718408622728
              ],
              [
                478.89940634693494,
                287.4723806517148
              ],
              [
                478.91864563943074,
                287.47421217465927
              ],
              [
                478.97660643888537,
                287.47391459318123
              ],
              [
                478.99726181406515,
                287.4743250089682
              ],
              [
                479.02622483344555,
                287.4754084083582
              ],
              [
                479.0326611551703,
                287.4750283827056
              ],
              [
                479.0657852145206,
                287.47568654731253
              ],
              [
                479.0967631806097,
                287.47329768621756
              ],
              [
                479.1186498102225,
                287.473185316208
              ],
              [
                479.1740168734059,
                287.46734027956825
              ],
              [
                479.21043405677244,
                287.46453197406873
              ],
              [
                479.2185439661199,
                287.46405313324567
              ],
              [
                479.2203877189674,
                287.463764398938
              ],
              [
                479.258795730356,
                287.4608025710415
              ],
              [
                479.2932598679053,
                287.45475193494946
              ],
              [
                479.3175513312004,
                287.45218751334517
              ],
              [
                479.3697201007481,
                287.4413283277641
              ],
              [
                479.4494631639989,
                287.427328376194
              ],
              [
                479.4869809593345,
                287.4169199041837
              ],
              [
                479.51336105176375,
                287.4114287583925
              ],
              [
                479.5618441932325,
                287.3961507766895
              ],
              [
                479.63600121937986,
                287.37557757071846
              ],
              [
                479.67603755419657,
                287.3601662256362
              ],
              [
                479.7041207414206,
                287.3513166666437
              ],
              [
                479.7485407654109,
                287.33225727710953
              ],
              [
                479.8166622871206,
                287.30603498969475
              ],
              [
                479.8585858333328,
                287.28504001724724
              ],
              [
                479.8879226734255,
                287.27245239993414
              ],
              [
                479.9280068261945,
                287.2502745461911
              ],
              [
                479.9897538172715,
                287.21935215308497
              ],
              [
                480.0328451259849,
                287.1922693666176
              ],
              [
                480.06292870334585,
                287.1756246546133
              ],
              [
                480.098504644748,
                287.15100251306166
              ],
              [
                480.1536541762158,
                287.11634116187247
              ],
              [
                480.1971153145964,
                287.0827539783551
              ],
              [
                480.2273886517569,
                287.0618017740443
              ],
              [
                480.2583801699392,
                287.0354079120475
              ],
              [
                480.30682783918473,
                286.9979670897733
              ],
              [
                480.3497933827612,
                286.95755603948953
              ],
              [
                480.37965780722783,
                286.9321220645113
              ],
              [
                480.4060801819287,
                286.90461574170365
              ],
              [
                480.4478397760481,
                286.86533894180036
              ],
              [
                480.4893889118032,
                286.8178893651926
              ],
              [
                480.51821337455544,
                286.7878824113818
              ],
              [
                480.54016819218873,
                286.75989886043357
              ],
              [
                480.5753688956066,
                286.7196992643862
              ],
              [
                480.6145383281484,
                286.6651068870536
              ],
              [
                480.64166970375254,
                286.63052530936994
              ],
              [
                480.6593390340498,
                286.6026659252468
              ],
              [
                480.68822042243016,
                286.5624125044022
              ],
              [
                480.7240176921115,
                286.5006865321857
              ],
              [
                480.7487921474913,
                286.4616244366078
              ],
              [
                480.7624320538128,
                286.434447854091
              ],
              [
                480.78533709028846,
                286.39495222613664
              ],
              [
                480.8167537899272,
                286.3262155019637
              ],
              [
                480.83850940841694,
                286.2828689167926
              ],
              [
                480.8484428020673,
                286.256882984168
              ],
              [
                480.8658090473062,
                286.21888730598954
              ],
              [
                480.8918332262026,
                286.143372870926
              ],
              [
                480.90992425285015,
                286.0960464268002
              ],
              [
                480.91653312643194,
                286.0717010990951
              ],
              [
                480.9288823800446,
                286.0358672342216
              ],
              [
                480.9485090733533,
                285.9539102385431
              ],
              [
                480.962322483735,
                285.90302531869924
              ],
              [
                480.96603957546466,
                285.88070650202025
              ],
              [
                480.9739661766516,
                285.84760666146093
              ],
              [
                480.9862043250643,
                285.7596297618076
              ],
              [
                480.99518008309565,
                285.7057359349589
              ],
              [
                480.9964800364168,
                285.68576031717936
              ],
              [
                481.0006380629065,
                285.65586933474475
              ],
              [
                481.0045106904488,
                285.5623579819957
              ],
              [
                481.0081684525724,
                285.5061513037101
              ],
              [
                481.00755854522527,
                285.48876220754653
              ],
              [
                481.0086481592957,
                285.46245157359414
              ],
              [
                481.0031795204647,
                285.36391163307354
              ],
              [
                481.0011576996296,
                285.3062674071212
              ],
              [
                480.99916822469226,
                285.29163170034366
              ],
              [
                480.9979214220458,
                285.269165440929
              ],
              [
                480.982096938406,
                285.1660456295091
              ],
              [
                480.9742179365686,
                285.1080832202177
              ],
              [
                480.971392325528,
                285.0962893147738
              ],
              [
                480.96855834618214,
                285.0778217664882
              ],
              [
                480.9412206937941,
                284.970355006533
              ],
              [
                480.9276185793579,
                284.9135807197712
              ],
              [
                480.92450336431455,
                284.90463768710964
              ],
              [
                480.9208340240265,
                284.8902131818034
              ],
              [
                480.8898604601086,
                284.8042761039366
              ],
              [
                480.8893523114817,
                284.8025880516846
              ],
              [
                480.88853959424256,
                284.8006113221543
              ],
              [
                480.8804024165072,
                284.77803447957615
              ],
              [
                480.8618256532894,
                284.7247050631827
              ],
              [
                480.85896037208397,
                284.7185428871297
              ],
              [
                480.8551955679538,
                284.7080973256648
              ],
              [
                480.8409201705845,
                284.67799026269444
              ],
              [
                480.8397857694427,
                284.6749848014037
              ],
              [
                480.8331755380831,
                284.66165669716406
              ],
              [
                480.81988613715095,
                284.6336291179414
              ],
              [
                480.81509742161785,
                284.62198177622054
              ],
              [
                480.80818778625917,
                284.60895709110827
              ],
              [
                480.79875776801543,
                284.5890690175414
              ],
              [
                480.77749713240854,
                284.54334513558445
              ],
              [
                480.77540428674473,
                284.5398161166933
              ],
              [
                480.77225792155394,
                284.53318037742275
              ],
              [
                480.7559581429458,
                284.5059644928354
              ],
              [
                480.75140492595676,
                284.4967839139186
              ],
              [
                480.7336692413906,
                284.4684893917933
              ],
              [
                480.72358353140123,
                284.4494777956777
              ],
              [
                480.70851593676457,
                284.42674982133366
              ],
              [
                480.69173967951275,
                284.3987383561383
              ],
              [
                480.67547635932607,
                284.3713146597029
              ],
              [
                480.67461910955063,
                284.3701519889637
              ],
              [
                480.67273706328507,
                284.3670095196589
              ],
              [
                480.6559566264812,
                284.3445110196157
              ],
              [
                480.645759813272,
                284.32824359244756
              ],
              [
                480.6281503461692,
                284.3055262866391
              ],
              [
                480.6156830522511,
                284.28672060841745
              ],
              [
                480.5895311440736,
                284.254585389819
              ],
              [
                480.5622242361429,
                284.21704351340276
              ],
              [
                480.55935999790375,
                284.2138283591728
              ],
              [
                480.55678361121755,
                284.2103340573968
              ],
              [
                480.5516440419988,
                284.20465311758875
              ],
              [
                480.5464420354997,
                284.197678487261
              ],
              [
                480.534777319174,
                284.185069284952
              ],
              [
                480.52389543929525,
                284.17103098433034
              ],
              [
                480.5072515945983,
                284.15348105392775
              ],
              [
                480.49242461064085,
                284.13526179560847
              ],
              [
                480.47364061549354,
                284.1163035203398
              ],
              [
                480.4721555506952,
                284.1145237146097
              ],
              [
                480.4628915474781,
                284.10545472120407
              ],
              [
                480.46213009162113,
                284.1046862004699
              ],
              [
                480.43073273840736,
                284.0694421584018
              ],
              [
                480.4254833801398,
                284.0646086563705
              ],
              [
                480.42340183998135,
                284.06229767733464
              ],
              [
                480.40957510838166,
                284.0497295166
              ],
              [
                480.4029914670239,
                284.0426128012431
              ],
              [
                480.39780703784214,
                284.0380783696935
              ],
              [
                480.3870172477158,
                284.0267011867635
              ],
              [
                480.3720752710872,
                284.0137958406947
              ],
              [
                480.35498324209493,
                283.9965452298425
              ],
              [
                480.3331270911726,
                283.9784218423361
              ],
              [
                480.32834246122616,
                283.97373793016385
              ],
              [
                480.31664418722636,
                283.9643917473287
              ],
              [
                480.28531264698523,
                283.9355423040865
              ],
              [
                480.2851295415165,
                283.93538971619586
              ],
              [
                480.27752863131616,
                283.9297024996415
              ],
              [
                480.27571404322094,
                283.9280530834593
              ],
              [
                480.27094228448817,
                283.92451571058353
              ],
              [
                480.2694607996126,
                283.9231752555878
              ],
              [
                480.2536428605682,
                283.91150607800154
              ],
              [
                480.23647919413895,
                283.89668186427235
              ],
              [
                480.2237913852086,
                283.88775933847097
              ],
              [
                480.2045471191406,
                283.8718017578125
              ],
              [
                480.17944088062774,
                283.85477496205914
              ],
              [
                480.17110862578204,
                283.84811801615257
              ],
              [
                480.1588499762901,
                283.8402012711859
              ],
              [
                480.15811422641366,
                283.83962366210676
              ],
              [
                480.1519849877095,
                283.8357180381701
              ],
              [
                480.14731948602736,
                283.8321655491467
              ],
              [
                480.14639507720904,
                283.83158465584495
              ],
              [
                480.11747333161634,
                283.80994458564544
              ],
              [
                480.1096523896117,
                283.80528172275496
              ],
              [
                480.1087940469607,
                283.80464850797296
              ],
              [
                480.0946594990154,
                283.79625777247685
              ],
              [
                480.0904992212559,
                283.79325119988926
              ],
              [
                480.08404386263066,
                283.7894838298522
              ],
              [
                480.0737703531872,
                283.78225912670734
              ],
              [
                480.06633069713183,
                283.77806478538247
              ],
              [
                480.0471486647048,
                283.7650557259767
              ],
              [
                480.0165974842338,
                283.7483333455036
              ],
              [
                480.00204614865373,
                283.73893596345204
              ],
              [
                479.99141159278247,
                283.7334970728203
              ],
              [
                479.9907214802293,
                283.7330571727823
              ],
              [
                479.99029423413555,
                283.7328130321573
              ],
              [
                479.9843515130697,
                283.7297989245636
              ],
              [
                479.9801659185828,
                283.7271702897798
              ],
              [
                479.9780136409998,
                283.7260934253663
              ],
              [
                479.9648520133741,
                283.71813162815323
              ],
              [
                479.9570895334275,
                283.7143234110655
              ],
              [
                479.937620377062,
                283.7027158570558
              ],
              [
                479.9268036233837,
                283.69771787224244
              ],
              [
                479.9221256392996,
                283.6949877842496
              ],
              [
                479.9213626998465,
                283.69459105573395
              ],
              [
                479.90455256913424,
                283.68683348872804
              ],
              [
                479.8930844175624,
                283.68038389925016
              ],
              [
                479.89290131209367,
                283.6802923465158
              ],
              [
                479.88973253818614,
                283.67889302065214
              ],
              [
                479.8803227493704,
                283.6737425136563
              ],
              [
                479.8488002680391,
                283.6602032861539
              ],
              [
                479.8472432057569,
                283.65937828409426
              ],
              [
                479.84368509151335,
                283.65794447866017
              ],
              [
                479.8228669075328,
                283.6472973179143
              ],
              [
                479.81775513386833,
                283.6453023772632
              ],
              [
                479.8128524728447,
                283.6428157810294
              ],
              [
                479.8071579111961,
                283.64060795791625
              ],
              [
                479.80700575494944,
                283.6405318284948
              ],
              [
                479.8059681572932,
                283.6400740648229
              ],
              [
                479.7998966647873,
                283.63774820259147
              ],
              [
                479.79556564768006,
                283.6356192239536
              ],
              [
                479.79356714925467,
                283.63486783982466
              ],
              [
                479.77136948227144,
                283.62429271424537
              ],
              [
                479.76547224588916,
                283.62214679433066
              ],
              [
                479.7631673153943,
                283.62105721701613
              ],
              [
                479.7580738679351,
                283.6192362547184
              ],
              [
                479.7501510268734,
                283.6155800088828
              ],
              [
                479.7462445018917,
                283.61420671717076
              ],
              [
                479.7453162631281,
                283.61377924519286
              ],
              [
                479.7308687879328,
                283.60873902386635
              ],
              [
                479.7180545557145,
                283.6030802779006
              ],
              [
                479.70863922550143,
                283.599957621225
              ],
              [
                479.7020675333636,
                283.59708469192253
              ],
              [
                479.6909216162364,
                283.59352542512767
              ],
              [
                479.68435890769183,
                283.59069219244554
              ],
              [
                479.6834433803481,
                283.59035649908617
              ],
              [
                479.65809573571016,
                283.5824295385131
              ],
              [
                479.65286637640446,
                283.5802318199506
              ],
              [
                479.65198136663884,
                283.57992664416935
              ],
              [
                479.64672269825536,
                283.57840318717626
              ],
              [
                479.63685216325325,
                283.5745185497215
              ],
              [
                479.636413163452,
                283.57439461068793
              ],
              [
                479.6291596335962,
                283.5715665093677
              ],
              [
                479.62888203528735,
                283.5714890996735
              ],
              [
                479.6273468725635,
                283.570893905881
              ],
              [
                479.615923779771,
                283.5677282479383
              ],
              [
                479.59175521529687,
                283.5589336532413
              ],
              [
                479.58321313460755,
                283.5567216601732
              ],
              [
                479.57824321171495,
                283.5549448592377
              ],
              [
                479.576240739683,
                283.55444394623254
              ],
              [
                479.572259291225,
                283.5530443160767
              ],
              [
                479.56865255135455,
                283.5521474240154
              ],
              [
                479.56428235515034,
                283.55062281464166
              ],
              [
                479.54756236715775,
                283.5465354134422
              ],
              [
                479.53663567482437,
                283.5429115035012
              ],
              [
                479.5218271500406,
                283.53952786603463
              ],
              [
                479.5058545611999,
                283.53442728037265
              ],
              [
                479.50207503106816,
                283.5336372348519
              ],
              [
                479.4989282604676,
                283.53265314631665
              ],
              [
                479.4624111988795,
                283.5250074181034
              ],
              [
                479.4596719887456,
                283.5242138581126
              ],
              [
                479.4587228043606,
                283.5240393364175
              ],
              [
                479.43734469505677,
                283.5180779423762
              ],
              [
                479.43578199573074,
                283.51780593006765
              ],
              [
                479.4356132469779,
                283.5177591650768
              ],
              [
                479.4270401333637,
                283.5162802725602
              ],
              [
                479.406722071434,
                283.5110188598224
              ],
              [
                479.39710766144907,
                283.50948916324813
              ],
              [
                479.3892687806551,
                283.507539859942
              ],
              [
                479.38792808917714,
                283.50733804204526
              ],
              [
                479.3877266541047,
                283.5072876536024
              ],
              [
                479.38633859743646,
                283.5070822906618
              ],
              [
                479.38331373481657,
                283.5063274290286
              ],
              [
                479.38274204619194,
                283.5062431131182
              ],
              [
                479.3780326786788,
                283.5050918518595
              ],
              [
                479.3591407244802,
                283.50235523115896
              ],
              [
                479.35030161757874,
                283.5003355611567
              ],
              [
                479.3352427635606,
                283.49838163685325
              ],
              [
                479.3097038811785,
                283.4930344554243
              ],
              [
                479.3057512596637,
                283.4925991399521
              ],
              [
                479.30423779017525,
                283.4922827752855
              ],
              [
                479.28201145962964,
                283.4899845961051
              ],
              [
                479.2655070952395,
                283.4881669150672
              ],
              [
                479.2411614662751,
                283.48392917679814
              ],
              [
                479.2324857690255,
                283.48329706770727
              ],
              [
                479.2304623029896,
                283.4829751250121
              ],
              [
                479.22662065398714,
                283.4823238924184
              ],
              [
                479.22618305843616,
                283.482294277644
              ],
              [
                479.2179600088885,
                283.4809859528749
              ],
              [
                479.209278762232,
                283.48044547800566
              ],
              [
                479.20280610616044,
                283.4794711316653
              ],
              [
                479.2002718847906,
                283.4793313693617
              ],
              [
                479.1892374379463,
                283.4777039459864
              ],
              [
                479.18882605821847,
                283.47768405969606
              ],
              [
                479.18827896185644,
                283.47760480928
              ],
              [
                479.1878677709321,
                283.47758507675536
              ],
              [
                479.187398197784,
                283.4775163004041
              ],
              [
                479.17766534808334,
                283.4770549935202
              ],
              [
                479.17540993776475,
                283.47673911215287
              ],
              [
                479.1645704925715,
                283.4762364790735
              ],
              [
                479.1607542237802,
                283.4757413085691
              ],
              [
                479.14916501004166,
                283.47535377078754
              ],
              [
                479.11753833173,
                283.4718706185679
              ],
              [
                479.10528692505494,
                283.4717114652709
              ],
              [
                479.09935564244535,
                283.47109817689307
              ],
              [
                479.0694010660415,
                283.47109817689307
              ],
              [
                479.04638911855244,
                283.46933863463516
              ],
              [
                479.0420139805997,
                283.46943429538715
              ],
              [
                479.0390285888399,
                283.46921359458474
              ],
              [
                479.0345719085185,
                283.46932677611517
              ],
              [
                479.0264635760059,
                283.46877803553144
              ],
              [
                479.01545805298224,
                283.4691388868987
              ],
              [
                479.0145287429615,
                283.46908763545287
              ],
              [
                479.0125784842562,
                283.4691641687323
              ],
              [
                478.99329052968295,
                283.4682317798989
              ],
              [
                478.99264294917316,
                283.46826407190457
              ],
              [
                478.9899597167969,
                283.4681396484375
              ],
              [
                478.95657706659483,
                283.4697796328789
              ],
              [
                478.92422718330204,
                283.4693593880271
              ],
              [
                478.9035045230596,
                283.47109817689307
              ],
              [
                478.8933811739609,
                283.47109817689307
              ],
              [
                478.8739302350088,
                283.4731093835044
              ],
              [
                478.85016531919365,
                283.4736289944841
              ],
              [
                478.84616449342724,
                283.4741115571727
              ],
              [
                478.8408074984402,
                283.4742476030291
              ],
              [
                478.8341242057611,
                283.4750844986207
              ],
              [
                478.8259564063808,
                283.47535230611766
              ],
              [
                478.815998911088,
                283.47668579480535
              ],
              [
                478.7939254361377,
                283.4777701950931
              ],
              [
                478.7577156855971,
                283.4831414041981
              ],
              [
                478.7475466635768,
                283.48389216707545
              ],
              [
                478.7442501145467,
                283.4844608334796
              ],
              [
                478.7315767114103,
                283.48552422843034
              ],
              [
                478.73150593246777,
                283.4855371382374
              ],
              [
                478.73142733991267,
                283.4855436076485
              ],
              [
                478.7014287062347,
                283.4909458599844
              ],
              [
                478.688499026231,
                283.4922827752855
              ],
              [
                478.67893384884775,
                283.49428221047555
              ],
              [
                478.6553069198656,
                283.4971319907554
              ],
              [
                478.6517389870454,
                283.4979231490954
              ],
              [
                478.64405905953527,
                283.4988848453409
              ],
              [
                478.6352303243494,
                283.50089397752805
              ],
              [
                478.6271165653482,
                283.5019805565848
              ],
              [
                478.62115525624705,
                283.5033982303444
              ],
              [
                478.5997790727646,
                283.506569087631
              ],
              [
                478.5637007187078,
                283.5156062448674
              ],
              [
                478.55619392800986,
                283.5169011928976
              ],
              [
                478.554087183704,
                283.51747960458147
              ],
              [
                478.5424550027116,
                283.5195743658834
              ],
              [
                478.49911224040216,
                283.53176681420854
              ],
              [
                478.4909289190466,
                283.5335813951621
              ],
              [
                478.48688225520635,
                283.53442728037265
              ],
              [
                478.4863552914855,
                283.53459555763976
              ],
              [
                478.4636905134742,
                283.53962127674697
              ],
              [
                478.4605891142523,
                283.5406366211819
              ],
              [
                478.4507171588614,
                283.542883156264
              ],
              [
                478.4399018845031,
                283.5465025459563
              ],
              [
                478.4319446971735,
                283.5483948644866
              ],
              [
                478.42971721208136,
                283.54916736615803
              ],
              [
                478.4093903622879,
                283.5542589769731
              ],
              [
                478.37398654511793,
                283.56692666531285
              ],
              [
                478.3689441234794,
                283.5683110742242
              ],
              [
                478.3682264451253,
                283.56858537884017
              ],
              [
                478.35761695139837,
                283.5715698610727
              ],
              [
                478.3176268884048,
                283.58709247293615
              ],
              [
                478.30620438916185,
                283.59117950851703
              ],
              [
                478.2771614707612,
                283.6006876574077
              ],
              [
                478.2745350868064,
                283.6018434335936
              ],
              [
                478.2626821994885,
                283.6058100660396
              ],
              [
                478.2523670967851,
                283.6104427997495
              ],
              [
                478.2245928520667,
                283.62038058341494
              ],
              [
                478.19129049310646,
                283.6361314261572
              ],
              [
                478.17861686771494,
                283.6410508424604
              ],
              [
                478.1432141550495,
                283.65886984061194
              ],
              [
                478.12001841300713,
                283.66984060954866
              ],
              [
                478.0975161683751,
                283.67974303010953
              ],
              [
                478.0953658184151,
                283.6809554389068
              ],
              [
                478.0818024213108,
                283.68704705125344
              ],
              [
                478.0732328726454,
                283.69196852216083
              ],
              [
                478.0471662431449,
                283.7042971197408
              ],
              [
                478.0168099741092,
                283.7224919671934
              ],
              [
                478.0071046239265,
                283.72737689278085
              ],
              [
                477.9768810375681,
                283.74642445074255
              ],
              [
                477.94184445729684,
                283.76742456879225
              ],
              [
                477.9333339265739,
                283.7723121458392
              ],
              [
                477.9241459141217,
                283.77749252453714
              ],
              [
                477.92339954470464,
                283.7780174371283
              ],
              [
                477.90985573426144,
                283.78579561444826
              ],
              [
                477.90289599354503,
                283.79076937956745
              ],
              [
                477.87881925075766,
                283.8052004238324
              ],
              [
                477.85167471269534,
                283.8253321853146
              ],
              [
                477.844661075686,
                283.82975233108664
              ],
              [
                477.82014286136433,
                283.84871780007927
              ],
              [
                477.7760379091194,
                283.88142826200504
              ],
              [
                477.7485322428176,
                283.901085132743
              ],
              [
                477.7430239957529,
                283.9059130488879
              ],
              [
                477.7211731484696,
                283.92211874171204
              ],
              [
                477.69742190313144,
                283.94364561568494
              ],
              [
                477.6927834910358,
                283.9472335466664
              ],
              [
                477.6744262976574,
                283.9644876176062
              ],
              [
                477.62249681274227,
                284.01155375924765
              ],
              [
                477.59941763356505,
                284.03178239831396
              ],
              [
                477.59518765448456,
                284.03630533752283
              ],
              [
                477.57574615442377,
                284.0539260860644
              ],
              [
                477.5554809801579,
                284.07628526029544
              ],
              [
                477.55287174985006,
                284.078737696455
              ],
              [
                477.54105735474843,
                284.0921992785684
              ],
              [
                477.48278890245,
                284.1564886086289
              ],
              [
                477.4639775891117,
                284.17660275696124
              ],
              [
                477.46084501149664,
                284.18069996130197
              ],
              [
                477.4439388100714,
                284.1993530801102
              ],
              [
                477.42716120717694,
                284.22197505885583
              ],
              [
                477.42621544091884,
                284.22305268577065
              ],
              [
                477.4212502281299,
                284.2299450914767
              ],
              [
                477.35833944872746,
                284.31477045797664
              ],
              [
                477.34354338154793,
                284.3341227352775
              ],
              [
                477.34132635586167,
                284.3377099581918
              ],
              [
                477.32702049219176,
                284.3569991823983
              ],
              [
                477.2504170405963,
                284.48480432018516
              ],
              [
                477.2392987870597,
                284.5027940323029
              ],
              [
                477.2378203376894,
                284.5058206493079
              ],
              [
                477.22611718810015,
                284.5253461747855
              ],
              [
                477.16012173774413,
                284.66488183096976
              ],
              [
                477.1522684503137,
                284.6809587381404
              ],
              [
                477.15136138685847,
                284.68340403670726
              ],
              [
                477.1422006517743,
                284.7027727837073
              ],
              [
                477.08837602806915,
                284.8532025295129
              ],
              [
                477.08330781298383,
                284.86686562994197
              ],
              [
                477.0832030417623,
                284.8672658720416
              ],
              [
                477.0825775370246,
                284.8689659984675
              ],
              [
                477.08214405303585,
                284.8706197329339
              ],
              [
                477.07607904533245,
                284.88757029392855
              ],
              [
                477.04116958646574,
                285.02693666589477
              ],
              [
                477.03381716614354,
                285.05498603153177
              ]
            ]
          ]
        ]
      }
    }
  ]
}