{
  "type": "FeatureCollection",
  "features": [
    {
      "type": "Feature",
      "properties": {
        "image_id": "0007_top_20250711_t1",
        "zone_type": "parking_spot",
        "generated_at": "2025-11-03T11:20:40",
        "source": "merged_t1_polygons"
      },
      "geometry": {
        "type": "MultiPolygon",
        "coordinates": [
          [
            [
              [
                1025.7925820321532,
                1238.8718235888946
              ],
              [
                1025.766403229315,
                1238.8764384162766
              ],
              [
                1025.7210015256796,
                1238.889133977177
              ],
              [
                1025.6813418806616,
                1238.8979281615125
              ],
              [
                1025.6582288029988,
                1238.9054949831625
              ],
              [
                1025.629147442366,
                1238.9127794847857
              ],
              [
                1025.6288647401836,
                1238.912880637244
              ],
              [
                1025.6287812314285,
                1238.9129015550982
              ],
              [
                1025.6250433997031,
                1238.9142389726749
              ],
              [
                1025.6228720730883,
                1238.9147886826154
              ],
              [
                1025.601147620038,
                1238.9226484146623
              ],
              [
                1025.5773833351539,
                1238.9292935601488
              ],
              [
                1025.5339487223318,
                1238.9461821308807
              ],
              [
                1025.4948128379488,
                1238.9589945421733
              ],
              [
                1025.4724238723463,
                1238.9688471127474
              ],
              [
                1025.4439837212074,
                1238.97902316154
              ],
              [
                1025.4396131821702,
                1238.9810902725562
              ],
              [
                1025.436414928549,
                1238.9822473749432
              ],
              [
                1025.4156955098297,
                1238.9921622286388
              ],
              [
                1025.3944543335017,
                1239.0004213815478
              ],
              [
                1025.353391320411,
                1239.0212290154855
              ],
              [
                1025.3151675355625,
                1239.0380499148753
              ],
              [
                1025.2940678429802,
                1239.0499280912882
              ],
              [
                1025.2665571122855,
                1239.0629396978659
              ],
              [
                1025.2665048989818,
                1239.0629709933157
              ],
              [
                1025.2663129716605,
                1239.0630617681784
              ],
              [
                1025.2614769869617,
                1239.0659603458585
              ],
              [
                1025.2575539507395,
                1239.0678376345368
              ],
              [
                1025.2380508957683,
                1239.0796748321357
              ],
              [
                1025.2193779306433,
                1239.0891368806706
              ],
              [
                1025.1810502791077,
                1239.1135518884691
              ],
              [
                1025.1441360559695,
                1239.134332933163
              ],
              [
                1025.124721595587,
                1239.1479283730052
              ],
              [
                1025.0979659792733,
                1239.16396507227
              ],
              [
                1025.0925246890486,
                1239.1680006081376
              ],
              [
                1025.0880472063286,
                1239.1707181745794
              ],
              [
                1025.0699597785635,
                1239.184317388792
              ],
              [
                1025.053840208045,
                1239.194585678764
              ],
              [
                1025.018567773658,
                1239.2222651236339
              ],
              [
                1024.983365525813,
                1239.246916338937
              ],
              [
                1024.965803698194,
                1239.261983300229
              ],
              [
                1024.9403198769853,
                1239.2808833901495
              ],
              [
                1024.9344613915182,
                1239.2861932118672
              ],
              [
                1024.9295608170228,
                1239.289877758017
              ],
              [
                1024.9130714121025,
                1239.3050516047597
              ],
              [
                1024.8994353844673,
                1239.3157522462586
              ],
              [
                1024.86749205524,
                1239.3463286059143
              ],
              [
                1024.834404253185,
                1239.374715892455
              ],
              [
                1024.825453556535,
                1239.3840667456345
              ],
              [
                1024.8232930609347,
                1239.3859436501207
              ],
              [
                1024.8168665865276,
                1239.3927749304619
              ],
              [
                1024.7948928829394,
                1239.412690734502
              ],
              [
                1024.788826232026,
                1239.419384252307
              ],
              [
                1024.7836525828625,
                1239.424145137244
              ],
              [
                1024.7689218464316,
                1239.4406806421225
              ],
              [
                1024.7576504627677,
                1239.4514696828724
              ],
              [
                1024.72926317623,
                1239.4845574849242
              ],
              [
                1024.6986868165711,
                1239.5165008141548
              ],
              [
                1024.6897051891542,
                1239.5279462699882
              ],
              [
                1024.6854212789349,
                1239.532500025253
              ],
              [
                1024.6805666506068,
                1239.5388302936472
              ],
              [
                1024.663085538587,
                1239.5581177285478
              ],
              [
                1024.6570367037245,
                1239.5662736382183
              ],
              [
                1024.6517566702403,
                1239.572200566573
              ],
              [
                1024.6389187385182,
                1239.589861627591
              ],
              [
                1024.6298509092494,
                1239.6004309555005
              ],
              [
                1024.6051996939445,
                1239.6356332033479
              ],
              [
                1024.5775202490768,
                1239.6709056377324
              ],
              [
                1024.5688935386336,
                1239.6844481913326
              ],
              [
                1024.5629732449713,
                1239.6921680506753
              ],
              [
                1024.5595045239459,
                1239.697780559192
              ],
              [
                1024.5461672207075,
                1239.7157638308358
              ],
              [
                1024.5403748133008,
                1239.7254278787514
              ],
              [
                1024.5351695151396,
                1239.732588774325
              ],
              [
                1024.5243275835694,
                1239.7511196018138
              ],
              [
                1024.5172675034755,
                1239.7612014856568
              ],
              [
                1024.49648645878,
                1239.7981157087977
              ],
              [
                1024.472071450983,
                1239.8364433603308
              ],
              [
                1024.4641741946598,
                1239.8520282721354
              ],
              [
                1024.457188359657,
                1239.8633315906095
              ],
              [
                1024.4552364615424,
                1239.8673423369391
              ],
              [
                1024.4476821537824,
                1239.8798791146878
              ],
              [
                1024.4472216620734,
                1239.880844522257
              ],
              [
                1024.4452639166159,
                1239.884110823223
              ],
              [
                1024.4399745839523,
                1239.8952941775299
              ],
              [
                1024.4350370801626,
                1239.9037332670373
              ],
              [
                1024.4262594995334,
                1239.9228627406305
              ],
              [
                1024.4209844851878,
                1239.93223296525
              ],
              [
                1024.4208624148753,
                1239.932477105875
              ],
              [
                1024.4040523533492,
                1239.9706762627793
              ],
              [
                1024.3833559518603,
                1240.0115197631892
              ],
              [
                1024.3765877095605,
                1240.0289265638266
              ],
              [
                1024.3760438299716,
                1240.0300667916777
              ],
              [
                1024.369137361717,
                1240.0442581534064
              ],
              [
                1024.3686759280383,
                1240.0455133852995
              ],
              [
                1024.3639904777751,
                1240.0553362964627
              ],
              [
                1024.3630385198994,
                1240.0579618178588
              ],
              [
                1024.36134738029,
                1240.0615374321449
              ],
              [
                1024.3568110265269,
                1240.0742156915821
              ],
              [
                1024.352343590591,
                1240.0839518251905
              ],
              [
                1024.3457128327957,
                1240.1032468959027
              ],
              [
                1024.3418070421733,
                1240.112122408261
              ],
              [
                1024.341693482453,
                1240.1124692797428
              ],
              [
                1024.3416849718608,
                1240.1124886191985
              ],
              [
                1024.3288362274868,
                1240.1517354840403
              ],
              [
                1024.3122281304616,
                1240.1944487648414
              ],
              [
                1024.3077678317516,
                1240.2103996284336
              ],
              [
                1024.2977280066311,
                1240.2380896936602
              ],
              [
                1024.2966018413415,
                1240.2424890913599
              ],
              [
                1024.2952257738482,
                1240.246334942366
              ],
              [
                1024.2951839381396,
                1240.2465019598762
              ],
              [
                1024.2949816332232,
                1240.247067364241
              ],
              [
                1024.2914668629226,
                1240.2610991138301
              ],
              [
                1024.2879018602075,
                1240.2714730381383
              ],
              [
                1024.2834181597761,
                1240.2904662979558
              ],
              [
                1024.2806185912002,
                1240.2990176619116
              ],
              [
                1024.271542970249,
                1240.3399465180194
              ],
              [
                1024.2593729865891,
                1240.3834686590023
              ],
              [
                1024.2568500731643,
                1240.3977805384422
              ],
              [
                1024.2495207470827,
                1240.4264127655238
              ],
              [
                1024.2486549242453,
                1240.4320139536462
              ],
              [
                1024.247291743881,
                1240.4374560747178
              ],
              [
                1024.2448792690986,
                1240.453719658643
              ],
              [
                1024.242345301954,
                1240.4644537157212
              ],
              [
                1024.2399443359745,
                1240.4824487184017
              ],
              [
                1024.2381293052085,
                1240.490634068303
              ],
              [
                1024.2330320115407,
                1240.5328946581265
              ],
              [
                1024.2252995441725,
                1240.5767590807627
              ],
              [
                1024.2243394094858,
                1240.589316078979
              ],
              [
                1024.2198241314209,
                1240.618526352465
              ],
              [
                1024.2194531738098,
                1240.6251284698874
              ],
              [
                1024.2184928513432,
                1240.6316024380908
              ],
              [
                1024.2175890780002,
                1240.6499991671155
              ],
              [
                1024.2161217019693,
                1240.660997005416
              ],
              [
                1024.2155612891518,
                1240.6777407433015
              ],
              [
                1024.214626308937,
                1240.685492467631
              ],
              [
                1024.2137120815926,
                1240.7273055484247
              ],
              [
                1024.2135004589982,
                1240.731071901174
              ],
              [
                1024.2103359490884,
                1240.7724585376975
              ],
              [
                1024.2105710019155,
                1240.7832089083975
              ],
              [
                1024.2089187148529,
                1240.8126154844608
              ],
              [
                1024.2092292921936,
                1240.8201665164509
              ],
              [
                1024.2088623046875,
                1240.82763671875
              ],
              [
                1024.209862702936,
                1240.8480002929114
              ],
              [
                1024.209488818193,
                1240.8591710369467
              ],
              [
                1024.210494739294,
                1240.8744538417911
              ],
              [
                1024.2103359490884,
                1240.8817162669898
              ],
              [
                1024.2134196356178,
                1240.9220458653087
              ],
              [
                1024.213818826943,
                1240.9317513591454
              ],
              [
                1024.214626308937,
                1240.9686823370564
              ],
              [
                1024.215705990198,
                1240.9776337473309
              ],
              [
                1024.2169075249915,
                1241.006846527762
              ],
              [
                1024.2180800220913,
                1241.0152676669375
              ],
              [
                1024.2184928513432,
                1241.0236709994092
              ],
              [
                1024.221770780294,
                1241.0457690014198
              ],
              [
                1024.2225118468018,
                1241.057027911091
              ],
              [
                1024.224785100582,
                1241.070687639483
              ],
              [
                1024.2252995441725,
                1241.0774157239246
              ],
              [
                1024.2321203732984,
                1241.1161086426603
              ],
              [
                1024.2342733367132,
                1241.1315717125112
              ],
              [
                1024.2381293052085,
                1241.1635407363844
              ],
              [
                1024.2397287956185,
                1241.1707540513944
              ],
              [
                1024.2437150885128,
                1241.1993845079305
              ],
              [
                1024.2459201705994,
                1241.2085709667842
              ],
              [
                1024.247291743881,
                1241.2178173627822
              ],
              [
                1024.2531875253771,
                1241.2413546418943
              ],
              [
                1024.2550627813805,
                1241.2526228460415
              ],
              [
                1024.258287394568,
                1241.2645478439485
              ],
              [
                1024.2593729865891,
                1241.270706145685
              ],
              [
                1024.2696979772663,
                1241.307630246198
              ],
              [
                1024.2747091425697,
                1241.3285069582912
              ],
              [
                1024.2806185912,
                1241.3551571427759
              ],
              [
                1024.28244600462,
                1241.360739030423
              ],
              [
                1024.2890881441822,
                1241.3884104455383
              ],
              [
                1024.2924834287448,
                1241.3982326819241
              ],
              [
                1024.2949816332232,
                1241.408206073259
              ],
              [
                1024.3037922048384,
                1241.4328299713425
              ],
              [
                1024.306821671128,
                1241.444033293124
              ],
              [
                1024.3106728507985,
                1241.4541640684708
              ],
              [
                1024.3122281304613,
                1241.4597260398461
              ],
              [
                1024.32585070849,
                1241.4947610591912
              ],
              [
                1024.3347670424516,
                1241.5205551681227
              ],
              [
                1024.3416849718608,
                1241.5416861854887
              ],
              [
                1024.3434868914471,
                1241.5457808646725
              ],
              [
                1024.3525980355093,
                1241.5721385407576
              ],
              [
                1024.3573249182537,
                1241.5824438825414
              ],
              [
                1024.361103239665,
                1241.5930035834801
              ],
              [
                1024.3730727069028,
                1241.6183108956689
              ],
              [
                1024.377279765729,
                1241.629377833981
              ],
              [
                1024.381432174497,
                1241.6377074040543
              ],
              [
                1024.3833559518603,
                1241.6426550414983
              ],
              [
                1024.4000927467641,
                1241.6756844205377
              ],
              [
                1024.413887930751,
                1241.7057600736975
              ],
              [
                1024.4207403445628,
                1241.721331487875
              ],
              [
                1024.422305623679,
                1241.7241119574528
              ],
              [
                1024.433644760429,
                1241.7488330444896
              ],
              [
                1024.4398254412133,
                1241.7594476942493
              ],
              [
                1024.4450197759909,
                1241.770430192402
              ],
              [
                1024.4603311625422,
                1241.7959756975606
              ],
              [
                1024.4657445159805,
                1241.8068346734751
              ],
              [
                1024.469880449243,
                1241.8134075921876
              ],
              [
                1024.472071450983,
                1241.8177314443567
              ],
              [
                1024.4917575549368,
                1241.848635474315
              ],
              [
                1024.511320083312,
                1241.882231997798
              ],
              [
                1024.5170233628505,
                1241.892362967468
              ],
              [
                1024.5181851777334,
                1241.8940220538436
              ],
              [
                1024.5314626397474,
                1241.9168246566462
              ],
              [
                1024.5391973920473,
                1241.9275560522142
              ],
              [
                1024.5459230800825,
                1241.9387771847892
              ],
              [
                1024.5646915435286,
                1241.964083528242
              ],
              [
                1024.57134638102,
                1241.9746595465435
              ],
              [
                1024.5751636311834,
                1241.9795696543372
              ],
              [
                1024.5775202490765,
                1241.983269166955
              ],
              [
                1024.6000032677778,
                1242.0119196982678
              ],
              [
                1024.6261293820387,
                1242.048167745513
              ],
              [
                1024.6296067686244,
                1242.0531334976245
              ],
              [
                1024.6302429727796,
                1242.053875047794
              ],
              [
                1024.645127550806,
                1242.074526296661
              ],
              [
                1024.6544922753415,
                1242.085165798409
              ],
              [
                1024.662841397962,
                1242.0964232870772
              ],
              [
                1024.6851091373217,
                1242.1209919514044
              ],
              [
                1024.693047375249,
                1242.1312028629895
              ],
              [
                1024.6962665800097,
                1242.134589837808
              ],
              [
                1024.6986868165711,
                1242.1376739905327
              ],
              [
                1024.7238200766085,
                1242.1639308768647
              ],
              [
                1024.7572126504278,
                1242.2018690293612
              ],
              [
                1024.7574063221425,
                1242.2020947702524
              ],
              [
                1024.7574382110367,
                1242.2021252945067
              ],
              [
                1024.773565658018,
                1242.220448097243
              ],
              [
                1024.7846097577906,
                1242.230773968572
              ],
              [
                1024.7946487423144,
                1242.241850281123
              ],
              [
                1024.794840843178,
                1242.242024391197
              ],
              [
                1024.795014953252,
                1242.2422164920606
              ],
              [
                1024.8206170569308,
                1242.265420886251
              ],
              [
                1024.8296512709373,
                1242.2749259216928
              ],
              [
                1024.8320225608848,
                1242.2769707422174
              ],
              [
                1024.8344042531849,
                1242.2794589122323
              ],
              [
                1024.8620395511655,
                1242.3031682877026
              ],
              [
                1024.9155635578018,
                1242.3532114797183
              ],
              [
                1024.9280612754014,
                1242.3628026494891
              ],
              [
                1024.9404419472978,
                1242.374023836413
              ],
              [
                1024.9699466820496,
                1242.3959060390594
              ],
              [
                1024.9798153562267,
                1242.4044160348656
              ],
              [
                1024.9811241405273,
                1242.4053354958826
              ],
              [
                1024.983365525813,
                1242.4072584657506
              ],
              [
                1025.0133458102623,
                1242.4282528763933
              ],
              [
                1025.0697797420646,
                1242.4715621779872
              ],
              [
                1025.083417368137,
                1242.4800616353816
              ],
              [
                1025.0980880495858,
                1242.4909421542925
              ],
              [
                1025.0982524021647,
                1242.4910406634374
              ],
              [
                1025.0989425417733,
                1242.491552505855
              ],
              [
                1025.13222870354,
                1242.5115034634287
              ],
              [
                1025.137718392046,
                1242.5153477489953
              ],
              [
                1025.142063632962,
                1242.5184004136931
              ],
              [
                1025.1421353897306,
                1242.5184408571797
              ],
              [
                1025.1441360559693,
                1242.5198418715245
              ],
              [
                1025.1762884247764,
                1242.5379422067447
              ],
              [
                1025.2347572719398,
                1242.5743820880514
              ],
              [
                1025.2484876141148,
                1242.5811863727622
              ],
              [
                1025.2672895341605,
                1242.5924558099466
              ],
              [
                1025.3037832743776,
                1242.6097160636098
              ],
              [
                1025.3151675355625,
                1242.6161248898122
              ],
              [
                1025.3463054538179,
                1242.6298275566792
              ],
              [
                1025.353651720761,
                1242.6333020821776
              ],
              [
                1025.4089375420413,
                1242.6606998311674
              ],
              [
                1025.4223304774537,
                1242.6657847149452
              ],
              [
                1025.4447161430824,
                1242.6763723462725
              ],
              [
                1025.484077922769,
                1242.6904562162454
              ],
              [
                1025.4948128379485,
                1242.6951802625142
              ],
              [
                1025.5238379646537,
                1242.7046825867117
              ],
              [
                1025.5402405106756,
                1242.7105515115225
              ],
              [
                1025.5906750052009,
                1242.7296999308314
              ],
              [
                1025.60353331178,
                1242.7331980378756
              ],
              [
                1025.6295136533035,
                1242.7424939527143
              ],
              [
                1025.6707417935359,
                1242.7528210642356
              ],
              [
                1025.6762198038853,
                1242.7546262726255
              ],
              [
                1025.676772520084,
                1242.7547507135953
              ],
              [
                1025.6813418806616,
                1242.7562466431748
              ],
              [
                1025.7081423584166,
                1242.7621894180418
              ],
              [
                1025.7328346733445,
                1242.7683745209483
              ],
              [
                1025.7782527185768,
                1242.7807305168942
              ],
              [
                1025.7904200979074,
                1242.7827989188984
              ],
              [
                1025.8199023637803,
                1242.7901838420564
              ],
              [
                1025.8613975419933,
                1242.7963390702946
              ],
              [
                1025.8672460352786,
                1242.7976558259431
              ],
              [
                1025.8691786984564,
                1242.7978978379829
              ],
              [
                1025.872958287053,
                1242.7987359291665
              ],
              [
                1025.8975607053292,
                1242.8017033688407
              ],
              [
                1025.9294636791817,
                1242.8064357279725
              ],
              [
                1025.9698985642658,
                1242.8133094840273
              ],
              [
                1025.9812629973658,
                1242.8141194309892
              ],
              [
                1026.0140487271533,
                1242.8189827345943
              ],
              [
                1026.052736780162,
                1242.8208833567624
              ],
              [
                1026.059425955644,
                1242.8217209890106
              ],
              [
                1026.0647440076698,
                1242.8218683119228
              ],
              [
                1026.067816686381,
                1242.822238925438
              ],
              [
                1026.0903658510308,
                1242.822731954474
              ],
              [
                1026.1281524254944,
                1242.824588289841
              ],
              [
                1026.1638019911732,
                1242.8271290463538
              ],
              [
                1026.1742968009276,
                1242.8268552176405
              ],
              [
                1026.2100830078125,
                1242.82861328125
              ],
              [
                1026.245483702577,
                1242.8268752389135
              ],
              [
                1026.2530324848037,
                1242.8270843584514
              ],
              [
                1026.2617619171417,
                1242.826479465238
              ],
              [
                1026.2640404857398,
                1242.8265292852866
              ],
              [
                1026.284690877955,
                1242.8249503125483
              ],
              [
                1026.3270947326214,
                1242.8228684411292
              ],
              [
                1026.358131119977,
                1242.8220586452194
              ],
              [
                1026.3676692856516,
                1242.820876381611
              ],
              [
                1026.4062393587842,
                1242.8189827345943
              ],
              [
                1026.43805291843,
                1242.8142636388072
              ],
              [
                1026.4462499684403,
                1242.8136956362464
              ],
              [
                1026.458302226646,
                1242.811675621016
              ],
              [
                1026.4597399426746,
                1242.8115656902025
              ],
              [
                1026.4748427214477,
                1242.8089033561967
              ],
              [
                1026.4798751856517,
                1242.8080598914978
              ],
              [
                1026.5246370556547,
                1242.8014200953069
              ],
              [
                1026.551050049588,
                1242.7981461826298
              ],
              [
                1026.5595394642862,
                1242.796242812055
              ],
              [
                1026.6003857221572,
                1242.7901838420564
              ],
              [
                1026.6284023836324,
                1242.7831660336888
              ],
              [
                1026.637266400729,
                1242.781680382682
              ],
              [
                1026.6524374554697,
                1242.777596766413
              ],
              [
                1026.653030364435,
                1242.7774922477859
              ],
              [
                1026.6582977997982,
                1242.776019328466
              ],
              [
                1026.676585959219,
                1242.7710966763088
              ],
              [
                1026.7182989414905,
                1242.7606481181792
              ],
              [
                1026.7407362016038,
                1242.7556175687014
              ],
              [
                1026.7482524434988,
                1242.753145156514
              ],
              [
                1026.790774432634,
                1242.7424939527143
              ],
              [
                1026.814846010159,
                1242.7338810045549
              ],
              [
                1026.824290417445,
                1242.7313388388384
              ],
              [
                1026.8698117416457,
                1242.7142139513526
              ],
              [
                1026.9063575876191,
                1242.701137638573
              ],
              [
                1026.9253975389008,
                1242.6948745874029
              ],
              [
                1026.9320331699982,
                1242.6919507682996
              ],
              [
                1026.9755719428551,
                1242.6763723462725
              ],
              [
                1026.9757955756734,
                1242.6762665758267
              ],
              [
                1026.9761822944176,
                1242.6761282056475
              ],
              [
                1026.9961296876306,
                1242.666693791287
              ],
              [
                1027.0055680954893,
                1242.6631431109088
              ],
              [
                1027.0552723654332,
                1242.6387213879343
              ],
              [
                1027.0884436606225,
                1242.6230325337392
              ],
              [
                1027.1032894956875,
                1242.6164911007497
              ],
              [
                1027.1035336363125,
                1242.6163690304372
              ],
              [
                1027.1087570339414,
                1242.6134250236798
              ],
              [
                1027.1536089033395,
                1242.5922116693216
              ],
              [
                1027.170334835094,
                1242.5821865316336
              ],
              [
                1027.1793994012928,
                1242.5777327427572
              ],
              [
                1027.2318890902272,
                1242.545292330937
              ],
              [
                1027.264530901381,
                1242.5257275822576
              ],
              [
                1027.275419608093,
                1242.5195977308995
              ],
              [
                1027.2762020178648,
                1242.519049829759
              ],
              [
                1027.2762713279756,
                1242.5190107652556
              ],
              [
                1027.2793746970456,
                1242.516830553528
              ],
              [
                1027.3219558957267,
                1242.49130836523
              ],
              [
                1027.3223023020032,
                1242.4910514528258
              ],
              [
                1027.3226883176017,
                1242.49082008398
              ],
              [
                1027.3359936688073,
                1242.48095216299
              ],
              [
                1027.344154133837,
                1242.4759087182376
              ],
              [
                1027.3965078544838,
                1242.436071784126
              ],
              [
                1027.4271771213948,
                1242.4133259055675
              ],
              [
                1027.4361901382495,
                1242.4070143251256
              ],
              [
                1027.4384514010064,
                1242.4050743016173
              ],
              [
                1027.4385196047108,
                1242.405026386428
              ],
              [
                1027.4394530303266,
                1242.4042214710025
              ],
              [
                1027.4803344198897,
                1242.3739017661005
              ],
              [
                1027.491440908067,
                1242.3638354319833
              ],
              [
                1027.4982872127837,
                1242.358625949514
              ],
              [
                1027.5473915191633,
                1242.3131247540111
              ],
              [
                1027.5786735202573,
                1242.2847724008784
              ],
              [
                1027.5851514108774,
                1242.2792147716075
              ],
              [
                1027.5874178860906,
                1242.2768469696605
              ],
              [
                1027.6257614139356,
                1242.242094421748
              ],
              [
                1027.6347539444546,
                1242.232172693269
              ],
              [
                1027.6403531683363,
                1242.2269843218348
              ],
              [
                1027.685749529394,
                1242.1759077357754
              ],
              [
                1027.7162578678171,
                1242.142246971483
              ],
              [
                1027.7208688474914,
                1242.1374298499077
              ],
              [
                1027.7224497149282,
                1242.1354153209602
              ],
              [
                1027.757568758288,
                1242.0966674277022
              ],
              [
                1027.7645812065548,
                1242.0872122357632
              ],
              [
                1027.7690196969472,
                1242.0822183787395
              ],
              [
                1027.8102641010933,
                1242.0256159829614
              ],
              [
                1027.8386892429237,
                1241.9872891159844
              ],
              [
                1027.8420354149857,
                1241.98302502633
              ],
              [
                1027.8431537249307,
                1241.9812694588434
              ],
              [
                1027.8744870761675,
                1241.9390213254142
              ],
              [
                1027.8796984258554,
                1241.930326713735
              ],
              [
                1027.8830801557453,
                1241.92568574443
              ],
              [
                1027.919744481973,
                1241.8635139055216
              ],
              [
                1027.9449036008036,
                1241.8215384516513
              ],
              [
                1027.9474842130794,
                1241.8174873037317
              ],
              [
                1027.948317962825,
                1241.8158419327674
              ],
              [
                1027.9753903802591,
                1241.770674333027
              ],
              [
                1027.9790199166057,
                1241.7630003231823
              ],
              [
                1027.9814648785089,
                1241.7588543918853
              ],
              [
                1028.013138540108,
                1241.690862554702
              ],
              [
                1028.0340195995573,
                1241.6467132638593
              ],
              [
                1028.0361997122022,
                1241.6424109008733
              ],
              [
                1028.03687094633,
                1241.6406845976285
              ],
              [
                1028.059306916585,
                1241.5932477241051
              ],
              [
                1028.0616085900479,
                1241.586814977713
              ],
              [
                1028.0632512070636,
                1241.583288876118
              ],
              [
                1028.0673962880965,
                1241.5715362936435
              ],
              [
                1028.0675679801157,
                1241.5711619782576
              ],
              [
                1028.069520937946,
                1241.565512256384
              ],
              [
                1028.0895431618217,
                1241.5087430797255
              ],
              [
                1028.1053416479112,
                1241.4645892690166
              ],
              [
                1028.107327533601,
                1241.4594818992211
              ],
              [
                1028.107894238658,
                1241.4574552557947
              ],
              [
                1028.1254285230268,
                1241.408450213884
              ],
              [
                1028.1266846173733,
                1241.4034356041593
              ],
              [
                1028.1276721440297,
                1241.4006356616774
              ],
              [
                1028.1305721549218,
                1241.3888968729946
              ],
              [
                1028.1310778714428,
                1241.3874338830383
              ],
              [
                1028.1360194003273,
                1241.3668472790107
              ],
              [
                1028.1482133482086,
                1241.317488092884
              ],
              [
                1028.158360353786,
                1241.2769789758836
              ],
              [
                1028.1601826774734,
                1241.2704620050602
              ],
              [
                1028.160633815424,
                1241.2679028082614
              ],
              [
                1028.173118412369,
                1241.2180615034072
              ],
              [
                1028.1736326662963,
                1241.2145946850314
              ],
              [
                1028.1741235457719,
                1241.2126076820007
              ],
              [
                1028.1758122877657,
                1241.2010685421103
              ],
              [
                1028.1764509271122,
                1241.1984079454305
              ],
              [
                1028.1811931191392,
                1241.1643484504782
              ],
              [
                1028.181426358854,
                1241.1632965957594
              ],
              [
                1028.1818303126518,
                1241.1599474997752
              ],
              [
                1028.1885699085012,
                1241.1138959776385
              ],
              [
                1028.1927506096467,
                1241.085711979845
              ],
              [
                1028.19425611989,
                1241.0771715832998
              ],
              [
                1028.194510017574,
                1241.073851015042
              ],
              [
                1028.2019173049068,
                1241.0239151400342
              ],
              [
                1028.2020076471654,
                1241.0220761811158
              ],
              [
                1028.2021697880962,
                1241.0209682754148
              ],
              [
                1028.2027111353716,
                1241.0098011944651
              ],
              [
                1028.2032584906335,
                1241.005869965262
              ],
              [
                1028.2047301445202,
                1240.9700898096642
              ],
              [
                1028.2049293551254,
                1240.9684381964314
              ],
              [
                1028.205078342593,
                1240.961624109046
              ],
              [
                1028.2052559494332,
                1240.9573059738925
              ],
              [
                1028.2084340203749,
                1240.8917477322962
              ],
              [
                1028.209219714974,
                1240.881472126365
              ],
              [
                1028.2091303303355,
                1240.877384032595
              ],
              [
                1028.2102056585431,
                1240.8552018259286
              ],
              [
                1028.2115478515625,
                1240.827880859375
              ],
              [
                1028.2115389188161,
                1240.827698915922
              ],
              [
                1028.2115478515625,
                1240.8275146484375
              ],
              [
                1028.2110231007298,
                1240.8170898723995
              ],
              [
                1028.2112473007721,
                1240.8116389219608
              ],
              [
                1028.2091671667665,
                1240.7746177406896
              ],
              [
                1028.209219714974,
                1240.7722143970727
              ],
              [
                1028.2085122598637,
                1240.7629620362516
              ],
              [
                1028.207310437834,
                1240.7415726108104
              ],
              [
                1028.2052378580431,
                1240.6993580093567
              ],
              [
                1028.2049293551254,
                1240.685248327006
              ],
              [
                1028.2042813612597,
                1240.6798759461408
              ],
              [
                1028.2019173049068,
                1240.6317245084033
              ],
              [
                1028.2015768546075,
                1240.6294293789142
              ],
              [
                1028.2014260017215,
                1240.6264325136358
              ],
              [
                1028.2004983825877,
                1240.620335069668
              ],
              [
                1028.2003418842041,
                1240.617549789965
              ],
              [
                1028.1945080086446,
                1240.5798092348691
              ],
              [
                1028.19425611989,
                1240.576514940138
              ],
              [
                1028.1921658750732,
                1240.5646574853702
              ],
              [
                1028.187287084381,
                1240.5330955730471
              ],
              [
                1028.1834890750783,
                1240.5074914740972
              ],
              [
                1028.181426358854,
                1240.490389927678
              ],
              [
                1028.1799943332762,
                1240.4839318385705
              ],
              [
                1028.173118412369,
                1240.4375781450303
              ],
              [
                1028.172919363957,
                1240.4367834992263
              ],
              [
                1028.172874271744,
                1240.4364795122178
              ],
              [
                1028.17199235634,
                1240.4329587085674
              ],
              [
                1028.171162904043,
                1240.427506536743
              ],
              [
                1028.1706672755504,
                1240.4255785709381
              ],
              [
                1028.1706452685423,
                1240.4254362030238
              ],
              [
                1028.1609409402338,
                1240.3875259601566
              ],
              [
                1028.1601826774734,
                1240.3832245183776
              ],
              [
                1028.1561284970044,
                1240.36872600968
              ],
              [
                1028.1456188084205,
                1240.327669603301
              ],
              [
                1028.143228764941,
                1240.3181280148776
              ],
              [
                1028.1389370728625,
                1240.2987735212866
              ],
              [
                1028.1365683928732,
                1240.2915383190993
              ],
              [
                1028.1251843824018,
                1240.246090801741
              ],
              [
                1028.1236092348154,
                1240.241688559148
              ],
              [
                1028.1224380089939,
                1240.2371131311602
              ],
              [
                1028.1216814017296,
                1240.2350263911776
              ],
              [
                1028.121064877057,
                1240.232628146315
              ],
              [
                1028.1085589961988,
                1240.1986085651163
              ],
              [
                1028.1073275336012,
                1240.1942046242164
              ],
              [
                1028.1007026500974,
                1240.1771665187102
              ],
              [
                1028.0870461289228,
                1240.1395015237974
              ],
              [
                1028.084082919567,
                1240.131219908442
              ],
              [
                1028.0778706922017,
                1240.1122444785738
              ],
              [
                1028.0747823057302,
                1240.1052264340992
              ],
              [
                1028.05906277596,
                1240.0612932915199
              ],
              [
                1028.0574634127518,
                1240.057911722131
              ],
              [
                1028.0561755378499,
                1240.0543597339627
              ],
              [
                1028.0533689281351,
                1240.0484757577492
              ],
              [
                1028.0516390054704,
                1240.0437698721564
              ],
              [
                1028.0376883728213,
                1240.0151042116518
              ],
              [
                1028.0361997122022,
                1240.0112756225642
              ],
              [
                1028.026736248294,
                1239.992599864258
              ],
              [
                1028.025746539197,
                1239.9905662170615
              ],
              [
                1028.0097358728135,
                1239.9570003173687
              ],
              [
                1028.0071124095473,
                1239.9514534703308
              ],
              [
                1027.9988153194997,
                1239.9325991761875
              ],
              [
                1027.9949347166505,
                1239.9257059019758
              ],
              [
                1027.9751462396341,
                1239.883866682598
              ],
              [
                1027.9737038003616,
                1239.8814601180616
              ],
              [
                1027.9724838618426,
                1239.8789025521878
              ],
              [
                1027.966867277932,
                1239.8695815308006
              ],
              [
                1027.9635880075305,
                1239.8628433093595
              ],
              [
                1027.9491374530478,
                1239.8394618210505
              ],
              [
                1027.9474842130794,
                1239.8361992197058
              ],
              [
                1027.9352918059137,
                1239.8170590933914
              ],
              [
                1027.9323714218008,
                1239.8123338126366
              ],
              [
                1027.913447263488,
                1239.7809281598106
              ],
              [
                1027.9131857103139,
                1239.7804917847025
              ],
              [
                1027.902532301212,
                1239.7615676965945
              ],
              [
                1027.8977485522603,
                1239.7547364424697
              ],
              [
                1027.8742429355425,
                1239.7155196902108
              ],
              [
                1027.873128603995,
                1239.7140171880512
              ],
              [
                1027.8721536480232,
                1239.7123991964731
              ],
              [
                1027.8630171533196,
                1239.700116248969
              ],
              [
                1027.8578031222162,
                1239.6916797694253
              ],
              [
                1027.8437569972373,
                1239.673364105485
              ],
              [
                1027.842035414986,
                1239.6706614971074
              ],
              [
                1027.8265962203898,
                1239.6509870426182
              ],
              [
                1027.8225008004345,
                1239.6456467558337
              ],
              [
                1027.8029510162212,
                1239.6193643596855
              ],
              [
                1027.789948895438,
                1239.600797166438
              ],
              [
                1027.7841206203389,
                1239.5940038150366
              ],
              [
                1027.757324617663,
                1239.5578735879228
              ],
              [
                1027.7566964550126,
                1239.557180517241
              ],
              [
                1027.7561327540284,
                1239.5564226872611
              ],
              [
                1027.7428321183722,
                1239.5417615341514
              ],
              [
                1027.7353550882526,
                1239.532011744003
              ],
              [
                1027.7225550206983,
                1239.51840539559
              ],
              [
                1027.7208688474914,
                1239.5162566735298
              ],
              [
                1027.7013794718855,
                1239.495895991342
              ],
              [
                1027.6969844988744,
                1239.4912241774002
              ],
              [
                1027.6777878812586,
                1239.470063944361
              ],
              [
                1027.66214934192,
                1239.45183589381
              ],
              [
                1027.655326704213,
                1239.445305221229
              ],
              [
                1027.6255172733106,
                1239.412446593877
              ],
              [
                1027.607578282568,
                1239.3961862313747
              ],
              [
                1027.5974833062528,
                1239.3854553688707
              ],
              [
                1027.586688227067,
                1239.376077274072
              ],
              [
                1027.5851514108776,
                1239.3744717518302
              ],
              [
                1027.5601110181358,
                1239.3529886444703
              ],
              [
                1027.5555462009863,
                1239.3490230146467
              ],
              [
                1027.5403500972511,
                1239.33524887546
              ],
              [
                1027.5203644202202,
                1239.3161184571961
              ],
              [
                1027.5120246682,
                1239.309573978192
              ],
              [
                1027.4799682089522,
                1239.280517179212
              ],
              [
                1027.4575555467354,
                1239.2638948160354
              ],
              [
                1027.4455832936915,
                1239.2534940656503
              ],
              [
                1027.437452163897,
                1239.2477549382177
              ],
              [
                1027.4361901382495,
                1239.246672198312
              ],
              [
                1027.402911685464,
                1239.2233681664732
              ],
              [
                1027.3894201646674,
                1239.2133621727044
              ],
              [
                1027.3659595966426,
                1239.1949518897018
              ],
              [
                1027.3563006509405,
                1239.1887990672567
              ],
              [
                1027.3223221066642,
                1239.1635988613325
              ],
              [
                1027.295126861174,
                1239.1472986584797
              ],
              [
                1027.2811925596864,
                1239.1374635268382
              ],
              [
                1027.2762701437418,
                1239.1346844004518
              ],
              [
                1027.2754196080932,
                1239.134088792538
              ],
              [
                1027.237041877599,
                1239.1124838591318
              ],
              [
                1027.2278351624227,
                1239.10696556642
              ],
              [
                1027.2004218740442,
                1239.089503091608
              ],
              [
                1027.189287985674,
                1239.0838612778182
              ],
              [
                1027.153975114277,
                1239.0626955572409
              ],
              [
                1027.121855864526,
                1239.0475042834805
              ],
              [
                1027.1059750425625,
                1239.0385381961253
              ],
              [
                1027.1057309019375,
                1239.0384161258128
              ],
              [
                1027.1045388560347,
                1239.037890627062
              ],
              [
                1027.1043881285,
                1239.0378057742503
              ],
              [
                1027.0806072392859,
                1239.0273406686501
              ],
              [
                1027.0602360222624,
                1239.0183602685938
              ],
              [
                1027.0570600397784,
                1239.01685814075
              ],
              [
                1027.0253454711858,
                1239.0007875924853
              ],
              [
                1027.0126201472506,
                1238.99583963694
              ],
              [
                1026.9765485053551,
                1238.978779020915
              ],
              [
                1026.944167758284,
                1238.9671930043526
              ],
              [
                1026.9285067202898,
                1238.9602890286928
              ],
              [
                1026.927441581749,
                1238.959938025882
              ],
              [
                1026.924742826114,
                1238.9587504015483
              ],
              [
                1026.877218548156,
                1238.9431917753625
              ],
              [
                1026.8424164695336,
                1238.9296597710866
              ],
              [
                1026.8420502585961,
                1238.929537700774
              ],
              [
                1026.8277614109913,
                1238.9255421472938
              ],
              [
                1026.791750995134,
                1238.9126574144732
              ],
              [
                1026.7592968322958,
                1238.9045280698783
              ],
              [
                1026.7445565633022,
                1238.8996706023745
              ],
              [
                1026.7436769035758,
                1238.8994725518926
              ],
              [
                1026.7382137834009,
                1238.8976840208877
              ],
              [
                1026.6895292421084,
                1238.8868886436164
              ],
              [
                1026.6530303644352,
                1238.8766825569016
              ],
              [
                1026.636493288027,
                1238.8737673833737
              ],
              [
                1026.6013622846572,
                1238.864967525131
              ],
              [
                1026.5692865898786,
                1238.8602095452702
              ],
              [
                1026.5556055272214,
                1238.8571293303069
              ],
              [
                1026.5549540076813,
                1238.8570477456963
              ],
              [
                1026.5465973770094,
                1238.855194734896
              ],
              [
                1026.4976314833602,
                1238.8492886758304
              ],
              [
                1026.4597399426748,
                1238.842609114485
              ],
              [
                1026.4409470112455,
                1238.8411721671332
              ],
              [
                1026.4072159212842,
                1238.8361686325932
              ],
              [
                1026.3762390881761,
                1238.8346468383668
              ],
              [
                1026.371493554117,
                1238.8340744521124
              ],
              [
                1026.363425606856,
                1238.8330641672394
              ],
              [
                1026.3630256300517,
                1238.8330530869139
              ],
              [
                1026.3517389776814,
                1238.8316917386246
              ],
              [
                1026.3030299050283,
                1238.8306267330022
              ],
              [
                1026.26404048574,
                1238.827645519401
              ],
              [
                1026.2430611346542,
                1238.8281042250514
              ],
              [
                1026.211181640625,
                1238.8265380859375
              ],
              [
                1026.1820711565324,
                1238.827982015289
              ],
              [
                1026.172102538761,
                1238.8277640551967
              ],
              [
                1026.1698190776963,
                1238.8277007977986
              ],
              [
                1026.1696728441864,
                1238.827710930835
              ],
              [
                1026.1555151783227,
                1238.827401378776
              ],
              [
                1026.1554880339108,
                1238.827403454295
              ],
              [
                1026.1553931080102,
                1238.827401378776
              ],
              [
                1026.1074115126714,
                1238.8310701532089
              ],
              [
                1026.067816686381,
                1238.8319358792496
              ],
              [
                1026.0441013699754,
                1238.8347963204467
              ],
              [
                1026.0136825162158,
                1238.8362907029057
              ],
              [
                1026.0132401739293,
                1238.8363563181856
              ],
              [
                1026.013018342155,
                1238.8363673214176
              ],
              [
                1025.9988530229828,
                1238.8384904504292
              ],
              [
                1025.9866049708721,
                1238.8403072773344
              ],
              [
                1025.9596936510754,
                1238.84236497386
              ],
              [
                1025.912765872894,
                1238.8506374528222
              ],
              [
                1025.872958287053,
                1238.855438875521
              ],
              [
                1025.8494410102114,
                1238.8606536288937
              ],
              [
                1025.8195361528428,
                1238.8650895954436
              ],
              [
                1025.81586805617,
                1238.8660084058288
              ],
              [
                1025.8150926531762,
                1238.866124624925
              ],
              [
                1025.7925820321532,
                1238.8718235888946
              ]
            ]
          ]
        ]
      }
    }
  ]
}