{
  "type": "FeatureCollection",
  "features": [
    {
      "type": "Feature",
      "properties": {
        "image_id": "0007_top_20250708_t1",
        "zone_type": "parking_spot",
        "generated_at": "2025-11-03T11:20:40",
        "source": "merged_t1_polygons"
      },
      "geometry": {
        "type": "MultiPolygon",
        "coordinates": [
          [
            [
              [
                1436.8362417538715,
                732.9306060626953
              ],
              [
                1436.8361588019766,
                732.9304233397235
              ],
              [
                1436.82664090096,
                732.9038225883949
              ],
              [
                1436.8187873990973,
                732.8872177538216
              ],
              [
                1436.818606778908,
                732.886726415125
              ],
              [
                1436.8167682044968,
                732.8829485255336
              ],
              [
                1436.814897454854,
                732.8789931577383
              ],
              [
                1436.811420278474,
                732.8697724445218
              ],
              [
                1436.8082011165293,
                732.8633341206321
              ],
              [
                1436.7943509821014,
                732.8355512910285
              ],
              [
                1436.7769006370606,
                732.798655636362
              ],
              [
                1436.7670037960622,
                732.7761660707188
              ],
              [
                1436.7662884904016,
                732.7748954438971
              ],
              [
                1436.7661493038747,
                732.7745791566564
              ],
              [
                1436.7660272335622,
                732.7743350160314
              ],
              [
                1436.7622806930633,
                732.7676877246455
              ],
              [
                1436.7579770475204,
                732.7582078338521
              ],
              [
                1436.7567993185303,
                732.7561549691773
              ],
              [
                1436.7427243646341,
                732.726395979473
              ],
              [
                1436.731316848887,
                732.7073636892627
              ],
              [
                1436.7305557809677,
                732.7057998523281
              ],
              [
                1436.7259653484593,
                732.6983723765068
              ],
              [
                1436.7222437652695,
                732.6909070257436
              ],
              [
                1436.7222297965639,
                732.6908848263606
              ],
              [
                1436.7212672027695,
                732.6889539007436
              ],
              [
                1436.7200198303508,
                732.6869715482751
              ],
              [
                1436.719305695842,
                732.6855432792576
              ],
              [
                1436.7026614342346,
                732.6593851924491
              ],
              [
                1436.7005165352145,
                732.6559764704
              ],
              [
                1436.681195501851,
                732.6237412736853
              ],
              [
                1436.6707207777745,
                732.6051345911256
              ],
              [
                1436.6704228541762,
                732.6047091524517
              ],
              [
                1436.6686689683806,
                732.6015973243683
              ],
              [
                1436.6657274855952,
                732.5974103426267
              ],
              [
                1436.6637610933674,
                732.5939827823174
              ],
              [
                1436.6611239767153,
                732.5902539570939
              ],
              [
                1436.6418210605425,
                732.5580489870858
              ],
              [
                1436.6416283762394,
                732.5577891823785
              ],
              [
                1436.641454849605,
                732.5574996706796
              ],
              [
                1436.6261341290694,
                732.5368420703952
              ],
              [
                1436.6247708956537,
                732.5346363123939
              ],
              [
                1436.6213933312304,
                732.5302320845369
              ],
              [
                1436.61566533773,
                732.5211290276752
              ],
              [
                1436.6102911261123,
                732.5142162089653
              ],
              [
                1436.6087315330694,
                732.5117651557938
              ],
              [
                1436.5898482641874,
                732.4879162453358
              ],
              [
                1436.5700608005675,
                732.4612359392008
              ],
              [
                1436.554684589553,
                732.439349047633
              ],
              [
                1436.5485661494702,
                732.432253757221
              ],
              [
                1436.5245365317255,
                732.3998535683914
              ],
              [
                1436.5041982683106,
                732.3774137527114
              ],
              [
                1436.5023228616901,
                732.3749682869717
              ],
              [
                1436.5017962053403,
                732.374408456349
              ],
              [
                1436.5011021585651,
                732.3735034432217
              ],
              [
                1436.499921705235,
                732.3722486327117
              ],
              [
                1436.493964343501,
                732.3645857112292
              ],
              [
                1436.48337631161,
                732.3534458801041
              ],
              [
                1436.4808705806852,
                732.3502812292784
              ],
              [
                1436.4629248182991,
                732.3318755181117
              ],
              [
                1436.444203408983,
                732.3112196260254
              ],
              [
                1436.4309881377328,
                732.2958526726918
              ],
              [
                1436.430730870279,
                732.2956052789627
              ],
              [
                1436.4251944763803,
                732.2891849623437
              ],
              [
                1436.418250137448,
                732.2825846035724
              ],
              [
                1436.392729187373,
                732.2544265743456
              ],
              [
                1436.3679758275998,
                732.2319914367914
              ],
              [
                1436.3632303765653,
                732.2269470680894
              ],
              [
                1436.3627318053236,
                732.2265139403386
              ],
              [
                1436.3573604478127,
                732.2208626525259
              ],
              [
                1436.3405644334782,
                732.2063790441928
              ],
              [
                1436.3370789793123,
                732.2028042580522
              ],
              [
                1436.3207583520636,
                732.1891960115111
              ],
              [
                1436.308864630224,
                732.1784161703926
              ],
              [
                1436.2945171609795,
                732.1646193458556
              ],
              [
                1436.292206797002,
                732.1627846808195
              ],
              [
                1436.281471417677,
                732.1525810666553
              ],
              [
                1436.273657723584,
                732.1465064902294
              ],
              [
                1436.2473021933272,
                732.1226192299932
              ],
              [
                1436.2466069022837,
                732.122103567011
              ],
              [
                1436.2465697714522,
                732.122069913587
              ],
              [
                1436.2195939729381,
                732.1020632978829
              ],
              [
                1436.2071963625233,
                732.0913725393531
              ],
              [
                1436.1833173809339,
                732.074596824145
              ],
              [
                1436.1788818359375,
                732.0708984375
              ],
              [
                1436.1786376953125,
                732.0707153320312
              ],
              [
                1436.1635930512637,
                732.0605301837312
              ],
              [
                1436.1612662753741,
                732.0588045291217
              ],
              [
                1436.146248291702,
                732.0468787157754
              ],
              [
                1436.1417231902597,
                732.0439370273915
              ],
              [
                1436.124928101231,
                732.0308800724263
              ],
              [
                1436.116261506359,
                732.0254267175969
              ],
              [
                1436.0889236691642,
                732.0051515957074
              ],
              [
                1436.0607054094269,
                731.9882382217122
              ],
              [
                1436.0595351348793,
                731.987394735542
              ],
              [
                1436.057728987609,
                731.9863671351208
              ],
              [
                1436.044948085788,
                731.9773881605256
              ],
              [
                1436.0200752515516,
                731.9633693556655
              ],
              [
                1436.0184425695138,
                731.9622640381433
              ],
              [
                1436.0089261223238,
                731.957085493299
              ],
              [
                1436.0056424184872,
                731.9552347350434
              ],
              [
                1436.0009369934728,
                731.9524144118266
              ],
              [
                1435.987510260409,
                731.9436859302244
              ],
              [
                1435.9806927337684,
                731.9401216316169
              ],
              [
                1435.9571032281626,
                731.9252782073868
              ],
              [
                1435.9485445031896,
                731.9210115616527
              ],
              [
                1435.920576676777,
                731.9042482916158
              ],
              [
                1435.8870232340385,
                731.8883786950905
              ],
              [
                1435.872210394125,
                731.8800298953439
              ],
              [
                1435.831011631746,
                731.861866250796
              ],
              [
                1435.819725618349,
                731.8559657645997
              ],
              [
                1435.8107999964434,
                731.8523277886036
              ],
              [
                1435.810166570049,
                731.852028200231
              ],
              [
                1435.7796463886684,
                731.8368134571355
              ],
              [
                1435.7712453160236,
                731.8336198180435
              ],
              [
                1435.7431500678551,
                731.8203317552899
              ],
              [
                1435.7094659550835,
                731.8082793870228
              ],
              [
                1435.6948641421648,
                731.8018417630677
              ],
              [
                1435.6534555871342,
                731.788196102291
              ],
              [
                1435.6443979891335,
                731.7845043344279
              ],
              [
                1435.6357203548528,
                731.7818927893385
              ],
              [
                1435.6264245072834,
                731.7785666818937
              ],
              [
                1435.5943018478115,
                731.7663553625343
              ],
              [
                1435.5860905709965,
                731.7641349687271
              ],
              [
                1435.558352557634,
                731.7542101488481
              ],
              [
                1435.5248806446873,
                731.7458258711223
              ],
              [
                1435.510913985177,
                731.7412233367494
              ],
              [
                1435.469904278811,
                731.7319902300561
              ],
              [
                1435.4630985938227,
                731.7299420504905
              ],
              [
                1435.4628544531977,
                731.7298810153343
              ],
              [
                1435.4552198647402,
                731.7283767541088
              ],
              [
                1435.4366591211415,
                731.7237275298659
              ],
              [
                1435.402891400729,
                731.7145964727868
              ],
              [
                1435.3948896306845,
                731.7132648171726
              ],
              [
                1435.3679638471572,
                731.7065202595061
              ],
              [
                1435.3351725161385,
                731.7016561250367
              ],
              [
                1435.3219629490964,
                731.6986820646817
              ],
              [
                1435.2780670936136,
                731.6931853357926
              ],
              [
                1435.272181975808,
                731.6923123610311
              ],
              [
                1435.264991337558,
                731.6908955723769
              ],
              [
                1435.2585542549948,
                731.6902908796064
              ],
              [
                1435.2427953346598,
                731.687953264596
              ],
              [
                1435.2072964657784,
                731.682045538208
              ],
              [
                1435.1995165174226,
                731.6815334585016
              ],
              [
                1435.1738174837842,
                731.6777213669681
              ],
              [
                1435.142151631834,
                731.6761657234165
              ],
              [
                1435.129783028731,
                731.6746169016144
              ],
              [
                1435.0858522768615,
                731.6733999134626
              ],
              [
                1435.070956214356,
                731.6726681168377
              ],
              [
                1435.0642080563825,
                731.6720342019702
              ],
              [
                1435.0588405914261,
                731.6720729144503
              ],
              [
                1435.0467885951418,
                731.6714808378393
              ],
              [
                1435.0094395916342,
                731.6690225095994
              ],
              [
                1435.001891005971,
                731.6692751607212
              ],
              [
                1434.977783203125,
                731.6680908203125
              ],
              [
                1434.9476473154868,
                731.6695713015372
              ],
              [
                1434.9361764995713,
                731.6692535321737
              ],
              [
                1434.9360370445543,
                731.6692631955046
              ],
              [
                1434.9356882183213,
                731.6692535321737
              ],
              [
                1434.8907982335095,
                731.672364117847
              ],
              [
                1434.8688298781076,
                731.6734433539425
              ],
              [
                1434.862546057484,
                731.6734886755762
              ],
              [
                1434.8581108679089,
                731.6739699451463
              ],
              [
                1434.8506038668759,
                731.6743387404582
              ],
              [
                1434.8112655601037,
                731.6756553933756
              ],
              [
                1434.8039590987728,
                731.6766302509733
              ],
              [
                1434.7817489224658,
                731.6777213669681
              ],
              [
                1434.7539263679312,
                731.6818484530708
              ],
              [
                1434.7424707346847,
                731.6826422543787
              ],
              [
                1434.695478444074,
                731.6905183835757
              ],
              [
                1434.6678805717493,
                731.694612141221
              ],
              [
                1434.662055722967,
                731.6952442049517
              ],
              [
                1434.6584155216863,
                731.6960161487692
              ],
              [
                1434.6561948570622,
                731.6963455532492
              ],
              [
                1434.6147222704087,
                731.7018789933601
              ],
              [
                1434.6076731086778,
                731.7035430747129
              ],
              [
                1434.5876025590928,
                731.7065202595061
              ],
              [
                1434.5625232404034,
                731.7128023018082
              ],
              [
                1434.551454302396,
                731.7146575079429
              ],
              [
                1434.5023540185646,
                731.7278739072837
              ],
              [
                1434.470168667098,
                731.7359359181352
              ],
              [
                1434.4647755221324,
                731.7370795925071
              ],
              [
                1434.462432333049,
                731.7378297708661
              ],
              [
                1434.4217415928258,
                731.7474355516136
              ],
              [
                1434.4149715820834,
                731.7497620681719
              ],
              [
                1434.397213848616,
                731.7542101488481
              ],
              [
                1434.3750497047574,
                731.7621406063288
              ],
              [
                1434.36443028568,
                731.7649990517865
              ],
              [
                1434.3132454940944,
                731.7842545065052
              ],
              [
                1434.2803415637231,
                731.7960277210459
              ],
              [
                1434.2761324181856,
                731.7974741953814
              ],
              [
                1434.2727112855066,
                731.7985694803147
              ],
              [
                1434.2718359235307,
                731.7989506872715
              ],
              [
                1434.234220379878,
                731.8118772819975
              ],
              [
                1434.2277592997361,
                731.8148419559401
              ],
              [
                1434.2124163383949,
                731.8203317552899
              ],
              [
                1434.193255843437,
                731.8293939944936
              ],
              [
                1434.1831526076355,
                731.8331947797163
              ],
              [
                1434.129947240042,
                731.8593367339104
              ],
              [
                1434.102569728292,
                731.8722853326195
              ],
              [
                1434.0540018217248,
                731.8945707715687
              ],
              [
                1434.0478875929086,
                731.8981480565265
              ],
              [
                1434.034989729473,
                731.9042482916158
              ],
              [
                1434.0188385320137,
                731.9139289468243
              ],
              [
                1434.0093213018322,
                731.9186051478677
              ],
              [
                1433.9542103962708,
                731.9526655606553
              ],
              [
                1433.9338824510037,
                731.9648496621576
              ],
              [
                1433.8828573290125,
                731.9947032065459
              ],
              [
                1433.8771352091062,
                731.9988626500011
              ],
              [
                1433.8666427370858,
                732.0051515957074
              ],
              [
                1433.8534264279417,
                732.0149534786038
              ],
              [
                1433.844566569288,
                732.0204291723874
              ],
              [
                1433.7877258667982,
                732.0636803356663
              ],
              [
                1433.7758906710897,
                732.0724579150287
              ],
              [
                1433.7224691212607,
                732.1112903616464
              ],
              [
                1433.7171899541775,
                732.1159933337933
              ],
              [
                1433.7089966347978,
                732.122069913587
              ],
              [
                1433.708984257854,
                732.122081131395
              ],
              [
                1433.7087524941728,
                732.1222530190557
              ],
              [
                1433.698303040064,
                732.1317238522051
              ],
              [
                1433.6904334903413,
                732.1377119411111
              ],
              [
                1433.633990080833,
                732.1900137207354
              ],
              [
                1433.6276235050145,
                732.1957840487048
              ],
              [
                1433.5744136919316,
                732.2431862742687
              ],
              [
                1433.5698429724075,
                732.2481532708574
              ],
              [
                1433.563325500127,
                732.2540603634081
              ],
              [
                1433.5552171136026,
                732.2630065893153
              ],
              [
                1433.5483675347887,
                732.2693535687902
              ],
              [
                1433.4928337752092,
                732.3318359965508
              ],
              [
                1433.4926476069659,
                732.3320414015542
              ],
              [
                1433.4401463127044,
                732.3890945084289
              ],
              [
                1433.436294850953,
                732.3942170864788
              ],
              [
                1433.4315181557745,
                732.399487357454
              ],
              [
                1433.4255312826792,
                732.4075597213526
              ],
              [
                1433.4197010061775,
                732.4141195118856
              ],
              [
                1433.368486035089,
                732.4844051693786
              ],
              [
                1433.320986729267,
                732.5475808977349
              ],
              [
                1433.3178428918802,
                732.5527607076399
              ],
              [
                1433.314599837895,
                732.5571334597421
              ],
              [
                1433.3104676549628,
                732.5640275904634
              ],
              [
                1433.3056405473797,
                732.5706521461951
              ],
              [
                1433.2596238903184,
                732.6486827684447
              ],
              [
                1433.2181061892243,
                732.7170876421458
              ],
              [
                1433.2156479506482,
                732.7222247098154
              ],
              [
                1433.2136965338034,
                732.7254804521292
              ],
              [
                1433.211113009067,
                732.7309428562403
              ],
              [
                1433.2072558246161,
                732.7374834987397
              ],
              [
                1433.1672122205287,
                732.823442559735
              ],
              [
                1433.1552642932402,
                732.8484105638954
              ],
              [
                1433.1517885690478,
                732.8552697631891
              ],
              [
                1433.1509502693905,
                732.8574257313655
              ],
              [
                1433.1325159296307,
                732.8959486199553
              ],
              [
                1433.1307092440152,
                732.900942334321
              ],
              [
                1433.1297799974775,
                732.9029070610511
              ],
              [
                1433.1296416272983,
                732.9032937797954
              ],
              [
                1433.1295358568525,
                732.9035174126136
              ],
              [
                1433.128297608075,
                732.9069780861124
              ],
              [
                1433.1254694960614,
                732.913049014507
              ],
              [
                1433.0921390318051,
                733.0075511549899
              ],
              [
                1433.0862730118845,
                733.0237649487426
              ],
              [
                1433.080660747649,
                733.0381987648414
              ],
              [
                1433.0793327067574,
                733.0429480878092
              ],
              [
                1433.0650572373029,
                733.0824057644944
              ],
              [
                1433.0639168377907,
                733.0869102852059
              ],
              [
                1433.0634142504107,
                733.0883149228348
              ],
              [
                1433.0628266171923,
                733.0906608861459
              ],
              [
                1433.0610485590953,
                733.0957022289476
              ],
              [
                1433.0351263173202,
                733.2006313929093
              ],
              [
                1433.0340373278907,
                733.2049328463798
              ],
              [
                1433.0278056037766,
                733.2272186590025
              ],
              [
                1433.0264536349969,
                733.2348880518524
              ],
              [
                1433.0163931796126,
                733.2746263445825
              ],
              [
                1433.0158680371417,
                733.2781300462756
              ],
              [
                1433.0157243610686,
                733.2787036333115
              ],
              [
                1433.015552163987,
                733.2798644917417
              ],
              [
                1433.0145971573531,
                733.2837302086242
              ],
              [
                1432.9987236447369,
                733.3921935993002
              ],
              [
                1432.99373216136,
                733.4205090807628
              ],
              [
                1432.9929033940305,
                733.4313480078667
              ],
              [
                1432.9924740317958,
                733.4342126727369
              ],
              [
                1432.9914327452393,
                733.4404696475028
              ],
              [
                1432.9913517222221,
                733.4417006177616
              ],
              [
                1432.9870020870426,
                733.4707209788737
              ],
              [
                1432.9868844931052,
                733.4730902829612
              ],
              [
                1432.9865509150288,
                733.4753696152101
              ],
              [
                1432.9813775670036,
                733.5820870566849
              ],
              [
                1432.978768566276,
                733.6162085376976
              ],
              [
                1432.979042099153,
                733.6287188310762
              ],
              [
                1432.9784097166305,
                733.6383265216471
              ],
              [
                1432.9785083642912,
                733.6412738678229
              ],
              [
                1432.9772999735628,
                733.6662009297969
              ],
              [
                1432.9771728515625,
                733.6687622070312
              ],
              [
                1432.9771728515625,
                733.6688232421875
              ],
              [
                1432.9771728515625,
                733.6688842773438
              ],
              [
                1432.9771728515625,
                733.6690673828125
              ],
              [
                1432.982184883575,
                733.7724571471085
              ],
              [
                1432.9830589261246,
                733.8124323370564
              ],
              [
                1432.9846895133808,
                733.8259511930784
              ],
              [
                1432.9850426004068,
                733.8365005531776
              ],
              [
                1432.9854304302705,
                733.8394072996703
              ],
              [
                1432.9865509150288,
                733.8625210097899
              ],
              [
                1432.9871225919862,
                733.8664272668777
              ],
              [
                1432.9872947014035,
                733.8698443418331
              ],
              [
                1432.9959220899289,
                733.9265540583558
              ],
              [
                1433.001050286175,
                733.9615949195916
              ],
              [
                1433.006561922396,
                734.0072907363844
              ],
              [
                1433.009746021873,
                734.021650255147
              ],
              [
                1433.0112662003914,
                734.0330438428725
              ],
              [
                1433.0118991783966,
                734.0357251807307
              ],
              [
                1433.0145971573531,
                734.0541604163758
              ],
              [
                1433.0155748232319,
                734.0581178543237
              ],
              [
                1433.0157243610686,
                734.0591259565323
              ],
              [
                1433.016657035264,
                734.0628494006377
              ],
              [
                1433.017557799082,
                734.0687703187256
              ],
              [
                1433.0243976195266,
                734.0953768196044
              ],
              [
                1433.024471961068,
                734.0958235296353
              ],
              [
                1433.0252931602427,
                734.0988604205329
              ],
              [
                1433.0341864498905,
                734.1334547963289
              ],
              [
                1433.0376159107086,
                734.1473367151692
              ],
              [
                1433.0490512083877,
                734.1989071427759
              ],
              [
                1433.0536337309159,
                734.2129045916357
              ],
              [
                1433.057956713669,
                734.2308216015778
              ],
              [
                1433.0589622916734,
                734.2337435131492
              ],
              [
                1433.0610485590953,
                734.2421883960524
              ],
              [
                1433.062879373988,
                734.2473793206328
              ],
              [
                1433.0634142504107,
                734.249514667009
              ],
              [
                1433.065574214634,
                734.2555513626082
              ],
              [
                1433.067655826068,
                734.2636487091538
              ],
              [
                1433.0759662427151,
                734.2862554249166
              ],
              [
                1433.0762308508156,
                734.2872339767179
              ],
              [
                1433.0791146528945,
                734.2948200032102
              ],
              [
                1433.0913309068826,
                734.3280517162899
              ],
              [
                1433.1101175890483,
                734.3854361854889
              ],
              [
                1433.114934450993,
                734.3963820148615
              ],
              [
                1433.1195687930035,
                734.4098480388672
              ],
              [
                1433.1213019896863,
                734.4136658521865
              ],
              [
                1433.121386559341,
                734.4139119443407
              ],
              [
                1433.1223724818676,
                734.4160606205797
              ],
              [
                1433.1254694960614,
                734.424841610493
              ],
              [
                1433.1283917725118,
                734.4311146757018
              ],
              [
                1433.1295358568525,
                734.4343121772301
              ],
              [
                1433.1295887420754,
                734.4344239936393
              ],
              [
                1433.129657927165,
                734.4346173530114
              ],
              [
                1433.133306553283,
                734.4423317247877
              ],
              [
                1433.1333996574626,
                734.4425885082248
              ],
              [
                1433.1335563220762,
                734.4429169510628
              ],
              [
                1433.1370816976546,
                734.4525069833124
              ],
              [
                1433.1376909946955,
                734.4537589625281
              ],
              [
                1433.1378141195296,
                734.454093897375
              ],
              [
                1433.1462570183123,
                734.471442305599
              ],
              [
                1433.1466889454168,
                734.4725785175747
              ],
              [
                1433.1517817521074,
                734.4827944892119
              ],
              [
                1433.164100953238,
                734.5081078958636
              ],
              [
                1433.1891729617503,
                734.565081487875
              ],
              [
                1433.193657515778,
                734.573047585369
              ],
              [
                1433.1978334993546,
                734.5822462677104
              ],
              [
                1433.2017970064564,
                734.5891549400676
              ],
              [
                1433.2040800489124,
                734.5941305024938
              ],
              [
                1433.2053158607412,
                734.5962427290525
              ],
              [
                1433.2072558246161,
                734.6004071262603
              ],
              [
                1433.2113712751084,
                734.6073857114781
              ],
              [
                1433.2135744634909,
                734.6120439619333
              ],
              [
                1433.2136057589414,
                734.612096175238
              ],
              [
                1433.2136965338034,
                734.6122881025583
              ],
              [
                1433.2137161373455,
                734.6123208090924
              ],
              [
                1433.2143068853659,
                734.6135698408395
              ],
              [
                1433.2202571733708,
                734.62349729662
              ],
              [
                1433.2258651174698,
                734.6350204601719
              ],
              [
                1433.2559407729718,
                734.683683893008
              ],
              [
                1433.285455980038,
                734.7361129674681
              ],
              [
                1433.2890570248624,
                734.7412553051115
              ],
              [
                1433.2920494535076,
                734.7464713192451
              ],
              [
                1433.2987741387224,
                734.7559798769458
              ],
              [
                1433.3042124838896,
                734.7652749952064
              ],
              [
                1433.3100433440163,
                734.7732964723971
              ],
              [
                1433.3152101894575,
                734.7819168332267
              ],
              [
                1433.3152744175586,
                734.7820034347958
              ],
              [
                1433.31533225977,
                734.7820999386954
              ],
              [
                1433.323929540939,
                734.793692030432
              ],
              [
                1433.3316500027838,
                734.8061840001061
              ],
              [
                1433.3647453676788,
                734.8493392178123
              ],
              [
                1433.398039385812,
                734.8968834976245
              ],
              [
                1433.4002324199437,
                734.8994396658284
              ],
              [
                1433.4013723270928,
                734.9010514695865
              ],
              [
                1433.4113043915568,
                734.9126006514562
              ],
              [
                1433.42079963899,
                734.9256632029582
              ],
              [
                1433.4268085178514,
                734.9324082727779
              ],
              [
                1433.4322505776495,
                734.9397460409836
              ],
              [
                1433.4441245939645,
                734.9528469991162
              ],
              [
                1433.4540980367474,
                734.9658520255283
              ],
              [
                1433.4890599433418,
                735.003016195193
              ],
              [
                1433.503687347353,
                735.0200252017111
              ],
              [
                1433.52583893933,
                735.0458447702525
              ],
              [
                1433.5395896880684,
                735.0590070751571
              ],
              [
                1433.5526955516125,
                735.0737186322871
              ],
              [
                1433.5586047278384,
                735.0791563624454
              ],
              [
                1433.564057922002,
                735.0851730350294
              ],
              [
                1433.5782243917834,
                735.0980127748106
              ],
              [
                1433.5791343374847,
                735.0990018643813
              ],
              [
                1433.580452016935,
                735.1001650883697
              ],
              [
                1433.5919698187472,
                735.1124084006606
              ],
              [
                1433.6268161630087,
                735.1426807418121
              ],
              [
                1433.6612933858955,
                735.1758347557069
              ],
              [
                1433.6633296311138,
                735.1774517424429
              ],
              [
                1433.6676238610298,
                735.1815622068665
              ],
              [
                1433.6830091804072,
                735.1936355754024
              ],
              [
                1433.6986037857728,
                735.2079860115142
              ],
              [
                1433.7042205240339,
                735.2122090125832
              ],
              [
                1433.7094849160478,
                735.2169803793818
              ],
              [
                1433.7290160103807,
                735.2314656261632
              ],
              [
                1433.7438698313085,
                735.2443697038808
              ],
              [
                1433.7774085350911,
                735.2680420470607
              ],
              [
                1433.809562255173,
                735.2935753857871
              ],
              [
                1433.814236797408,
                735.2966142229862
              ],
              [
                1433.8220286846074,
                735.3027287743608
              ],
              [
                1433.8389592276794,
                735.3135136600654
              ],
              [
                1433.8570901750786,
                735.3271455949518
              ],
              [
                1433.8622397208146,
                735.3302710637828
              ],
              [
                1433.8671310183358,
                735.3338986972614
              ],
              [
                1433.8908858775244,
                735.3481368119218
              ],
              [
                1433.9082605653136,
                735.3604002426929
              ],
              [
                1433.9394060870904,
                735.3779845635564
              ],
              [
                1433.968300286466,
                735.3967681713381
              ],
              [
                1433.9758599503605,
                735.4007204697174
              ],
              [
                1433.9875664072058,
                735.4081775724544
              ],
              [
                1434.0059331311454,
                735.4174844410841
              ],
              [
                1434.0265969194895,
                735.4300261349946
              ],
              [
                1434.0311253980074,
                735.43219314569
              ],
              [
                1434.035478010723,
                735.434802001353
              ],
              [
                1434.0636002440258,
                735.4481028271247
              ],
              [
                1434.0834780824375,
                735.4593255734061
              ],
              [
                1434.1120472633067,
                735.471921108232
              ],
              [
                1434.136084928526,
                735.4844883369628
              ],
              [
                1434.1467045675618,
                735.48881677394
              ],
              [
                1434.1626428100642,
                735.4968930715772
              ],
              [
                1434.182318619149,
                735.5045435666973
              ],
              [
                1434.205457897299,
                735.515616394588
              ],
              [
                1434.2092348476378,
                735.516982864784
              ],
              [
                1434.2129046196449,
                735.5187185376789
              ],
              [
                1434.2409715997205,
                735.5287610637299
              ],
              [
                1434.2608243343977,
                735.5375137056823
              ],
              [
                1434.2887944687004,
                735.5467309064344
              ],
              [
                1434.3114125577415,
                735.5559497671346
              ],
              [
                1434.3251925182408,
                735.5600968637982
              ],
              [
                1434.3455718117164,
                735.568020892976
              ],
              [
                1434.3664130832146,
                735.5738486837936
              ],
              [
                1434.3919150418383,
                735.5830750869159
              ],
              [
                1434.3948355504024,
                735.5838144655879
              ],
              [
                1434.397702129866,
                735.5848401441207
              ],
              [
                1434.4257868899354,
                735.591875010298
              ],
              [
                1434.4447744913855,
                735.5981321320006
              ],
              [
                1434.4717762869561,
                735.6042114356949
              ],
              [
                1434.4927119530523,
                735.610512051072
              ],
              [
                1434.4929560936773,
                735.6105730862282
              ],
              [
                1434.509173873791,
                735.6137685142365
              ],
              [
                1434.5345917058773,
                735.6208760368484
              ],
              [
                1434.556439636543,
                735.6247274134488
              ],
              [
                1434.5841356219262,
                735.6317391446061
              ],
              [
                1434.5861220264908,
                735.6320368712657
              ],
              [
                1434.5880908403428,
                735.6325300334627
              ],
              [
                1434.6158355104405,
                735.6366455665005
              ],
              [
                1434.6337255274661,
                735.6406734040683
              ],
              [
                1434.6666480763429,
                735.6447960330391
              ],
              [
                1434.690819209317,
                735.6495585291856
              ],
              [
                1434.7046947424108,
                735.650861982181
              ],
              [
                1434.7278821276377,
                735.654949479265
              ],
              [
                1434.750563856356,
                735.6566837722961
              ],
              [
                1434.7802302562175,
                735.6611302371762
              ],
              [
                1434.7812333968886,
                735.6611800253237
              ],
              [
                1434.7822372037158,
                735.6613289260007
              ],
              [
                1434.80928997263,
                735.6626579433149
              ],
              [
                1434.8259054478315,
                735.6647385671356
              ],
              [
                1434.863500695213,
                735.6657800464793
              ],
              [
                1434.8916024904925,
                735.6684198995923
              ],
              [
                1434.9029800779645,
                735.6683378395078
              ],
              [
                1434.9235815845727,
                735.6699130743492
              ],
              [
                1434.9466877981386,
                735.6694078656474
              ],
              [
                1434.978271484375,
                735.6709594726562
              ],
              [
                1434.978576755143,
                735.6709444849979
              ],
              [
                1434.9788818359375,
                735.6709594726562
              ],
              [
                1435.004693474162,
                735.669691428183
              ],
              [
                1435.0195119769912,
                735.6701019365763
              ],
              [
                1435.0614663804424,
                735.6671947677088
              ],
              [
                1435.093264489391,
                735.6669654259863
              ],
              [
                1435.102063465574,
                735.6660106348974
              ],
              [
                1435.1198053839314,
                735.6656227145003
              ],
              [
                1435.1419958403699,
                735.6629461954652
              ],
              [
                1435.1749161165967,
                735.6613289260007
              ],
              [
                1435.2001619345606,
                735.6575840626618
              ],
              [
                1435.2127294606278,
                735.6567132143713
              ],
              [
                1435.2133688541562,
                735.656606049005
              ],
              [
                1435.2135839528153,
                735.6565911440588
              ],
              [
                1435.2589661907573,
                735.648984867271
              ],
              [
                1435.293754823908,
                735.6452098966108
              ],
              [
                1435.2999687037018,
                735.6438921765948
              ],
              [
                1435.3146637832594,
                735.642119718229
              ],
              [
                1435.3353761636506,
                735.6375269264604
              ],
              [
                1435.3690624799697,
                735.6325300334627
              ],
              [
                1435.3724265206372,
                735.631687385142
              ],
              [
                1435.3728956280738,
                735.6316170742936
              ],
              [
                1435.3905001059027,
                735.627160187709
              ],
              [
                1435.39316682909,
                735.6264922083242
              ],
              [
                1435.404600385104,
                735.6245758904946
              ],
              [
                1435.4548883702366,
                735.6110397957576
              ],
              [
                1435.4910350247426,
                735.6033745090554
              ],
              [
                1435.4947296491202,
                735.6021916650108
              ],
              [
                1435.5062801896509,
                735.5996304322374
              ],
              [
                1435.5254183871684,
                735.5933649175606
              ],
              [
                1435.5594511904465,
                735.5848401441207
              ],
              [
                1435.563779711745,
                735.5832913744352
              ],
              [
                1435.5651162081617,
                735.5829530166034
              ],
              [
                1435.5822119943439,
                735.5767678989292
              ],
              [
                1435.59162440182,
                735.574234346651
              ],
              [
                1435.640890569456,
                735.5557006683708
              ],
              [
                1435.6454708179415,
                735.5540618292576
              ],
              [
                1435.6635012395127,
                735.5481589812554
              ],
              [
                1435.6830992613684,
                735.5418846212478
              ],
              [
                1435.684409994565,
                735.5413138166815
              ],
              [
                1435.6928092323637,
                735.5385640515767
              ],
              [
                1435.7103172993764,
                735.5308593871931
              ],
              [
                1435.7442487006676,
                735.5187185376789
              ],
              [
                1435.749413751344,
                735.5162756506433
              ],
              [
                1435.751573352701,
                735.5154943242756
              ],
              [
                1435.7655661485142,
                735.5087983582758
              ],
              [
                1435.7729020798645,
                735.5060386187212
              ],
              [
                1435.8203624180553,
                735.4827194303924
              ],
              [
                1435.8290825830557,
                735.4785950995073
              ],
              [
                1435.87245453475,
                735.4595086788748
              ],
              [
                1435.8725766050625,
                735.4594476437186
              ],
              [
                1435.8883970496154,
                735.4505414461238
              ],
              [
                1435.9216753095895,
                735.434802001353
              ],
              [
                1435.9275214137315,
                735.4312979813784
              ],
              [
                1435.9304343305105,
                735.4299040646821
              ],
              [
                1435.941398222501,
                735.4232496325362
              ],
              [
                1435.9467333856678,
                735.4206282505698
              ],
              [
                1435.9920503993987,
                735.3926207958154
              ],
              [
                1436.0038980847341,
                735.3855195665079
              ],
              [
                1436.0436080846555,
                735.3631646254307
              ],
              [
                1436.0579426776476,
                735.3531264841254
              ],
              [
                1436.0900223019767,
                735.3338986972614
              ],
              [
                1436.0963697642817,
                735.3291910983754
              ],
              [
                1436.0999410749214,
                735.3270235246393
              ],
              [
                1436.108032424354,
                735.3209399623091
              ],
              [
                1436.111488118212,
                735.3188042260501
              ],
              [
                1436.1543389135945,
                735.2861982471206
              ],
              [
                1436.1682484706882,
                735.2758822165036
              ],
              [
                1436.204378614812,
                735.2505812196569
              ],
              [
                1436.2172341959347,
                735.2395519266151
              ],
              [
                1436.2476684042647,
                735.2169803793818
              ],
              [
                1436.254317054683,
                735.2109543938973
              ],
              [
                1436.2584274642272,
                735.2078639412017
              ],
              [
                1436.263880330753,
                735.2028461154299
              ],
              [
                1436.2656211971587,
                735.2015214573264
              ],
              [
                1436.305694921227,
                735.1643882100047
              ],
              [
                1436.320777045084,
                735.1507185697442
              ],
              [
                1436.3533398874401,
                735.1227816661386
              ],
              [
                1436.3595721693032,
                735.1162707592279
              ],
              [
                1436.3613476778528,
                735.1147342958247
              ],
              [
                1436.3664891346552,
                735.1092875467716
              ],
              [
                1436.3930953983106,
                735.0851730350294
              ],
              [
                1436.3998286920958,
                735.0777439901607
              ],
              [
                1436.4043356983875,
                735.0735965619746
              ],
              [
                1436.4074557377821,
                735.0700942641178
              ],
              [
                1436.4076871527113,
                735.0698798296473
              ],
              [
                1436.4250698388105,
                735.0503221329112
              ],
              [
                1436.447348034929,
                735.0253144747857
              ],
              [
                1436.4600350636895,
                735.0113164956514
              ],
              [
                1436.4890573240539,
                734.9809967444389
              ],
              [
                1436.4962933309203,
                734.9717757655277
              ],
              [
                1436.4997787952552,
                734.9680833393738
              ],
              [
                1436.502917563809,
                734.9640029478352
              ],
              [
                1436.524902742663,
                734.9397460409836
              ],
              [
                1436.5314921260979,
                734.9308612859355
              ],
              [
                1436.53623161101,
                734.9255411326457
              ],
              [
                1436.5753655435744,
                734.8717048305169
              ],
              [
                1436.5847172871158,
                734.8590954640324
              ],
              [
                1436.6102238915482,
                734.8265919208613
              ],
              [
                1436.617957817542,
                734.8144508958436
              ],
              [
                1436.6227376275442,
                734.8082371543854
              ],
              [
                1436.6242692919504,
                734.8057657590474
              ],
              [
                1436.6418210605425,
                734.7820999386954
              ],
              [
                1436.6476509392778,
                734.772373373645
              ],
              [
                1436.6504141401203,
                734.7685812522424
              ],
              [
                1436.6507900614704,
                734.7679438009641
              ],
              [
                1436.6528187661104,
                734.7651529248939
              ],
              [
                1436.6871854884873,
                734.7064139631506
              ],
              [
                1436.693673171744,
                734.6955899175591
              ],
              [
                1436.715672689642,
                734.661054198263
              ],
              [
                1436.7227803410378,
                734.6470275394324
              ],
              [
                1436.7266605920897,
                734.64055373166
              ],
              [
                1436.7289740007125,
                734.6368209640497
              ],
              [
                1436.729307056347,
                734.6361383727956
              ],
              [
                1436.7427243646341,
                734.6137529463083
              ],
              [
                1436.7467913051153,
                734.6051541231222
              ],
              [
                1436.7487988628839,
                734.6017498996978
              ],
              [
                1436.7502718561248,
                734.5985879186844
              ],
              [
                1436.7529512010876,
                734.5940084321813
              ],
              [
                1436.7818333741216,
                734.5310638931672
              ],
              [
                1436.785916020345,
                734.522431862979
              ],
              [
                1436.8043881887647,
                734.4859777954047
              ],
              [
                1436.8100755783075,
                734.4713507694305
              ],
              [
                1436.82664090096,
                734.4363263373864
              ],
              [
                1436.8292250677334,
                734.4291040750817
              ],
              [
                1436.8305851914386,
                734.4261843839305
              ],
              [
                1436.8326708001227,
                734.4202710404091
              ],
              [
                1436.835644690659,
                734.4137898740282
              ],
              [
                1436.8584678682962,
                734.3473759225657
              ],
              [
                1436.8606300785607,
                734.3413329497017
              ],
              [
                1436.8755160101634,
                734.3030487937524
              ],
              [
                1436.879763954927,
                734.2878573476455
              ],
              [
                1436.8927625074018,
                734.2515288271652
              ],
              [
                1436.8941768721356,
                734.2458823666364
              ],
              [
                1436.8950061284047,
                734.2435311694899
              ],
              [
                1436.897184853444,
                734.23471203267
              ],
              [
                1436.9000864210425,
                734.2262686610804
              ],
              [
                1436.9164023155524,
                734.1571534228231
              ],
              [
                1436.917175601272,
                734.1540662931814
              ],
              [
                1436.9283711540359,
                734.1140288995913
              ],
              [
                1436.9311427465727,
                734.0983063235209
              ],
              [
                1436.940452396744,
                734.0611401166885
              ],
              [
                1436.9410346284062,
                734.0572150296487
              ],
              [
                1436.9414575301469,
                734.0555031898133
              ],
              [
                1436.943184719806,
                734.0437013378049
              ],
              [
                1436.945642979296,
                734.0332879834975
              ],
              [
                1436.9551032631048,
                733.9623840914951
              ],
              [
                1436.9624445964525,
                733.9207384778309
              ],
              [
                1436.9636845884,
                733.9045214023658
              ],
              [
                1436.9692512892818,
                733.8669937533153
              ],
              [
                1436.9693551723526,
                733.8648791648328
              ],
              [
                1436.9695037724712,
                733.8638637832274
              ],
              [
                1436.9702202722028,
                733.8490836026149
              ],
              [
                1436.9718665792807,
                733.8367446938026
              ],
              [
                1436.9742018428292,
                733.7669728407603
              ],
              [
                1436.9774081915366,
                733.7250390208961
              ],
              [
                1436.9770438050796,
                733.7083734502797
              ],
              [
                1436.9788818359375,
                733.6709594726562
              ],
              [
                1436.978868432674,
                733.6706866429612
              ],
              [
                1436.9788818359375,
                733.67041015625
              ],
              [
                1436.9788550376986,
                733.6698643258906
              ],
              [
                1436.9788818359375,
                733.6693115234375
              ],
              [
                1436.9788803369383,
                733.6692810011093
              ],
              [
                1436.9788818359375,
                733.6692504882812
              ],
              [
                1436.9788818359375,
                733.669189453125
              ],
              [
                1436.978044872975,
                733.652152680637
              ],
              [
                1436.978499463057,
                733.6385706622721
              ],
              [
                1436.974076242497,
                733.5713693514255
              ],
              [
                1436.9740258209386,
                733.5703429970263
              ],
              [
                1436.973117831688,
                733.5288152215373
              ],
              [
                1436.9712076912074,
                733.5129786485218
              ],
              [
                1436.9692512892818,
                733.4731551724659
              ],
              [
                1436.9683844421907,
                733.4673113640586
              ],
              [
                1436.9682754655207,
                733.4651972304689
              ],
              [
                1436.9662191880373,
                733.4519983293676
              ],
              [
                1436.9654764344482,
                733.4407137881278
              ],
              [
                1436.9559299912687,
                733.3833502759326
              ],
              [
                1436.9540168020837,
                733.3704526020997
              ],
              [
                1436.9496148354165,
                733.3339568222093
              ],
              [
                1436.9465588024127,
                733.3201748522766
              ],
              [
                1436.940452396744,
                733.2790088090927
              ],
              [
                1436.9373217734324,
                733.2665106602503
              ],
              [
                1436.9365688493635,
                733.2616777666349
              ],
              [
                1436.934158603337,
                733.252528434366
              ],
              [
                1436.9329254998695,
                733.2451188531772
              ],
              [
                1436.9198659456608,
                733.1968230894558
              ],
              [
                1436.9141205638198,
                733.173886239423
              ],
              [
                1436.9071255494248,
                733.1423404158179
              ],
              [
                1436.9032648459258,
                733.1305477842573
              ],
              [
                1436.8927625074018,
                733.088620098616
              ],
              [
                1436.8860025437086,
                733.0697272657444
              ],
              [
                1436.8840982795816,
                733.0624986488182
              ],
              [
                1436.8821377086645,
                733.0572996424428
              ],
              [
                1436.881166610122,
                733.0537084060946
              ],
              [
                1436.8659254998315,
                733.0136156870828
              ],
              [
                1436.8548442818676,
                732.9826457575823
              ],
              [
                1436.8460591687642,
                732.9558113731049
              ],
              [
                1436.8416916814097,
                732.9458867018312
              ],
              [
                1436.8366846405281,
                732.9318929600231
              ],
              [
                1436.8362417538715,
                732.9306060626953
              ]
            ]
          ]
        ]
      }
    }
  ]
}