{
  "type": "FeatureCollection",
  "features": [
    {
      "type": "Feature",
      "properties": {
        "image_id": "0010_top_20250623_t1",
        "zone_type": "parking_spot",
        "generated_at": "2025-11-03T11:20:40",
        "source": "merged_t1_polygons"
      },
      "geometry": {
        "type": "MultiPolygon",
        "coordinates": [
          [
            [
              [
                1443.1935387689366,
                644.5020169237259
              ],
              [
                1443.1951701037694,
                644.5127400452881
              ],
              [
                1443.1986341680672,
                644.5262150524946
              ],
              [
                1443.200741492318,
                644.538877728854
              ],
              [
                1443.2070040704223,
                644.5620374774626
              ],
              [
                1443.212435078371,
                644.5898940902658
              ],
              [
                1443.2261191654427,
                644.6359483475
              ],
              [
                1443.235446948044,
                644.6746082226715
              ],
              [
                1443.2380329467344,
                644.6821223682317
              ],
              [
                1443.2392712153453,
                644.6871346851149
              ],
              [
                1443.2409965166464,
                644.6920264461384
              ],
              [
                1443.2416369066607,
                644.694583026384
              ],
              [
                1443.2426320771292,
                644.6973643415204
              ],
              [
                1443.2452681307554,
                644.7076184357163
              ],
              [
                1443.2494365148268,
                644.7189576354087
              ],
              [
                1443.2525003820656,
                644.7302881759366
              ],
              [
                1443.2600557326227,
                644.7501630105876
              ],
              [
                1443.267255818828,
                644.7743951439027
              ],
              [
                1443.2840361404124,
                644.815794011147
              ],
              [
                1443.2970590273785,
                644.8536346599609
              ],
              [
                1443.3012542915196,
                644.8628758127257
              ],
              [
                1443.3036921523114,
                644.8697878995555
              ],
              [
                1443.3064260998885,
                644.8756566911363
              ],
              [
                1443.3077585131025,
                644.8793805366051
              ],
              [
                1443.310680047733,
                644.8855576025928
              ],
              [
                1443.314694002342,
                644.896476709875
              ],
              [
                1443.319182283049,
                644.905699197072
              ],
              [
                1443.3229584766668,
                644.9156327167934
              ],
              [
                1443.3312271935654,
                644.9322194404692
              ],
              [
                1443.3395578897712,
                644.9527721685293
              ],
              [
                1443.3587115636735,
                644.9894402938987
              ],
              [
                1443.3753237337296,
                645.0260328888041
              ],
              [
                1443.3814640535263,
                645.0367358991821
              ],
              [
                1443.3854784808661,
                645.0453534153228
              ],
              [
                1443.3894147932656,
                645.0520282353885
              ],
              [
                1443.3916750494284,
                645.056807145527
              ],
              [
                1443.3972401741732,
                645.0660919952302
              ],
              [
                1443.4027450002823,
                645.0774032726719
              ],
              [
                1443.4071837234035,
                645.0845852775486
              ],
              [
                1443.411423226918,
                645.0930895562876
              ],
              [
                1443.4198401548565,
                645.1064659285929
              ],
              [
                1443.4286716664315,
                645.1233731274561
              ],
              [
                1443.4495031028703,
                645.1553327598233
              ],
              [
                1443.4695396878826,
                645.1902579403388
              ],
              [
                1443.4779223555238,
                645.2021108488999
              ],
              [
                1443.4838632036297,
                645.2121847678674
              ],
              [
                1443.489169960526,
                645.2194675777505
              ],
              [
                1443.49257835352,
                645.2251541379142
              ],
              [
                1443.501467988698,
                645.2371404233998
              ],
              [
                1443.5085298855963,
                645.2485668126061
              ],
              [
                1443.5125724063503,
                645.253838120651
              ],
              [
                1443.5170250919575,
                645.260914429356
              ],
              [
                1443.5250494368922,
                645.271236099909
              ],
              [
                1443.533771822627,
                645.2846180019328
              ],
              [
                1443.555624971685,
                645.3119806473621
              ],
              [
                1443.5788625614678,
                645.3448380906802
              ],
              [
                1443.589740686672,
                645.3574873688684
              ],
              [
                1443.5979236624275,
                645.3687174021769
              ],
              [
                1443.604740105346,
                645.376386753315
              ],
              [
                1443.6094966713995,
                645.3828002402023
              ],
              [
                1443.6223369181141,
                645.3969672692984
              ],
              [
                1443.6309779195599,
                645.4082348380283
              ],
              [
                1443.634307531946,
                645.411774183896
              ],
              [
                1443.6387260861866,
                645.417457745802
              ],
              [
                1443.645851044466,
                645.424954023942
              ],
              [
                1443.6538849745127,
                645.4350134244743
              ],
              [
                1443.6761538085748,
                645.4579700896962
              ],
              [
                1443.7023126435172,
                645.4883880499644
              ],
              [
                1443.7158901620348,
                645.5014444738844
              ],
              [
                1443.7265901910387,
                645.5134833452723
              ],
              [
                1443.7350240267574,
                645.5212983341434
              ],
              [
                1443.741304015752,
                645.5282272342481
              ],
              [
                1443.7586480160892,
                645.5439469198532
              ],
              [
                1443.7688497015597,
                645.5547912131606
              ],
              [
                1443.771185927879,
                645.5568207815886
              ],
              [
                1443.7753299818748,
                645.5611808045054
              ],
              [
                1443.7810917639915,
                645.5661493282167
              ],
              [
                1443.7878986955623,
                645.5731665096653
              ],
              [
                1443.810035785577,
                645.5919768616375
              ],
              [
                1443.8387836202705,
                645.6196213768006
              ],
              [
                1443.855211060785,
                645.6326664428768
              ],
              [
                1443.8686561465913,
                645.6451249729514
              ],
              [
                1443.8787813800486,
                645.6528294541824
              ],
              [
                1443.8867310097978,
                645.6600345786005
              ],
              [
                1443.9090416512533,
                645.6765812780236
              ],
              [
                1443.920749714121,
                645.6867525163808
              ],
              [
                1443.921853650531,
                645.687531698597
              ],
              [
                1443.9254940671642,
                645.6906709176782
              ],
              [
                1443.9294801989172,
                645.693471297201
              ],
              [
                1443.934571819294,
                645.697797754352
              ],
              [
                1443.9560949213187,
                645.71277853493
              ],
              [
                1443.987052489548,
                645.7373620068809
              ],
              [
                1444.0064235522968,
                645.7499547920368
              ],
              [
                1444.022789225538,
                645.7624077416751
              ],
              [
                1444.0346445390614,
                645.76973472838
              ],
              [
                1444.0443771120858,
                645.7769528964801
              ],
              [
                1444.0711624156033,
                645.7930073895702
              ],
              [
                1444.0877423438994,
                645.8046552965056
              ],
              [
                1444.089599135753,
                645.8057018198898
              ],
              [
                1444.0925459343184,
                645.8077528877456
              ],
              [
                1444.1130425603212,
                645.8192659227159
              ],
              [
                1444.145790520841,
                645.8405547924318
              ],
              [
                1444.16813950865,
                645.8522391569128
              ],
              [
                1444.1875439580822,
                645.8642317661948
              ],
              [
                1444.201131644089,
                645.8709079472129
              ],
              [
                1444.212724104473,
                645.8778562005717
              ],
              [
                1444.2420095461198,
                645.8917071829171
              ],
              [
                1444.26035796525,
                645.9020135616873
              ],
              [
                1444.2676126549763,
                645.9051581795411
              ],
              [
                1444.2766648170275,
                645.9091490822866
              ],
              [
                1444.2773833857339,
                645.9095474443606
              ],
              [
                1444.2794727527837,
                645.9104457394405
              ],
              [
                1444.313575162901,
                645.9282749580566
              ],
              [
                1444.3388752924482,
                645.9385869861668
              ],
              [
                1444.3613752638855,
                645.9496421343462
              ],
              [
                1444.3766607090422,
                645.9553924400122
              ],
              [
                1444.3901507133949,
                645.9617727368976
              ],
              [
                1444.4195974295387,
                645.9723089404079
              ],
              [
                1444.4299647520672,
                645.9769049555247
              ],
              [
                1444.4315854172446,
                645.9774502290443
              ],
              [
                1444.4378262875227,
                645.9802016939635
              ],
              [
                1444.4499767739187,
                645.984205731668
              ],
              [
                1444.4610147310925,
                645.988990244653
              ],
              [
                1444.4673072741666,
                645.99093431519
              ],
              [
                1444.4889027921165,
                645.9997363882284
              ],
              [
                1444.5170654003523,
                646.0082119610472
              ],
              [
                1444.5221203183492,
                646.0101135951377
              ],
              [
                1444.5234950743754,
                646.0106485920337
              ],
              [
                1444.523683469061,
                646.0107016443769
              ],
              [
                1444.54265294193,
                646.017837862276
              ],
              [
                1444.5595646523539,
                646.0223900135276
              ],
              [
                1444.574948223616,
                646.0278943433394
              ],
              [
                1444.6006525602124,
                646.0343329444772
              ],
              [
                1444.6056786124805,
                646.0360239619978
              ],
              [
                1444.6111207952704,
                646.0373086870821
              ],
              [
                1444.6217764445105,
                646.0408201202819
              ],
              [
                1444.636224177425,
                646.0440729467782
              ],
              [
                1444.6502609755858,
                646.0482973390632
              ],
              [
                1444.6522701498207,
                646.048931833176
              ],
              [
                1444.6525934492524,
                646.048999299984
              ],
              [
                1444.6702021874273,
                646.0542986721657
              ],
              [
                1444.6704463280523,
                646.054359707322
              ],
              [
                1444.6947678712352,
                646.0588793750901
              ],
              [
                1444.7094495388187,
                646.0630137638378
              ],
              [
                1444.7125700619433,
                646.0635747162754
              ],
              [
                1444.729676958646,
                646.0681794061196
              ],
              [
                1444.7481071082616,
                646.0712683859844
              ],
              [
                1444.7653369340928,
                646.0755842326814
              ],
              [
                1444.794361490841,
                646.0798896189697
              ],
              [
                1444.8089425946396,
                646.0832030446045
              ],
              [
                1444.8284962944422,
                646.0857070771049
              ],
              [
                1444.8482787981125,
                646.0898353317378
              ],
              [
                1444.860854680005,
                646.0911679502892
              ],
              [
                1444.8681873733794,
                646.0926127284043
              ],
              [
                1444.8805835921896,
                646.0937772161707
              ],
              [
                1444.899588728034,
                646.0971936232452
              ],
              [
                1444.9020061719057,
                646.0973904292946
              ],
              [
                1444.9111510507337,
                646.099089820397
              ],
              [
                1444.9158037253878,
                646.0993751287123
              ],
              [
                1444.9206933909347,
                646.1001946596838
              ],
              [
                1444.940498868614,
                646.1015670512179
              ],
              [
                1444.9594832974658,
                646.1043831252194
              ],
              [
                1444.983579205058,
                646.1055668812518
              ],
              [
                1444.9994736545307,
                646.1076023128303
              ],
              [
                1445.022848851873,
                646.1083338588503
              ],
              [
                1445.047395079145,
                646.1109349295432
              ],
              [
                1445.058276325004,
                646.110993850283
              ],
              [
                1445.0612273491167,
                646.1112831353872
              ],
              [
                1445.0669100863456,
                646.1112805311992
              ],
              [
                1445.068970654555,
                646.1114740988111
              ],
              [
                1445.0745104740167,
                646.1114341432357
              ],
              [
                1445.0921385875763,
                646.112869262135
              ],
              [
                1445.101520099336,
                646.1127247812881
              ],
              [
                1445.1139108745713,
                646.1135833818888
              ],
              [
                1445.1301877028905,
                646.1131324743498
              ],
              [
                1445.1413953061522,
                646.1137578727547
              ],
              [
                1445.1463816028856,
                646.113564850192
              ],
              [
                1445.1505124422952,
                646.113767785319
              ],
              [
                1445.155517578125,
                646.1140747070312
              ],
              [
                1445.15576171875,
                646.1140747070312
              ],
              [
                1445.1575621026955,
                646.1139877224882
              ],
              [
                1445.1580810546875,
                646.114013671875
              ],
              [
                1445.158203125,
                646.114013671875
              ],
              [
                1445.176882662864,
                646.1131544736123
              ],
              [
                1445.1914666389337,
                646.1136108911344
              ],
              [
                1445.2107106202925,
                646.11236223264
              ],
              [
                1445.2132592357398,
                646.1124179571617
              ],
              [
                1445.2204027747962,
                646.1118717470313
              ],
              [
                1445.247623226221,
                646.1120191427574
              ],
              [
                1445.2563092381695,
                646.1111937365819
              ],
              [
                1445.2574980258175,
                646.1111931918045
              ],
              [
                1445.2679172507671,
                646.1101621664371
              ],
              [
                1445.2853025707404,
                646.1098944221953
              ],
              [
                1445.29779097881,
                646.1084894579591
              ],
              [
                1445.307517403731,
                646.1082200124481
              ],
              [
                1445.317837733065,
                646.1069276796807
              ],
              [
                1445.330053310545,
                646.1064548072874
              ],
              [
                1445.3339850934092,
                646.1059282704608
              ],
              [
                1445.341801734152,
                646.1055687302947
              ],
              [
                1445.3471349866797,
                646.1048286146638
              ],
              [
                1445.3485694126266,
                646.1047593111767
              ],
              [
                1445.3497768757964,
                646.104583200353
              ],
              [
                1445.3550918978467,
                646.1043220900632
              ],
              [
                1445.371007143158,
                646.1019612864329
              ],
              [
                1445.3831505369274,
                646.1011733542738
              ],
              [
                1445.4034923759318,
                646.0978723282366
              ],
              [
                1445.4089586926748,
                646.0974543620775
              ],
              [
                1445.4183915109177,
                646.0957915347822
              ],
              [
                1445.4469563282748,
                646.0930771041795
              ],
              [
                1445.463079955955,
                646.0898942054467
              ],
              [
                1445.4772784008662,
                646.0882968595562
              ],
              [
                1445.491885488217,
                646.0852039040452
              ],
              [
                1445.496182337947,
                646.0846856361977
              ],
              [
                1445.497121352491,
                646.0844774178188
              ],
              [
                1445.4996973240964,
                646.0841548493808
              ],
              [
                1445.5042841933548,
                646.0831221413464
              ],
              [
                1445.5171820829598,
                646.0813948806872
              ],
              [
                1445.5189530778566,
                646.0809847681007
              ],
              [
                1445.523849863776,
                646.0803052225924
              ],
              [
                1445.5340623558322,
                646.0779159546564
              ],
              [
                1445.5431210655736,
                646.076594724432
              ],
              [
                1445.5447984182128,
                646.0761817860221
              ],
              [
                1445.5492382612197,
                646.0755231975252
              ],
              [
                1445.564000542884,
                646.0718254384656
              ],
              [
                1445.5727571887123,
                646.0704044304697
              ],
              [
                1445.583157022117,
                646.0676717239157
              ],
              [
                1445.5841658147915,
                646.0675080194009
              ],
              [
                1445.5842086901312,
                646.0674962397845
              ],
              [
                1445.585264447604,
                646.0673249139321
              ],
              [
                1445.5949122142897,
                646.0646742762708
              ],
              [
                1445.6022491144352,
                646.0633809196609
              ],
              [
                1445.613919083587,
                646.0601176763856
              ],
              [
                1445.6433964453852,
                646.0542986721657
              ],
              [
                1445.6436405860102,
                646.0542376370095
              ],
              [
                1445.6567211192335,
                646.0503010338754
              ],
              [
                1445.6662748871108,
                646.0482780858162
              ],
              [
                1445.6802894362713,
                646.0438614745244
              ],
              [
                1445.6877987443384,
                646.0421963502062
              ],
              [
                1445.690451694763,
                646.041327820147
              ],
              [
                1445.7028101280516,
                646.0384364976145
              ],
              [
                1445.716060617218,
                646.0340196678923
              ],
              [
                1445.7305572506698,
                646.0304508198008
              ],
              [
                1445.7339819824585,
                646.0292473043777
              ],
              [
                1445.7396269716965,
                646.0278333081832
              ],
              [
                1445.75305614093,
                646.0230282745988
              ],
              [
                1445.7585375957403,
                646.0215879431144
              ],
              [
                1445.7784697233776,
                646.0142434913605
              ],
              [
                1445.7920014304711,
                646.0105257757886
              ],
              [
                1445.7923676414086,
                646.010403705476
              ],
              [
                1445.8028539553898,
                646.0063221707068
              ],
              [
                1445.824939981321,
                645.9996753530721
              ],
              [
                1445.8323855857914,
                645.9966406143585
              ],
              [
                1445.833089851124,
                645.9964266253196
              ],
              [
                1445.8403122808495,
                645.9934311185987
              ],
              [
                1445.850528636784,
                645.9902114878803
              ],
              [
                1445.861588303665,
                645.9855104390767
              ],
              [
                1445.8771712180023,
                645.9803161342976
              ],
              [
                1445.8795274483011,
                645.9792817196317
              ],
              [
                1445.8802101811193,
                645.9790539561956
              ],
              [
                1445.893348584106,
                645.9732428710878
              ],
              [
                1445.9126719647159,
                645.9664522702398
              ],
              [
                1445.9177108596089,
                645.9641138742143
              ],
              [
                1445.9244244819176,
                645.9617117017414
              ],
              [
                1445.9244973866832,
                645.9616772203552
              ],
              [
                1445.9249127631676,
                645.9615285962726
              ],
              [
                1445.9368315782983,
                645.9558914165455
              ],
              [
                1445.9387780540924,
                645.9551741926837
              ],
              [
                1445.957724016434,
                645.9460428828647
              ],
              [
                1445.9765573121022,
                645.9387124947771
              ],
              [
                1445.9848662547313,
                645.9344913300457
              ],
              [
                1446.0002676105364,
                645.9282139229003
              ],
              [
                1446.0106722883265,
                645.9227742113283
              ],
              [
                1446.0143858922409,
                645.9212339920521
              ],
              [
                1446.0204934727037,
                645.917965822876
              ],
              [
                1446.02832050832,
                645.9146388441509
              ],
              [
                1446.0320671431787,
                645.9125990744628
              ],
              [
                1446.0334884946571,
                645.9119914534488
              ],
              [
                1446.0362648254345,
                645.9104720444092
              ],
              [
                1446.0454606644098,
                645.9064349557144
              ],
              [
                1446.0496912688754,
                645.90409286495
              ],
              [
                1446.052874456625,
                645.9026849484061
              ],
              [
                1446.0539158464487,
                645.9020997874039
              ],
              [
                1446.0539730894375,
                645.9020745968436
              ],
              [
                1446.0609049451164,
                645.8981725856124
              ],
              [
                1446.0661247614414,
                645.8952395504676
              ],
              [
                1446.0877687370596,
                645.8851952475723
              ],
              [
                1446.0938180748956,
                645.8816423333644
              ],
              [
                1446.1023393720895,
                645.8776120599467
              ],
              [
                1446.132992939346,
                645.8592390187981
              ],
              [
                1446.1527713267553,
                645.849191069847
              ],
              [
                1446.1588441572499,
                645.8453078787528
              ],
              [
                1446.1680522525965,
                645.8404937572756
              ],
              [
                1446.1809821806037,
                645.8320882398507
              ],
              [
                1446.1874387764801,
                645.8286333123626
              ],
              [
                1446.1924443908017,
                645.8252853487639
              ],
              [
                1446.1979916513721,
                645.8222652695757
              ],
              [
                1446.2001982458537,
                645.8207712016716
              ],
              [
                1446.2026268866716,
                645.8194266899651
              ],
              [
                1446.2031904026846,
                645.8191182932384
              ],
              [
                1446.2032185349171,
                645.8190991495621
              ],
              [
                1446.2062572727302,
                645.8174168841022
              ],
              [
                1446.2139989374443,
                645.8121484744189
              ],
              [
                1446.2214392333594,
                645.807967743135
              ],
              [
                1446.2226450551755,
                645.8071274520689
              ],
              [
                1446.225126639343,
                645.8057305433995
              ],
              [
                1446.2358279767504,
                645.7982366761436
              ],
              [
                1446.2542164719537,
                645.7874366931304
              ],
              [
                1446.2610085552185,
                645.7825094114929
              ],
              [
                1446.2706863644767,
                645.7767087558551
              ],
              [
                1446.299223577759,
                645.7555441160353
              ],
              [
                1446.30573541433,
                645.751380208315
              ],
              [
                1446.3102108060064,
                645.7485440940034
              ],
              [
                1446.3103937744295,
                645.7484014815963
              ],
              [
                1446.3192887147854,
                645.7427137296978
              ],
              [
                1446.3231578706343,
                645.7396623393126
              ],
              [
                1446.3267902838895,
                645.7373009717246
              ],
              [
                1446.3417332163406,
                645.7254347567152
              ],
              [
                1446.3505819099657,
                645.7195163814173
              ],
              [
                1446.3528262381103,
                645.7176727870656
              ],
              [
                1446.358203125,
                645.714013671875
              ],
              [
                1446.358447265625,
                645.7138305664063
              ],
              [
                1446.3608553844829,
                645.7118289990826
              ],
              [
                1446.36312564641,
                645.7102841106938
              ],
              [
                1446.370880265004,
                645.703828008612
              ],
              [
                1446.3799619794904,
                645.697499309424
              ],
              [
                1446.3812589808724,
                645.6963951400534
              ],
              [
                1446.3858971694995,
                645.6931471376256
              ],
              [
                1446.3952374515818,
                645.6851337536177
              ],
              [
                1446.4104646428589,
                645.6740872665471
              ],
              [
                1446.417783968326,
                645.6676137376049
              ],
              [
                1446.4283324667647,
                645.6597904379755
              ],
              [
                1446.4544451294585,
                645.6361233000674
              ],
              [
                1446.4545333670162,
                645.6360537119593
              ],
              [
                1446.4635337538052,
                645.6290384751082
              ],
              [
                1446.464050102681,
                645.6285483860328
              ],
              [
                1446.474483206416,
                645.6203203710165
              ],
              [
                1446.4927022224986,
                645.6027722207738
              ],
              [
                1446.502244135139,
                645.5949340549105
              ],
              [
                1446.5050531128131,
                645.5921225015552
              ],
              [
                1446.5117978652365,
                645.5865071628207
              ],
              [
                1446.5195655523362,
                645.5786513333885
              ],
              [
                1446.5270852433773,
                645.5722496343313
              ],
              [
                1446.528412539602,
                645.5708777695728
              ],
              [
                1446.5348584421276,
                645.5653475841074
              ],
              [
                1446.5428427346146,
                645.5570063398771
              ],
              [
                1446.5550577362112,
                645.5462028626006
              ],
              [
                1446.5626647451747,
                645.5380387577308
              ],
              [
                1446.5737594608106,
                645.5279830936231
              ],
              [
                1446.5968782527536,
                645.5024754374696
              ],
              [
                1446.60453051359,
                645.4952123453744
              ],
              [
                1446.6053221115578,
                645.4942992535961
              ],
              [
                1446.606914561148,
                645.4927654416418
              ],
              [
                1446.6115301299203,
                645.4883270148082
              ],
              [
                1446.6115661253896,
                645.488285158634
              ],
              [
                1446.616839115421,
                645.483206332155
              ],
              [
                1446.6339545128633,
                645.4631029058644
              ],
              [
                1446.640964861865,
                645.45608612875
              ],
              [
                1446.6419810150555,
                645.4548467847961
              ],
              [
                1446.6478160758834,
                645.4489455117399
              ],
              [
                1446.6512628016474,
                645.4447092392518
              ],
              [
                1446.6521950565566,
                645.4437619695572
              ],
              [
                1446.6561257937365,
                645.4388761038695
              ],
              [
                1446.6614358965317,
                645.4333876961174
              ],
              [
                1446.6627415622684,
                645.4317472256841
              ],
              [
                1446.6705758787414,
                645.4235626624077
              ],
              [
                1446.6772291228099,
                645.4150843090313
              ],
              [
                1446.6866488101086,
                645.4049747751374
              ],
              [
                1446.6942828882172,
                645.3950059833874
              ],
              [
                1446.705566805163,
                645.3825560995773
              ],
              [
                1446.7248450105947,
                645.3565624486201
              ],
              [
                1446.7349802119697,
                645.344777055524
              ],
              [
                1446.7363881242918,
                645.3427862983176
              ],
              [
                1446.7449661418746,
                645.3327107190167
              ],
              [
                1446.7598700398687,
                645.3112231754326
              ],
              [
                1446.7699076864806,
                645.2988861898122
              ],
              [
                1446.7753865176985,
                645.290636256623
              ],
              [
                1446.777414497269,
                645.2881154989772
              ],
              [
                1446.779019114643,
                645.2856532589531
              ],
              [
                1446.7817600195908,
                645.282209518798
              ],
              [
                1446.783000361671,
                645.280298040726
              ],
              [
                1446.7917424462357,
                645.2691578388301
              ],
              [
                1446.7971106112366,
                645.2607306796319
              ],
              [
                1446.8040120416067,
                645.2517185996979
              ],
              [
                1446.811394748521,
                645.2398636362734
              ],
              [
                1446.8224851230425,
                645.2249099972892
              ],
              [
                1446.8227164918883,
                645.2245239816908
              ],
              [
                1446.8229734042925,
                645.2241775754142
              ],
              [
                1446.8379916865413,
                645.1991210852411
              ],
              [
                1446.8443030855549,
                645.1901969051826
              ],
              [
                1446.8466401060618,
                645.1861233136485
              ],
              [
                1446.8576129503263,
                645.1703033268594
              ],
              [
                1446.869527320995,
                645.1488805962108
              ],
              [
                1446.8769304029909,
                645.1377331581111
              ],
              [
                1446.883444633328,
                645.1255044351593
              ],
              [
                1446.886934605378,
                645.1201260761148
              ],
              [
                1446.8880716126623,
                645.1179364771994
              ],
              [
                1446.8971912443294,
                645.1036201162317
              ],
              [
                1446.9013424016555,
                645.095427977321
              ],
              [
                1446.9060541457452,
                645.0878619782237
              ],
              [
                1446.9126562509489,
                645.0745507852982
              ],
              [
                1446.9238767083841,
                645.055830583027
              ],
              [
                1446.9355564171071,
                645.0311359137444
              ],
              [
                1446.938519039708,
                645.0259718536479
              ],
              [
                1446.9388601784763,
                645.0252204074061
              ],
              [
                1446.9391293912704,
                645.0247511505229
              ],
              [
                1446.9404472735052,
                645.0218481745364
              ],
              [
                1446.9408997035812,
                645.0210575788415
              ],
              [
                1446.9420936942286,
                645.0184020412655
              ],
              [
                1446.9536793908019,
                644.9975702857354
              ],
              [
                1446.9627404043981,
                644.9766478603265
              ],
              [
                1446.967882916558,
                644.9669941709071
              ],
              [
                1446.9735227407357,
                644.9533784308877
              ],
              [
                1446.9759780401346,
                644.9486501226571
              ],
              [
                1446.976975997133,
                644.9461681753432
              ],
              [
                1446.9859067434522,
                644.9285437133734
              ],
              [
                1446.9889319310983,
                644.9207634307077
              ],
              [
                1446.9918245599304,
                644.914931300007
              ],
              [
                1446.9972289368059,
                644.9007403264989
              ],
              [
                1447.00779324471,
                644.8784039741051
              ],
              [
                1447.016074060514,
                644.8552606443296
              ],
              [
                1447.0173940976215,
                644.8523529216797
              ],
              [
                1447.0194853487878,
                644.8462763657537
              ],
              [
                1447.020617057802,
                644.8437593478708
              ],
              [
                1447.021764036778,
                644.8403587429178
              ],
              [
                1447.0322272432725,
                644.8161985697652
              ],
              [
                1447.0386340400341,
                644.7961858490576
              ],
              [
                1447.0419142717933,
                644.7882666690568
              ],
              [
                1447.0464570376585,
                644.7733668600703
              ],
              [
                1447.0480592651031,
                644.7693820750452
              ],
              [
                1447.0488807276158,
                644.7665850335405
              ],
              [
                1447.057034564851,
                644.7456147117211
              ],
              [
                1447.0590483140406,
                644.7384131674468
              ],
              [
                1447.0605242988015,
                644.7345374827709
              ],
              [
                1447.064618849522,
                644.7195870479719
              ],
              [
                1447.0739148511518,
                644.693606463884
              ],
              [
                1447.0789640861867,
                644.6734487876876
              ],
              [
                1447.079006176956,
                644.6733264843903
              ],
              [
                1447.0793063167432,
                644.6720825267205
              ],
              [
                1447.0815715057329,
                644.6630393853609
              ],
              [
                1447.0827452464455,
                644.659559436239
              ],
              [
                1447.0837264751804,
                644.6553319490218
              ],
              [
                1447.0924893806528,
                644.6279595215312
              ],
              [
                1447.0965001339682,
                644.6092306051446
              ],
              [
                1447.098331828349,
                644.6032228342827
              ],
              [
                1447.101569718248,
                644.5871814803173
              ],
              [
                1447.1025055329496,
                644.5839950749478
              ],
              [
                1447.1031069004434,
                644.5808514103769
              ],
              [
                1447.1098897087234,
                644.55659481756
              ],
              [
                1447.1110301116928,
                644.550125586531
              ],
              [
                1447.1115133970957,
                644.5483609663326
              ],
              [
                1447.1142013401686,
                644.5327737842667
              ],
              [
                1447.121604740494,
                644.5032177534073
              ],
              [
                1447.1261582185282,
                644.4725206979608
              ],
              [
                1447.1266973209165,
                644.4701980504735
              ],
              [
                1447.1273725744984,
                644.4650663267953
              ],
              [
                1447.1338772608456,
                644.4346915524965
              ],
              [
                1447.1358038581598,
                644.4175765915795
              ],
              [
                1447.1366077412881,
                644.4135939441728
              ],
              [
                1447.1383551146707,
                644.3965904328767
              ],
              [
                1447.1388086866398,
                644.3942193733428
              ],
              [
                1447.1391356337326,
                644.3906897378587
              ],
              [
                1447.14396315114,
                644.3633043957997
              ],
              [
                1447.1456697854364,
                644.3409843982924
              ],
              [
                1447.1504036330318,
                644.3090713900341
              ],
              [
                1447.1518958335962,
                644.2786969497585
              ],
              [
                1447.1520580492734,
                644.2774641595084
              ],
              [
                1447.1522632201581,
                644.2713595615602
              ],
              [
                1447.1559866746602,
                644.2382821884061
              ],
              [
                1447.156188096885,
                644.2230595106656
              ],
              [
                1447.1563838996242,
                644.2211541742782
              ],
              [
                1447.1564840585859,
                644.2034006709465
              ],
              [
                1447.1566299021615,
                644.2018261817667
              ],
              [
                1447.156612949164,
                644.1978656366185
              ],
              [
                1447.158926746224,
                644.1676049388649
              ],
              [
                1447.1584421826976,
                644.1454429525608
              ],
              [
                1447.1600341796875,
                644.113037109375
              ],
              [
                1447.1585795057533,
                644.083426541204
              ],
              [
                1447.1585878390829,
                644.0831785936156
              ],
              [
                1447.1584982906818,
                644.0817733704419
              ],
              [
                1447.1581510742158,
                644.0747056169121
              ],
              [
                1447.1586016934666,
                644.0406496350189
              ],
              [
                1447.1553133777168,
                644.0023439999289
              ],
              [
                1447.1546363863754,
                643.9713811395061
              ],
              [
                1447.1520021376168,
                643.9495411370398
              ],
              [
                1447.1504036330318,
                643.9170028287159
              ],
              [
                1447.1446680982428,
                643.8783369939159
              ],
              [
                1447.1416967780337,
                643.8437240442089
              ],
              [
                1447.1347475851908,
                643.8064872715657
              ],
              [
                1447.131133390104,
                643.776522740178
              ],
              [
                1447.126396781017,
                643.7551617784551
              ],
              [
                1447.121604740494,
                643.7228564653427
              ],
              [
                1447.111938730752,
                643.684267591357
              ],
              [
                1447.1054370279548,
                643.6494286633942
              ],
              [
                1447.0950161925828,
                643.6136429120887
              ],
              [
                1447.0886441041123,
                643.5849063337866
              ],
              [
                1447.0818573580243,
                643.5641760197052
              ],
              [
                1447.0739148511518,
                643.532467754866
              ],
              [
                1447.0602863837062,
                643.4943787399794
              ],
              [
                1447.0501765692247,
                643.4596610523996
              ],
              [
                1447.0365161150942,
                643.4256798693241
              ],
              [
                1447.0275777234517,
                643.3983772910736
              ],
              [
                1447.0187975908764,
                643.3784253318636
              ],
              [
                1447.00779324471,
                643.3476702446449
              ],
              [
                1446.9902178037817,
                643.3105100969466
              ],
              [
                1446.9764550957154,
                643.2762745511917
              ],
              [
                1446.959825636118,
                643.2444175562653
              ],
              [
                1446.956941928609,
                643.237864623938
              ],
              [
                1446.954209316593,
                643.2315525197204
              ],
              [
                1446.9539883367283,
                643.2311528864761
              ],
              [
                1446.9485223507497,
                643.2187319886875
              ],
              [
                1446.9378102793319,
                643.1997036962985
              ],
              [
                1446.9238767083841,
                643.170243635723
              ],
              [
                1446.910235836943,
                643.1474852166469
              ],
              [
                1446.9096380632125,
                643.1462600906378
              ],
              [
                1446.9054859193684,
                643.139560457939
              ],
              [
                1446.9052749880696,
                643.1392085403274
              ],
              [
                1446.9046661035495,
                643.1379786526571
              ],
              [
                1446.9022463530646,
                643.134113134324
              ],
              [
                1446.8979622012291,
                643.1259060003226
              ],
              [
                1446.896336752142,
                643.1226982431433
              ],
              [
                1446.8960652802941,
                643.1222720758258
              ],
              [
                1446.884992598328,
                643.1010601794829
              ],
              [
                1446.8661392980564,
                643.0722814147288
              ],
              [
                1446.860800065631,
                643.0626256265012
              ],
              [
                1446.8599194573646,
                643.0613430303711
              ],
              [
                1446.852239332462,
                643.0477005090944
              ],
              [
                1446.8396621489112,
                643.0297401316
              ],
              [
                1446.8229734042925,
                643.0018966433358
              ],
              [
                1446.8059030534293,
                642.9788799396484
              ],
              [
                1446.8034016900442,
                642.9748439003021
              ],
              [
                1446.7961338087846,
                642.9653956722188
              ],
              [
                1446.7908879540482,
                642.9571605205449
              ],
              [
                1446.7898849232413,
                642.9558823396243
              ],
              [
                1446.7766823332981,
                642.9357291449769
              ],
              [
                1446.756489156883,
                642.9106979499214
              ],
              [
                1446.7515406843859,
                642.9034905548548
              ],
              [
                1446.749802567782,
                642.901419511003
              ],
              [
                1446.739655926688,
                642.886929978938
              ],
              [
                1446.7252869752085,
                642.8701817412502
              ],
              [
                1446.706055086413,
                642.8442505410477
              ],
              [
                1446.6854975086758,
                642.8215687493018
              ],
              [
                1446.6804428577552,
                642.8149977153137
              ],
              [
                1446.6738337950676,
                642.8079962160656
              ],
              [
                1446.6697213865539,
                642.8027556969673
              ],
              [
                1446.6687283291885,
                642.8017182432378
              ],
              [
                1446.6627929101812,
                642.7942526800641
              ],
              [
                1446.6613274608746,
                642.7927367671127
              ],
              [
                1446.652582098329,
                642.7818961310876
              ],
              [
                1446.6316694111188,
                642.7606585590421
              ],
              [
                1446.6274489672448,
                642.7556297109678
              ],
              [
                1446.6268925683578,
                642.7550836464368
              ],
              [
                1446.6268386156823,
                642.7550193594053
              ],
              [
                1446.6245990953146,
                642.7528214350962
              ],
              [
                1446.61185637317,
                642.73796870631
              ],
              [
                1446.5961966723817,
                642.722979140257
              ],
              [
                1446.5939880529195,
                642.7204698715071
              ],
              [
                1446.593193624247,
                642.7197271067349
              ],
              [
                1446.5742477420606,
                642.6988235470019
              ],
              [
                1446.5502439032027,
                642.6770677356075
              ],
              [
                1446.5420117403528,
                642.6683467588628
              ],
              [
                1446.5364926100685,
                642.6635706952943
              ],
              [
                1446.5340039499401,
                642.6609707752676
              ],
              [
                1446.533675232533,
                642.6606887560747
              ],
              [
                1446.5283354562534,
                642.6551651013274
              ],
              [
                1446.5249501245912,
                642.6522813565581
              ],
              [
                1446.5139039017508,
                642.6410635273502
              ],
              [
                1446.4929638432548,
                642.6236311296174
              ],
              [
                1446.4890705261128,
                642.6198101255701
              ],
              [
                1446.4848730940764,
                642.6164194969526
              ],
              [
                1446.4700714514702,
                642.602251269696
              ],
              [
                1446.4543583781917,
                642.5899207018432
              ],
              [
                1446.4519901531357,
                642.5877064890317
              ],
              [
                1446.450244937939,
                642.5863671520605
              ],
              [
                1446.4443321346587,
                642.5808882106423
              ],
              [
                1446.4430483860028,
                642.579911382062
              ],
              [
                1446.4288207480147,
                642.5670162026495
              ],
              [
                1446.4015078703092,
                642.5467595919789
              ],
              [
                1446.3895158250552,
                642.5363820927178
              ],
              [
                1446.3859538902675,
                642.53387946756
              ],
              [
                1446.3810692677764,
                642.5297185740453
              ],
              [
                1446.3754445053864,
                642.5257974086944
              ],
              [
                1446.362002125604,
                642.5146067565344
              ],
              [
                1446.3423786607284,
                642.5013144280979
              ],
              [
                1446.338909428405,
                642.4985120293229
              ],
              [
                1446.3324329756997,
                642.4942418093835
              ],
              [
                1446.3156666278926,
                642.4810847022017
              ],
              [
                1446.3003371345822,
                642.4713196974669
              ],
              [
                1446.29985315264,
                642.470951426473
              ],
              [
                1446.297773968873,
                642.4693557907628
              ],
              [
                1446.2976755868044,
                642.4692944755315
              ],
              [
                1446.290199055712,
                642.4636054419186
              ],
              [
                1446.2853299109831,
                642.4605961449801
              ],
              [
                1446.2711746457267,
                642.4500978847699
              ],
              [
                1446.2407813696489,
                642.4318808561497
              ],
              [
                1446.2245056017782,
                642.4204454569752
              ],
              [
                1446.2235577889394,
                642.419913304
              ],
              [
                1446.222372173155,
                642.4190867809915
              ],
              [
                1446.2142315235722,
                642.4145115191283
              ],
              [
                1446.1983602982493,
                642.4037608417624
              ],
              [
                1446.180661670711,
                642.3941720825953
              ],
              [
                1446.1777541326264,
                642.3922550104467
              ],
              [
                1446.1687186973147,
                642.3874777441104
              ],
              [
                1446.1501289052942,
                642.3756359041081
              ],
              [
                1446.1375385699912,
                642.3692560730041
              ],
              [
                1446.1254443231678,
                642.3617814173989
              ],
              [
                1446.1164744428954,
                642.357374151557
              ],
              [
                1446.1028276533395,
                642.3491945806783
              ],
              [
                1446.0724555427726,
                642.3348296422106
              ],
              [
                1446.0537289488125,
                642.3243047976877
              ],
              [
                1446.0534848081875,
                642.3241827273752
              ],
              [
                1446.0514322507554,
                642.3232727928226
              ],
              [
                1446.0486587986547,
                642.3217156280256
              ],
              [
                1446.03981582432,
                642.3178646458855
              ],
              [
                1446.0245766056848,
                642.3096083448208
              ],
              [
                1446.0243252874122,
                642.3095027861044
              ],
              [
                1446.0238441838098,
                642.3092421338833
              ],
              [
                1446.0087875504823,
                642.30291804582
              ],
              [
                1446.0071058641508,
                642.3020288951346
              ],
              [
                1445.9952828944836,
                642.2971716398672
              ],
              [
                1445.9750525024358,
                642.2869204049853
              ],
              [
                1445.9656155245013,
                642.283251048705
              ],
              [
                1445.9516130173645,
                642.2763710492476
              ],
              [
                1445.9381342952177,
                642.2713004234633
              ],
              [
                1445.9254010444176,
                642.2652780443524
              ],
              [
                1445.9250716411536,
                642.2651601819799
              ],
              [
                1445.9245465522301,
                642.2649118334149
              ],
              [
                1445.9238877457021,
                642.26467610867
              ],
              [
                1445.9228375678551,
                642.2641794115399
              ],
              [
                1445.898453632604,
                642.255454699999
              ],
              [
                1445.8840000916828,
                642.2490471929128
              ],
              [
                1445.87693079159,
                642.246668723753
              ],
              [
                1445.8717643104887,
                642.2443949327983
              ],
              [
                1445.8691204263162,
                642.2435293708731
              ],
              [
                1445.8637633238684,
                642.2411964334397
              ],
              [
                1445.8556673065355,
                642.2386044714679
              ],
              [
                1445.841615861203,
                642.2327025825285
              ],
              [
                1445.8286071977393,
                642.2286959160209
              ],
              [
                1445.8285542791514,
                642.2286741753671
              ],
              [
                1445.827653051963,
                642.2284020392566
              ],
              [
                1445.8127397091034,
                642.2238087317645
              ],
              [
                1445.7921235007836,
                642.2157925835864
              ],
              [
                1445.7861242551364,
                642.2141150300505
              ],
              [
                1445.77033533932,
                642.2081753213178
              ],
              [
                1445.7541122476653,
                642.2038085266453
              ],
              [
                1445.738040057634,
                642.1980578050981
              ],
              [
                1445.7161578658634,
                642.1925766013991
              ],
              [
                1445.7082862312695,
                642.1899281864397
              ],
              [
                1445.6992528004762,
                642.1877956827025
              ],
              [
                1445.6895028523645,
                642.1845827117494
              ],
              [
                1445.6881044158579,
                642.1842678615684
              ],
              [
                1445.6852352677759,
                642.1833285521376
              ],
              [
                1445.6780040025872,
                642.1817250814304
              ],
              [
                1445.6716990872426,
                642.1797065456321
              ],
              [
                1445.66480206103,
                642.1782439570735
              ],
              [
                1445.6527226170701,
                642.1745234900417
              ],
              [
                1445.6230005307518,
                642.1685011651206
              ],
              [
                1445.6031036066227,
                642.1629374397141
              ],
              [
                1445.6006936990625,
                642.1625126186302
              ],
              [
                1445.583311322604,
                642.1578337774741
              ],
              [
                1445.5656175810307,
                642.1548682230651
              ],
              [
                1445.5476513471572,
                642.1503679157561
              ],
              [
                1445.528963540395,
                642.1475958414851
              ],
              [
                1445.5278530666412,
                642.147333694192
              ],
              [
                1445.5178177319387,
                642.1459287643063
              ],
              [
                1445.5005518162839,
                642.1420414396817
              ],
              [
                1445.4970794606998,
                642.1416066242067
              ],
              [
                1445.4936188613844,
                642.140839266146
              ],
              [
                1445.4815520092075,
                642.1393838134547
              ],
              [
                1445.474418886408,
                642.1378711580767
              ],
              [
                1445.4688486216448,
                642.1372667196683
              ],
              [
                1445.459009251991,
                642.1352730547405
              ],
              [
                1445.4502582792966,
                642.1343857512924
              ],
              [
                1445.4500320458499,
                642.1343407709516
              ],
              [
                1445.4464635688091,
                642.1339869367052
              ],
              [
                1445.445655400058,
                642.1338277012832
              ],
              [
                1445.4334044351644,
                642.132676858517
              ],
              [
                1445.4329238618461,
                642.1326281308638
              ],
              [
                1445.3922948903153,
                642.12581852391
              ],
              [
                1445.373261594587,
                642.1244996395919
              ],
              [
                1445.3535049837842,
                642.1215690232181
              ],
              [
                1445.326447940427,
                642.1202397959138
              ],
              [
                1445.3083718959185,
                642.1179762766144
              ],
              [
                1445.3027829922123,
                642.117821450455
              ],
              [
                1445.2987604620564,
                642.1173362698747
              ],
              [
                1445.281749952133,
                642.116964341449
              ],
              [
                1445.273928551891,
                642.1161156287012
              ],
              [
                1445.269774924039,
                642.1160856709397
              ],
              [
                1445.262367641611,
                642.1153346107467
              ],
              [
                1445.2582613101779,
                642.1153256412662
              ],
              [
                1445.2561980698101,
                642.1151210595659
              ],
              [
                1445.2463726305098,
                642.1151072873616
              ],
              [
                1445.2448721188825,
                642.1149663308764
              ],
              [
                1445.2421513279266,
                642.1149859543982
              ],
              [
                1445.2419424313825,
                642.1149663308764
              ],
              [
                1445.2362730714506,
                642.1150072207537
              ],
              [
                1445.1990774066787,
                642.1124298017049
              ],
              [
                1445.1788679066879,
                642.1129896537674
              ],
              [
                1445.157470703125,
                642.1119384765625
              ],
              [
                1445.1332940867617,
                642.1131261975626
              ],
              [
                1445.1147653667588,
                642.1126129071737
              ],
              [
                1445.1070822488418,
                642.1131452975636
              ],
              [
                1445.1025366626977,
                642.1130459100258
              ],
              [
                1445.0806235939021,
                642.1147214296907
              ],
              [
                1445.0722665529925,
                642.1146611550952
              ],
              [
                1445.0701468923482,
                642.1148602737883
              ],
              [
                1445.0614137454165,
                642.1148480326375
              ],
              [
                1445.0614119945756,
                642.1148482012879
              ],
              [
                1445.061291675104,
                642.1148480326375
              ],
              [
                1445.0453430416128,
                642.1163842907546
              ],
              [
                1445.040280432484,
                642.1164208044825
              ],
              [
                1445.0352307873463,
                642.116968749616
              ],
              [
                1445.005470877519,
                642.1177931711456
              ],
              [
                1444.9842792902994,
                642.1204468250817
              ],
              [
                1444.9614364224658,
                642.1215690232181
              ],
              [
                1444.9403263957001,
                642.1247003998853
              ],
              [
                1444.9215478831222,
                642.1260016293787
              ],
              [
                1444.9118590409505,
                642.1276255249524
              ],
              [
                1444.9068372057627,
                642.12800950511
              ],
              [
                1444.8853701624148,
                642.1317937384864
              ],
              [
                1444.8674045807386,
                642.1335242798956
              ],
              [
                1444.8484618979535,
                642.137235342863
              ],
              [
                1444.839790097967,
                642.1381763338579
              ],
              [
                1444.8356016004848,
                642.1390645497797
              ],
              [
                1444.8132909571536,
                642.141858334213
              ],
              [
                1444.7913403356774,
                642.1468003942283
              ],
              [
                1444.7672900590928,
                642.1503679157561
              ],
              [
                1444.7662524364976,
                642.1506278266858
              ],
              [
                1444.7659472856553,
                642.1506730915373
              ],
              [
                1444.7489601660432,
                642.1549281434914
              ],
              [
                1444.7305314508335,
                642.1580168829429
              ],
              [
                1444.718991093003,
                642.1611232189092
              ],
              [
                1444.7135467840023,
                642.1620829475266
              ],
              [
                1444.6946303916855,
                642.1673724893598
              ],
              [
                1444.6762537843301,
                642.1709726524305
              ],
              [
                1444.6546863830713,
                642.1774295666601
              ],
              [
                1444.6425098971324,
                642.1800117214134
              ],
              [
                1444.639383685061,
                642.181012586712
              ],
              [
                1444.624339921073,
                642.1843996062806
              ],
              [
                1444.6022744250224,
                642.191671008863
              ],
              [
                1444.5755585751785,
                642.1983629808793
              ],
              [
                1444.5601221963698,
                642.2038862055335
              ],
              [
                1444.5435074341176,
                642.2083584267865
              ],
              [
                1444.5303333846298,
                642.213314436287
              ],
              [
                1444.5245268898414,
                642.214938091399
              ],
              [
                1444.508214856773,
                642.2212806579918
              ],
              [
                1444.489652399332,
                642.2268379429956
              ],
              [
                1444.4659118014529,
                642.2365500821261
              ],
              [
                1444.4504456605066,
                642.2415016092209
              ],
              [
                1444.4485331030955,
                642.2423344991687
              ],
              [
                1444.4403897640852,
                642.245018032599
              ],
              [
                1444.4403772738178,
                642.2450235387795
              ],
              [
                1444.4400235531477,
                642.2451401029115
              ],
              [
                1444.438116508237,
                642.245980800166
              ],
              [
                1444.4377042172102,
                642.2461166654115
              ],
              [
                1444.418779053004,
                642.2544595908984
              ],
              [
                1444.3907610649574,
                642.2644845873211
              ],
              [
                1444.3901630712683,
                642.2647674172723
              ],
              [
                1444.3894182915199,
                642.2650339037274
              ],
              [
                1444.376066374207,
                642.271348890307
              ],
              [
                1444.362229756073,
                642.2765541547163
              ],
              [
                1444.347699696312,
                642.2836933621663
              ],
              [
                1444.3415978881892,
                642.2860659127978
              ],
              [
                1444.327869975513,
                642.2930221822041
              ],
              [
                1444.3093703868847,
                642.3005902552379
              ],
              [
                1444.285252814663,
                642.3133229880597
              ],
              [
                1444.2604800355625,
                642.3242437625314
              ],
              [
                1444.2404855726945,
                642.3354738337096
              ],
              [
                1444.211991682598,
                642.3489504400533
              ],
              [
                1444.2041253395685,
                642.3536653446175
              ],
              [
                1444.203232661677,
                642.3540925173492
              ],
              [
                1444.198186335538,
                642.357155338007
              ],
              [
                1444.1883984502697,
                642.3619645228677
              ],
              [
                1444.1728445645995,
                642.3715773528688
              ],
              [
                1444.1665214853308,
                642.3747814119206
              ],
              [
                1444.1552886197396,
                642.3819368333988
              ],
              [
                1444.1371177672881,
                642.3915300298981
              ],
              [
                1444.1167108832346,
                642.4049930091865
              ],
              [
                1444.0925459343184,
                642.4185654716294
              ],
              [
                1444.0720815898615,
                642.4328093224289
              ],
              [
                1444.0436446902108,
                642.4498537441449
              ],
              [
                1444.035484883748,
                642.4559054690656
              ],
              [
                1444.033725917266,
                642.4569730573919
              ],
              [
                1444.029359443171,
                642.4602560347917
              ],
              [
                1444.0236437177255,
                642.4637885473874
              ],
              [
                1444.00744584796,
                642.4761138121942
              ],
              [
                1444.0009837627324,
                642.4802302100142
              ],
              [
                1443.992095014342,
                642.487205504612
              ],
              [
                1443.9745284000285,
                642.4987946803063
              ],
              [
                1443.957679002054,
                642.5124372526185
              ],
              [
                1443.934571819294,
                642.528520605023
              ],
              [
                1443.9264072482028,
                642.535458213165
              ],
              [
                1443.9245710890073,
                642.5367483036553
              ],
              [
                1443.913121828692,
                642.5466560956912
              ],
              [
                1443.8859985879228,
                642.5667720620245
              ],
              [
                1443.8777696076029,
                642.5742303750412
              ],
              [
                1443.8752395279603,
                642.5761326408295
              ],
              [
                1443.8716019971241,
                642.5794799620759
              ],
              [
                1443.8695106387788,
                642.5810713161111
              ],
              [
                1443.8530880975854,
                642.5962888257875
              ],
              [
                1443.8465789391548,
                642.6013967775085
              ],
              [
                1443.8398300688907,
                642.6078568394199
              ],
              [
                1443.8231444862092,
                642.6213667742344
              ],
              [
                1443.809612659038,
                642.6347010372757
              ],
              [
                1443.7878986955623,
                642.6531518497097
              ],
              [
                1443.7766132469455,
                642.6647858789117
              ],
              [
                1443.7720751737097,
                642.6687129698003
              ],
              [
                1443.7634935601131,
                642.6778041471701
              ],
              [
                1443.740571593877,
                642.6985794063769
              ],
              [
                1443.7325050143477,
                642.7074795053729
              ],
              [
                1443.7293312938,
                642.7104000200567
              ],
              [
                1443.7098107530269,
                642.7323121626503
              ],
              [
                1443.704794017455,
                642.7371142141225
              ],
              [
                1443.6999372543498,
                642.742775185488
              ],
              [
                1443.6844019403857,
                642.7580836844961
              ],
              [
                1443.673896426382,
                642.7706753770223
              ],
              [
                1443.6538849745127,
                642.7913049349007
              ],
              [
                1443.6403109817875,
                642.8083011284019
              ],
              [
                1443.6336440563073,
                642.8153639262512
              ],
              [
                1443.6275838943711,
                642.8232421221308
              ],
              [
                1443.6087642495245,
                642.8440064004227
              ],
              [
                1443.6010937689443,
                642.8543488462263
              ],
              [
                1443.5974353811775,
                642.8584554493856
              ],
              [
                1443.5793761034295,
                642.8832994829228
              ],
              [
                1443.576994463937,
                642.8860754867505
              ],
              [
                1443.5737491417267,
                642.8907098479932
              ],
              [
                1443.559616770553,
                642.9076486167596
              ],
              [
                1443.551796456128,
                642.9191314519646
              ],
              [
                1443.533771822627,
                642.9417003574422
              ],
              [
                1443.5188394367285,
                642.9646096544116
              ],
              [
                1443.5106852240183,
                642.9752101112396
              ],
              [
                1443.5067614753805,
                642.9815412200985
              ],
              [
                1443.491845931645,
                643.0016525027108
              ],
              [
                1443.4848024003104,
                643.013403924794
              ],
              [
                1443.4808482260771,
                643.0188436571374
              ],
              [
                1443.4647373443274,
                643.0463800761294
              ],
              [
                1443.464411058163,
                643.0468460169069
              ],
              [
                1443.4630450386137,
                643.0492725335328
              ],
              [
                1443.4623156923801,
                643.0505191185299
              ],
              [
                1443.44997259548,
                643.068642909968
              ],
              [
                1443.4444596707694,
                643.0787232433905
              ],
              [
                1443.4286716664315,
                643.1029452319189
              ],
              [
                1443.4133942596306,
                643.1321925643493
              ],
              [
                1443.40444885085,
                643.1466263015753
              ],
              [
                1443.4022461192455,
                643.1511407585385
              ],
              [
                1443.3909426275534,
                643.169999495098
              ],
              [
                1443.384749385013,
                643.1830940062667
              ],
              [
                1443.3807157910999,
                643.1899881498499
              ],
              [
                1443.365638180745,
                643.2228476314444
              ],
              [
                1443.3565094177857,
                643.239539492697
              ],
              [
                1443.3529027233797,
                643.2479986100377
              ],
              [
                1443.3395578897712,
                643.2735461908457
              ],
              [
                1443.3251094480768,
                643.309192058334
              ],
              [
                1443.3245102011517,
                643.3104590595052
              ],
              [
                1443.3160150865556,
                643.3278696369728
              ],
              [
                1443.3150959886398,
                643.3303637394979
              ],
              [
                1443.3070260912275,
                643.3474261040199
              ],
              [
                1443.301894714397,
                643.361767341527
              ],
              [
                1443.2980223015286,
                643.370206708003
              ],
              [
                1443.2864942071592,
                643.4037527072531
              ],
              [
                1443.2801137592533,
                643.4187173678114
              ],
              [
                1443.2780019051531,
                643.4254114588929
              ],
              [
                1443.267255818828,
                643.4519232154723
              ],
              [
                1443.2555980144487,
                643.491157949866
              ],
              [
                1443.2474426406977,
                643.5139506925896
              ],
              [
                1443.2462830742995,
                643.5170973404411
              ],
              [
                1443.2461964058682,
                643.5174336856088
              ],
              [
                1443.2409044847857,
                643.532223614241
              ],
              [
                1443.2370310307315,
                643.5476873096414
              ],
              [
                1443.233580571145,
                643.5577279209508
              ],
              [
                1443.2256194449692,
                643.5914517926094
              ],
              [
                1443.2215102519474,
                643.6044769880322
              ],
              [
                1443.2204841212506,
                643.6093349434332
              ],
              [
                1443.212435078371,
                643.6364242691092
              ],
              [
                1443.2041184929485,
                643.6790815257633
              ],
              [
                1443.1932145954436,
                643.7226123247177
              ],
              [
                1443.1907764014425,
                643.7390492935306
              ],
              [
                1443.1880240128914,
                643.7507085985337
              ],
              [
                1443.1835683704626,
                643.7841031980997
              ],
              [
                1443.1812547648967,
                643.79505637657
              ],
              [
                1443.1809190536164,
                643.7980756065708
              ],
              [
                1443.1756033900356,
                643.8253405974446
              ],
              [
                1443.1711764005438,
                643.8711817667365
              ],
              [
                1443.1644157029057,
                643.9167586880909
              ],
              [
                1443.1635692009033,
                643.9339949970387
              ],
              [
                1443.1618004129068,
                643.9472518882286
              ],
              [
                1443.1607238346853,
                643.9794173615913
              ],
              [
                1443.1605147966832,
                643.9815819356126
              ],
              [
                1443.1597291315363,
                643.9886478399188
              ],
              [
                1443.1597126248607,
                643.9898883692243
              ],
              [
                1443.1571018700643,
                644.0169225541526
              ],
              [
                1443.1571018700643,
                644.0656815283141
              ],
              [
                1443.15478515625,
                644.1128540039062
              ],
              [
                1443.1556698306133,
                644.1304184036846
              ],
              [
                1443.1551675291305,
                644.1454259197592
              ],
              [
                1443.1571018700643,
                644.1748140645725
              ],
              [
                1443.1571018700643,
                644.2093958052224
              ],
              [
                1443.1623872359,
                644.264125402051
              ],
              [
                1443.1642350658922,
                644.3031332181548
              ],
              [
                1443.1644418723758,
                644.3045792642
              ],
              [
                1443.164907006091,
                644.3138140683956
              ],
              [
                1443.1672757594124,
                644.3293844033792
              ],
              [
                1443.1681905577393,
                644.3432827939034
              ],
              [
                1443.1725771687154,
                644.3696414499491
              ],
              [
                1443.1756033900356,
                644.4009777619304
              ],
              [
                1443.1854548831175,
                644.4515078349664
              ],
              [
                1443.191039640285,
                644.4905579453391
              ],
              [
                1443.1923843612324,
                644.4961312681947
              ],
              [
                1443.1928198136031,
                644.4991067054383
              ],
              [
                1443.1935387689366,
                644.5020169237259
              ]
            ]
          ]
        ]
      }
    }
  ]
}