{
  "type": "FeatureCollection",
  "features": [
    {
      "type": "Feature",
      "properties": {
        "image_id": "0010_top_20250630_t1",
        "zone_type": "parking_spot",
        "generated_at": "2025-11-03T11:20:40",
        "source": "merged_t1_polygons"
      },
      "geometry": {
        "type": "MultiPolygon",
        "coordinates": [
          [
            [
              [
                1192.050540372658,
                596.928474462
              ],
              [
                1192.039824859468,
                596.906456301895
              ],
              [
                1192.039819801764,
                596.9064456132854
              ],
              [
                1192.0283295079232,
                596.8779094278116
              ],
              [
                1192.0153517850995,
                596.8529434860329
              ],
              [
                1192.0012567257497,
                596.8211489808751
              ],
              [
                1192.0011346554372,
                596.8209048402501
              ],
              [
                1191.9924833401756,
                596.8055371536534
              ],
              [
                1191.9808545269464,
                596.7805743190522
              ],
              [
                1191.9778421128442,
                596.7754661568807
              ],
              [
                1191.9755669055335,
                596.7706578876152
              ],
              [
                1191.9658527220417,
                596.7544588813051
              ],
              [
                1191.9624893747177,
                596.7475478992031
              ],
              [
                1191.9503824292342,
                596.727958449911
              ],
              [
                1191.9392734278656,
                596.706587467871
              ],
              [
                1191.920536175859,
                596.6777344509086
              ],
              [
                1191.9048516371495,
                596.6498733606569
              ],
              [
                1191.898043171888,
                596.6401507859833
              ],
              [
                1191.8824698041828,
                596.6137429665076
              ],
              [
                1191.8768135674552,
                596.6059805425739
              ],
              [
                1191.874585021573,
                596.602264303444
              ],
              [
                1191.863301505137,
                596.58705855495
              ],
              [
                1191.8567044894037,
                596.5763843592689
              ],
              [
                1191.8437448092488,
                596.5594853820174
              ],
              [
                1191.834111719942,
                596.5446516332336
              ],
              [
                1191.8107496336604,
                596.5153166815064
              ],
              [
                1191.8075540437526,
                596.5109311642842
              ],
              [
                1191.7922682313756,
                596.4891028305005
              ],
              [
                1191.7881546233266,
                596.4843080696957
              ],
              [
                1191.768409345385,
                596.4572103321981
              ],
              [
                1191.759562260621,
                596.4472562549151
              ],
              [
                1191.757812898913,
                596.444897513704
              ],
              [
                1191.7577972148056,
                596.444880208958
              ],
              [
                1191.7575775916148,
                596.4445842431551
              ],
              [
                1191.748185522099,
                596.4342279730062
              ],
              [
                1191.747475757608,
                596.4332839615539
              ],
              [
                1191.7443925047864,
                596.4299333936253
              ],
              [
                1191.7342564554401,
                596.4167163338467
              ],
              [
                1191.7210188543363,
                596.4026448914886
              ],
              [
                1191.7138245490926,
                596.3936112549164
              ],
              [
                1191.6900869151398,
                596.3690877986818
              ],
              [
                1191.6674968099776,
                596.3436711039615
              ],
              [
                1191.6644686778575,
                596.3401415578725
              ],
              [
                1191.6637390475032,
                596.3394431510168
              ],
              [
                1191.6397428167738,
                596.3124443891027
              ],
              [
                1191.627389780293,
                596.3009977774018
              ],
              [
                1191.6260055545606,
                596.2994705196581
              ],
              [
                1191.6258305789852,
                596.2993119310407
              ],
              [
                1191.6256723841689,
                596.299137495763
              ],
              [
                1191.6253902354995,
                596.2988819468063
              ],
              [
                1191.6245407108106,
                596.2979446407519
              ],
              [
                1191.6148600713477,
                596.2891706205804
              ],
              [
                1191.613208378381,
                596.2873757273937
              ],
              [
                1191.6093296441834,
                596.2839203378203
              ],
              [
                1191.5963846734403,
                596.2701599587144
              ],
              [
                1191.5834645677,
                596.2589357727353
              ],
              [
                1191.579533057888,
                596.2548741122934
              ],
              [
                1191.5560018511653,
                596.234848057362
              ],
              [
                1191.4976768612212,
                596.1808027614236
              ],
              [
                1191.482829761577,
                596.169505323095
              ],
              [
                1191.4791137167647,
                596.1661372963995
              ],
              [
                1191.4671868744092,
                596.1572917472513
              ],
              [
                1191.4651529490518,
                596.1554798147714
              ],
              [
                1191.4603996694532,
                596.1520246271765
              ],
              [
                1191.444484660879,
                596.1381986554942
              ],
              [
                1191.4058410305008,
                596.1109231446111
              ],
              [
                1191.3435437822745,
                596.0635199926999
              ],
              [
                1191.3267839908,
                596.0531618719243
              ],
              [
                1191.3214676144767,
                596.0492189785199
              ],
              [
                1191.3072347811085,
                596.040688146498
              ],
              [
                1191.3047647413,
                596.0388926596709
              ],
              [
                1191.2990614420069,
                596.0355557994741
              ],
              [
                1191.2800939268739,
                596.0221681166821
              ],
              [
                1191.240097982771,
                595.9995869726133
              ],
              [
                1191.1787890497303,
                595.9616959681802
              ],
              [
                1191.1602326199593,
                595.9525784419038
              ],
              [
                1191.1531206220895,
                595.9483156744283
              ],
              [
                1191.1365857116002,
                595.9404952441943
              ],
              [
                1191.1336202485877,
                595.9387602246937
              ],
              [
                1191.12689657295,
                595.9356750585104
              ],
              [
                1191.10487640975,
                595.9232427859689
              ],
              [
                1191.0623035325027,
                595.9044619109158
              ],
              [
                1191.004957743927,
                595.8762856000288
              ],
              [
                1190.9847629178196,
                595.8686884105587
              ],
              [
                1190.9756940131676,
                595.8643991381024
              ],
              [
                1190.9569256739503,
                595.8576837189509
              ],
              [
                1190.9534016904345,
                595.8560667351225
              ],
              [
                1190.9497757905979,
                595.854820693376
              ],
              [
                1190.9283680997655,
                595.8453767658641
              ],
              [
                1190.8827101261184,
                595.8302966764389
              ],
              [
                1190.8236800658824,
                595.808089872099
              ],
              [
                1190.802042746499,
                595.8022657213747
              ],
              [
                1190.7908965029465,
                595.7982775316606
              ],
              [
                1190.7700273720013,
                595.7930500864883
              ],
              [
                1190.7658804774867,
                595.7916250047386
              ],
              [
                1190.76498115513,
                595.7914127035287
              ],
              [
                1190.7453102326365,
                595.7849157163307
              ],
              [
                1190.6967843586363,
                595.7739331583139
              ],
              [
                1190.6366560491665,
                595.7577483282554
              ],
              [
                1190.6138045824878,
                595.7539183148305
              ],
              [
                1190.6005077924697,
                595.7505876423186
              ],
              [
                1190.5805579711528,
                595.7476283658723
              ],
              [
                1190.5572816074653,
                595.7423603718405
              ],
              [
                1190.5061760710448,
                595.7358792694808
              ],
              [
                1190.4456396168778,
                595.7257330746912
              ],
              [
                1190.4218290724157,
                595.7240831579272
              ],
              [
                1190.4063614290967,
                595.7217887497806
              ],
              [
                1190.387926569897,
                595.7208831032221
              ],
              [
                1190.3660292791183,
                595.7181061324109
              ],
              [
                1190.312693840087,
                595.716520792033
              ],
              [
                1190.2524221332412,
                595.7123443524862
              ],
              [
                1190.2286106056195,
                595.713003989432
              ],
              [
                1190.2282107357998,
                595.7129807081994
              ],
              [
                1190.2275760126856,
                595.7130055854876
              ],
              [
                1190.2103271484375,
                595.712158203125
              ],
              [
                1190.1935886312433,
                595.7129805137446
              ],
              [
                1190.1733302552755,
                595.7123783546174
              ],
              [
                1190.1306503079895,
                595.7152299455669
              ],
              [
                1190.129735503435,
                595.7152210681515
              ],
              [
                1190.126891492004,
                595.715481084716
              ],
              [
                1190.1181785768865,
                595.7160632239048
              ],
              [
                1190.0588156040815,
                595.7177077219269
              ],
              [
                1190.0365874568793,
                595.720491176026
              ],
              [
                1190.0337763523185,
                595.7206013542386
              ],
              [
                1190.0311669285065,
                595.7209597803342
              ],
              [
                1190.0142928677783,
                595.7217887497806
              ],
              [
                1189.9993837783015,
                595.7240003042914
              ],
              [
                1189.980974985487,
                595.725230257708
              ],
              [
                1189.931899313175,
                595.7333084379695
              ],
              [
                1189.9289058514034,
                595.7335821181796
              ],
              [
                1189.9232261341745,
                595.7346865129334
              ],
              [
                1189.8666356837161,
                595.7417728849942
              ],
              [
                1189.8462835734856,
                595.7463550491169
              ],
              [
                1189.8410027465427,
                595.7470804146838
              ],
              [
                1189.8364009595277,
                595.7481765216661
              ],
              [
                1189.8201465044053,
                595.7505876423186
              ],
              [
                1189.8071511313171,
                595.75384281382
              ],
              [
                1189.7907507253362,
                595.7565424291209
              ],
              [
                1189.7679913281943,
                595.7625865156111
              ],
              [
                1189.7657928777523,
                595.7629740608079
              ],
              [
                1189.7518353008904,
                595.7668769819074
              ],
              [
                1189.7358665003464,
                595.7711177274347
              ],
              [
                1189.730946215686,
                595.7720744540369
              ],
              [
                1189.7277004941234,
                595.7730533681439
              ],
              [
                1189.6776846476355,
                595.7843141570619
              ],
              [
                1189.6594324813318,
                595.7903289254989
              ],
              [
                1189.6517146557724,
                595.7921672466678
              ],
              [
                1189.6451753421197,
                595.7944156368806
              ],
              [
                1189.6297577939285,
                595.7982775316606
              ],
              [
                1189.6187118217172,
                595.8022298437153
              ],
              [
                1189.6044249302793,
                595.8060239339976
              ],
              [
                1189.5819453741565,
                595.8143828624912
              ],
              [
                1189.5767729835914,
                595.8158292046802
              ],
              [
                1189.548684498286,
                595.8267507794338
              ],
              [
                1189.5473827725582,
                595.8272348206764
              ],
              [
                1189.5433461514915,
                595.8284496469279
              ],
              [
                1189.5416287188127,
                595.8291496518045
              ],
              [
                1189.5407974995533,
                595.8294235695018
              ],
              [
                1189.5378693349076,
                595.8303067080041
              ],
              [
                1189.5369178167716,
                595.8307020694427
              ],
              [
                1189.4937344906477,
                595.8449325833802
              ],
              [
                1189.4777316533243,
                595.8519872370631
              ],
              [
                1189.4677038244645,
                595.855435071723
              ],
              [
                1189.4593569509202,
                595.8592479282058
              ],
              [
                1189.4449602837074,
                595.8643991381024
              ],
              [
                1189.4434074559342,
                595.8651335709421
              ],
              [
                1189.4423751364386,
                595.8655038545734
              ],
              [
                1189.4347610663374,
                595.8691127289402
              ],
              [
                1189.4237288334552,
                595.8732150183843
              ],
              [
                1189.4019048527305,
                595.8838227380612
              ],
              [
                1189.3938439819392,
                595.886957026079
              ],
              [
                1189.3693534650713,
                595.8993669704932
              ],
              [
                1189.368018522276,
                595.8999110770997
              ],
              [
                1189.3626286491694,
                595.9027289784034
              ],
              [
                1189.316510309,
                595.9230596805002
              ],
              [
                1189.316266168375,
                595.9231817508127
              ],
              [
                1189.3029978782076,
                595.9306728396853
              ],
              [
                1189.2907120441164,
                595.9362850155392
              ],
              [
                1189.2807630042223,
                595.942058667596
              ],
              [
                1189.2675336747855,
                595.9483156744283
              ],
              [
                1189.267066711426,
                595.9485955614948
              ],
              [
                1189.2649451759837,
                595.9496011149996
              ],
              [
                1189.2580281677326,
                595.9537551468992
              ],
              [
                1189.2503413600548,
                595.9574913810028
              ],
              [
                1189.2428562203322,
                595.962068840377
              ],
              [
                1189.2412548955822,
                595.9628556361489
              ],
              [
                1189.2307131326438,
                595.9693708039462
              ],
              [
                1189.2305188421499,
                595.9694676605118
              ],
              [
                1189.2284765281065,
                595.9707527630595
              ],
              [
                1189.2187675790808,
                595.9756725252018
              ],
              [
                1189.1834805673525,
                595.9981506221374
              ],
              [
                1189.1410486512511,
                596.0221070815259
              ],
              [
                1189.132833663859,
                596.0279053974664
              ],
              [
                1189.1224146659883,
                596.0339517767277
              ],
              [
                1189.1118627215315,
                596.0415352830667
              ],
              [
                1189.096616629138,
                596.0506913736551
              ],
              [
                1189.0904670016794,
                596.0552608826515
              ],
              [
                1189.0858735277027,
                596.0580699739035
              ],
              [
                1189.079813925674,
                596.0626316427289
              ],
              [
                1189.076500163038,
                596.0646796606686
              ],
              [
                1189.0635713103845,
                596.074517468659
              ],
              [
                1189.0626939690815,
                596.0750695255513
              ],
              [
                1189.0625295651844,
                596.0751973375728
              ],
              [
                1189.0532298564824,
                596.0811213232954
              ],
              [
                1189.0155906208656,
                596.110658075303
              ],
              [
                1189.0080610575467,
                596.1159726040945
              ],
              [
                1189.0071988833324,
                596.1165568394848
              ],
              [
                1189.0070124656252,
                596.1167127229729
              ],
              [
                1188.976657917246,
                596.138137620338
              ],
              [
                1188.9728786361804,
                596.1414208251663
              ],
              [
                1188.9644047427291,
                596.1475108709361
              ],
              [
                1188.953867751399,
                596.1567615844818
              ],
              [
                1188.9390119196623,
                596.1678002786507
              ],
              [
                1188.9336849383685,
                596.1726375544586
              ],
              [
                1188.9318534778013,
                596.1740162781
              ],
              [
                1188.9271681272548,
                596.1783092250391
              ],
              [
                1188.9223670840913,
                596.1819624293923
              ],
              [
                1188.9093201303835,
                596.1940520409793
              ],
              [
                1188.8988250329048,
                596.2022878907898
              ],
              [
                1188.8635419803243,
                596.2360610550637
              ],
              [
                1188.8260348782,
                596.2689895682234
              ],
              [
                1188.8247579046847,
                596.2700989235582
              ],
              [
                1188.8246944953355,
                596.270166327085
              ],
              [
                1188.8181779490164,
                596.2758873817406
              ],
              [
                1188.8078692079014,
                596.2868871370413
              ],
              [
                1188.7936501103075,
                596.2997990834153
              ],
              [
                1188.7856258556835,
                596.3086700407157
              ],
              [
                1188.7803011285387,
                596.3136040570714
              ],
              [
                1188.7675826207667,
                596.3279139696202
              ],
              [
                1188.757040111205,
                596.3380053274037
              ],
              [
                1188.7254016616773,
                596.3748826370334
              ],
              [
                1188.6851184239476,
                596.4178661354835
              ],
              [
                1188.675269343615,
                596.4306711426565
              ],
              [
                1188.6619322614274,
                596.4454155260466
              ],
              [
                1188.6558808114942,
                596.4535924808799
              ],
              [
                1188.6516345999275,
                596.4583700001668
              ],
              [
                1188.639571382352,
                596.4749251433361
              ],
              [
                1188.629240557687,
                596.4869666000318
              ],
              [
                1188.6015013300566,
                596.5265785686128
              ],
              [
                1188.5664856691935,
                596.5721032037429
              ],
              [
                1188.5573428424277,
                596.5867408224009
              ],
              [
                1188.5451279269494,
                596.6032460919246
              ],
              [
                1188.5448837863244,
                596.6036123028621
              ],
              [
                1188.5406830393945,
                596.6106360898709
              ],
              [
                1188.5375741411297,
                596.6149026344764
              ],
              [
                1188.5264988037266,
                596.6336831266805
              ],
              [
                1188.516657151913,
                596.6477371301881
              ],
              [
                1188.4930394550418,
                596.6896902150862
              ],
              [
                1188.463402626931,
                596.7371386245584
              ],
              [
                1188.4578744518046,
                596.7482688334768
              ],
              [
                1188.4571883596573,
                596.7493789538906
              ],
              [
                1188.4549337189862,
                596.7540117734668
              ],
              [
                1188.4443206999454,
                596.7717570903131
              ],
              [
                1188.4413041218736,
                596.7781480761553
              ],
              [
                1188.4391894183661,
                596.781733987021
              ],
              [
                1188.4294343424808,
                596.802674588701
              ],
              [
                1188.4203741336253,
                596.8187686097813
              ],
              [
                1188.401064689927,
                596.862647358733
              ],
              [
                1188.3768450504092,
                596.9114102219934
              ],
              [
                1188.3715064252706,
                596.9254375817885
              ],
              [
                1188.369137361717,
                596.9303055166876
              ],
              [
                1188.3679131308768,
                596.9336357755433
              ],
              [
                1188.3606920337734,
                596.9489345439672
              ],
              [
                1188.3586956015126,
                596.9545249500304
              ],
              [
                1188.3574030898114,
                596.9572995027883
              ],
              [
                1188.3492944981685,
                596.9802898596179
              ],
              [
                1188.3413187609233,
                596.9984139121674
              ],
              [
                1188.3264654696934,
                597.0437837239083
              ],
              [
                1188.307632267761,
                597.0932683932256
              ],
              [
                1188.3030318535966,
                597.1101314503154
              ],
              [
                1188.2997114901304,
                597.1191637908462
              ],
              [
                1188.299226639304,
                597.1210498321608
              ],
              [
                1188.294800322022,
                597.1334443979356
              ],
              [
                1188.2936380469341,
                597.1380930553037
              ],
              [
                1188.2929821528453,
                597.1399527172289
              ],
              [
                1188.286834271047,
                597.1648383773049
              ],
              [
                1188.2802523802627,
                597.1849429548804
              ],
              [
                1188.2699612481229,
                597.2313534725516
              ],
              [
                1188.2662523224697,
                597.2449487321958
              ],
              [
                1188.2658191960074,
                597.2464282706197
              ],
              [
                1188.2657493315724,
                597.2467924714582
              ],
              [
                1188.2564194264874,
                597.2809917231942
              ],
              [
                1188.2532162052787,
                597.2997650157687
              ],
              [
                1188.2508209120062,
                597.3093452759296
              ],
              [
                1188.2496134631444,
                597.3140421812744
              ],
              [
                1188.2495620060877,
                597.3143804197912
              ],
              [
                1188.2472778879774,
                597.3235160216766
              ],
              [
                1188.2467455519932,
                597.3271112166345
              ],
              [
                1188.2465307511031,
                597.3279806969055
              ],
              [
                1188.2426401828884,
                597.3545648708325
              ],
              [
                1188.237763094271,
                597.3765593612718
              ],
              [
                1188.2325242066381,
                597.4199938768811
              ],
              [
                1188.2299398798652,
                597.4334658812754
              ],
              [
                1188.2298178095527,
                597.4343203734629
              ],
              [
                1188.2295039492574,
                597.4387367229623
              ],
              [
                1188.2236912920278,
                597.472803279
              ],
              [
                1188.2222966075462,
                597.4922300971865
              ],
              [
                1188.2185807759722,
                597.5173254116751
              ],
              [
                1188.2170709341203,
                597.54811370945
              ],
              [
                1188.2142600979996,
                597.5714177605998
              ],
              [
                1188.2132303064702,
                597.6185162823062
              ],
              [
                1188.209757659115,
                597.6668874298205
              ],
              [
                1188.210269126687,
                597.686814376949
              ],
              [
                1188.208984375,
                597.7130126953125
              ],
              [
                1188.208984375,
                597.7132568359375
              ],
              [
                1188.210100390054,
                597.7354142933958
              ],
              [
                1188.2100560804545,
                597.7365490336156
              ],
              [
                1188.2100648626645,
                597.7366988912614
              ],
              [
                1188.2099534948031,
                597.7396132341893
              ],
              [
                1188.2104138908533,
                597.7473278021795
              ],
              [
                1188.209969738151,
                597.7676415599586
              ],
              [
                1188.213543325847,
                597.8143782677824
              ],
              [
                1188.214750419351,
                597.8614070331284
              ],
              [
                1188.2175577639646,
                597.8841172954772
              ],
              [
                1188.2187567978558,
                597.9089764288422
              ],
              [
                1188.2187972982797,
                597.9092545846014
              ],
              [
                1188.2188590622807,
                597.9105118197216
              ],
              [
                1188.218950737673,
                597.911129845015
              ],
              [
                1188.219106224841,
                597.9142169004268
              ],
              [
                1188.220149867651,
                597.9210769934585
              ],
              [
                1188.2202010969793,
                597.9220708359373
              ],
              [
                1188.2212405082805,
                597.9287426431614
              ],
              [
                1188.2216016724797,
                597.934794445232
              ],
              [
                1188.2238185217782,
                597.9487610984013
              ],
              [
                1188.224933333235,
                597.9633410168934
              ],
              [
                1188.2330259197129,
                598.009248308394
              ],
              [
                1188.2386223127608,
                598.0545208245336
              ],
              [
                1188.2424130799218,
                598.0714471007581
              ],
              [
                1188.246523027388,
                598.0996741029787
              ],
              [
                1188.2471164882381,
                598.1020889555721
              ],
              [
                1188.2477661692274,
                598.1064766541047
              ],
              [
                1188.247794886661,
                598.106591512894
              ],
              [
                1188.248024165756,
                598.108137187001
              ],
              [
                1188.2510029504479,
                598.1200291620939
              ],
              [
                1188.252253115665,
                598.1279054863923
              ],
              [
                1188.2574630606537,
                598.1478743157487
              ],
              [
                1188.2590067756516,
                598.1566314386538
              ],
              [
                1188.2700740518221,
                598.1962100911204
              ],
              [
                1188.2703552692908,
                598.19728794965
              ],
              [
                1188.2726290323724,
                598.2063653207031
              ],
              [
                1188.2811473751408,
                598.2444008466408
              ],
              [
                1188.2848810442342,
                598.2557567771183
              ],
              [
                1188.29251355924,
                598.2868142574179
              ],
              [
                1188.2934469881386,
                598.2894752588422
              ],
              [
                1188.2957140550982,
                598.2985258974777
              ],
              [
                1188.299608071208,
                598.309408943438
              ],
              [
                1188.3016148625761,
                598.3171006320202
              ],
              [
                1188.304222357064,
                598.3241775205639
              ],
              [
                1188.3043782829184,
                598.3247694175881
              ],
              [
                1188.3070873170373,
                598.3319531850981
              ],
              [
                1188.3110040392214,
                598.3425833921727
              ],
              [
                1188.311861919524,
                598.3456513328149
              ],
              [
                1188.3170622648108,
                598.3590257614542
              ],
              [
                1188.3274096899456,
                598.3871092625818
              ],
              [
                1188.3355249703206,
                598.4097899518259
              ],
              [
                1188.341923076968,
                598.429249751948
              ],
              [
                1188.3446422228174,
                598.4354216641935
              ],
              [
                1188.3563014108013,
                598.4686594564657
              ],
              [
                1188.3574550030435,
                598.4711500361293
              ],
              [
                1188.358257581999,
                598.473425594868
              ],
              [
                1188.3584153316285,
                598.4737642259764
              ],
              [
                1188.36183566154,
                598.4833234076989
              ],
              [
                1188.3620311248822,
                598.4837366802132
              ],
              [
                1188.362079802165,
                598.4838727241051
              ],
              [
                1188.366526439782,
                598.4932743494347
              ],
              [
                1188.3692151212233,
                598.5005715839939
              ],
              [
                1188.3758180291818,
                598.5142120401621
              ],
              [
                1188.377056284026,
                598.5174956218844
              ],
              [
                1188.387162103913,
                598.5377072616585
              ],
              [
                1188.3872901309346,
                598.5380352765355
              ],
              [
                1188.388405054494,
                598.5402146390375
              ],
              [
                1188.4024646561986,
                598.5692593238948
              ],
              [
                1188.4175829977157,
                598.6012243713735
              ],
              [
                1188.4224493289378,
                598.6122006284999
              ],
              [
                1188.4225713992503,
                598.6124447691249
              ],
              [
                1188.4244165923787,
                598.6157185990468
              ],
              [
                1188.437294366625,
                598.6435214235439
              ],
              [
                1188.43827637207,
                598.6451968480613
              ],
              [
                1188.4400439105536,
                598.6489911106353
              ],
              [
                1188.440705919204,
                598.6501136812482
              ],
              [
                1188.4459963384909,
                598.661299333027
              ],
              [
                1188.4513083822073,
                598.6701619425435
              ],
              [
                1188.4544077787248,
                598.6765647551545
              ],
              [
                1188.466405604503,
                598.6961942628386
              ],
              [
                1188.469170866658,
                598.7017247871487
              ],
              [
                1188.4736610994196,
                598.7087816275863
              ],
              [
                1188.473962934501,
                598.7093799274949
              ],
              [
                1188.474207075126,
                598.7098071735886
              ],
              [
                1188.4866820154373,
                598.7293682704964
              ],
              [
                1188.4925310919373,
                598.7389378787091
              ],
              [
                1188.514895820585,
                598.7762511742179
              ],
              [
                1188.5199296644319,
                598.785182460788
              ],
              [
                1188.522104696217,
                598.7882784565955
              ],
              [
                1188.523694257309,
                598.7909304790586
              ],
              [
                1188.5347404766408,
                598.8097767153886
              ],
              [
                1188.5354033959932,
                598.8106925566219
              ],
              [
                1188.5384286333172,
                598.8158224631799
              ],
              [
                1188.5394729835034,
                598.8172556933065
              ],
              [
                1188.5468996425825,
                598.8296463254142
              ],
              [
                1188.5530046109498,
                598.8378779223541
              ],
              [
                1188.5563785767542,
                598.8433980298228
              ],
              [
                1188.5751225244765,
                598.868238191473
              ],
              [
                1188.5797450294306,
                598.8755029106125
              ],
              [
                1188.5876816854454,
                598.8855266305425
              ],
              [
                1188.588319130968,
                598.8865132603817
              ],
              [
                1188.5987858424155,
                598.8996067671532
              ],
              [
                1188.6277997040847,
                598.9387274309416
              ],
              [
                1188.6339140432594,
                598.9474307375233
              ],
              [
                1188.6363470365282,
                598.9502521746182
              ],
              [
                1188.6384233685876,
                598.9530517843128
              ],
              [
                1188.6421687995635,
                598.9581918844269
              ],
              [
                1188.6477350373639,
                598.9658817943276
              ],
              [
                1188.6479791779889,
                598.9661869701089
              ],
              [
                1188.6480665421616,
                598.9662857426763
              ],
              [
                1188.652489092115,
                598.9723550974894
              ],
              [
                1188.6533839994459,
                598.9733619802049
              ],
              [
                1188.6544631925883,
                598.9748448543722
              ],
              [
                1188.6551916597314,
                598.9756612076163
              ],
              [
                1188.663817960462,
                598.9872924277023
              ],
              [
                1188.6706308173784,
                598.9948092569587
              ],
              [
                1188.6741528940977,
                598.9994768412021
              ],
              [
                1188.6861626556515,
                599.0125184916878
              ],
              [
                1188.6862757711224,
                599.012665990372
              ],
              [
                1188.687351379815,
                599.0138093520432
              ],
              [
                1188.6956344646258,
                599.0228041265491
              ],
              [
                1188.6984126851098,
                599.0263482920933
              ],
              [
                1188.7029355838251,
                599.0310882872448
              ],
              [
                1188.7076059818148,
                599.0369868371279
              ],
              [
                1188.7076326556412,
                599.0370141946028
              ],
              [
                1188.7080942630648,
                599.0375971886904
              ],
              [
                1188.7136381211922,
                599.0432831355587
              ],
              [
                1188.7140784879498,
                599.0438340196786
              ],
              [
                1188.7272556520884,
                599.0572851344649
              ],
              [
                1188.7558418586498,
                599.0888251530565
              ],
              [
                1188.7634041564322,
                599.0975948228125
              ],
              [
                1188.7659599968995,
                599.1000240625444
              ],
              [
                1188.77526857457,
                599.1104973770878
              ],
              [
                1188.778382098337,
                599.1140176971488
              ],
              [
                1188.7784711346337,
                599.1141006578553
              ],
              [
                1188.7811556207262,
                599.1171210405848
              ],
              [
                1188.782696262877,
                599.1185486355325
              ],
              [
                1188.786831850454,
                599.1231831621083
              ],
              [
                1188.787727570797,
                599.1240056150662
              ],
              [
                1188.7956253048144,
                599.1327194217481
              ],
              [
                1188.8030493155222,
                599.139448152836
              ],
              [
                1188.8066050619323,
                599.1433094120032
              ],
              [
                1188.8226623907328,
                599.157643652202
              ],
              [
                1188.8241475531222,
                599.1592223655043
              ],
              [
                1188.830306193192,
                599.1645726097603
              ],
              [
                1188.8324630736129,
                599.1668330191526
              ],
              [
                1188.842757951689,
                599.1757122993284
              ],
              [
                1188.8518858644377,
                599.1850741599166
              ],
              [
                1188.8549223697862,
                599.1876060180846
              ],
              [
                1188.8550229069526,
                599.1877086453989
              ],
              [
                1188.870907306878,
                599.2009510511967
              ],
              [
                1188.897610757146,
                599.22515364775
              ],
              [
                1188.9071272151355,
                599.2341987185009
              ],
              [
                1188.9085599012335,
                599.2353125272953
              ],
              [
                1188.9196101858001,
                599.2456087710461
              ],
              [
                1188.9208071434743,
                599.2465253985179
              ],
              [
                1188.9232215762788,
                599.2487626682639
              ],
              [
                1188.9254218850708,
                599.2504369247503
              ],
              [
                1188.9332739131025,
                599.2576466791468
              ],
              [
                1188.9343583560076,
                599.2584597299465
              ],
              [
                1188.9410522988603,
                599.2645267661005
              ],
              [
                1188.9489803142335,
                599.2704065830329
              ],
              [
                1188.9524691227957,
                599.2735210126219
              ],
              [
                1188.9650112238508,
                599.2826840841212
              ],
              [
                1188.9655763843957,
                599.2831829978008
              ],
              [
                1188.9704652145151,
                599.2866686881515
              ],
              [
                1188.9728873112224,
                599.2884382357902
              ],
              [
                1188.9760475656835,
                599.2911836687246
              ],
              [
                1188.9793011689642,
                599.2934801323544
              ],
              [
                1188.979505165633,
                599.2936560784477
              ],
              [
                1188.9949254877529,
                599.304538998045
              ],
              [
                1188.9968384380572,
                599.3059365709347
              ],
              [
                1189.0100830078125,
                599.3169799804688
              ],
              [
                1189.0103271484375,
                599.3171630859375
              ],
              [
                1189.029901527985,
                599.3304218454165
              ],
              [
                1189.0444876882827,
                599.3412396791693
              ],
              [
                1189.0728663612394,
                599.3629720025442
              ],
              [
                1189.0753401390568,
                599.364512553615
              ],
              [
                1189.0773546552255,
                599.3660454369876
              ],
              [
                1189.08020634125,
                599.3678078758761
              ],
              [
                1189.0923423237211,
                599.3769067138205
              ],
              [
                1189.0936249325239,
                599.3776823432032
              ],
              [
                1189.0986984011483,
                599.3814450839801
              ],
              [
                1189.1070145563272,
                599.3864295955713
              ],
              [
                1189.1103509304146,
                599.3888671005935
              ],
              [
                1189.1303889931914,
                599.4006928531493
              ],
              [
                1189.134582575538,
                599.4036828383121
              ],
              [
                1189.1389072725897,
                599.4061335754664
              ],
              [
                1189.1404382996886,
                599.4072142075366
              ],
              [
                1189.157464377506,
                599.4168268901409
              ],
              [
                1189.169684279974,
                599.425104074472
              ],
              [
                1189.172358490102,
                599.4265618452926
              ],
              [
                1189.1766099864174,
                599.4294343461451
              ],
              [
                1189.1975809016567,
                599.4407129739296
              ],
              [
                1189.2007762233945,
                599.442628176075
              ],
              [
                1189.236722982714,
                599.4650141066827
              ],
              [
                1189.2406034976855,
                599.4669387702519
              ],
              [
                1189.2421093877697,
                599.4678694615073
              ],
              [
                1189.245587897155,
                599.469578594197
              ],
              [
                1189.262465259139,
                599.4797848065904
              ],
              [
                1189.2639401555207,
                599.480487180032
              ],
              [
                1189.2670453935355,
                599.4823483880717
              ],
              [
                1189.2671413571957,
                599.4823937755027
              ],
              [
                1189.267167463848,
                599.482409423228
              ],
              [
                1189.2675483101584,
                599.4825895501178
              ],
              [
                1189.2682660966605,
                599.4830197747905
              ],
              [
                1189.2764295564243,
                599.4868808037082
              ],
              [
                1189.2787414747381,
                599.4882452157381
              ],
              [
                1189.3037576693152,
                599.4998806431503
              ],
              [
                1189.3069107708156,
                599.5016753202199
              ],
              [
                1189.309724083102,
                599.5029327498559
              ],
              [
                1189.3151675355625,
                599.5060174679373
              ],
              [
                1189.330585915315,
                599.5128150985737
              ],
              [
                1189.3386793130474,
                599.5172269878753
              ],
              [
                1189.3443024116,
                599.5196230872828
              ],
              [
                1189.3539913328418,
                599.5248340060755
              ],
              [
                1189.3742556274035,
                599.5332277517148
              ],
              [
                1189.4096536609304,
                599.550784520868
              ],
              [
                1189.4150266868098,
                599.5528307410796
              ],
              [
                1189.415940693573,
                599.5532798296587
              ],
              [
                1189.42001101653,
                599.5548110641712
              ],
              [
                1189.4419616616856,
                599.5652643749095
              ],
              [
                1189.4427778480147,
                599.5655576861601
              ],
              [
                1189.4456927055824,
                599.5669363111164
              ],
              [
                1189.4553790247323,
                599.5704021315267
              ],
              [
                1189.4560313048262,
                599.5707055173059
              ],
              [
                1189.4662895650888,
                599.5743059852889
              ],
              [
                1189.4819393271255,
                599.5799055596829
              ],
              [
                1189.4841880388153,
                599.5809106371267
              ],
              [
                1189.4877341354045,
                599.5820983548225
              ],
              [
                1189.4925137875227,
                599.5842056002135
              ],
              [
                1189.5072899880472,
                599.5890749084948
              ],
              [
                1189.5157471021705,
                599.5926786308818
              ],
              [
                1189.5243780634826,
                599.5954105007553
              ],
              [
                1189.5400681872065,
                599.601909562797
              ],
              [
                1189.5582396367765,
                599.6073708157695
              ],
              [
                1189.5900474781665,
                599.619484259739
              ],
              [
                1189.5969508846442,
                599.6213749303681
              ],
              [
                1189.5972183716176,
                599.6214755575885
              ],
              [
                1189.6008568805796,
                599.6224549406734
              ],
              [
                1189.6304902158035,
                599.6330579175582
              ],
              [
                1189.667735115556,
                599.6423872792798
              ],
              [
                1189.6683136120844,
                599.6425810389663
              ],
              [
                1189.6706978517843,
                599.6431294060715
              ],
              [
                1189.673297738975,
                599.6437806439106
              ],
              [
                1189.6764639445105,
                599.6448240265319
              ],
              [
                1189.6766366393326,
                599.644862907808
              ],
              [
                1189.677074296073,
                599.6450071320006
              ],
              [
                1189.6881430294302,
                599.64749919559
              ],
              [
                1189.6919872666754,
                599.6484621268918
              ],
              [
                1189.6992477361227,
                599.650760208998
              ],
              [
                1189.710850300808,
                599.6532364710856
              ],
              [
                1189.732953486579,
                599.65987936925
              ],
              [
                1189.7486029435263,
                599.6629086419488
              ],
              [
                1189.776223994605,
                599.6704733580332
              ],
              [
                1189.784945606354,
                599.6719773627844
              ],
              [
                1189.7857072320835,
                599.6721833123695
              ],
              [
                1189.788628196678,
                599.6726694196782
              ],
              [
                1189.8208789262803,
                599.6807478069002
              ],
              [
                1189.8646744327652,
                599.6872442566043
              ],
              [
                1189.8660253321536,
                599.6875484040683
              ],
              [
                1189.8705144182945,
                599.6881105366251
              ],
              [
                1189.8827742092396,
                599.689929104822
              ],
              [
                1189.8874817259675,
                599.6909338003799
              ],
              [
                1189.896534958457,
                599.6919703191464
              ],
              [
                1189.9059615705426,
                599.6933686249592
              ],
              [
                1189.9306911214799,
                599.6981555356974
              ],
              [
                1189.9434754585327,
                599.6993151597131
              ],
              [
                1189.9664489022962,
                599.7032768321158
              ],
              [
                1189.977467200096,
                599.7040960312504
              ],
              [
                1189.981302167034,
                599.7047342469483
              ],
              [
                1189.9836035543087,
                599.7048857252958
              ],
              [
                1190.0150252896533,
                599.7095466994382
              ],
              [
                1190.0180769523615,
                599.7096966180136
              ],
              [
                1190.0185976477474,
                599.7097732392856
              ],
              [
                1190.0395502149306,
                599.7107515317579
              ],
              [
                1190.0763769931395,
                599.7125607153584
              ],
              [
                1190.0787057448485,
                599.7128273377888
              ],
              [
                1190.083552903007,
                599.7129132452045
              ],
              [
                1190.1050088609995,
                599.7139673088294
              ],
              [
                1190.1312757733951,
                599.7163498916968
              ],
              [
                1190.140944730292,
                599.7162504178626
              ],
              [
                1190.1589501809235,
                599.7175891046402
              ],
              [
                1190.172129768076,
                599.7172946056339
              ],
              [
                1190.1791590411783,
                599.7177572755569
              ],
              [
                1190.1809412153827,
                599.7176976261958
              ],
              [
                1190.2110595703125,
                599.7191772460938
              ],
              [
                1190.2154199611368,
                599.7189630338288
              ],
              [
                1190.2171920465307,
                599.719045773943
              ],
              [
                1190.2629389982376,
                599.716628573232
              ],
              [
                1190.2709572756994,
                599.7162346605197
              ],
              [
                1190.2711487737922,
                599.716238054489
              ],
              [
                1190.2715814449564,
                599.7162039970503
              ],
              [
                1190.3049903390474,
                599.7145627233294
              ],
              [
                1190.3326732513299,
                599.7142779226567
              ],
              [
                1190.3390747028002,
                599.713564206738
              ],
              [
                1190.351934604874,
                599.7132768511224
              ],
              [
                1190.3664423034256,
                599.7115437819074
              ],
              [
                1190.3699472306025,
                599.7113715958765
              ],
              [
                1190.3773330727088,
                599.7111243917807
              ],
              [
                1190.3787048747554,
                599.7109413604079
              ],
              [
                1190.4070938509717,
                599.7095466994382
              ],
              [
                1190.4126966550496,
                599.7087156019624
              ],
              [
                1190.4157258476873,
                599.7085555439404
              ],
              [
                1190.4725941721447,
                599.6998306446128
              ],
              [
                1190.5038863003772,
                599.6951888958693
              ],
              [
                1190.5328411211694,
                599.6919606410557
              ],
              [
                1190.5359247255458,
                599.6912976507092
              ],
              [
                1190.5436044478454,
                599.6903802419107
              ],
              [
                1190.5589637168266,
                599.6870189329093
              ],
              [
                1190.5675766552179,
                599.6857413241873
              ],
              [
                1190.5738763624038,
                599.6849007917962
              ],
              [
                1190.5749471336865,
                599.6846480169851
              ],
              [
                1190.6012402143447,
                599.6807478069002
              ],
              [
                1190.6079821721846,
                599.6790590343751
              ],
              [
                1190.6122372536,
                599.6784062077386
              ],
              [
                1190.6743680389252,
                599.6624302404156
              ],
              [
                1190.695449327531,
                599.6571496525158
              ],
              [
                1190.7321742293764,
                599.6491125679838
              ],
              [
                1190.7483022056647,
                599.6439106957348
              ],
              [
                1190.7612198979145,
                599.6406749822704
              ],
              [
                1190.7668570399867,
                599.6393442335426
              ],
              [
                1190.7677295056033,
                599.6390444104285
              ],
              [
                1190.7916289248215,
                599.6330579175582
              ],
              [
                1190.7993718943737,
                599.6302874387524
              ],
              [
                1190.8047844508062,
                599.628895683856
              ],
              [
                1190.8688729502146,
                599.6054195633352
              ],
              [
                1190.8801412825924,
                599.6013876895407
              ],
              [
                1190.915887347306,
                599.5898582540603
              ],
              [
                1190.919331442321,
                599.5883672496191
              ],
              [
                1190.9214012357802,
                599.5876984647228
              ],
              [
                1190.934703656046,
                599.5818649601505
              ],
              [
                1190.9489226321969,
                599.5767773291325
              ],
              [
                1190.9543782529345,
                599.5749025031588
              ],
              [
                1190.9551425265256,
                599.5745518153557
              ],
              [
                1190.9764264350426,
                599.5669363111164
              ],
              [
                1190.9850000342637,
                599.5628813006821
              ],
              [
                1190.9914647978899,
                599.5605132070082
              ],
              [
                1191.0553118504968,
                599.5296262882752
              ],
              [
                1191.0584869147365,
                599.5281245947285
              ],
              [
                1191.093032441217,
                599.5131692775307
              ],
              [
                1191.099465975632,
                599.5096118118171
              ],
              [
                1191.10585297225,
                599.5068109249686
              ],
              [
                1191.117958188672,
                599.4999967769796
              ],
              [
                1191.1288067447126,
                599.494865792103
              ],
              [
                1191.1345968110877,
                599.4922090135875
              ],
              [
                1191.135325724339,
                599.491782544365
              ],
              [
                1191.1538530439645,
                599.4830197747905
              ],
              [
                1191.1630578157256,
                599.4775026469171
              ],
              [
                1191.1704336262962,
                599.4739344937701
              ],
              [
                1191.2296701676241,
                599.4376145364613
              ],
              [
                1191.2619593344364,
                599.4197600265686
              ],
              [
                1191.2686135307736,
                599.4151913707283
              ],
              [
                1191.2770065221555,
                599.4104668715245
              ],
              [
                1191.2895188001785,
                599.4017048498254
              ],
              [
                1191.2990900341156,
                599.3959680729765
              ],
              [
                1191.3057413038,
                599.3920765786104
              ],
              [
                1191.3064871983945,
                599.3915343833331
              ],
              [
                1191.3222000363517,
                599.3821164706989
              ],
              [
                1191.3318110701787,
                599.3749884422108
              ],
              [
                1191.3399224682935,
                599.3700150655308
              ],
              [
                1191.391902109604,
                599.3305435699748
              ],
              [
                1191.4210944060826,
                599.3105006453235
              ],
              [
                1191.4278206016406,
                599.3048557082685
              ],
              [
                1191.437777052312,
                599.2978834657506
              ],
              [
                1191.4505449868843,
                599.2869293680251
              ],
              [
                1191.4581043784865,
                599.2813229411138
              ],
              [
                1191.4661295115518,
                599.2754894235098
              ],
              [
                1191.4669225626417,
                599.274782930018
              ],
              [
                1191.4798461386397,
                599.2651981528193
              ],
              [
                1191.489617078221,
                599.2563422893911
              ],
              [
                1191.49825653196,
                599.2497817947193
              ],
              [
                1191.5429760402615,
                599.2082118927665
              ],
              [
                1191.5689552499696,
                599.1864089281823
              ],
              [
                1191.5755908035155,
                599.1796477957556
              ],
              [
                1191.5867383249401,
                599.1700839122324
              ],
              [
                1191.599510768193,
                599.1567404545918
              ],
              [
                1191.6043121651262,
                599.1523887220742
              ],
              [
                1191.614184940881,
                599.1435935108875
              ],
              [
                1191.6150330116836,
                599.1426719131473
              ],
              [
                1191.6252731326856,
                599.1333908084669
              ],
              [
                1191.6349404942114,
                599.1227245187091
              ],
              [
                1191.6438712505217,
                599.1144227578384
              ],
              [
                1191.6814642405636,
                599.0717706874802
              ],
              [
                1191.7041644838048,
                599.0486408386128
              ],
              [
                1191.710544114161,
                599.0407431689306
              ],
              [
                1191.7224557615539,
                599.0282989905327
              ],
              [
                1191.7347599140367,
                599.0126195788541
              ],
              [
                1191.7352330179401,
                599.0121166739658
              ],
              [
                1191.7354717742726,
                599.0118053439189
              ],
              [
                1191.736320812979,
                599.0108685740635
              ],
              [
                1191.748452320108,
                598.9976852767273
              ],
              [
                1191.7493422798004,
                598.9965015993913
              ],
              [
                1191.757080477038,
                598.987963814421
              ],
              [
                1191.766368201432,
                598.9754407677643
              ],
              [
                1191.7753277425077,
                598.9652754955711
              ],
              [
                1191.8060565921996,
                598.9225034026786
              ],
              [
                1191.825462580052,
                598.898479740905
              ],
              [
                1191.8314223266902,
                598.889440858181
              ],
              [
                1191.8436223290482,
                598.8738941669551
              ],
              [
                1191.8552497375476,
                598.8556409980472
              ],
              [
                1191.8560936156596,
                598.8545186108155
              ],
              [
                1191.8576810519037,
                598.8524486485436
              ],
              [
                1191.8578247437174,
                598.8522161503051
              ],
              [
                1191.8676119035456,
                598.8391988874214
              ],
              [
                1191.8685122777865,
                598.8377154241128
              ],
              [
                1191.8739987949175,
                598.8303177121329
              ],
              [
                1191.8826229566955,
                598.8159291674735
              ],
              [
                1191.8913270299547,
                598.8038137959672
              ],
              [
                1191.915572539213,
                598.7618139726128
              ],
              [
                1191.9317195989283,
                598.7373244451263
              ],
              [
                1191.9370971397732,
                598.7271536865752
              ],
              [
                1191.949071127142,
                598.7083564443567
              ],
              [
                1191.9580226346848,
                598.6906910109627
              ],
              [
                1191.9587591123495,
                598.6895129562628
              ],
              [
                1191.960059919137,
                598.6868808480364
              ],
              [
                1191.962923513645,
                598.6821627683865
              ],
              [
                1191.9634659372177,
                598.6812851086094
              ],
              [
                1191.9635053328902,
                598.6812041586624
              ],
              [
                1191.9704924435882,
                598.6696921430105
              ],
              [
                1191.9713572110727,
                598.6678850079627
              ],
              [
                1191.9749020990091,
                598.6619707197458
              ],
              [
                1191.9825756958453,
                598.6457462623922
              ],
              [
                1191.9907228741647,
                598.6316331313126
              ],
              [
                1192.0089719436255,
                598.5912139890503
              ],
              [
                1192.0219457142405,
                598.5666761766508
              ],
              [
                1192.0265801613125,
                598.5553955409544
              ],
              [
                1192.0377866262647,
                598.5332800414984
              ],
              [
                1192.0444875740936,
                598.5160463111191
              ],
              [
                1192.0470806151707,
                598.5107994406259
              ],
              [
                1192.049099490039,
                598.5054242314785
              ],
              [
                1192.0560827031818,
                598.4908311652009
              ],
              [
                1192.0568560047461,
                598.4886937445574
              ],
              [
                1192.058818635335,
                598.4845441108239
              ],
              [
                1192.0598487500097,
                598.4816651331737
              ],
              [
                1192.0601614087725,
                598.4810040717614
              ],
              [
                1192.0653078865744,
                598.4666206298674
              ],
              [
                1192.0684327765964,
                598.4598103818407
              ],
              [
                1192.0688555233287,
                598.4585802165496
              ],
              [
                1192.0725331021822,
                598.4504348925825
              ],
              [
                1192.0853647369506,
                598.4123089176671
              ],
              [
                1192.0953004340079,
                598.3881245916515
              ],
              [
                1192.0990317085734,
                598.3757678115086
              ],
              [
                1192.1089144476634,
                598.3503510398461
              ],
              [
                1192.1134922629735,
                598.3339799148804
              ],
              [
                1192.117172526899,
                598.324181294557
              ],
              [
                1192.1193727243785,
                598.3158963091738
              ],
              [
                1192.1235413955096,
                598.3043740206618
              ],
              [
                1192.123978698951,
                598.3026466940645
              ],
              [
                1192.1262830152143,
                598.2962065615402
              ],
              [
                1192.1306594637995,
                598.2787347994102
              ],
              [
                1192.13287450698,
                598.2722891688929
              ],
              [
                1192.133778653189,
                598.2684591440903
              ],
              [
                1192.1359493120653,
                598.2620095772685
              ],
              [
                1192.1440192788002,
                598.2267834618724
              ],
              [
                1192.1511004299782,
                598.2033329688227
              ],
              [
                1192.1512225002907,
                598.2028446875727
              ],
              [
                1192.153324992607,
                598.1915306131127
              ],
              [
                1192.1617695915359,
                598.161331145685
              ],
              [
                1192.1644347481183,
                598.1462123551155
              ],
              [
                1192.1683384982598,
                598.1315125324116
              ],
              [
                1192.16978689514,
                598.122529337414
              ],
              [
                1192.1739729045564,
                598.1058178510635
              ],
              [
                1192.1770160655124,
                598.0853025263172
              ],
              [
                1192.1784310652336,
                598.07930849131
              ],
              [
                1192.17930508143,
                598.0727578263154
              ],
              [
                1192.1803448610526,
                598.0682190967044
              ],
              [
                1192.1849303245265,
                598.0319489258502
              ],
              [
                1192.185265724937,
                598.0296878399452
              ],
              [
                1192.1893220886036,
                598.0093311759738
              ],
              [
                1192.1903257373187,
                597.9993390171904
              ],
              [
                1192.1958430339525,
                597.9680407239247
              ],
              [
                1192.1968778824048,
                597.954506591318
              ],
              [
                1192.2000702054522,
                597.9347072802191
              ],
              [
                1192.2005591001596,
                597.9265882787641
              ],
              [
                1192.2027717970943,
                597.9116714876903
              ],
              [
                1192.2039221644313,
                597.8882552226057
              ],
              [
                1192.2046546652182,
                597.8827652016151
              ],
              [
                1192.2049656753652,
                597.8734729937646
              ],
              [
                1192.2052810576884,
                597.8709783777225
              ],
              [
                1192.205869666218,
                597.8486129130378
              ],
              [
                1192.2062568579677,
                597.8407314439114
              ],
              [
                1192.208619247109,
                597.817211892645
              ],
              [
                1192.208679387796,
                597.8001621184078
              ],
              [
                1192.2108066290366,
                597.7723412669899
              ],
              [
                1192.2105510716326,
                597.7606530994426
              ],
              [
                1192.2120524002437,
                597.7357207592186
              ],
              [
                1192.2117682651428,
                597.7285441735916
              ],
              [
                1192.21240234375,
                597.7156372070312
              ],
              [
                1192.2111512403999,
                597.6886637310721
              ],
              [
                1192.2112875489945,
                597.6845911700846
              ],
              [
                1192.2105008878416,
                597.6726395479706
              ],
              [
                1192.2105114967217,
                597.6722364404404
              ],
              [
                1192.2101784585172,
                597.6676907964791
              ],
              [
                1192.2092195833002,
                597.6470176861271
              ],
              [
                1192.2093003266168,
                597.6241271043166
              ],
              [
                1192.2073568600838,
                597.6033018748683
              ],
              [
                1192.2073012439491,
                597.5985319718695
              ],
              [
                1192.2069309108415,
                597.5950815087592
              ],
              [
                1192.206516269188,
                597.5761174676311
              ],
              [
                1192.205565370226,
                597.5682337643149
              ],
              [
                1192.2045810701322,
                597.5470124999663
              ],
              [
                1192.2041660419,
                597.5365298611233
              ],
              [
                1192.2040596609386,
                597.5357710478951
              ],
              [
                1192.203809739333,
                597.5303828004576
              ],
              [
                1192.2028686728977,
                597.523660816142
              ],
              [
                1192.2026838724653,
                597.5198888882376
              ],
              [
                1192.1986564956053,
                597.4926895152687
              ],
              [
                1192.1982645203857,
                597.4867342959403
              ],
              [
                1192.1947026831615,
                597.4653316133692
              ],
              [
                1192.1940380795434,
                597.4605843873186
              ],
              [
                1192.1913589790913,
                597.4318764673811
              ],
              [
                1192.186407430879,
                597.4060790955413
              ],
              [
                1192.1835148635255,
                597.3854176505564
              ],
              [
                1192.1830132729165,
                597.381259068303
              ],
              [
                1192.1828169295904,
                597.3803736073766
              ],
              [
                1192.1827691322915,
                597.3799773300218
              ],
              [
                1192.182725988911,
                597.3797827638072
              ],
              [
                1192.178105758933,
                597.3467807224213
              ],
              [
                1192.1767727284355,
                597.341133914617
              ],
              [
                1192.1764894798305,
                597.3391135080926
              ],
              [
                1192.1750294322549,
                597.3331213073399
              ],
              [
                1192.1739867604601,
                597.3260794982391
              ],
              [
                1192.1736276891377,
                597.3246433498033
              ],
              [
                1192.1734532218513,
                597.3234676757227
              ],
              [
                1192.1664285871354,
                597.2954357242163
              ],
              [
                1192.165713585807,
                597.2911393609897
              ],
              [
                1192.1610003900798,
                597.2737094101982
              ],
              [
                1192.1549624277563,
                597.2422518634816
              ],
              [
                1192.1472162812486,
                597.2159307951603
              ],
              [
                1192.1355112666854,
                597.166347557793
              ],
              [
                1192.1314590638856,
                597.1543035766841
              ],
              [
                1192.1292976752036,
                597.1454329925316
              ],
              [
                1192.1277081790147,
                597.1409211271405
              ],
              [
                1192.1257246484968,
                597.1330058071932
              ],
              [
                1192.1143932336104,
                597.1013506772234
              ],
              [
                1192.1139546960594,
                597.0997289139071
              ],
              [
                1192.111521221093,
                597.0933275017926
              ],
              [
                1192.1093487039682,
                597.0872584175136
              ],
              [
                1192.1089997028555,
                597.086072526939
              ],
              [
                1192.108792377351,
                597.0853179054664
              ],
              [
                1192.1086703070384,
                597.0849516945289
              ],
              [
                1192.1086683700164,
                597.0849466723888
              ],
              [
                1192.100449908483,
                597.0570206981891
              ],
              [
                1192.089978742571,
                597.0310155205384
              ],
              [
                1192.0763922602123,
                596.9906336973798
              ],
              [
                1192.06863570625,
                596.9731370846417
              ],
              [
                1192.062640855501,
                596.9561398348195
              ],
              [
                1192.061656495957,
                596.954026772721
              ],
              [
                1192.059549936169,
                596.9481419450499
              ],
              [
                1192.0515738620004,
                596.9312858492987
              ],
              [
                1192.050540372658,
                596.928474462
              ]
            ]
          ]
        ]
      }
    }
  ]
}