{
  "type": "FeatureCollection",
  "features": [
    {
      "type": "Feature",
      "properties": {
        "image_id": "0011_top_20250703_t1",
        "zone_type": "parking_spot",
        "generated_at": "2025-11-03T11:20:40",
        "source": "merged_t1_polygons"
      },
      "geometry": {
        "type": "MultiPolygon",
        "coordinates": [
          [
            [
              [
                896.7374449960461,
                665.6250907969595
              ],
              [
                896.7484523167137,
                665.6259091799556
              ],
              [
                896.766440397854,
                665.628828243674
              ],
              [
                896.7760050491216,
                665.6293416411936
              ],
              [
                896.7846786099659,
                665.6306282424069
              ],
              [
                896.7866859766908,
                665.6307268580105
              ],
              [
                896.7873202988038,
                665.6308196904399
              ],
              [
                896.8314121719868,
                665.6329571349092
              ],
              [
                896.8396062371625,
                665.6339454684065
              ],
              [
                896.8618180060027,
                665.6344311204095
              ],
              [
                896.8654249210958,
                665.6346059730562
              ],
              [
                896.8738671517068,
                665.6352336442388
              ],
              [
                896.8983773928362,
                665.6375361105298
              ],
              [
                896.904264429797,
                665.6374936506716
              ],
              [
                896.9299462746734,
                665.6394030694839
              ],
              [
                896.9528683394352,
                665.6388908739793
              ],
              [
                896.9651374544616,
                665.6394936169501
              ],
              [
                896.9805297851562,
                665.6403198242188
              ],
              [
                896.9808959960938,
                665.6403198242188
              ],
              [
                897.0271706814738,
                665.6380464947019
              ],
              [
                897.0358300365212,
                665.6382358282555
              ],
              [
                897.0579809279772,
                665.6365421241661
              ],
              [
                897.0683653199195,
                665.6363100840368
              ],
              [
                897.1000393917348,
                665.6360816369238
              ],
              [
                897.1056020244887,
                665.635478026677
              ],
              [
                897.1229306986241,
                665.6350908159661
              ],
              [
                897.1477944263193,
                665.6321206301103
              ],
              [
                897.1769302767528,
                665.6306892775632
              ],
              [
                897.1855480405305,
                665.6294109530628
              ],
              [
                897.1891703892234,
                665.6292241685721
              ],
              [
                897.1913466689006,
                665.6288851062321
              ],
              [
                897.1946802076147,
                665.6287061733615
              ],
              [
                897.2251684580889,
                665.6237586114119
              ],
              [
                897.231529493456,
                665.6232722331713
              ],
              [
                897.251846736263,
                665.6196906878647
              ],
              [
                897.2593292211561,
                665.6187968407687
              ],
              [
                897.3005297262519,
                665.6143261075483
              ],
              [
                897.3054002500767,
                665.6132932606081
              ],
              [
                897.3146005415953,
                665.6121942067545
              ],
              [
                897.3419213962675,
                665.6062151569149
              ],
              [
                897.3428630423614,
                665.6060754769117
              ],
              [
                897.3603388899736,
                665.6035947127252
              ],
              [
                897.3615261196629,
                665.6033070709096
              ],
              [
                897.371076640126,
                665.6018903850252
              ],
              [
                897.3712703022853,
                665.6018418751796
              ],
              [
                897.3733223572297,
                665.6015380299914
              ],
              [
                897.3839837372758,
                665.598872430992
              ],
              [
                897.392699253081,
                665.5975145617739
              ],
              [
                897.4020148667353,
                665.5950603900077
              ],
              [
                897.406309369479,
                665.5943634881509
              ],
              [
                897.4447789627695,
                665.5837943112512
              ],
              [
                897.4459038742274,
                665.5834979565459
              ],
              [
                897.4978099270865,
                665.5724907199929
              ],
              [
                897.501670346983,
                665.5712547960619
              ],
              [
                897.5031703231263,
                665.5709265328276
              ],
              [
                897.5146837544715,
                665.5672130229652
              ],
              [
                897.5158216508224,
                665.5669579007326
              ],
              [
                897.5177781590452,
                665.5663143218216
              ],
              [
                897.518238203927,
                665.5662107452819
              ],
              [
                897.5256010678883,
                665.5637844074421
              ],
              [
                897.5330542976758,
                665.5620249385603
              ],
              [
                897.5330801828486,
                665.5620162294823
              ],
              [
                897.534336035957,
                665.561719762779
              ],
              [
                897.5373205153159,
                665.5607156333716
              ],
              [
                897.5482039989636,
                665.5580787847266
              ],
              [
                897.550927846454,
                665.557132426559
              ],
              [
                897.5633939809707,
                665.5540155959469
              ],
              [
                897.5643132267276,
                665.5536873171307
              ],
              [
                897.565188495134,
                665.5534680738082
              ],
              [
                897.5799758027246,
                665.5481770905494
              ],
              [
                897.5918871573697,
                665.5450390782453
              ],
              [
                897.6081146798781,
                665.5389192829366
              ],
              [
                897.6130463523461,
                665.5375643500073
              ],
              [
                897.6420251575067,
                665.5263198216805
              ],
              [
                897.6898741637121,
                665.5110008321853
              ],
              [
                897.7061507314226,
                665.5039126320864
              ],
              [
                897.7100498963702,
                665.5026007563059
              ],
              [
                897.7179010686011,
                665.4991201945545
              ],
              [
                897.7307976793182,
                665.4946394690622
              ],
              [
                897.7347534658426,
                665.4928201121273
              ],
              [
                897.747903834939,
                665.4881238841953
              ],
              [
                897.74818758722,
                665.4879899516644
              ],
              [
                897.7499860053551,
                665.4873464673664
              ],
              [
                897.7701270898565,
                665.4778204438489
              ],
              [
                897.7846212414133,
                665.4723543450866
              ],
              [
                897.8251284679379,
                665.4520996197401
              ],
              [
                897.8747696384985,
                665.4304816375994
              ],
              [
                897.8950410810588,
                665.4191001622413
              ],
              [
                897.906414277872,
                665.4138693682216
              ],
              [
                897.9110341831098,
                665.411176352067
              ],
              [
                897.927412614277,
                665.4034299310405
              ],
              [
                897.9277454008752,
                665.4032304664296
              ],
              [
                897.9278398603708,
                665.4031857904155
              ],
              [
                897.9524468007834,
                665.3884369579237
              ],
              [
                897.9688571026235,
                665.3802313564757
              ],
              [
                898.0032521158581,
                665.3583446820936
              ],
              [
                898.0506164416221,
                665.3317518086498
              ],
              [
                898.0668268467583,
                665.3203623335118
              ],
              [
                898.073413316123,
                665.3165229758868
              ],
              [
                898.0782468571888,
                665.3130396865467
              ],
              [
                898.0818917104648,
                665.3108932996855
              ],
              [
                898.0822243815948,
                665.3106512694762
              ],
              [
                898.0961868527579,
                665.3022824863239
              ],
              [
                898.1253863297516,
                665.2806266782607
              ],
              [
                898.142640482243,
                665.2696472954431
              ],
              [
                898.1712367896148,
                665.2470036211092
              ],
              [
                898.1865464086515,
                665.2362470407571
              ],
              [
                898.2069970021514,
                665.2219904103297
              ],
              [
                898.2077475940409,
                665.2213510297161
              ],
              [
                898.215626664899,
                665.2158151729072
              ],
              [
                898.2279141186243,
                665.2051820374197
              ],
              [
                898.2302348143522,
                665.2035096290176
              ],
              [
                898.2338064253913,
                665.2003698820129
              ],
              [
                898.2383247478949,
                665.1970826399212
              ],
              [
                898.2398136495523,
                665.1957615940221
              ],
              [
                898.253832955046,
                665.1853641684443
              ],
              [
                898.2827716302673,
                665.1591356820823
              ],
              [
                898.293132960062,
                665.1510135844213
              ],
              [
                898.2964103539034,
                665.1478862984387
              ],
              [
                898.3041279949005,
                665.1417751685264
              ],
              [
                898.3246101597001,
                665.1218033794182
              ],
              [
                898.3542631906283,
                665.0965438830477
              ],
              [
                898.3566246023199,
                665.0941011546977
              ],
              [
                898.3597219320549,
                665.0914467424474
              ],
              [
                898.361559276555,
                665.0895301616711
              ],
              [
                898.3681225801967,
                665.0838505067622
              ],
              [
                898.3793507544138,
                665.0719556198391
              ],
              [
                898.3830303492423,
                665.0686908550814
              ],
              [
                898.3855157854529,
                665.0660138078966
              ],
              [
                898.3992599490919,
                665.0535568240919
              ],
              [
                898.4248046672991,
                665.0253725707721
              ],
              [
                898.4336176871213,
                665.0169631959185
              ],
              [
                898.4414892715264,
                665.0078366676289
              ],
              [
                898.4516066820886,
                664.9979713632508
              ],
              [
                898.4644748915904,
                664.9825369746357
              ],
              [
                898.4887206445562,
                664.9574563043109
              ],
              [
                898.4913823604618,
                664.9541084011184
              ],
              [
                898.4952477463895,
                664.9500763187507
              ],
              [
                898.4994828041534,
                664.944690303158
              ],
              [
                898.506553697599,
                664.9371995503113
              ],
              [
                898.5135293020509,
                664.9281312813723
              ],
              [
                898.514654643059,
                664.9269191838882
              ],
              [
                898.5179288480989,
                664.9226258706301
              ],
              [
                898.5310672934443,
                664.908129830046
              ],
              [
                898.5530470667902,
                664.8784935364353
              ],
              [
                898.5604407464165,
                664.869921103898
              ],
              [
                898.5718770718119,
                664.8537166451692
              ],
              [
                898.583512182157,
                664.8397612604186
              ],
              [
                898.5901951573668,
                664.8298217792739
              ],
              [
                898.6091113745683,
                664.8060289831209
              ],
              [
                898.6119137805957,
                664.8017040616537
              ],
              [
                898.6162975283204,
                664.7961289467637
              ],
              [
                898.6223040342264,
                664.7867243922719
              ],
              [
                898.629512529888,
                664.7773533653229
              ],
              [
                898.6369093275248,
                664.7654183676025
              ],
              [
                898.6479856113239,
                664.7504837277579
              ],
              [
                898.6663077013318,
                664.719915167344
              ],
              [
                898.6724066573353,
                664.7112733809809
              ],
              [
                898.686109281807,
                664.6871989853634
              ],
              [
                898.6866223628676,
                664.6864071531764
              ],
              [
                898.6984453240814,
                664.6688230538238
              ],
              [
                898.6986284295501,
                664.6685178780425
              ],
              [
                898.700623509213,
                664.6647993426725
              ],
              [
                898.7143090001344,
                664.6436786796074
              ],
              [
                898.7170837060635,
                664.6383252060493
              ],
              [
                898.7217106270258,
                664.6310807063352
              ],
              [
                898.728769603841,
                664.6171985240622
              ],
              [
                898.7357489030563,
                664.6059371749872
              ],
              [
                898.7406760672155,
                664.5958390447832
              ],
              [
                898.7488889154155,
                664.5821367353708
              ],
              [
                898.7490236548743,
                664.5818518527204
              ],
              [
                898.7494382318217,
                664.5811601728708
              ],
              [
                898.7640575427243,
                664.5502502369774
              ],
              [
                898.7684599881886,
                664.5425154987155
              ],
              [
                898.7792237054963,
                664.5184332779039
              ],
              [
                898.7812556125009,
                664.5145129487952
              ],
              [
                898.7893327156299,
                664.4994584152689
              ],
              [
                898.7904851429623,
                664.4967056392845
              ],
              [
                898.8033292880232,
                664.4719243497644
              ],
              [
                898.8059010995249,
                664.4655117413868
              ],
              [
                898.8104763194982,
                664.4565141147802
              ],
              [
                898.8166215950017,
                664.4407850399214
              ],
              [
                898.8194046813736,
                664.4351394653384
              ],
              [
                898.8204983722717,
                664.4322447330071
              ],
              [
                898.8241826673506,
                664.4246938395897
              ],
              [
                898.8267981303919,
                664.4175964097461
              ],
              [
                898.8333547681476,
                664.4037335639489
              ],
              [
                898.8448542412712,
                664.3715946895862
              ],
              [
                898.8476953050955,
                664.365238230716
              ],
              [
                898.8556938519689,
                664.3413574551014
              ],
              [
                898.8596493926397,
                664.3314946275867
              ],
              [
                898.8634208742789,
                664.3224857783599
              ],
              [
                898.8639594501908,
                664.3207478402963
              ],
              [
                898.8753393608274,
                664.2923729340353
              ],
              [
                898.8775282314299,
                664.284892103433
              ],
              [
                898.8817435015699,
                664.2741029533706
              ],
              [
                898.8861217908501,
                664.2585555930646
              ],
              [
                898.8877780290361,
                664.2541719356401
              ],
              [
                898.8898755651791,
                664.2464268458798
              ],
              [
                898.8939146796068,
                664.2354661361214
              ],
              [
                898.8948227583534,
                664.2319420398226
              ],
              [
                898.8994763745894,
                664.2189360537277
              ],
              [
                898.9077195148014,
                664.18602759332
              ],
              [
                898.9093657069351,
                664.181112657447
              ],
              [
                898.9140246617015,
                664.1608560359053
              ],
              [
                898.9152370292297,
                664.1560159934246
              ],
              [
                898.9190979505642,
                664.1428206503838
              ],
              [
                898.9202111394178,
                664.1392284858666
              ],
              [
                898.9203625026388,
                664.1384988326175
              ],
              [
                898.929665489399,
                664.1067043227137
              ],
              [
                898.9312884706671,
                664.0981681449081
              ],
              [
                898.9348288484786,
                664.0855962187674
              ],
              [
                898.9375252601837,
                664.0704817656958
              ],
              [
                898.9383476294997,
                664.0674451914801
              ],
              [
                898.9402761747402,
                664.0560541211922
              ],
              [
                898.9471662639314,
                664.028547343251
              ],
              [
                898.9520908640312,
                663.9953483860622
              ],
              [
                898.9528898659098,
                663.991874414007
              ],
              [
                898.9548590111837,
                663.9766870537832
              ],
              [
                898.9565391220186,
                663.9653606665532
              ],
              [
                898.9657993962858,
                663.9166556388226
              ],
              [
                898.9666726098852,
                663.9070993532954
              ],
              [
                898.9692233667298,
                663.8928013532717
              ],
              [
                898.970360734701,
                663.8783578297637
              ],
              [
                898.9706403515411,
                663.8767062558147
              ],
              [
                898.9711334484507,
                663.8697678557609
              ],
              [
                898.9713968446046,
                663.8681851376534
              ],
              [
                898.9717502893434,
                663.8628153060027
              ],
              [
                898.9759651564694,
                663.8344009798778
              ],
              [
                898.9775865202067,
                663.8013973628136
              ],
              [
                898.9778575073543,
                663.7993073293965
              ],
              [
                898.9781669764592,
                663.7895819043586
              ],
              [
                898.9790461776414,
                663.7716853531588
              ],
              [
                898.9834030111965,
                663.7240049855205
              ],
              [
                898.9833436698394,
                663.713486536026
              ],
              [
                898.9845972744336,
                663.6975669146879
              ],
              [
                898.9843346371258,
                663.6840130347163
              ],
              [
                898.9843540631491,
                663.6837396898258
              ],
              [
                898.9842550021398,
                663.6799033252015
              ],
              [
                898.9841491603045,
                663.6744411631655
              ],
              [
                898.9844198732131,
                663.6703282635093
              ],
              [
                898.9842600778468,
                663.6655539763294
              ],
              [
                898.985595703125,
                663.6383666992188
              ],
              [
                898.984007473077,
                663.6060375338951
              ],
              [
                898.9840332771348,
                663.605226611492
              ],
              [
                898.9837696001952,
                663.6011955201498
              ],
              [
                898.9825727155829,
                663.5768323741759
              ],
              [
                898.9823116339992,
                663.5305548100969
              ],
              [
                898.9811401392981,
                663.5191551152282
              ],
              [
                898.9808031633227,
                663.501764851961
              ],
              [
                898.9779750187729,
                663.4777720797833
              ],
              [
                898.9777869894369,
                663.4721542319787
              ],
              [
                898.9772222826969,
                663.4679218107831
              ],
              [
                898.9759651564694,
                663.4423324185597
              ],
              [
                898.9671121860246,
                663.3826505396594
              ],
              [
                898.9625354756631,
                663.3381150402022
              ],
              [
                898.9600776195147,
                663.325938177583
              ],
              [
                898.9578774121338,
                663.3072725565361
              ],
              [
                898.9525176644727,
                663.2827631392311
              ],
              [
                898.9515633894524,
                663.2756109422837
              ],
              [
                898.9506780461502,
                663.2718605678718
              ],
              [
                898.9471662639314,
                663.2481860551865
              ],
              [
                898.9328363843355,
                663.1909779690451
              ],
              [
                898.924259562724,
                663.1484861500924
              ],
              [
                898.9203488550047,
                663.1356594273973
              ],
              [
                898.9160398378016,
                663.1159548615332
              ],
              [
                898.9080527489276,
                663.0912969112762
              ],
              [
                898.9060068311989,
                663.0826302647008
              ],
              [
                898.90486284484,
                663.0793013393549
              ],
              [
                898.8994763745894,
                663.0577973447098
              ],
              [
                898.8800932381235,
                663.0036251073441
              ],
              [
                898.8678420061684,
                662.9634423153182
              ],
              [
                898.8623221453178,
                662.95011619239
              ],
              [
                898.8556915878063,
                662.9296461613345
              ],
              [
                898.8450384234853,
                662.905216193138
              ],
              [
                898.841565100815,
                662.895109051753
              ],
              [
                898.8402049314764,
                662.8921447584535
              ],
              [
                898.8333547681476,
                662.8729998344886
              ],
              [
                898.8094030051238,
                662.8223580864246
              ],
              [
                898.793810650933,
                662.7847148134679
              ],
              [
                898.7865381456262,
                662.771062632326
              ],
              [
                898.7774112938879,
                662.7501328230243
              ],
              [
                898.7641098745032,
                662.7263065344121
              ],
              [
                898.7588716112438,
                662.7148904935999
              ],
              [
                898.7573216890928,
                662.7122413955296
              ],
              [
                898.7494382318217,
                662.6955732255667
              ],
              [
                898.7214529322848,
                662.6488825740513
              ],
              [
                898.7028581373659,
                662.6139758262639
              ],
              [
                898.6937050772264,
                662.6001933000964
              ],
              [
                898.6819495240032,
                662.5791360583247
              ],
              [
                898.6660722245015,
                662.556279510339
              ],
              [
                898.6587391762666,
                662.5437460008875
              ],
              [
                898.6570139188647,
                662.5413725752527
              ],
              [
                898.6485349277301,
                662.5272262331796
              ],
              [
                898.6170904376498,
                662.4848282463671
              ],
              [
                898.5958354208557,
                662.4528227945628
              ],
              [
                898.5846923823823,
                662.4391272032823
              ],
              [
                898.5702215857214,
                662.4182954202555
              ],
              [
                898.551891904467,
                662.3967568886449
              ],
              [
                898.5421520211661,
                662.3833577931356
              ],
              [
                898.5402581112053,
                662.3812318466465
              ],
              [
                898.5316166098505,
                662.3695801308914
              ],
              [
                898.4973148869872,
                662.3317340118369
              ],
              [
                898.4737438102584,
                662.3027634726352
              ],
              [
                898.4605228713523,
                662.2893925116726
              ],
              [
                898.4432987500628,
                662.2691530827534
              ],
              [
                898.42268661382,
                662.2492558196709
              ],
              [
                898.4102561085438,
                662.2353023638067
              ],
              [
                898.4081967781135,
                662.233407330936
              ],
              [
                898.3998092654981,
                662.2241531368456
              ],
              [
                898.3632543684531,
                662.1910202731807
              ],
              [
                898.3377255996116,
                662.1652018215543
              ],
              [
                898.3223634227064,
                662.1524120523222
              ],
              [
                898.3023979799261,
                662.1331390539839
              ],
              [
                898.28071617495,
                662.1159688105452
              ],
              [
                898.279023412247,
                662.1143763570599
              ],
              [
                898.2779582270841,
                662.1135594757296
              ],
              [
                898.2643478743836,
                662.1010349845795
              ],
              [
                898.2621619585273,
                662.0993914817903
              ],
              [
                898.254321236296,
                662.092284757337
              ],
              [
                898.2160498307773,
                662.0639007485273
              ],
              [
                898.189053380785,
                662.0414248736812
              ],
              [
                898.171514311313,
                662.0294897289056
              ],
              [
                898.1488702615919,
                662.0115574651213
              ],
              [
                898.1245001516382,
                661.9958737989356
              ],
              [
                898.1193553868249,
                661.9919283230963
              ],
              [
                898.1186634170084,
                661.9915006622305
              ],
              [
                898.1185080592095,
                661.9913838549091
              ],
              [
                898.1164930010245,
                661.9898505591061
              ],
              [
                898.116356599558,
                661.9897662583637
              ],
              [
                898.1058614850776,
                661.9818754011419
              ],
              [
                898.103604036305,
                661.9805052636311
              ],
              [
                898.0966751340079,
                661.9753664394574
              ],
              [
                898.0572722854191,
                661.9517492808919
              ],
              [
                898.0291181370596,
                661.9325906911366
              ],
              [
                898.0093972512375,
                661.9217979958173
              ],
              [
                897.9978369598749,
                661.9143582365759
              ],
              [
                897.994125370308,
                661.9119406236211
              ],
              [
                897.9938882909638,
                661.9118170250181
              ],
              [
                897.9841876511815,
                661.9055740660646
              ],
              [
                897.9603497519691,
                661.893348724076
              ],
              [
                897.9517382684804,
                661.8880265345864
              ],
              [
                897.9493015814488,
                661.8868292914576
              ],
              [
                897.9481918468906,
                661.8861434377822
              ],
              [
                897.9478938205466,
                661.8859983981782
              ],
              [
                897.9363547406667,
                661.8789948610992
              ],
              [
                897.9340441193256,
                661.8778891605555
              ],
              [
                897.9283281416208,
                661.8744631353658
              ],
              [
                897.9239130751542,
                661.8723749644439
              ],
              [
                897.923570023569,
                661.8721704624095
              ],
              [
                897.905933706598,
                661.863871356424
              ],
              [
                897.888386323644,
                661.8555720623776
              ],
              [
                897.8594162290321,
                661.8397175309262
              ],
              [
                897.8381677920929,
                661.8306339249386
              ],
              [
                897.8225844751636,
                661.8225097409871
              ],
              [
                897.8208817756895,
                661.821822131431
              ],
              [
                897.8099291602721,
                661.816205047981
              ],
              [
                897.7888017103086,
                661.807866298962
              ],
              [
                897.7805598213837,
                661.803792457954
              ],
              [
                897.7794317091319,
                661.8033653361858
              ],
              [
                897.777906962677,
                661.8026161664351
              ],
              [
                897.7739832245755,
                661.8011400763896
              ],
              [
                897.7636681908111,
                661.7961685807538
              ],
              [
                897.7626209697319,
                661.7957827080145
              ],
              [
                897.7610622370871,
                661.795030414609
              ],
              [
                897.7603433929114,
                661.7947682336354
              ],
              [
                897.7574937628572,
                661.7934046015057
              ],
              [
                897.7551560497369,
                661.7925588357373
              ],
              [
                897.7509015326989,
                661.7905465990399
              ],
              [
                897.7476078639583,
                661.7893681055203
              ],
              [
                897.7467663916055,
                661.788972134624
              ],
              [
                897.7105221028896,
                661.776065998363
              ],
              [
                897.6815353946048,
                661.763674318086
              ],
              [
                897.6598786495616,
                661.7568034421221
              ],
              [
                897.643205826711,
                661.7500703735482
              ],
              [
                897.6398790170146,
                661.7490883127514
              ],
              [
                897.6277656160017,
                661.7443072998517
              ],
              [
                897.610238210857,
                661.7393059076771
              ],
              [
                897.5989612257057,
                661.7350362564704
              ],
              [
                897.5944157851259,
                661.7338036315423
              ],
              [
                897.5834277324592,
                661.7297548303231
              ],
              [
                897.5786444637541,
                661.72849795733
              ],
              [
                897.5733909117101,
                661.7265818516756
              ],
              [
                897.5713673279898,
                661.7260655572721
              ],
              [
                897.5710366183181,
                661.7259459091779
              ],
              [
                897.5687048213459,
                661.7253555733131
              ],
              [
                897.5661040224777,
                661.7244249925981
              ],
              [
                897.5640629323211,
                661.7239137261292
              ],
              [
                897.5626877809897,
                661.7234240520015
              ],
              [
                897.5252334433424,
                661.7140855494176
              ],
              [
                897.4971398940453,
                661.7051725159852
              ],
              [
                897.4753233031531,
                661.7005121300967
              ],
              [
                897.4576676988265,
                661.6953002669501
              ],
              [
                897.4525984964981,
                661.6943238908141
              ],
              [
                897.4394436408259,
                661.6905701924387
              ],
              [
                897.4258981773255,
                661.6881053102161
              ],
              [
                897.4115509042704,
                661.6842146408505
              ],
              [
                897.4075177794301,
                661.6835319474309
              ],
              [
                897.3976473254312,
                661.6809383429678
              ],
              [
                897.3889835288286,
                661.679532402327
              ],
              [
                897.3798274767921,
                661.6771963396391
              ],
              [
                897.3733675353255,
                661.6762207715707
              ],
              [
                897.3730912904459,
                661.6761518953421
              ],
              [
                897.3649833764463,
                661.67495461185
              ],
              [
                897.333240144549,
                661.6701608093695
              ],
              [
                897.3079549391007,
                661.6647594698458
              ],
              [
                897.2862189472937,
                661.662277621828
              ],
              [
                897.2677059937246,
                661.6587118525214
              ],
              [
                897.2672787476308,
                661.6586508173651
              ],
              [
                897.260610215404,
                661.6580276861513
              ],
              [
                897.2467689055337,
                661.655508968454
              ],
              [
                897.2374315370183,
                661.654741180207
              ],
              [
                897.2200954554157,
                661.6518066742592
              ],
              [
                897.216613510308,
                661.6515605990382
              ],
              [
                897.2080406736461,
                661.6501694191637
              ],
              [
                897.1954553525502,
                661.6493528122569
              ],
              [
                897.1823030049794,
                661.6473665697529
              ],
              [
                897.1348448082522,
                661.6449934964818
              ],
              [
                897.1157505518468,
                661.6428132857588
              ],
              [
                897.093818196561,
                661.6424420505683
              ],
              [
                897.0733045602038,
                661.6405251839043
              ],
              [
                897.0718233123462,
                661.6405315165459
              ],
              [
                897.0708868312724,
                661.6404423663563
              ],
              [
                897.0639700325328,
                661.6404778784819
              ],
              [
                897.0515888160957,
                661.6394598023024
              ],
              [
                897.0465280031564,
                661.6395403553339
              ],
              [
                897.0263996083327,
                661.6381178460607
              ],
              [
                897.0234949803831,
                661.6381950494516
              ],
              [
                897.0163567756525,
                661.6377318823031
              ],
              [
                896.9999137673653,
                661.638246479767
              ],
              [
                896.9827880859375,
                661.6373901367188
              ],
              [
                896.934972279435,
                661.6397384455169
              ],
              [
                896.9347464441548,
                661.6397327860838
              ],
              [
                896.9345545746183,
                661.6397462953578
              ],
              [
                896.9314977560151,
                661.6396945545109
              ],
              [
                896.9269995533225,
                661.6395962029945
              ],
              [
                896.9267616945976,
                661.6396143901766
              ],
              [
                896.9223250042896,
                661.6395392931088
              ],
              [
                896.900784491651,
                661.6412627429539
              ],
              [
                896.8784871321357,
                661.6413580687871
              ],
              [
                896.8777432477121,
                661.6414340012823
              ],
              [
                896.8708826604806,
                661.6414692248076
              ],
              [
                896.8612132540707,
                661.6424900128267
              ],
              [
                896.8557748003457,
                661.6425765767718
              ],
              [
                896.8549047480609,
                661.6426760838021
              ],
              [
                896.8322892110261,
                661.6432771921636
              ],
              [
                896.8299758376544,
                661.6435648270007
              ],
              [
                896.8243637912495,
                661.6437404606071
              ],
              [
                896.8062487604949,
                661.646060258201
              ],
              [
                896.7866927701222,
                661.6470206833743
              ],
              [
                896.7464455197077,
                661.6529907990102
              ],
              [
                896.7445946094485,
                661.6531211190935
              ],
              [
                896.7399407214202,
                661.6538991175828
              ],
              [
                896.7313000963877,
                661.6545597980787
              ],
              [
                896.7085234431131,
                661.6585748908947
              ],
              [
                896.7069935403441,
                661.6587708091247
              ],
              [
                896.6719811395027,
                661.6624670276705
              ],
              [
                896.6631266496393,
                661.6643101332197
              ],
              [
                896.6395940192036,
                661.6672360786819
              ],
              [
                896.6378739792799,
                661.6676222095789
              ],
              [
                896.6338327313583,
                661.668139728833
              ],
              [
                896.6141179133767,
                661.672619745174
              ],
              [
                896.592546406749,
                661.6758195759123
              ],
              [
                896.5629991316005,
                661.6832207830462
              ],
              [
                896.5588395563022,
                661.6838957891929
              ],
              [
                896.5519635091449,
                661.6857849216884
              ],
              [
                896.5476845426954,
                661.686927744398
              ],
              [
                896.5380096746273,
                661.6886332404955
              ],
              [
                896.5139360030948,
                661.6953648989701
              ],
              [
                896.4761714189393,
                661.7032257826231
              ],
              [
                896.468481320839,
                661.7056490822384
              ],
              [
                896.4501304483273,
                661.709768660375
              ],
              [
                896.4489941101567,
                661.7101426549673
              ],
              [
                896.4465211215936,
                661.7107046195355
              ],
              [
                896.4254656551589,
                661.7176711254846
              ],
              [
                896.4021576962723,
                661.7235094652543
              ],
              [
                896.3769670046202,
                661.7325228388513
              ],
              [
                896.372413806727,
                661.7337389030608
              ],
              [
                896.3594599901606,
                661.738560626725
              ],
              [
                896.3489897804662,
                661.7414883843677
              ],
              [
                896.3326451578378,
                661.7478436226769
              ],
              [
                896.3207141165111,
                661.7522134049211
              ],
              [
                896.2854117292825,
                661.7633378743719
              ],
              [
                896.2789740535698,
                661.7661001009104
              ],
              [
                896.2656844514164,
                661.7704740095481
              ],
              [
                896.2651104363852,
                661.7707269715286
              ],
              [
                896.2641567902275,
                661.7710424991685
              ],
              [
                896.2428858866901,
                661.7804296511273
              ],
              [
                896.2275868243468,
                661.7858060305415
              ],
              [
                896.2260256912782,
                661.7865305043478
              ],
              [
                896.2173601860511,
                661.7896310716961
              ],
              [
                896.2172921998067,
                661.789663226795
              ],
              [
                896.2160174126136,
                661.7901193529461
              ],
              [
                896.1978115592124,
                661.79873008032
              ],
              [
                896.1937658191637,
                661.8002360025655
              ],
              [
                896.1770715894118,
                661.8083349001092
              ],
              [
                896.1660607788141,
                661.8126162057665
              ],
              [
                896.1411829785883,
                661.8252223961387
              ],
              [
                896.1016097972775,
                661.8422021410815
              ],
              [
                896.0964787163873,
                661.8450410775107
              ],
              [
                896.0879946840001,
                661.8487798953439
              ],
              [
                896.070761820019,
                661.8585836880671
              ],
              [
                896.052490052003,
                661.867063053209
              ],
              [
                896.0490011748179,
                661.8691121504254
              ],
              [
                896.0385908036917,
                661.874035889272
              ],
              [
                896.0372857639496,
                661.874818099991
              ],
              [
                896.0370038896292,
                661.8749514166158
              ],
              [
                896.0253207594802,
                661.8819540153403
              ],
              [
                896.0222599956827,
                661.8834388884234
              ],
              [
                896.0022730051608,
                661.8956114801305
              ],
              [
                895.9909843759557,
                661.9013317048895
              ],
              [
                895.9661707626207,
                661.9171381667729
              ],
              [
                895.9266037673573,
                661.9390298864024
              ],
              [
                895.9138971477284,
                661.947824149458
              ],
              [
                895.9015244354333,
                661.9548629972608
              ],
              [
                895.8950373830247,
                661.9595386000952
              ],
              [
                895.8860423171087,
                661.9648216076508
              ],
              [
                895.8811822896058,
                661.9683472894393
              ],
              [
                895.8686568972421,
                661.9758547207074
              ],
              [
                895.860118460459,
                661.9821872570119
              ],
              [
                895.8594543366764,
                661.9825917254905
              ],
              [
                895.8460980721139,
                661.992585485687
              ],
              [
                895.8361604132347,
                661.9999557558234
              ],
              [
                895.8254466533574,
                662.006780502983
              ],
              [
                895.8010456771586,
                662.0259287553563
              ],
              [
                895.7621438189462,
                662.0528527669713
              ],
              [
                895.7474820182296,
                662.0653394590547
              ],
              [
                895.7297941462036,
                662.0781710342342
              ],
              [
                895.725092778294,
                662.0823291279503
              ],
              [
                895.711010794954,
                662.092773038587
              ],
              [
                895.6796898923254,
                662.1211606500154
              ],
              [
                895.6710418297797,
                662.1279470704774
              ],
              [
                895.6503626686609,
                662.147741296159
              ],
              [
                895.6447016230247,
                662.1528721688451
              ],
              [
                895.6098746634752,
                662.1825324765043
              ],
              [
                895.5990141143287,
                662.1938385674245
              ],
              [
                895.5852010528512,
                662.2060554381807
              ],
              [
                895.5807375399397,
                662.210845834468
              ],
              [
                895.5655838009081,
                662.2245803829394
              ],
              [
                895.5360759701556,
                662.2571372571275
              ],
              [
                895.52925690808,
                662.2636645070912
              ],
              [
                895.513251422898,
                662.2823202642994
              ],
              [
                895.50042262856,
                662.2964746576449
              ],
              [
                895.4713190961477,
                662.3267721296338
              ],
              [
                895.4638432364761,
                662.3363008400743
              ],
              [
                895.4536099789539,
                662.3472835256439
              ],
              [
                895.4494571867973,
                662.3527063572683
              ],
              [
                895.4337764565557,
                662.3700073769852
              ],
              [
                895.4067039548153,
                662.4065104199299
              ],
              [
                895.4014573545619,
                662.4126257797194
              ],
              [
                895.3894217493803,
                662.4298127764398
              ],
              [
                895.3711769962179,
                662.4544129783194
              ],
              [
                895.3478627669506,
                662.4841292316456
              ],
              [
                895.3432779156421,
                662.4913582058965
              ],
              [
                895.3362467474558,
                662.5005397010833
              ],
              [
                895.3324738271756,
                662.5065981607302
              ],
              [
                895.3168581386761,
                662.5276534792733
              ],
              [
                895.2928091508303,
                662.5677767914904
              ],
              [
                895.2888739487879,
                662.5733963098758
              ],
              [
                895.2801102536876,
                662.5889636213952
              ],
              [
                895.2583896428448,
                662.62520227127
              ],
              [
                895.2407403232118,
                662.6530301044078
              ],
              [
                895.2384866748305,
                662.6575203450117
              ],
              [
                895.2342046433173,
                662.6643963225575
              ],
              [
                895.2308804174301,
                662.6710986410981
              ],
              [
                895.2159548345845,
                662.6960004716605
              ],
              [
                895.2066717001928,
                662.715628010253
              ],
              [
                895.2064604200062,
                662.7159891264124
              ],
              [
                895.2051442062424,
                662.7188576248633
              ],
              [
                895.195465370561,
                662.7393218035396
              ],
              [
                895.1925909305002,
                662.7444277894689
              ],
              [
                895.1925298953439,
                662.7445498597814
              ],
              [
                895.1922809558154,
                662.7451155495675
              ],
              [
                895.1919805789377,
                662.7456484925939
              ],
              [
                895.1919195437814,
                662.7457705629064
              ],
              [
                895.185116462454,
                662.7612027313268
              ],
              [
                895.163341857303,
                662.8072412658241
              ],
              [
                895.1510230622862,
                662.831785624223
              ],
              [
                895.1504866286897,
                662.833188943953
              ],
              [
                895.148434229132,
                662.8373270007743
              ],
              [
                895.1456311481836,
                662.8446874140831
              ],
              [
                895.1320382982586,
                662.8734270805824
              ],
              [
                895.1243133871607,
                662.8950167607853
              ],
              [
                895.123766930435,
                662.8962076845655
              ],
              [
                895.1208454964594,
                662.9047088660109
              ],
              [
                895.1165015346272,
                662.9168494260227
              ],
              [
                895.1137924466615,
                662.9229947445541
              ],
              [
                895.1078441634123,
                662.94104515767
              ],
              [
                895.0908930850021,
                662.9884202481185
              ],
              [
                895.079734490261,
                663.0177208180104
              ],
              [
                895.0784533576779,
                663.0223986179598
              ],
              [
                895.0782450109718,
                663.0229466873446
              ],
              [
                895.0773343993565,
                663.0263142359394
              ],
              [
                895.0659166918168,
                663.0582245908035
              ],
              [
                895.0600739864265,
                663.0815499782246
              ],
              [
                895.0593252000511,
                663.0837288975133
              ],
              [
                895.0560017520934,
                663.097807248982
              ],
              [
                895.0554204056737,
                663.1001281139853
              ],
              [
                895.0531740203431,
                663.1069449015417
              ],
              [
                895.0483866804991,
                663.1282083189157
              ],
              [
                895.0367337085365,
                663.1747295907365
              ],
              [
                895.0287453919668,
                663.2038973344487
              ],
              [
                895.027763984611,
                663.2095884427498
              ],
              [
                895.0272099869682,
                663.2116292223164
              ],
              [
                895.0271878855194,
                663.2117619277268
              ],
              [
                895.0264861212243,
                663.2143571344272
              ],
              [
                895.0258498636833,
                663.2181803350186
              ],
              [
                895.0182268024748,
                663.2486133012802
              ],
              [
                895.0145502400958,
                663.2733986715742
              ],
              [
                895.0137686417976,
                663.2767095750962
              ],
              [
                895.0120465754712,
                663.2896162919867
              ],
              [
                895.0106327482755,
                663.2958959376224
              ],
              [
                895.0074887119515,
                663.3210036274681
              ],
              [
                895.0009534976674,
                663.3650604635232
              ],
              [
                894.9959419178842,
                663.3941222421398
              ],
              [
                894.9954350634874,
                663.40093947674
              ],
              [
                894.9939351866454,
                663.4099520693778
              ],
              [
                894.9936486062483,
                663.4143060413516
              ],
              [
                894.9927589268284,
                663.4203037728172
              ],
              [
                894.9918382602323,
                663.4261694017603
              ],
              [
                894.9918049676301,
                663.4267348433492
              ],
              [
                894.9894279099368,
                663.4427596646534
              ],
              [
                894.9881547762058,
                663.46868296579
              ],
              [
                894.9875450418131,
                663.4732528647912
              ],
              [
                894.9872244998414,
                663.4828298597972
              ],
              [
                894.9865675852081,
                663.4880758579877
              ],
              [
                894.9857462150853,
                663.5177256183489
              ],
              [
                894.9837887154113,
                663.5575838455626
              ],
              [
                894.9816296453598,
                663.5866235207671
              ],
              [
                894.9818012139093,
                663.5943016541534
              ],
              [
                894.9809121580369,
                663.607808943522
              ],
              [
                894.9809960091338,
                663.6103142052594
              ],
              [
                894.9804542550771,
                663.6195153567004
              ],
              [
                894.9805821899288,
                663.6228744930867
              ],
              [
                894.9797973632812,
                663.6388549804688
              ],
              [
                894.9811088365607,
                663.6655506323485
              ],
              [
                894.9809121580369,
                663.6714268963218
              ],
              [
                894.9813176533694,
                663.6775875246501
              ],
              [
                894.9812042157674,
                663.6816823871476
              ],
              [
                894.9835995586219,
                663.7162504446297
              ],
              [
                894.9852992787369,
                663.7508490424018
              ],
              [
                894.9859418988776,
                663.7796079447179
              ],
              [
                894.9868367921443,
                663.7870991872124
              ],
              [
                894.9874656282927,
                663.803610297043
              ],
              [
                894.9875450418131,
                663.8059829750525
              ],
              [
                894.9875603681103,
                663.8060978441353
              ],
              [
                894.9878253680058,
                663.8130558448657
              ],
              [
                894.9886557749198,
                663.819172091788
              ],
              [
                894.9894279099368,
                663.8348892611278
              ],
              [
                894.9934608367452,
                663.8620770452607
              ],
              [
                894.9939351866454,
                663.8692837704659
              ],
              [
                894.9943954014472,
                663.8720491498741
              ],
              [
                894.9945929379725,
                663.8748998707841
              ],
              [
                895.0012904843114,
                663.9148602416797
              ],
              [
                895.0054433584883,
                663.9428566452888
              ],
              [
                895.0088385080893,
                663.971277787689
              ],
              [
                895.0100733652453,
                663.9769203820484
              ],
              [
                895.0138824722533,
                664.004975831275
              ],
              [
                895.0159688994449,
                664.0138140786888
              ],
              [
                895.0182268024748,
                664.029035624501
              ],
              [
                895.0248756896185,
                664.0555794698915
              ],
              [
                895.0266081915368,
                664.0659163030728
              ],
              [
                895.0389293399721,
                664.111690637648
              ],
              [
                895.0414828430955,
                664.1218928783667
              ],
              [
                895.0458296377612,
                664.1403061960549
              ],
              [
                895.0501061820162,
                664.15984756922
              ],
              [
                895.0513615340366,
                664.1637396847216
              ],
              [
                895.0583812026423,
                664.1934754781151
              ],
              [
                895.0622054775806,
                664.2046878839433
              ],
              [
                895.0659086773711,
                664.2194836111724
              ],
              [
                895.0741462450897,
                664.2425250648135
              ],
              [
                895.0769497353803,
                664.2529403197886
              ],
              [
                895.0953040233795,
                664.3017296327218
              ],
              [
                895.1056882140364,
                664.3321750796944
              ],
              [
                895.1093604959397,
                664.3435606871496
              ],
              [
                895.1103554200705,
                664.3458588783183
              ],
              [
                895.120904247255,
                664.3767870237348
              ],
              [
                895.1267830052154,
                664.38975632405
              ],
              [
                895.131931711585,
                664.4041578662504
              ],
              [
                895.1412754477994,
                664.4239307342897
              ],
              [
                895.1451454633101,
                664.4342179978332
              ],
              [
                895.1484091268859,
                664.4408603635478
              ],
              [
                895.148703105573,
                664.441633693356
              ],
              [
                895.1546787429228,
                664.4536205888714
              ],
              [
                895.1682710057815,
                664.4812842186241
              ],
              [
                895.184122772672,
                664.5162552663719
              ],
              [
                895.1860494724693,
                664.5207057810609
              ],
              [
                895.1865523168062,
                664.5216151549263
              ],
              [
                895.2008652610109,
                664.5531913608249
              ],
              [
                895.20569543598,
                664.5615795408531
              ],
              [
                895.2064604200062,
                664.5632467134313
              ],
              [
                895.2098363925918,
                664.5690168628909
              ],
              [
                895.2157248208842,
                664.5814777364551
              ],
              [
                895.2256161124803,
                664.5979957490231
              ],
              [
                895.2305558314614,
                664.6080493036367
              ],
              [
                895.2362843157671,
                664.6173181859473
              ],
              [
                895.2371678558243,
                664.6190905328501
              ],
              [
                895.2490641704929,
                664.637996425265
              ],
              [
                895.2583557852292,
                664.6530305737186
              ],
              [
                895.2975143644483,
                664.7210341583167
              ],
              [
                895.3045613556973,
                664.7309190054043
              ],
              [
                895.3065928549834,
                664.7343912061438
              ],
              [
                895.3105618945808,
                664.739851388674
              ],
              [
                895.316482258658,
                664.7497381306919
              ],
              [
                895.3170242021871,
                664.7504695991308
              ],
              [
                895.3171436666659,
                664.7506691046459
              ],
              [
                895.3265168005049,
                664.7633174131424
              ],
              [
                895.3323798559811,
                664.7728040361808
              ],
              [
                895.3411080229358,
                664.7842745979771
              ],
              [
                895.3427697208638,
                664.7869154059186
              ],
              [
                895.3591462137732,
                664.8079803982636
              ],
              [
                895.3647387368014,
                664.8153300950928
              ],
              [
                895.409945176141,
                664.8787413758027
              ],
              [
                895.419509328289,
                664.8897296802967
              ],
              [
                895.4231800100839,
                664.8947794138957
              ],
              [
                895.4276866923891,
                664.8998382422571
              ],
              [
                895.4340495731043,
                664.9084244504128
              ],
              [
                895.4435969382512,
                664.918965586665
              ],
              [
                895.4496626247048,
                664.9269371151275
              ],
              [
                895.4618589960821,
                664.9400992826314
              ],
              [
                895.464470715093,
                664.9434587223645
              ],
              [
                895.48445114357,
                664.9644804383299
              ],
              [
                895.4864415362381,
                664.9666284445594
              ],
              [
                895.5371033128015,
                665.0248340249885
              ],
              [
                895.5494241376986,
                665.0364906173941
              ],
              [
                895.5550759227062,
                665.0428348432246
              ],
              [
                895.5593538760761,
                665.0467714927956
              ],
              [
                895.5658611285755,
                665.0539560755752
              ],
              [
                895.575258212764,
                665.0624782622964
              ],
              [
                895.581304252384,
                665.0690030706802
              ],
              [
                895.5973580242826,
                665.0832715032765
              ],
              [
                895.6010746107812,
                665.0871817810679
              ],
              [
                895.6228647230496,
                665.1059719205226
              ],
              [
                895.677796277354,
                665.1579420397379
              ],
              [
                895.6930473822538,
                665.1697986598194
              ],
              [
                895.7009841568664,
                665.1771022224517
              ],
              [
                895.7048767049273,
                665.1800288738032
              ],
              [
                895.7113078759676,
                665.1858612830209
              ],
              [
                895.7202511723827,
                665.19249770951
              ],
              [
                895.7260701954793,
                665.1976695992911
              ],
              [
                895.7462797295143,
                665.2123956577535
              ],
              [
                895.7512386960705,
                665.2166718942407
              ],
              [
                895.7730520174108,
                665.2319964199193
              ],
              [
                895.8307046422476,
                665.2768171246408
              ],
              [
                895.8489899243921,
                665.2883818451496
              ],
              [
                895.8594705461724,
                665.2962618058893
              ],
              [
                895.8628419563377,
                665.298308051894
              ],
              [
                895.8689879362565,
                665.3028687129793
              ],
              [
                895.8772009351668,
                665.3077938656031
              ],
              [
                895.8826028297889,
                665.3117300580891
              ],
              [
                895.9071659343864,
                665.3262155501694
              ],
              [
                895.9134869728058,
                665.3306562730681
              ],
              [
                895.9350232027429,
                665.3427945039605
              ],
              [
                895.9943944231318,
                665.3803444616065
              ],
              [
                896.0157455841455,
                665.3911114849258
              ],
              [
                896.0289772905833,
                665.3991423459321
              ],
              [
                896.0317142567371,
                665.4004520650585
              ],
              [
                896.0373815204277,
                665.4038505969396
              ],
              [
                896.044620106108,
                665.4072757967673
              ],
              [
                896.0494341823335,
                665.4101147808526
              ],
              [
                896.0784404626922,
                665.423627213321
              ],
              [
                896.0862246644689,
                665.4280145382498
              ],
              [
                896.1085746905967,
                665.4379236069094
              ],
              [
                896.1673305268527,
                665.4675531646981
              ],
              [
                896.1917059335407,
                665.4770128069157
              ],
              [
                896.2078382683928,
                665.4847326055256
              ],
              [
                896.2098509797628,
                665.4854607882797
              ],
              [
                896.2148655778624,
                665.4878336275754
              ],
              [
                896.2152395640193,
                665.487967501368
              ],
              [
                896.2153460258949,
                665.4880178540851
              ],
              [
                896.221027846986,
                665.490050842179
              ],
              [
                896.2249996981008,
                665.4919011094073
              ],
              [
                896.251024823812,
                665.5010800498827
              ],
              [
                896.2558314512861,
                665.5032111078684
              ],
              [
                896.2661023471845,
                665.5066667553607
              ],
              [
                896.26660238873,
                665.506886805483
              ],
              [
                896.2723161460018,
                665.508757390736
              ],
              [
                896.2812499094621,
                665.511763159425
              ],
              [
                896.3478911476539,
                665.5376253851636
              ],
              [
                896.3604905072399,
                665.5410875998538
              ],
              [
                896.3610435719166,
                665.5412982245828
              ],
              [
                896.3739782255388,
                665.5448407031809
              ],
              [
                896.3942954129319,
                665.5521912978534
              ],
              [
                896.3955182280848,
                665.552500875252
              ],
              [
                896.3997294400057,
                665.5540083399029
              ],
              [
                896.3998884273791,
                665.5540481811613
              ],
              [
                896.400143536116,
                665.5541394605269
              ],
              [
                896.4047022251015,
                665.5552813526733
              ],
              [
                896.4076529125414,
                665.5563220463735
              ],
              [
                896.4303645485485,
                665.5619328460544
              ],
              [
                896.4315453116992,
                665.5623301143415
              ],
              [
                896.4411622146727,
                665.5646003571762
              ],
              [
                896.448203574022,
                665.5663398909015
              ],
              [
                896.453131431443,
                665.5679531861437
              ],
              [
                896.4687769969948,
                665.571422455408
              ],
              [
                896.4839727889098,
                665.575176502206
              ],
              [
                896.4958857811773,
                665.578773769822
              ],
              [
                896.4961299218023,
                665.5788348049782
              ],
              [
                896.496420367328,
                665.5788921575705
              ],
              [
                896.4964350975836,
                665.5788958401345
              ],
              [
                896.4995173308027,
                665.5795063603829
              ],
              [
                896.4994868553961,
                665.5796282620095
              ],
              [
                896.4997309960211,
                665.5796892971657
              ],
              [
                896.504095655069,
                665.5805492763781
              ],
              [
                896.5548112359897,
                665.5944855584634
              ],
              [
                896.5729936266778,
                665.5974361542804
              ],
              [
                896.5745700899688,
                665.5978310377781
              ],
              [
                896.58651599302,
                665.6008553555436
              ],
              [
                896.5868343161205,
                665.6009030665059
              ],
              [
                896.5905322465927,
                665.6018293498689
              ],
              [
                896.593853617058,
                665.6023220286369
              ],
              [
                896.5956808922181,
                665.6027734481155
              ],
              [
                896.6382733891512,
                665.6090068189627
              ],
              [
                896.6447478378344,
                665.6104424721352
              ],
              [
                896.6637164327784,
                665.6127303838587
              ],
              [
                896.677247128304,
                665.614710588099
              ],
              [
                896.6903180832157,
                665.6172996467692
              ],
              [
                896.6909029951047,
                665.6173563734231
              ],
              [
                896.6975941116607,
                665.6186747401231
              ],
              [
                896.7034032683684,
                665.6192204461987
              ],
              [
                896.7374449960461,
                665.6250907969595
              ]
            ]
          ]
        ]
      }
    }
  ]
}