{
  "type": "FeatureCollection",
  "features": [
    {
      "type": "Feature",
      "properties": {
        "image_id": "0012_top_20250709_t1",
        "zone_type": "parking_spot",
        "generated_at": "2025-11-03T11:20:40",
        "source": "merged_t1_polygons"
      },
      "geometry": {
        "type": "MultiPolygon",
        "coordinates": [
          [
            [
              [
                1998.0383909391564,
                610.7694372878453
              ],
              [
                1998.0281051639356,
                610.7580886837206
              ],
              [
                1998.0074488274824,
                610.7393652491909
              ],
              [
                1997.9921490457803,
                610.7232706871407
              ],
              [
                1997.9417781174122,
                610.6798396288898
              ],
              [
                1997.939443389672,
                610.6777233716297
              ],
              [
                1997.9302593484795,
                610.6688918067931
              ],
              [
                1997.9279681150754,
                610.6670723333866
              ],
              [
                1997.9173911756802,
                610.6570333022355
              ],
              [
                1997.915469914808,
                610.6555357999184
              ],
              [
                1997.8970909237212,
                610.6385053981423
              ],
              [
                1997.8913962823888,
                610.6341722380776
              ],
              [
                1997.8825560995772,
                610.6261592690557
              ],
              [
                1997.867759741785,
                610.6151855422163
              ],
              [
                1997.8646890818643,
                610.6124500296152
              ],
              [
                1997.8578790142033,
                610.6074997503785
              ],
              [
                1997.842012086117,
                610.5938188931797
              ],
              [
                1997.840705830006,
                610.5929012750478
              ],
              [
                1997.839623268693,
                610.5919677853028
              ],
              [
                1997.7915189625894,
                610.5581737004577
              ],
              [
                1997.7429578447745,
                610.5212226294186
              ],
              [
                1997.7316040445053,
                610.5142055949508
              ],
              [
                1997.7249099972892,
                610.5092409511761
              ],
              [
                1997.7247599723203,
                610.5091510296703
              ],
              [
                1997.7238113644767,
                610.5084474941449
              ],
              [
                1997.7112834512498,
                610.5009385519296
              ],
              [
                1997.7043008741125,
                610.4958628745146
              ],
              [
                1997.6954568859962,
                610.4906884745035
              ],
              [
                1997.6773839831706,
                610.4779919560219
              ],
              [
                1997.6276990910542,
                610.4499888021186
              ],
              [
                1997.5782031122303,
                610.4193986048989
              ],
              [
                1997.5617765962986,
                610.4113275916444
              ],
              [
                1997.5554643720895,
                610.4075441900533
              ],
              [
                1997.5444207602036,
                610.4023209506325
              ],
              [
                1997.5331563814002,
                610.3957304395375
              ],
              [
                1997.5238720152213,
                610.3914702975984
              ],
              [
                1997.5046566831875,
                610.3806402469064
              ],
              [
                1997.4529488182172,
                610.3578560920888
              ],
              [
                1997.404371806427,
                610.3339882367476
              ],
              [
                1997.382727770709,
                610.3258458620932
              ],
              [
                1997.3780377631676,
                610.3236276537274
              ],
              [
                1997.3688692903797,
                610.3203471217081
              ],
              [
                1997.352937823247,
                610.3130369499662
              ],
              [
                1997.3451934054472,
                610.310375578082
              ],
              [
                1997.3265408715636,
                610.3021566694114
              ],
              [
                1997.2726368313402,
                610.2844302182604
              ],
              [
                1997.2230941283824,
                610.2657925088178
              ],
              [
                1997.1960681430705,
                610.2585178825512
              ],
              [
                1997.1932402529465,
                610.2575060472856
              ],
              [
                1997.1928174313211,
                610.2574001359819
              ],
              [
                1997.1905547060715,
                610.2565905199418
              ],
              [
                1997.1836483982954,
                610.2548605799009
              ],
              [
                1997.1654166102992,
                610.2485952195824
              ],
              [
                1997.159214948297,
                610.2471312057764
              ],
              [
                1997.1417711264896,
                610.2413947701795
              ],
              [
                1997.0861752995784,
                610.2289378559005
              ],
              [
                1997.0360701116665,
                610.2154509649741
              ],
              [
                1997.0065924070168,
                610.2105103628619
              ],
              [
                1997.0001659955947,
                610.2089006305998
              ],
              [
                1996.9923671232677,
                610.2077437771716
              ],
              [
                1996.9724359327163,
                610.2030386613288
              ],
              [
                1996.9678625721724,
                610.2024284650831
              ],
              [
                1996.9519729237632,
                610.1988681980783
              ],
              [
                1996.8952381649322,
                610.1918468675119
              ],
              [
                1996.8450536793778,
                610.18343571141
              ],
              [
                1996.813979484895,
                610.1812824706687
              ],
              [
                1996.8060196322217,
                610.1801017380618
              ],
              [
                1996.8014385600436,
                610.1798766844171
              ],
              [
                1996.7943242307924,
                610.1788806903544
              ],
              [
                1996.7898015848266,
                610.178670848569
              ],
              [
                1996.7758926430213,
                610.1768150613443
              ],
              [
                1996.7729913695757,
                610.1767179557376
              ],
              [
                1996.7589413684786,
                610.1749791680139
              ],
              [
                1996.7016415041376,
                610.1734981750185
              ],
              [
                1996.6518361957412,
                610.1700469892049
              ],
              [
                1996.6218425859429,
                610.1708778847894
              ],
              [
                1996.609130859375,
                610.1702880859375
              ],
              [
                1996.5982021604918,
                610.1708246443714
              ],
              [
                1996.592546396341,
                610.1706784634478
              ],
              [
                1996.5777186114908,
                610.1701821775681
              ],
              [
                1996.5764854324043,
                610.1702633459712
              ],
              [
                1996.5645021466726,
                610.1699536216388
              ],
              [
                1996.5072243937807,
                610.174053086121
              ],
              [
                1996.4582296665815,
                610.1754103586456
              ],
              [
                1996.4281949733397,
                610.1791713644217
              ],
              [
                1996.4129745084033,
                610.1799186325931
              ],
              [
                1996.4015098676764,
                610.181619251397
              ],
              [
                1996.3704942580441,
                610.1838390904037
              ],
              [
                1996.3138310599834,
                610.1934922477831
              ],
              [
                1996.2660497462161,
                610.199475521713
              ],
              [
                1996.23692090707,
                610.2060337174066
              ],
              [
                1996.2188281450303,
                610.2087175251311
              ],
              [
                1996.2068540544062,
                610.2117168786925
              ],
              [
                1996.1787526227574,
                610.2165042460064
              ],
              [
                1996.1232930832887,
                610.2316163882731
              ],
              [
                1996.0770987101355,
                610.2420167937806
              ],
              [
                1996.0492416705392,
                610.2511967256158
              ],
              [
                1996.0284394345535,
                610.2564074144731
              ],
              [
                1996.0160666727452,
                610.2608344594365
              ],
              [
                1995.9910907268284,
                610.2676401424904
              ],
              [
                1995.9374118399833,
                610.2880488188935
              ],
              [
                1995.8931485531477,
                610.302635220099
              ],
              [
                1995.8668930509177,
                610.3142096347956
              ],
              [
                1995.8436419243324,
                610.3225290209149
              ],
              [
                1995.8310180830092,
                610.3284996531971
              ],
              [
                1995.8092834702331,
                610.3367631382462
              ],
              [
                1995.7579413543178,
                610.3622396479828
              ],
              [
                1995.7159243715,
                610.3807623172189
              ],
              [
                1995.6927273738156,
                610.3939062874788
              ],
              [
                1995.6662153154105,
                610.4064455572408
              ],
              [
                1995.6535218432284,
                610.4140537316749
              ],
              [
                1995.6350503799638,
                610.4232194702762
              ],
              [
                1995.5763820819845,
                610.4598302952536
              ],
              [
                1995.5352564251648,
                610.4831330699277
              ],
              [
                1995.519351138629,
                610.4944725571878
              ],
              [
                1995.4978683230233,
                610.5073488613324
              ],
              [
                1995.4865379550226,
                610.5157520349496
              ],
              [
                1995.476402506788,
                610.5220160864499
              ],
              [
                1995.4749082700177,
                610.523153079409
              ],
              [
                1995.4700393467988,
                610.5261914374651
              ],
              [
                1995.4633261226998,
                610.5313500819487
              ],
              [
                1995.462230101894,
                610.532039740395
              ],
              [
                1995.4452731068984,
                610.5452225654236
              ],
              [
                1995.411301970913,
                610.5713270139969
              ],
              [
                1995.3887954521065,
                610.5869922847105
              ],
              [
                1995.3847129505982,
                610.5904612722896
              ],
              [
                1995.366283733813,
                610.6036001659826
              ],
              [
                1995.3567929079256,
                610.6119775200052
              ],
              [
                1995.3402222207353,
                610.624267179212
              ],
              [
                1995.3307945023128,
                610.6328119651147
              ],
              [
                1995.3222694278413,
                610.6392988551736
              ],
              [
                1995.3194661552463,
                610.6418964329381
              ],
              [
                1995.315811039607,
                610.6447051343685
              ],
              [
                1995.3084772899745,
                610.6515713211801
              ],
              [
                1995.305686785448,
                610.6537407346241
              ],
              [
                1995.2745229425414,
                610.6833609109832
              ],
              [
                1995.2660728726146,
                610.6912722471473
              ],
              [
                1995.2421223283748,
                610.7116235293972
              ],
              [
                1995.2315202421544,
                610.7225530887686
              ],
              [
                1995.2107033909992,
                610.7409276890232
              ],
              [
                1995.20666623251,
                610.7453152710453
              ],
              [
                1995.1947952266894,
                610.7560745235644
              ],
              [
                1995.1871843115186,
                610.764471874415
              ],
              [
                1995.1802034722887,
                610.7709404828527
              ],
              [
                1995.176356769179,
                610.77526850514
              ],
              [
                1995.1738241445935,
                610.7776396623788
              ],
              [
                1995.1661803253098,
                610.7863368963011
              ],
              [
                1995.1619637267445,
                610.7903446303125
              ],
              [
                1995.1315728390061,
                610.8255876287667
              ],
              [
                1995.1081086073252,
                610.8497766145882
              ],
              [
                1995.0950571542044,
                610.8661185286591
              ],
              [
                1995.062987882337,
                610.9015015176102
              ],
              [
                1995.0570691619691,
                610.9094819881939
              ],
              [
                1995.0515369436775,
                610.9157064259481
              ],
              [
                1995.0469616213993,
                610.9219854402232
              ],
              [
                1995.0454215690936,
                610.9237377311473
              ],
              [
                1995.0377904264842,
                610.9343430375584
              ],
              [
                1995.032473613572,
                610.9405087156017
              ],
              [
                1995.00929020381,
                610.9735085733139
              ],
              [
                1994.9879954554394,
                611.0001720371297
              ],
              [
                1994.97483992204,
                611.0203552833631
              ],
              [
                1994.9460695644575,
                611.0591476198983
              ],
              [
                1994.9416829201652,
                611.0664662937508
              ],
              [
                1994.9374764848797,
                611.0722390602576
              ],
              [
                1994.932527187759,
                611.0806316024085
              ],
              [
                1994.9318177403995,
                611.0816175499938
              ],
              [
                1994.924527967876,
                611.0941613053287
              ],
              [
                1994.9184892347444,
                611.102756992337
              ],
              [
                1994.9016106609797,
                611.1327037653741
              ],
              [
                1994.882895299244,
                611.1614169116064
              ],
              [
                1994.8701702119479,
                611.1857780393295
              ],
              [
                1994.8451662603659,
                611.2274946122855
              ],
              [
                1994.8445769351797,
                611.2287406357025
              ],
              [
                1994.8441896978659,
                611.2293867021292
              ],
              [
                1994.8417074344375,
                611.2346350071933
              ],
              [
                1994.8390917621161,
                611.2390704128022
              ],
              [
                1994.8341520730266,
                611.2496741295608
              ],
              [
                1994.834087119749,
                611.2497858968376
              ],
              [
                1994.8333723690284,
                611.2513478706004
              ],
              [
                1994.8268535426348,
                611.2653414210902
              ],
              [
                1994.8211309695628,
                611.2754946840001
              ],
              [
                1994.8210088992503,
                611.2757388246251
              ],
              [
                1994.8088364603295,
                611.3031964367179
              ],
              [
                1994.7937815225837,
                611.3320178705332
              ],
              [
                1994.782590697215,
                611.3596268464081
              ],
              [
                1994.76027316154,
                611.4068133110511
              ],
              [
                1994.758033054335,
                611.4130739912794
              ],
              [
                1994.7573054335614,
                611.4146359285695
              ],
              [
                1994.7490235768994,
                611.4381175451389
              ],
              [
                1994.7458733647877,
                611.4452235411298
              ],
              [
                1994.7433133302043,
                611.4528324910476
              ],
              [
                1994.7414652452983,
                611.4570320762299
              ],
              [
                1994.734560989435,
                611.4781213273508
              ],
              [
                1994.7214794516406,
                611.5103948951598
              ],
              [
                1994.7129997009738,
                611.5389337824416
              ],
              [
                1994.6941515550982,
                611.5916108212723
              ],
              [
                1994.6869550260355,
                611.6203409757569
              ],
              [
                1994.6867543583146,
                611.620937401543
              ],
              [
                1994.6859149507452,
                611.624493189068
              ],
              [
                1994.6835486325047,
                611.6339400610278
              ],
              [
                1994.6803988646377,
                611.6435611189429
              ],
              [
                1994.6759487942154,
                611.6636298605708
              ],
              [
                1994.6666587111836,
                611.6948959487967
              ],
              [
                1994.6609659127193,
                611.7240953320568
              ],
              [
                1994.646461665756,
                611.781999531749
              ],
              [
                1994.6399150033346,
                611.8261335448782
              ],
              [
                1994.637909578646,
                611.8351775253343
              ],
              [
                1994.6356392563084,
                611.8540002903785
              ],
              [
                1994.629827022848,
                611.883812277132
              ],
              [
                1994.6269685836135,
                611.9134112172483
              ],
              [
                1994.6176627732182,
                611.9761458951222
              ],
              [
                1994.6154348218215,
                612.0215110076505
              ],
              [
                1994.6144065823746,
                612.0300359246623
              ],
              [
                1994.6140263238474,
                612.0474274199197
              ],
              [
                1994.6113255028768,
                612.0753942338401
              ],
              [
                1994.6113255028768,
                612.1051841598696
              ],
              [
                1994.6080322265625,
                612.1722412109375
              ],
              [
                1994.610251503689,
                612.2200725078558
              ],
              [
                1994.610116222526,
                612.2262597240211
              ],
              [
                1994.6111904008726,
                612.2403082276015
              ],
              [
                1994.6113255028768,
                612.2432200334313
              ],
              [
                1994.6113255028768,
                612.2678674849099
              ],
              [
                1994.613526616957,
                612.2906598686221
              ],
              [
                1994.6166248309794,
                612.3574345823549
              ],
              [
                1994.6182559510885,
                612.3690855810282
              ],
              [
                1994.6182731247807,
                612.3694351595653
              ],
              [
                1994.6184567914747,
                612.370673339841
              ],
              [
                1994.6186423576535,
                612.3743609433956
              ],
              [
                1994.6225526329104,
                612.4000640400725
              ],
              [
                1994.6227804014893,
                612.4035244931222
              ],
              [
                1994.6244266223532,
                612.4134164506643
              ],
              [
                1994.62507981761,
                612.4219591809559
              ],
              [
                1994.6275715502713,
                612.4360941794433
              ],
              [
                1994.629827022848,
                612.459449441618
              ],
              [
                1994.6302655871004,
                612.4616989162424
              ],
              [
                1994.6304373744106,
                612.4634777619304
              ],
              [
                1994.6341026311964,
                612.4822775206612
              ],
              [
                1994.6423288113795,
                612.5410366603912
              ],
              [
                1994.6460931975691,
                612.5569828561848
              ],
              [
                1994.6470720173186,
                612.5635815229385
              ],
              [
                1994.6479810436012,
                612.5672105592838
              ],
              [
                1994.648905455332,
                612.5732869202881
              ],
              [
                1994.654936702265,
                612.5967481175711
              ],
              [
                1994.655331336068,
                612.5991194280728
              ],
              [
                1994.658142316314,
                612.6095147628308
              ],
              [
                1994.6591532600266,
                612.6152496027163
              ],
              [
                1994.6620398937234,
                612.6255727454778
              ],
              [
                1994.667269062746,
                612.6523940902658
              ],
              [
                1994.6738269092955,
                612.6744647443263
              ],
              [
                1994.684923303627,
                612.7214698250195
              ],
              [
                1994.691355025072,
                612.7405862255073
              ],
              [
                1994.691640282629,
                612.7417508754555
              ],
              [
                1994.6918549264465,
                612.742364917865
              ],
              [
                1994.6947619066607,
                612.7539702334152
              ],
              [
                1994.6968661375633,
                612.7598511648182
              ],
              [
                1994.699003482318,
                612.7681653107163
              ],
              [
                1994.7067156172166,
                612.7891445286035
              ],
              [
                1994.7070902258156,
                612.7905298751554
              ],
              [
                1994.7111602451016,
                612.8012363221593
              ],
              [
                1994.712008403899,
                612.8042694968774
              ],
              [
                1994.7136508940291,
                612.8084937100444
              ],
              [
                1994.722089803203,
                612.8368951439027
              ],
              [
                1994.7319073654135,
                612.8611161311211
              ],
              [
                1994.7440423101002,
                612.8971836854327
              ],
              [
                1994.7531719027513,
                612.9177774887952
              ],
              [
                1994.7550249940357,
                612.923078720623
              ],
              [
                1994.756115067,
                612.9254408295644
              ],
              [
                1994.7608835131025,
                612.9387677436364
              ],
              [
                1994.7646312733657,
                612.9466917169514
              ],
              [
                1994.7684293539046,
                612.957023584875
              ],
              [
                1994.7773516385778,
                612.9753570318089
              ],
              [
                1994.7775483204168,
                612.9758744160122
              ],
              [
                1994.779867375125,
                612.9805263493295
              ],
              [
                1994.7825053808683,
                612.9859469047229
              ],
              [
                1994.7943918741462,
                613.0152721685293
              ],
              [
                1994.8076175958308,
                613.0405917194051
              ],
              [
                1994.8191778445628,
                613.0666684019374
              ],
              [
                1994.8192999148753,
                613.0669125425624
              ],
              [
                1994.8313642761816,
                613.0885004004784
              ],
              [
                1994.8355126310869,
                613.0974895842616
              ],
              [
                1994.8378335834068,
                613.1014649976958
              ],
              [
                1994.8448000494284,
                613.1161943525583
              ],
              [
                1994.8456260800635,
                613.1175725014136
              ],
              [
                1994.8462104382165,
                613.118807444416
              ],
              [
                1994.8512716143523,
                613.1272472710086
              ],
              [
                1994.8564803518448,
                613.1379501476719
              ],
              [
                1994.8572077899103,
                613.1391271671865
              ],
              [
                1994.8578231252823,
                613.1403915539219
              ],
              [
                1994.870258029596,
                613.1605116517485
              ],
              [
                1994.8835056508065,
                613.1858731274561
              ],
              [
                1994.899460219299,
                613.2103506590512
              ],
              [
                1994.9089610943786,
                613.22735143813
              ],
              [
                1994.914349938023,
                613.2352023059408
              ],
              [
                1994.9186113050569,
                613.2427630271942
              ],
              [
                1994.9287661983055,
                613.2572177616673
              ],
              [
                1994.9323607474653,
                613.2633746391252
              ],
              [
                1994.9343655842033,
                613.2661562015143
              ],
              [
                1994.9364526713596,
                613.2697240720056
              ],
              [
                1994.9379341357455,
                613.2717624257907
              ],
              [
                1994.947192322177,
                613.2872010285872
              ],
              [
                1994.9553537802815,
                613.2981994686558
              ],
              [
                1994.9636080105963,
                613.3115550938561
              ],
              [
                1994.9757206125416,
                613.3273495102526
              ],
              [
                1994.988605807002,
                613.3471180019328
              ],
              [
                1995.0068429287362,
                613.3699529670145
              ],
              [
                1995.0129718612109,
                613.3788820512216
              ],
              [
                1995.0211588533982,
                613.3887318272436
              ],
              [
                1995.0325956838844,
                613.4050113039295
              ],
              [
                1995.0438707821213,
                613.4180865478365
              ],
              [
                1995.0446759820288,
                613.4192037030322
              ],
              [
                1995.0470994379516,
                613.4219634762133
              ],
              [
                1995.0530371437842,
                613.430133193469
              ],
              [
                1995.0543482186138,
                613.4316050909317
              ],
              [
                1995.0641997521352,
                613.4448810888762
              ],
              [
                1995.0749189546061,
                613.456700736972
              ],
              [
                1995.0860560445599,
                613.4712231192783
              ],
              [
                1995.0970872052242,
                613.4829491367201
              ],
              [
                1995.1087189588877,
                613.4975134244743
              ],
              [
                1995.1286824427195,
                613.518093532697
              ],
              [
                1995.130453850522,
                613.5202247146619
              ],
              [
                1995.1403302882848,
                613.5301011524249
              ],
              [
                1995.1415315547192,
                613.5313395231138
              ],
              [
                1995.1620857970572,
                613.5551753892188
              ],
              [
                1995.1772840572212,
                613.5696208203474
              ],
              [
                1995.1849335949296,
                613.5782086864934
              ],
              [
                1995.186025420528,
                613.5792135201706
              ],
              [
                1995.1961049595811,
                613.5903278362682
              ],
              [
                1995.2096093588407,
                613.6025591012603
              ],
              [
                1995.2239278265597,
                613.6177794944106
              ],
              [
                1995.2331703683108,
                613.6258088410444
              ],
              [
                1995.2427326799373,
                613.6356665096653
              ],
              [
                1995.2808386983982,
                613.668045996718
              ],
              [
                1995.3058088557605,
                613.6917792849072
              ],
              [
                1995.3220873434968,
                613.7044346201016
              ],
              [
                1995.3308453829193,
                613.7124948569833
              ],
              [
                1995.331686295925,
                613.7131271715771
              ],
              [
                1995.3416365847436,
                613.7221393917395
              ],
              [
                1995.3580983613606,
                613.7343385277348
              ],
              [
                1995.375827839121,
                613.7497407976308
              ],
              [
                1995.3826418059773,
                613.7545502429476
              ],
              [
                1995.389405803669,
                613.760297754352
              ],
              [
                1995.4327496976234,
                613.7904665173852
              ],
              [
                1995.4623521722065,
                613.8134802791362
              ],
              [
                1995.4791268852498,
                613.8240355737746
              ],
              [
                1995.4832283184162,
                613.827077403923
              ],
              [
                1995.4893380845147,
                613.8316715703136
              ],
              [
                1995.4898048803834,
                613.8319549146985
              ],
              [
                1995.4988448855233,
                613.8386594394489
              ],
              [
                1995.498982754706,
                613.8387420750569
              ],
              [
                1995.4993919305105,
                613.8390452981779
              ],
              [
                1995.5189239259068,
                613.8507411134464
              ],
              [
                1995.5402185731261,
                613.8657713364429
              ],
              [
                1995.54404505538,
                613.8679317141758
              ],
              [
                1995.5473799186934,
                613.8702528877456
              ],
              [
                1995.5957978036517,
                613.8974494030471
              ],
              [
                1995.6301770452749,
                613.9190821441757
              ],
              [
                1995.6470835583737,
                613.927510280635
              ],
              [
                1995.6585571731805,
                613.9343873006961
              ],
              [
                1995.6588535965807,
                613.9345672292509
              ],
              [
                1995.6588722978538,
                613.9345761791566
              ],
              [
                1995.6671918779105,
                613.9395627435405
              ],
              [
                1995.6674966513156,
                613.9397068906256
              ],
              [
                1995.6678504822323,
                613.9399187656009
              ],
              [
                1995.6902130318952,
                613.9504828059277
              ],
              [
                1995.6994847731617,
                613.9556907792507
              ],
              [
                1995.71543609025,
                613.9646966671561
              ],
              [
                1995.715680230875,
                613.9648187374686
              ],
              [
                1995.7720611795864,
                613.9898133965876
              ],
              [
                1995.807633884769,
                614.007546894427
              ],
              [
                1995.8244412433637,
                614.0139361544311
              ],
              [
                1995.8446184868324,
                614.0234792798664
              ],
              [
                1995.8451030825022,
                614.0236526709696
              ],
              [
                1995.8453885631052,
                614.0237875316473
              ],
              [
                1995.862429036336,
                614.0298750455381
              ],
              [
                1995.8851649473797,
                614.0399542719309
              ],
              [
                1995.9523152386803,
                614.0625470172996
              ],
              [
                1995.992978425626,
                614.0780049890282
              ],
              [
                1996.0094739583285,
                614.0824655107576
              ],
              [
                1996.0294159970535,
                614.0896008863082
              ],
              [
                1996.0300872902758,
                614.0897690365068
              ],
              [
                1996.030294983873,
                614.0898432326657
              ],
              [
                1996.0425423603597,
                614.0929039725112
              ],
              [
                1996.060878807793,
                614.099073278404
              ],
              [
                1996.0746022027388,
                614.1023129324933
              ],
              [
                1996.076732499198,
                614.1030149445006
              ],
              [
                1996.0949607451257,
                614.1071189324194
              ],
              [
                1996.1303609512129,
                614.1154757874735
              ],
              [
                1996.1331716462594,
                614.116322684294
              ],
              [
                1996.1375647558446,
                614.1171763750632
              ],
              [
                1996.1397227600687,
                614.1176858107559
              ],
              [
                1996.1843888727085,
                614.1297638787757
              ],
              [
                1996.2003798162948,
                614.1324250936925
              ],
              [
                1996.2198047075303,
                614.1372907756502
              ],
              [
                1996.2206631871777,
                614.1374181190764
              ],
              [
                1996.2207875360145,
                614.1374491950738
              ],
              [
                1996.2278813871571,
                614.1384972395518
              ],
              [
                1996.2413119724213,
                614.1416677706518
              ],
              [
                1996.2600876447598,
                614.144296333024
              ],
              [
                1996.2656835352786,
                614.1455562165683
              ],
              [
                1996.297929062139,
                614.1495940674562
              ],
              [
                1996.3187312003631,
                614.152506331625
              ],
              [
                1996.3197433447751,
                614.1527075688922
              ],
              [
                1996.321102499374,
                614.1528423365921
              ],
              [
                1996.3308435796962,
                614.1547352714693
              ],
              [
                1996.3388261574337,
                614.1554653518373
              ],
              [
                1996.379983807659,
                614.1623148133546
              ],
              [
                1996.3952986532074,
                614.1633228433893
              ],
              [
                1996.4139510709033,
                614.1660896681882
              ],
              [
                1996.4149907122041,
                614.1661407424901
              ],
              [
                1996.4150301694442,
                614.1661465718968
              ],
              [
                1996.4167629943377,
                614.1662306169809
              ],
              [
                1996.4249140504576,
                614.1673717510519
              ],
              [
                1996.4487185080995,
                614.1684762305822
              ],
              [
                1996.457863455644,
                614.1696213796356
              ],
              [
                1996.4964202256326,
                614.1706894954826
              ],
              [
                1996.5052044923732,
                614.1710970680033
              ],
              [
                1996.5135773208149,
                614.1719272802778
              ],
              [
                1996.518899724799,
                614.1719347406298
              ],
              [
                1996.5313762302953,
                614.1730758321447
              ],
              [
                1996.5419452965205,
                614.1729751915296
              ],
              [
                1996.5778406818033,
                614.1753378419631
              ],
              [
                1996.5887411554843,
                614.1749730031673
              ],
              [
                1996.610107421875,
                614.1759643554688
              ],
              [
                1996.624455588627,
                614.1752599138912
              ],
              [
                1996.626971516166,
                614.1753664965503
              ],
              [
                1996.6391680024913,
                614.1746794459833
              ],
              [
                1996.6434449415408,
                614.1748231906454
              ],
              [
                1996.6441094514655,
                614.1747808444883
              ],
              [
                1996.6514699848037,
                614.1749847490763
              ],
              [
                1996.652901105814,
                614.1748855816444
              ],
              [
                1996.6542776019912,
                614.1749237139201
              ],
              [
                1996.6543124657455,
                614.1749212980874
              ],
              [
                1996.6543996723037,
                614.1749237139201
              ],
              [
                1996.6939927947801,
                614.1721801665552
              ],
              [
                1996.7083616452085,
                614.1722003072063
              ],
              [
                1996.7174907273654,
                614.1713209449354
              ],
              [
                1996.729006676891,
                614.1712378869238
              ],
              [
                1996.7294504481556,
                614.1711897325886
              ],
              [
                1996.7327367123426,
                614.1711584401695
              ],
              [
                1996.745749679906,
                614.169717928694
              ],
              [
                1996.7760147133338,
                614.1687049581869
              ],
              [
                1996.7762983398159,
                614.1686671155956
              ],
              [
                1996.7769912758338,
                614.1686439230307
              ],
              [
                1996.7873430691357,
                614.1672627449345
              ],
              [
                1996.8062637728467,
                614.1663338088132
              ],
              [
                1996.817862986602,
                614.1646132279861
              ],
              [
                1996.8238000189513,
                614.1642787840051
              ],
              [
                1996.834067475915,
                614.1626756944345
              ],
              [
                1996.8374466928276,
                614.1624603525034
              ],
              [
                1996.8398192855343,
                614.1620753337105
              ],
              [
                1996.8476171559403,
                614.161534991715
              ],
              [
                1996.886177055614,
                614.1550721709478
              ],
              [
                1996.902248739574,
                614.1535240599482
              ],
              [
                1996.9146625520616,
                614.1510920686442
              ],
              [
                1996.929497011408,
                614.1494823575483
              ],
              [
                1996.93053209821,
                614.1492628562637
              ],
              [
                1996.9328837480398,
                614.1490025329708
              ],
              [
                1996.947231266182,
                614.1459298155422
              ],
              [
                1996.9735345655288,
                614.1424203230462
              ],
              [
                1996.9837793172126,
                614.1400018652362
              ],
              [
                1997.0004101362197,
                614.1375349162752
              ],
              [
                1997.0092154113293,
                614.1353293096793
              ],
              [
                1997.0185807283951,
                614.1338670739799
              ],
              [
                1997.0268537345896,
                614.1317238209468
              ],
              [
                1997.029331821279,
                614.1313216828372
              ],
              [
                1997.0318519079299,
                614.1306563797045
              ],
              [
                1997.038633588229,
                614.1295197381509
              ],
              [
                1997.0756905735473,
                614.1195450520978
              ],
              [
                1997.0933995359824,
                614.1160756874133
              ],
              [
                1997.1088666324854,
                614.1114451009878
              ],
              [
                1997.1267772122426,
                614.1076469699929
              ],
              [
                1997.1283752719198,
                614.1071353468401
              ],
              [
                1997.1297883608172,
                614.1068327145075
              ],
              [
                1997.1448675010668,
                614.1019741034746
              ],
              [
                1997.1665152431117,
                614.0968637647926
              ],
              [
                1997.1751941116036,
                614.0938812686013
              ],
              [
                1997.1908376094923,
                614.0899881047271
              ],
              [
                1997.198590761988,
                614.0872326292073
              ],
              [
                1997.2094211357987,
                614.0844268496668
              ],
              [
                1997.215694632548,
                614.0821218816699
              ],
              [
                1997.2172875152046,
                614.0817013604862
              ],
              [
                1997.2199381596315,
                614.0807177062483
              ],
              [
                1997.225657604945,
                614.0791781943072
              ],
              [
                1997.2607867136223,
                614.0659628047257
              ],
              [
                1997.2800009209805,
                614.0602103968481
              ],
              [
                1997.2981973279118,
                614.0527663536656
              ],
              [
                1997.3188414488684,
                614.0461570821853
              ],
              [
                1997.3209484637264,
                614.0452395089482
              ],
              [
                1997.3214544439397,
                614.0450764783637
              ],
              [
                1997.3369817884798,
                614.0382828768846
              ],
              [
                1997.3540364560595,
                614.0324220344088
              ],
              [
                1997.3582404734473,
                614.0304930162678
              ],
              [
                1997.3746282887416,
                614.0246687758842
              ],
              [
                1997.3838386040081,
                614.0203435005592
              ],
              [
                1997.394467016829,
                614.0164384771905
              ],
              [
                1997.3987957772324,
                614.0143436382082
              ],
              [
                1997.3995380857755,
                614.0140681674824
              ],
              [
                1997.4022905943114,
                614.0127297743131
              ],
              [
                1997.4069352829895,
                614.0109824663774
              ],
              [
                1997.4397655442258,
                613.9948516280009
              ],
              [
                1997.4602829334278,
                613.9864580846058
              ],
              [
                1997.480796166143,
                613.9756282419885
              ],
              [
                1997.5037369236547,
                613.9656378875994
              ],
              [
                1997.5211591715095,
                613.9558561030002
              ],
              [
                1997.5321726894392,
                613.9506840219188
              ],
              [
                1997.5342550142127,
                613.9497285448375
              ],
              [
                1997.534449082665,
                613.9496150001573
              ],
              [
                1997.5511821305838,
                613.9417569586917
              ],
              [
                1997.5616283909985,
                613.9355432253641
              ],
              [
                1997.5719204473448,
                613.9305625383239
              ],
              [
                1997.5772498316128,
                613.9273000236079
              ],
              [
                1997.5807665887928,
                613.9255720982261
              ],
              [
                1997.6109882544304,
                613.9068940816654
              ],
              [
                1997.6325355530244,
                613.8955183099456
              ],
              [
                1997.654869939137,
                613.8807837048553
              ],
              [
                1997.6795837267782,
                613.8669080586498
              ],
              [
                1997.6937617677474,
                613.8569465281533
              ],
              [
                1997.7188198595497,
                613.8420412611987
              ],
              [
                1997.7242908332926,
                613.838017216357
              ],
              [
                1997.7251541379142,
                613.8374997714801
              ],
              [
                1997.7308929429882,
                613.833243583562
              ],
              [
                1997.7400572722092,
                613.8276334122096
              ],
              [
                1997.743716848411,
                613.8248632993065
              ],
              [
                1997.745521321337,
                613.8237480737064
              ],
              [
                1997.7728908427714,
                613.8029220883021
              ],
              [
                1997.795124920284,
                613.7882536595374
              ],
              [
                1997.818708155143,
                613.7691588534558
              ],
              [
                1997.8445939500552,
                613.7509714229072
              ],
              [
                1997.8556869794459,
                613.741371900735
              ],
              [
                1997.8759470049497,
                613.7264701200006
              ],
              [
                1997.8811001170932,
                613.7218423508331
              ],
              [
                1997.8828002402022,
                613.7205814536005
              ],
              [
                1997.8888543472035,
                613.715094330859
              ],
              [
                1997.895207581645,
                613.7102940318725
              ],
              [
                1997.89582637286,
                613.7097241320544
              ],
              [
                1997.8972438573492,
                613.7086511684495
              ],
              [
                1997.8993848087132,
                613.7066704422966
              ],
              [
                1997.8996544002837,
                613.7064653049827
              ],
              [
                1997.9239970117362,
                613.6839088734921
              ],
              [
                1997.9465088341033,
                613.6656815656094
              ],
              [
                1997.9706996710781,
                613.6418439138765
              ],
              [
                1997.9970898653528,
                613.6190067567622
              ],
              [
                1998.0053302204187,
                613.6102771013597
              ],
              [
                1998.0210690665335,
                613.5961427792734
              ],
              [
                1998.0258162881642,
                613.5909592634059
              ],
              [
                1998.028227234248,
                613.5887741092481
              ],
              [
                1998.033654952393,
                613.5827855451191
              ],
              [
                1998.0381986113027,
                613.5786008858598
              ],
              [
                1998.0400327893537,
                613.5765483207579
              ],
              [
                1998.0419529623073,
                613.5747718503293
              ],
              [
                1998.0640927011914,
                613.5498144182286
              ],
              [
                1998.0852513799268,
                613.5289646553476
              ],
              [
                1998.1093483334403,
                613.5000825435965
              ],
              [
                1998.1355209827552,
                613.4723558003113
              ],
              [
                1998.141209132089,
                613.4649612199162
              ],
              [
                1998.1528057292908,
                613.4522988354141
              ],
              [
                1998.1570707246663,
                613.4466172240916
              ],
              [
                1998.1600345786005,
                613.4433471152023
              ],
              [
                1998.1647826835858,
                613.4369450367448
              ],
              [
                1998.1677290586847,
                613.4336478504644
              ],
              [
                1998.1702221306184,
                613.4302431028793
              ],
              [
                1998.1703868844475,
                613.4300577342082
              ],
              [
                1998.170653756143,
                613.42969148871
              ],
              [
                1998.172778579062,
                613.4272962425872
              ],
              [
                1998.190625924697,
                613.4026648981568
              ],
              [
                1998.2100365497595,
                613.3793997230841
              ],
              [
                1998.2332874607573,
                613.3452596150479
              ],
              [
                1998.2584798150442,
                613.3125096153229
              ],
              [
                1998.2619784111046,
                613.3068645053636
              ],
              [
                1998.2699039921886,
                613.2963064467353
              ],
              [
                1998.2736227273165,
                613.2901912262367
              ],
              [
                1998.27695289648,
                613.2857010129142
              ],
              [
                1998.280977705263,
                613.2789860251378
              ],
              [
                1998.2825752004562,
                613.2768043520672
              ],
              [
                1998.2859512361574,
                613.2711052462341
              ],
              [
                1998.2884495929404,
                613.2676572328606
              ],
              [
                1998.3023264466972,
                613.2438873101552
              ],
              [
                1998.3196807248326,
                613.2184054298757
              ],
              [
                1998.341161294507,
                613.1791284007508
              ],
              [
                1998.3420775369416,
                613.1776216990564
              ],
              [
                1998.3647161882125,
                613.1410934249872
              ],
              [
                1998.3664432295554,
                613.1375538862615
              ],
              [
                1998.371250085975,
                613.1296493203541
              ],
              [
                1998.374370807381,
                613.1231690477573
              ],
              [
                1998.3778562005716,
                613.117354020527
              ],
              [
                1998.3811270463266,
                613.1104383982195
              ],
              [
                1998.3816520414957,
                613.1095521507694
              ],
              [
                1998.3852853214255,
                613.1017854998613
              ],
              [
                1998.387842132895,
                613.0974058896073
              ],
              [
                1998.398132596578,
                613.0749568855322
              ],
              [
                1998.4131439025268,
                613.0475088471468
              ],
              [
                1998.4311951210432,
                613.0051716379505
              ],
              [
                1998.4432300537005,
                612.9801807354786
              ],
              [
                1998.453149952507,
                612.9598500895897
              ],
              [
                1998.4535711106303,
                612.9587072173003
              ],
              [
                1998.4558800666912,
                612.9539126000498
              ],
              [
                1998.4559449686692,
                612.953735478127
              ],
              [
                1998.4561242073162,
                612.9533632836435
              ],
              [
                1998.4585529504152,
                612.9467350781512
              ],
              [
                1998.4617727368975,
                612.9399274116051
              ],
              [
                1998.4679749865202,
                612.9225932851414
              ],
              [
                1998.4699904911456,
                612.9181963917707
              ],
              [
                1998.470112561458,
                612.9178912159895
              ],
              [
                1998.4775118414434,
                612.8965407065202
              ],
              [
                1998.4895395610592,
                612.8683309720324
              ],
              [
                1998.5035183353075,
                612.8240214773471
              ],
              [
                1998.5232331247607,
                612.7702184729096
              ],
              [
                1998.5251733124503,
                612.762734673267
              ],
              [
                1998.5278943433393,
                612.755129901384
              ],
              [
                1998.5314788695723,
                612.740819670503
              ],
              [
                1998.5315172782332,
                612.7407088428982
              ],
              [
                1998.5319535856154,
                612.7389244978256
              ],
              [
                1998.5380769844787,
                612.7144785192456
              ],
              [
                1998.548143068365,
                612.6825713518116
              ],
              [
                1998.5577633477164,
                612.6370265803872
              ],
              [
                1998.5721826786985,
                612.5814075366037
              ],
              [
                1998.573036933101,
                612.5759796428916
              ],
              [
                1998.5732032303724,
                612.5753342719908
              ],
              [
                1998.573627074146,
                612.5725546057603
              ],
              [
                1998.5755842326814,
                612.5647411909073
              ],
              [
                1998.5816040768623,
                612.5241586978743
              ],
              [
                1998.5883985554158,
                612.4919919632738
              ],
              [
                1998.5935582350864,
                612.4455882212258
              ],
              [
                1998.6025072899931,
                612.3887263324109
              ],
              [
                1998.6030379539254,
                612.3796712029737
              ],
              [
                1998.6036021119266,
                612.3759713233432
              ],
              [
                1998.6036106313684,
                612.3758025580644
              ],
              [
                1998.6043831252193,
                612.3705948275341
              ],
              [
                1998.6063511522743,
                612.3305347165299
              ],
              [
                1998.6099241887762,
                612.2984004999249
              ],
              [
                1998.610547959097,
                612.2515221716013
              ],
              [
                1998.6139185289205,
                612.1940075297093
              ],
              [
                1998.6135375788176,
                612.1842516436936
              ],
              [
                1998.614013671875,
                612.174560546875
              ],
              [
                1998.6123403333268,
                612.1404883531739
              ],
              [
                1998.6124024363767,
                612.1386181946564
              ],
              [
                1998.6121093175927,
                612.1341811026842
              ],
              [
                1998.6125157923923,
                612.1036332255593
              ],
              [
                1998.6085558242735,
                612.0566721283616
              ],
              [
                1998.6063078585416,
                611.9991031783064
              ],
              [
                1998.6050110470192,
                611.9896683524248
              ],
              [
                1998.6048079028578,
                611.9853799654389
              ],
              [
                1998.6046781672542,
                611.9844728195259
              ],
              [
                1998.6043831252193,
                611.9784652310597
              ],
              [
                1998.6043619579036,
                611.9783225326082
              ],
              [
                1998.6042610549068,
                611.9762679654347
              ],
              [
                1998.5996029359233,
                611.9448654780083
              ],
              [
                1998.5993350211988,
                611.9408099130369
              ],
              [
                1998.5982232111728,
                611.9341380994155
              ],
              [
                1998.5961487842505,
                611.9095375568347
              ],
              [
                1998.5875857370233,
                611.8628922073225
              ],
              [
                1998.579747667041,
                611.8058670928389
              ],
              [
                1998.578217299556,
                611.7994513811423
              ],
              [
                1998.578003328465,
                611.7979552382546
              ],
              [
                1998.5775036807847,
                611.7958844012968
              ],
              [
                1998.575462162369,
                611.7821216020615
              ],
              [
                1998.567779982995,
                611.7514526228538
              ],
              [
                1998.5667491904512,
                611.7452669836042
              ],
              [
                1998.5643960999755,
                611.7365716701961
              ],
              [
                1998.5609784095464,
                611.7179545400606
              ],
              [
                1998.5483221897018,
                611.6737727576887
              ],
              [
                1998.5465711312584,
                611.6667821405246
              ],
              [
                1998.534490579213,
                611.6161372203867
              ],
              [
                1998.5322715571765,
                611.6096950407767
              ],
              [
                1998.5277722730268,
                611.5917328915848
              ],
              [
                1998.5172179973051,
                611.5622356669935
              ],
              [
                1998.514965090745,
                611.5539105605758
              ],
              [
                1998.5110015358794,
                611.5434895431596
              ],
              [
                1998.5105370999288,
                611.541868236929
              ],
              [
                1998.510159564851,
                611.5405181007789
              ],
              [
                1998.5101245369447,
                611.5404280147927
              ],
              [
                1998.5073382681423,
                611.5307013884094
              ],
              [
                1998.4925296047704,
                611.4932362322052
              ],
              [
                1998.482547978922,
                611.4653394567935
              ],
              [
                1998.4709670536456,
                611.4317181590105
              ],
              [
                1998.470844983333,
                611.4314129832293
              ],
              [
                1998.4688576432309,
                611.4270775317448
              ],
              [
                1998.461650666585,
                611.4069353813636
              ],
              [
                1998.4540105841154,
                611.3907817841848
              ],
              [
                1998.453372403908,
                611.3890457510626
              ],
              [
                1998.4482807857953,
                611.378583530466
              ],
              [
                1998.4444914862772,
                611.3686206669227
              ],
              [
                1998.4391792896483,
                611.3579685635584
              ],
              [
                1998.4390317434522,
                611.3575890991266
              ],
              [
                1998.4384921156545,
                611.3565241657765
              ],
              [
                1998.4357371502917,
                611.3495542451924
              ],
              [
                1998.419964384702,
                611.3187971435757
              ],
              [
                1998.4031241800972,
                611.2831915224737
              ],
              [
                1998.4020135616872,
                611.2806826722814
              ],
              [
                1998.4018914913747,
                611.2804385316564
              ],
              [
                1998.4017905174749,
                611.2802593789327
              ],
              [
                1998.3937192350204,
                611.2624802947896
              ],
              [
                1998.3921679369982,
                611.2597762729503
              ],
              [
                1998.3886966250825,
                611.2522034853927
              ],
              [
                1998.3874920147732,
                611.2501400858323
              ],
              [
                1998.3777341302591,
                611.2295087724417
              ],
              [
                1998.3670817992952,
                611.2117364319238
              ],
              [
                1998.3653214059677,
                611.2081191882656
              ],
              [
                1998.3608058545049,
                611.2008128725209
              ],
              [
                1998.356020760367,
                611.1912177236732
              ],
              [
                1998.3480245156743,
                611.1785134470092
              ],
              [
                1998.3468542106332,
                611.1762313366928
              ],
              [
                1998.334053644156,
                611.1563168004805
              ],
              [
                1998.3300912189843,
                611.150021377119
              ],
              [
                1998.30932287872,
                611.1153714947208
              ],
              [
                1998.2995032808674,
                611.0982552432549
              ],
              [
                1998.2985787246287,
                611.0969479409705
              ],
              [
                1998.2982037257816,
                611.0962926519215
              ],
              [
                1998.2961646547965,
                611.0934183243802
              ],
              [
                1998.2897536239864,
                611.0827221656698
              ],
              [
                1998.289304085128,
                611.0819521421394
              ],
              [
                1998.2892346637705,
                611.0818563328575
              ],
              [
                1998.2768308261675,
                611.0611617800546
              ],
              [
                1998.2628271873375,
                611.0422800588715
              ],
              [
                1998.2595365206537,
                611.0369556483314
              ],
              [
                1998.2561314706645,
                611.0325155802419
              ],
              [
                1998.2504221129836,
                611.0234446647887
              ],
              [
                1998.2165802737652,
                610.9799233144387
              ],
              [
                1998.2001161154194,
                610.9577239667422
              ],
              [
                1998.1901804072822,
                610.9436750929135
              ],
              [
                1998.188782247778,
                610.9420492880814
              ],
              [
                1998.1857264572923,
                610.9377417662649
              ],
              [
                1998.182750071945,
                610.9343085677223
              ],
              [
                1998.159912508288,
                610.9035156777664
              ],
              [
                1998.1423000616937,
                610.884083337493
              ],
              [
                1998.1370884866901,
                610.8772876229092
              ],
              [
                1998.135261377759,
                610.8753454237293
              ],
              [
                1998.1287330211012,
                610.8669498133288
              ],
              [
                1998.0866060580242,
                610.8226344737758
              ],
              [
                1998.0764776620144,
                610.811459510852
              ],
              [
                1998.0667303252328,
                610.8001251336293
              ],
              [
                1998.0648692064424,
                610.7983354431301
              ],
              [
                1998.058387935465,
                610.7908594319694
              ],
              [
                1998.0542297206212,
                610.7869126902144
              ],
              [
                1998.0453668281611,
                610.7771339952916
              ],
              [
                1998.0391568792738,
                610.7701470258214
              ],
              [
                1998.0383909391564,
                610.7694372878453
              ]
            ]
          ]
        ]
      }
    }
  ]
}