{
  "type": "FeatureCollection",
  "features": [
    {
      "type": "Feature",
      "properties": {
        "image_id": "0013_top_20250708_t1",
        "zone_type": "parking_spot",
        "generated_at": "2025-11-03T11:20:41",
        "source": "merged_t1_polygons"
      },
      "geometry": {
        "type": "MultiPolygon",
        "coordinates": [
          [
            [
              [
                1748.9266756656023,
                1361.6374130521303
              ],
              [
                1748.9245717758185,
                1361.636719742106
              ],
              [
                1748.91486665912,
                1361.633247195825
              ],
              [
                1748.880604043821,
                1361.619282166459
              ],
              [
                1748.8515980489415,
                1361.6105527753555
              ],
              [
                1748.8431488914086,
                1361.607272075774
              ],
              [
                1748.8427826804711,
                1361.6071500054616
              ],
              [
                1748.8388413348391,
                1361.6060448998328
              ],
              [
                1748.833024748496,
                1361.6039636919606
              ],
              [
                1748.8236800658824,
                1361.6004482705366
              ],
              [
                1748.8217413044308,
                1361.599926411118
              ],
              [
                1748.7940703310715,
                1361.5900255785357
              ],
              [
                1748.7474028385857,
                1361.578335980203
              ],
              [
                1748.7427255086147,
                1361.576794625812
              ],
              [
                1748.7296288048376,
                1361.5738459759918
              ],
              [
                1748.6993046485102,
                1361.5647198825218
              ],
              [
                1748.6988163672602,
                1361.5645978122093
              ],
              [
                1748.6757006203793,
                1361.56030221734
              ],
              [
                1748.656512929809,
                1361.5549222210561
              ],
              [
                1748.6506764983237,
                1361.5538806326776
              ],
              [
                1748.6366560491665,
                1361.550106726693
              ],
              [
                1748.6307606147263,
                1361.5491186241188
              ],
              [
                1748.6036816205947,
                1361.5423356891936
              ],
              [
                1748.562618674982,
                1361.536244576605
              ],
              [
                1748.5537744725339,
                1361.5342533537444
              ],
              [
                1748.5243848770026,
                1361.5305731284243
              ],
              [
                1748.5102879185076,
                1361.5284820421648
              ],
              [
                1748.4978297942614,
                1361.5260413697395
              ],
              [
                1748.4909907134668,
                1361.5253825927107
              ],
              [
                1748.4660686469642,
                1361.5209349203778
              ],
              [
                1748.4621806621433,
                1361.5206238438984
              ],
              [
                1748.4581116445788,
                1361.5198676991342
              ],
              [
                1748.4551559176703,
                1361.5196864499544
              ],
              [
                1748.4456396168778,
                1361.5180914731286
              ],
              [
                1748.4355070952797,
                1361.5173893549022
              ],
              [
                1748.4095352572217,
                1361.5135367966557
              ],
              [
                1748.3746496489002,
                1361.5118229766165
              ],
              [
                1748.3615945521685,
                1361.510188190677
              ],
              [
                1748.3218080387119,
                1361.5090860079595
              ],
              [
                1748.303942699896,
                1361.5073651224814
              ],
              [
                1748.296595443226,
                1361.5073754210457
              ],
              [
                1748.2732316363354,
                1361.5055060899838
              ],
              [
                1748.2658247046932,
                1361.5056314624594
              ],
              [
                1748.2524221332412,
                1361.5047027509236
              ],
              [
                1748.2379019784523,
                1361.505104994354
              ],
              [
                1748.2135009765625,
                1361.50390625
              ],
              [
                1748.2132568359375,
                1361.50390625
              ],
              [
                1748.2106106281967,
                1361.50403624985
              ],
              [
                1748.21044921875,
                1361.5040283203125
              ],
              [
                1748.1847717808105,
                1361.5052897719486
              ],
              [
                1748.1679880230088,
                1361.504824821236
              ],
              [
                1748.1277642328207,
                1361.5076120697952
              ],
              [
                1748.1091583755024,
                1361.5076381494096
              ],
              [
                1748.1013131597822,
                1361.508416045963
              ],
              [
                1748.0798060887782,
                1361.5087800826338
              ],
              [
                1748.0716590253169,
                1361.5097103265114
              ],
              [
                1748.0588156040815,
                1361.5100661203644
              ],
              [
                1748.04453039473,
                1361.5118549435247
              ],
              [
                1748.025377917645,
                1361.512742995042
              ],
              [
                1748.0212259508871,
                1361.5133242633658
              ],
              [
                1748.0144149380908,
                1361.5136588669682
              ],
              [
                1747.9915465185609,
                1361.5170510765627
              ],
              [
                1747.9747705393722,
                1361.518213543441
              ],
              [
                1747.9345961529723,
                1361.5249469597863
              ],
              [
                1747.9153243994626,
                1361.5268578607952
              ],
              [
                1747.9070189057745,
                1361.5285091813303
              ],
              [
                1747.8876017015243,
                1361.5307262667206
              ],
              [
                1747.8787820509085,
                1361.5326102904653
              ],
              [
                1747.8666356837161,
                1361.5341312834319
              ],
              [
                1747.8568248322936,
                1361.5363401419183
              ],
              [
                1747.8417758396088,
                1361.538446975442
              ],
              [
                1747.8324236900949,
                1361.540654718463
              ],
              [
                1747.8202685747178,
                1361.542457759506
              ],
              [
                1747.8201371438558,
                1361.5424906812232
              ],
              [
                1747.8195361528428,
                1361.5425798298186
              ],
              [
                1747.8155043325671,
                1361.5435897482234
              ],
              [
                1747.8153367938012,
                1361.5436148593
              ],
              [
                1747.8090494654452,
                1361.5452066082673
              ],
              [
                1747.7996075457543,
                1361.547571686029
              ],
              [
                1747.7837541070835,
                1361.5502287970055
              ],
              [
                1747.7441198883164,
                1361.560897200972
              ],
              [
                1747.7242793358648,
                1361.5648419528343
              ],
              [
                1747.7237910546148,
                1361.5649640231468
              ],
              [
                1747.7151471067507,
                1361.567565430266
              ],
              [
                1747.6984167465798,
                1361.5711393128602
              ],
              [
                1747.6890209259666,
                1361.5741202556512
              ],
              [
                1747.6776846476353,
                1361.5766725554995
              ],
              [
                1747.6722165850379,
                1361.578474485735
              ],
              [
                1747.6613426749805,
                1361.5810414676896
              ],
              [
                1747.6478047695819,
                1361.585596301981
              ],
              [
                1747.629147442366,
                1361.5902697191607
              ],
              [
                1747.6245383583791,
                1361.5919188757812
              ],
              [
                1747.6231162137133,
                1361.5922789169904
              ],
              [
                1747.610278541952,
                1361.5969234831812
              ],
              [
                1747.5967300903676,
                1361.6005703408491
              ],
              [
                1747.5617391763262,
                1361.6137337423208
              ],
              [
                1747.542491659304,
                1361.619526307084
              ],
              [
                1747.5305104170254,
                1361.6244097171448
              ],
              [
                1747.5140212460203,
                1361.629641114961
              ],
              [
                1747.5041739097505,
                1361.6338508045
              ],
              [
                1747.4937344906477,
                1361.6372909818178
              ],
              [
                1747.4923709712255,
                1361.637892072557
              ],
              [
                1747.4856288145672,
                1361.6401604741627
              ],
              [
                1747.4685430773532,
                1361.6477348798303
              ],
              [
                1747.4443499321449,
                1361.6563913256025
              ],
              [
                1747.4392786260755,
                1361.6587898747412
              ],
              [
                1747.436659069174,
                1361.6597376093182
              ],
              [
                1747.4263925160449,
                1361.6646504581588
              ],
              [
                1747.4154524123232,
                1361.6687660687787
              ],
              [
                1747.3851261197888,
                1361.683666605814
              ],
              [
                1747.3671640300886,
                1361.690987737256
              ],
              [
                1747.3521182978668,
                1361.698853857219
              ],
              [
                1747.3361404115929,
                1361.7056843278012
              ],
              [
                1747.3289549300473,
                1361.7096167430966
              ],
              [
                1747.3161440980625,
                1361.7152960086253
              ],
              [
                1747.3158999574375,
                1361.7154180789378
              ],
              [
                1747.2969240163486,
                1361.7261185908276
              ],
              [
                1747.266923323223,
                1361.7403078619284
              ],
              [
                1747.2668188966136,
                1361.7403704528292
              ],
              [
                1747.266435041973,
                1361.7405520025534
              ],
              [
                1747.2611156852927,
                1361.7437403022495
              ],
              [
                1747.2577980913645,
                1361.7453278689118
              ],
              [
                1747.250011254214,
                1361.7500540172077
              ],
              [
                1747.2416211065197,
                1361.7541764369303
              ],
              [
                1747.2159237334945,
                1361.7700582868815
              ],
              [
                1747.1993793880285,
                1361.7787079028808
              ],
              [
                1747.1816578550327,
                1361.7902283579297
              ],
              [
                1747.1664385035654,
                1361.7985574880117
              ],
              [
                1747.1566457652411,
                1361.8052213392402
              ],
              [
                1747.1424441852278,
                1361.8132295942762
              ],
              [
                1747.1266940939186,
                1361.824309503508
              ],
              [
                1747.0980880495858,
                1361.841455306645
              ],
              [
                1747.092096766656,
                1361.8458987449028
              ],
              [
                1747.0882913469536,
                1361.8482084089544
              ],
              [
                1747.082828801712,
                1361.8523154784532
              ],
              [
                1747.0768663739755,
                1361.8560004614499
              ],
              [
                1747.0556551050586,
                1361.872140516289
              ],
              [
                1747.0406413567355,
                1361.8819006884316
              ],
              [
                1747.0207459339363,
                1361.897699686748
              ],
              [
                1747.00650325984,
                1361.907391670556
              ],
              [
                1746.995472553851,
                1361.9165752768208
              ],
              [
                1746.9832434555005,
                1361.925138995187
              ],
              [
                1746.9826900147132,
                1361.9256138131332
              ],
              [
                1746.9795748700917,
                1361.9278052619934
              ],
              [
                1746.9669619661956,
                1361.938705038022
              ],
              [
                1746.9404419472978,
                1361.9583736245245
              ],
              [
                1746.9339893683764,
                1361.9642219011628
              ],
              [
                1746.9298049576478,
                1361.967367992392
              ],
              [
                1746.9264510389041,
                1361.970454328694
              ],
              [
                1746.9227332950288,
                1361.9732832301736
              ],
              [
                1746.9057661528207,
                1361.9890053798515
              ],
              [
                1746.892372487458,
                1361.999641318512
              ],
              [
                1746.8709127254695,
                1362.0202774715306
              ],
              [
                1746.8578310410135,
                1362.0311686184293
              ],
              [
                1746.847620001622,
                1362.0414955256224
              ],
              [
                1746.8342821828726,
                1362.052938548705
              ],
              [
                1746.831926624359,
                1362.0553994165768
              ],
              [
                1746.8289066168813,
                1362.0580092362807
              ],
              [
                1746.8191411423325,
                1362.0683142657044
              ],
              [
                1746.795014953252,
                1362.090180968877
              ],
              [
                1746.788334845588,
                1362.0975513319036
              ],
              [
                1746.7838967234875,
                1362.101635371619
              ],
              [
                1746.7823802712644,
                1362.1033376153086
              ],
              [
                1746.7806673394762,
                1362.1049248578527
              ],
              [
                1746.7676129338622,
                1362.1196126975003
              ],
              [
                1746.7559015107047,
                1362.130874645348
              ],
              [
                1746.733586088976,
                1362.1568234161175
              ],
              [
                1746.7218128303666,
                1362.1687302695102
              ],
              [
                1746.7125606803631,
                1362.180101823617
              ],
              [
                1746.6985647462586,
                1362.1947234704048
              ],
              [
                1746.6947796540892,
                1362.1995468841626
              ],
              [
                1746.6919330752282,
                1362.202550740122
              ],
              [
                1746.6846820077255,
                1362.211914614987
              ],
              [
                1746.6632076088995,
                1362.2356079629228
              ],
              [
                1746.6566051717496,
                1362.244510318868
              ],
              [
                1746.6520008108653,
                1362.249690800948
              ],
              [
                1746.6424496017396,
                1362.2627985504787
              ],
              [
                1746.6324514286553,
                1362.2744246046323
              ],
              [
                1746.6100767845599,
                1362.3060618616369
              ],
              [
                1746.5997212197694,
                1362.3187895914377
              ],
              [
                1746.5915470414923,
                1362.3310981335305
              ],
              [
                1746.5773981787643,
                1362.3491282939824
              ],
              [
                1746.5726205494834,
                1362.3566284066899
              ],
              [
                1746.5700121322504,
                1362.3599968614114
              ],
              [
                1746.5649120163853,
                1362.3681442268119
              ],
              [
                1746.54628929102,
                1362.3932540652108
              ],
              [
                1746.541183202225,
                1362.4017730597
              ],
              [
                1746.5379403520672,
                1362.4062234352575
              ],
              [
                1746.5367540979885,
                1362.4082349708583
              ],
              [
                1746.5354136557646,
                1362.4100790087
              ],
              [
                1746.5301464958252,
                1362.4190815403579
              ],
              [
                1746.5231285550701,
                1362.4290047549737
              ],
              [
                1746.5015648001836,
                1362.4665919002648
              ],
              [
                1746.4926985032591,
                1362.4799426231389
              ],
              [
                1746.4857022513747,
                1362.4930762124604
              ],
              [
                1746.4719493806706,
                1362.5146660165808
              ],
              [
                1746.4671034294813,
                1362.524229302715
              ],
              [
                1746.466110726918,
                1362.5258069280874
              ],
              [
                1746.4656920754842,
                1362.5266467265392
              ],
              [
                1746.464352451138,
                1362.528786758126
              ],
              [
                1746.4610220016232,
                1362.5355139431026
              ],
              [
                1746.4453859869284,
                1362.561601057598
              ],
              [
                1746.4452966349006,
                1362.5617899765882
              ],
              [
                1746.4448977056784,
                1362.5624555497855
              ],
              [
                1746.4412173654075,
                1362.5702369755036
              ],
              [
                1746.4395556293036,
                1362.5730547878022
              ],
              [
                1746.4375829143987,
                1362.5772894895654
              ],
              [
                1746.4352812207876,
                1362.5812235014123
              ],
              [
                1746.433206085399,
                1362.58574596031
              ],
              [
                1746.428912600917,
                1362.5932298065084
              ],
              [
                1746.4090869489996,
                1362.6369009251466
              ],
              [
                1746.401745989692,
                1362.6506816103429
              ],
              [
                1746.3960105475644,
                1362.6645281925134
              ],
              [
                1746.3832338815478,
                1362.6897424194392
              ],
              [
                1746.3791477599832,
                1362.7002512488075
              ],
              [
                1746.3776459766666,
                1362.7032637675816
              ],
              [
                1746.3765624646799,
                1362.7061140154178
              ],
              [
                1746.3760014890722,
                1362.7072471317324
              ],
              [
                1746.374382012907,
                1362.7115484555695
              ],
              [
                1746.3609811693525,
                1362.7398821587074
              ],
              [
                1746.3581371428536,
                1362.7478306802916
              ],
              [
                1746.357769300749,
                1362.7486203035694
              ],
              [
                1746.3556809354532,
                1362.7545414629344
              ],
              [
                1746.350647894566,
                1362.7656280353515
              ],
              [
                1746.3335258990687,
                1362.815379478352
              ],
              [
                1746.3277146344567,
                1362.8294091121932
              ],
              [
                1746.3233087639787,
                1362.8438599182634
              ],
              [
                1746.312106060149,
                1362.8726714210914
              ],
              [
                1746.3089342846633,
                1362.8840142842957
              ],
              [
                1746.3071878820656,
                1362.8886083084385
              ],
              [
                1746.3058372154842,
                1362.8936032319282
              ],
              [
                1746.3058351132595,
                1362.893608815431
              ],
              [
                1746.305794302866,
                1362.8937619278263
              ],
              [
                1746.3053988767501,
                1362.895224259997
              ],
              [
                1746.2948595629107,
                1362.9246796689285
              ],
              [
                1746.2920499332974,
                1362.9358963390944
              ],
              [
                1746.2890358152315,
                1362.944654472641
              ],
              [
                1746.2756007813166,
                1363.000337238447
              ],
              [
                1746.271297077901,
                1363.0144529469671
              ],
              [
                1746.268279071007,
                1363.02940494298
              ],
              [
                1746.2592509162766,
                1363.0616913152523
              ],
              [
                1746.2571272310308,
                1363.0737384695092
              ],
              [
                1746.255428992318,
                1363.080018755521
              ],
              [
                1746.2543992846201,
                1363.086206154218
              ],
              [
                1746.2471696735686,
                1363.1150683794053
              ],
              [
                1746.245974279811,
                1363.123127069528
              ],
              [
                1746.2446285074725,
                1363.1287047499734
              ],
              [
                1746.2429589678477,
                1363.140378615939
              ],
              [
                1746.242589442579,
                1363.1419439500962
              ],
              [
                1746.2405631497954,
                1363.1571308142104
              ],
              [
                1746.235859502244,
                1363.190019971344
              ],
              [
                1746.2330211649619,
                1363.2040818370772
              ],
              [
                1746.2314429705218,
                1363.2194390854224
              ],
              [
                1746.22517747386,
                1363.2549817370127
              ],
              [
                1746.2242134686642,
                1363.2675893551834
              ],
              [
                1746.2228780577393,
                1363.2756136904716
              ],
              [
                1746.2224975925906,
                1363.2813940390606
              ],
              [
                1746.2183707810307,
                1363.3092147427783
              ],
              [
                1746.218139472099,
                1363.313923144248
              ],
              [
                1746.2178239330797,
                1363.3161294771578
              ],
              [
                1746.216984043325,
                1363.3338538864223
              ],
              [
                1746.2163658425943,
                1363.338487239791
              ],
              [
                1746.215407048922,
                1363.3671336044522
              ],
              [
                1746.2146728661346,
                1363.3826272524336
              ],
              [
                1746.2132450066258,
                1363.3965216069719
              ],
              [
                1746.2131565803752,
                1363.4121954489358
              ],
              [
                1746.210213878776,
                1363.4506811939475
              ],
              [
                1746.2104984308503,
                1363.4636954610728
              ],
              [
                1746.2098550291305,
                1363.4734705646158
              ],
              [
                1746.210035912113,
                1363.4788748971926
              ],
              [
                1746.208740234375,
                1363.5052490234375
              ],
              [
                1746.2099557103304,
                1363.5300060114494
              ],
              [
                1746.209732958818,
                1363.5366612713217
              ],
              [
                1746.2118955971416,
                1363.5695179033273
              ],
              [
                1746.212230535268,
                1363.5763399709656
              ],
              [
                1746.2121536294285,
                1363.5899717823954
              ],
              [
                1746.2136072382314,
                1363.6058798039542
              ],
              [
                1746.2145042386246,
                1363.6469049933064
              ],
              [
                1746.2161037240364,
                1363.6601659904802
              ],
              [
                1746.2164879129068,
                1363.6716445961465
              ],
              [
                1746.217155168985,
                1363.6766456144949
              ],
              [
                1746.2179635812522,
                1363.693111471112
              ],
              [
                1746.2182403681538,
                1363.6988247207273
              ],
              [
                1746.218245954672,
                1363.6988628932936
              ],
              [
                1746.2183707810307,
                1363.7014053744092
              ],
              [
                1746.222335925266,
                1363.7281362055528
              ],
              [
                1746.2227559874268,
                1363.734518145466
              ],
              [
                1746.227602132042,
                1363.76363808789
              ],
              [
                1746.2286969446066,
                1363.7710187146872
              ],
              [
                1746.2297572443392,
                1363.7826224356975
              ],
              [
                1746.2327640619499,
                1363.7984369926837
              ],
              [
                1746.2328567753248,
                1363.7990620154883
              ],
              [
                1746.238007234896,
                1363.8417633926344
              ],
              [
                1746.2409664249692,
                1363.8551086243656
              ],
              [
                1746.2427115128914,
                1363.8681878858413
              ],
              [
                1746.2435403157933,
                1363.8716987512735
              ],
              [
                1746.2462866104781,
                1363.8904641273132
              ],
              [
                1746.2466079329804,
                1363.8917647903434
              ],
              [
                1746.2471696735686,
                1363.8955517377822
              ],
              [
                1746.2542776850082,
                1363.9239285101069
              ],
              [
                1746.2553069220055,
                1363.9301130804165
              ],
              [
                1746.2623643185818,
                1363.95621216099
              ],
              [
                1746.2640139529565,
                1363.9627978705746
              ],
              [
                1746.265891151226,
                1363.9726711195885
              ],
              [
                1746.270031826404,
                1363.9868225680805
              ],
              [
                1746.2712607512747,
                1363.9917287111773
              ],
              [
                1746.2804965208875,
                1364.0333797990259
              ],
              [
                1746.2848400522805,
                1364.0466472424857
              ],
              [
                1746.288268071145,
                1364.0611685634242
              ],
              [
                1746.2889448179756,
                1364.0631378523583
              ],
              [
                1746.2927380122203,
                1364.0784921069899
              ],
              [
                1746.2936208457818,
                1364.0809952122752
              ],
              [
                1746.2948595629107,
                1364.085940448259
              ],
              [
                1746.305439672417,
                1364.1155098734414
              ],
              [
                1746.307065811753,
                1364.121523527499
              ],
              [
                1746.3160089580942,
                1364.1450490480483
              ],
              [
                1746.3177621116427,
                1364.1499487839774
              ],
              [
                1746.3202172797976,
                1364.15833973091
              ],
              [
                1746.3252911102975,
                1364.1709909255824
              ],
              [
                1746.3283126570263,
                1364.179435582973
              ],
              [
                1746.3415629015483,
                1364.2199088417387
              ],
              [
                1746.3468623698423,
                1364.2319513450075
              ],
              [
                1746.3505770387055,
                1364.2424835763038
              ],
              [
                1746.3527098015286,
                1364.248689776372
              ],
              [
                1746.3529524412065,
                1364.2492185746257
              ],
              [
                1746.3571589491864,
                1364.2611453214306
              ],
              [
                1746.3588402088817,
                1364.264754374811
              ],
              [
                1746.3609811693525,
                1364.2707379584801
              ],
              [
                1746.3752896217686,
                1364.3009906393254
              ],
              [
                1746.377523906354,
                1364.306868068356
              ],
              [
                1746.3881682105452,
                1364.3282201275097
              ],
              [
                1746.389355580762,
                1364.3307306109052
              ],
              [
                1746.3922273526018,
                1364.3378911466393
              ],
              [
                1746.3981140980568,
                1364.3492489398407
              ],
              [
                1746.4033852932791,
                1364.3603939457503
              ],
              [
                1746.4206182742503,
                1364.399554144125
              ],
              [
                1746.426518215271,
                1364.4100344516626
              ],
              [
                1746.4389452777411,
                1364.4367108371978
              ],
              [
                1746.441648505686,
                1364.4412947112144
              ],
              [
                1746.4448977056784,
                1364.448164567402
              ],
              [
                1746.4631085479195,
                1364.4785475221302
              ],
              [
                1746.4659886566055,
                1364.4843249078501
              ],
              [
                1746.4781001760264,
                1364.503572808526
              ],
              [
                1746.4812476404904,
                1364.5096454764823
              ],
              [
                1746.4879193944273,
                1364.5199419187334
              ],
              [
                1746.4947125125989,
                1364.5312755516945
              ],
              [
                1746.4960117766109,
                1364.5334787186735
              ],
              [
                1746.516901292538,
                1364.570585623718
              ],
              [
                1746.5231938892932,
                1364.5795715316272
              ],
              [
                1746.5373300005047,
                1364.6035421897425
              ],
              [
                1746.541260819575,
                1364.6089367100747
              ],
              [
                1746.54580100977,
                1364.6165115597892
              ],
              [
                1746.5679991301163,
                1364.646442260249
              ],
              [
                1746.571590521645,
                1364.6521497809185
              ],
              [
                1746.5717343370497,
                1364.6523347698792
              ],
              [
                1746.572078802895,
                1364.6528822027935
              ],
              [
                1746.5839779923563,
                1364.6681880644514
              ],
              [
                1746.5864452660567,
                1364.6719957799958
              ],
              [
                1746.5939750480477,
                1364.6814667310891
              ],
              [
                1746.6017528340076,
                1364.6919538614486
              ],
              [
                1746.6053318316385,
                1364.6968655541882
              ],
              [
                1746.629484698312,
                1364.7313561538745
              ],
              [
                1746.6359845443333,
                1364.738932278427
              ],
              [
                1746.6513904593028,
                1364.760074824052
              ],
              [
                1746.6567321808654,
                1364.7660849291517
              ],
              [
                1746.6627193276495,
                1364.7741576620772
              ],
              [
                1746.6883256782326,
                1364.8024099162449
              ],
              [
                1746.693779797124,
                1364.8094255192395
              ],
              [
                1746.7055672780825,
                1364.821827309168
              ],
              [
                1746.7068359960685,
                1364.8234231011859
              ],
              [
                1746.7154026826083,
                1364.8322847868255
              ],
              [
                1746.7240377501068,
                1364.8418121156392
              ],
              [
                1746.7301257369004,
                1364.8486618624943
              ],
              [
                1746.75728425183,
                1364.8803174265024
              ],
              [
                1746.7638281132217,
                1364.886581252606
              ],
              [
                1746.7800569879137,
                1364.9048407671473
              ],
              [
                1746.786966446004,
                1364.9112432321565
              ],
              [
                1746.794526672002,
                1364.919584656123
              ],
              [
                1746.82307748688,
                1364.945461606361
              ],
              [
                1746.8303836928123,
                1364.9531485779428
              ],
              [
                1746.8545758516486,
                1364.9740100600977
              ],
              [
                1746.8604140342627,
                1364.9793014803822
              ],
              [
                1746.869162807577,
                1364.9874082977742
              ],
              [
                1746.8990691735298,
                1365.0160348631164
              ],
              [
                1746.9055152049139,
                1365.0210932769578
              ],
              [
                1746.9221229434663,
                1365.0364823948264
              ],
              [
                1746.9277727562474,
                1365.0407814440005
              ],
              [
                1746.9299270279603,
                1365.0427638435456
              ],
              [
                1746.9329011147113,
                1365.0449999405373
              ],
              [
                1746.9399536660478,
                1365.0513920004755
              ],
              [
                1746.971100430227,
                1365.0744920151435
              ],
              [
                1746.9805477781017,
                1365.0826386911156
              ],
              [
                1747.009658707548,
                1365.1030900097785
              ],
              [
                1747.0210756397637,
                1365.111777368973
              ],
              [
                1747.0534739971074,
                1365.1372014306107
              ],
              [
                1747.059700553134,
                1365.1411677945243
              ],
              [
                1747.076256022413,
                1365.1537651635501
              ],
              [
                1747.0835968648846,
                1365.1583020537037
              ],
              [
                1747.088413417266,
                1365.161923426983
              ],
              [
                1747.0915770381184,
                1365.1638435571992
              ],
              [
                1747.0975997683358,
                1365.168310318355
              ],
              [
                1747.130938599425,
                1365.1882928447058
              ],
              [
                1747.142796054837,
                1365.1966230699431
              ],
              [
                1747.1746605925002,
                1365.2145825325124
              ],
              [
                1747.1843746709312,
                1365.2205861631521
              ],
              [
                1747.2190117197058,
                1365.2426502287044
              ],
              [
                1747.2249159065495,
                1365.24564202471
              ],
              [
                1747.2410107549572,
                1365.2555891880697
              ],
              [
                1747.250078459752,
                1365.2600445190658
              ],
              [
                1747.257920161677,
                1365.2648039670257
              ],
              [
                1747.261240902462,
                1365.266393039552
              ],
              [
                1747.265946760723,
                1365.2692136224466
              ],
              [
                1747.301030138042,
                1365.285806824138
              ],
              [
                1747.3155337465,
                1365.2939813351247
              ],
              [
                1747.315777887125,
                1365.2941034054372
              ],
              [
                1747.3509856748215,
                1365.3096243248917
              ],
              [
                1747.3574640208071,
                1365.3128073989249
              ],
              [
                1747.3940881225642,
                1365.3313657278272
              ],
              [
                1747.3995842301767,
                1365.33350276546
              ],
              [
                1747.4148420607607,
                1365.3409995562213
              ],
              [
                1747.4256284976973,
                1365.3450573581888
              ],
              [
                1747.4367811394866,
                1365.3503942266193
              ],
              [
                1747.4369672110965,
                1365.3504615458282
              ],
              [
                1747.438612194174,
                1365.3512487188068
              ],
              [
                1747.4419441981288,
                1365.3524542109867
              ],
              [
                1747.4433733696449,
                1365.3531301587725
              ],
              [
                1747.4768286421463,
                1365.3651006466816
              ],
              [
                1747.4930020687727,
                1365.3722305025572
              ],
              [
                1747.5321715487798,
                1365.385138304739
              ],
              [
                1747.5386585024023,
                1365.3875786632493
              ],
              [
                1747.5770171242164,
                1365.402493549226
              ],
              [
                1747.5773833351539,
                1365.4026156195384
              ],
              [
                1747.5822387386459,
                1365.4039733234524
              ],
              [
                1747.596119738805,
                1365.4091952841509
              ],
              [
                1747.6065019551006,
                1365.411989881369
              ],
              [
                1747.6250693387133,
                1365.4187074111346
              ],
              [
                1747.6587454304201,
                1365.427233112539
              ],
              [
                1747.6635399406055,
                1365.428846227623
              ],
              [
                1747.668002863854,
                1365.429899780888
              ],
              [
                1747.6769522257603,
                1365.4328489288755
              ],
              [
                1747.7128666363233,
                1365.4409348581332
              ],
              [
                1747.7292838598005,
                1365.4450911701683
              ],
              [
                1747.7664032293148,
                1365.4554707634109
              ],
              [
                1747.7711400846338,
                1365.4563057813361
              ],
              [
                1747.783143755521,
                1365.4595368279945
              ],
              [
                1747.792611245813,
                1365.4611236239507
              ],
              [
                1747.8172899188012,
                1365.467371468825
              ],
              [
                1747.8431618727018,
                1365.4712492138474
              ],
              [
                1747.8439731052338,
                1365.4714407198705
              ],
              [
                1747.8510469195871,
                1365.472431041916
              ],
              [
                1747.8561711837588,
                1365.4731990778348
              ],
              [
                1747.8659032618411,
                1365.4753902009431
              ],
              [
                1747.8956053634492,
                1365.479109558914
              ],
              [
                1747.9282925418677,
                1365.4840087846894
              ],
              [
                1747.9596936510752,
                1365.4895442058275
              ],
              [
                1747.9642665291035,
                1365.4898938577696
              ],
              [
                1747.9741601878097,
                1365.491552081559
              ],
              [
                1747.9824560678926,
                1365.4921269324045
              ],
              [
                1748.0133845530925,
                1365.496762561395
              ],
              [
                1748.051808415324,
                1365.4986696248557
              ],
              [
                1748.0580831822065,
                1365.4994553640106
              ],
              [
                1748.0797116141878,
                1365.5000545239234
              ],
              [
                1748.1294133598453,
                1365.5025213343265
              ],
              [
                1748.15539310801,
                1365.5045078009116
              ],
              [
                1748.159753111569,
                1365.5044124710676
              ],
              [
                1748.1673776714463,
                1365.504940803764
              ],
              [
                1748.1742984274897,
                1365.5047490820714
              ],
              [
                1748.21142578125,
                1365.506591796875
              ],
              [
                1748.2490367280307,
                1365.504745239392
              ],
              [
                1748.2516897113662,
                1365.5048187334514
              ],
              [
                1748.2609277372246,
                1365.5041785979956
              ],
              [
                1748.34156365467,
                1365.5004372516662
              ],
              [
                1748.351616907369,
                1365.500217441063
              ],
              [
                1748.3549401058422,
                1365.4998166109135
              ],
              [
                1748.3587774026246,
                1365.4996385679683
              ],
              [
                1748.360984200606,
                1365.499577434323
              ],
              [
                1748.3615076119752,
                1365.49951189168
              ],
              [
                1748.39674122298,
                1365.4978771221456
              ],
              [
                1748.4009614107154,
                1365.4972863030002
              ],
              [
                1748.4075821322217,
                1365.4969612502193
              ],
              [
                1748.4448387371756,
                1365.491434754931
              ],
              [
                1748.4449071950028,
                1365.4914300112464
              ],
              [
                1748.445188016677,
                1365.4913829442114
              ],
              [
                1748.44616826764,
                1365.4912375377166
              ],
              [
                1748.4540833242663,
                1365.4907524180533
              ],
              [
                1748.4724588330187,
                1365.4873377007384
              ],
              [
                1748.4797649356742,
                1365.4862539427859
              ],
              [
                1748.5803433010162,
                1365.4721731417455
              ],
              [
                1748.5899018452594,
                1365.4699166755381
              ],
              [
                1748.6017284955947,
                1365.4681623576814
              ],
              [
                1748.6023458800387,
                1365.4680077109288
              ],
              [
                1748.6029491987197,
                1365.4679182170564
              ],
              [
                1748.677643433361,
                1365.4492082852773
              ],
              [
                1748.6947880469477,
                1365.4460223049782
              ],
              [
                1748.6952763281977,
                1365.4459002346657
              ],
              [
                1748.7085170271957,
                1365.4419154294378
              ],
              [
                1748.7607764656445,
                1365.429578649498
              ],
              [
                1748.7746673028535,
                1365.4249050711421
              ],
              [
                1748.7933379091965,
                1365.4202283277143
              ],
              [
                1748.8608761741882,
                1365.3960627500926
              ],
              [
                1748.8765757235085,
                1365.3913379507285
              ],
              [
                1748.8866971490552,
                1365.3872125795695
              ],
              [
                1748.9364903260578,
                1365.3704596430248
              ],
              [
                1748.9534712582938,
                1365.362931699234
              ],
              [
                1748.9781354194176,
                1365.3541067212725
              ],
              [
                1748.9795648766567,
                1365.35343063835
              ],
              [
                1748.9797223334801,
                1365.3533742993975
              ],
              [
                1749.0420940539711,
                1365.3238746725933
              ],
              [
                1749.051903352724,
                1365.3198765205566
              ],
              [
                1749.0592179783205,
                1365.3160523316383
              ],
              [
                1749.1059750425625,
                1365.2953241085622
              ],
              [
                1749.1062191831875,
                1365.2952020382497
              ],
              [
                1749.1234755950127,
                1365.285384070273
              ],
              [
                1749.157148942402,
                1365.2694577630716
              ],
              [
                1749.2172970546042,
                1365.2334063720132
              ],
              [
                1749.219687994784,
                1365.2321563549317
              ],
              [
                1749.2232982100556,
                1365.22980941786
              ],
              [
                1749.2530788570002,
                1365.2119595850113
              ],
              [
                1749.2682814865489,
                1365.2035482385977
              ],
              [
                1749.2727548282894,
                1365.2004522346917
              ],
              [
                1749.2925673614418,
                1365.1891799714892
              ],
              [
                1749.2998903837076,
                1365.1839018356725
              ],
              [
                1749.3254959347892,
                1365.16855445898
              ],
              [
                1749.4184207871733,
                1365.0996366914471
              ],
              [
                1749.43274143496,
                1365.0897253580285
              ],
              [
                1749.4391923420276,
                1365.0842314564427
              ],
              [
                1749.4831420370772,
                1365.0516361411005
              ],
              [
                1749.5715226111217,
                1364.971532658019
              ],
              [
                1749.585010590431,
                1364.9600456484957
              ],
              [
                1749.5904887639035,
                1364.9543427391382
              ],
              [
                1749.628569031123,
                1364.919828796748
              ],
              [
                1749.7108807868076,
                1364.829011769346
              ],
              [
                1749.7235661577586,
                1364.8158059953662
              ],
              [
                1749.7281810258671,
                1364.8099238970044
              ],
              [
                1749.7603763754755,
                1364.7744018027022
              ],
              [
                1749.8351460430852,
                1364.6735865764672
              ],
              [
                1749.8470224869557,
                1364.6584488933543
              ],
              [
                1749.8508577905013,
                1364.6524017374682
              ],
              [
                1749.877294693355,
                1364.6167557004142
              ],
              [
                1749.9431384101374,
                1364.5069020956416
              ],
              [
                1749.9541449306944,
                1364.489548020592
              ],
              [
                1749.9572594174938,
                1364.4833426181865
              ],
              [
                1749.9781979974466,
                1364.448408708027
              ],
              [
                1750.0338608742463,
                1364.330719443124
              ],
              [
                1750.04386219162,
                1364.310792500777
              ],
              [
                1750.0462920862578,
                1364.3044358536363
              ],
              [
                1750.0621145337725,
                1364.2709820991051
              ],
              [
                1750.1065119667512,
                1364.1468995863506
              ],
              [
                1750.1152770360532,
                1364.1239700107847
              ],
              [
                1750.1170400193778,
                1364.1174756504004
              ],
              [
                1750.1282361402143,
                1364.086184588884
              ],
              [
                1750.1604979514227,
                1363.9573882188704
              ],
              [
                1750.1676752669382,
                1363.9309489026837
              ],
              [
                1750.1687756476197,
                1363.9243418032383
              ],
              [
                1750.1759260295564,
                1363.8957958784072
              ],
              [
                1750.1954459313808,
                1363.7642033893
              ],
              [
                1750.2005328662988,
                1363.7336595189433
              ],
              [
                1750.2009675882728,
                1363.726979402163
              ],
              [
                1750.2047249220943,
                1363.7016495150342
              ],
              [
                1750.2112040487223,
                1363.5696817376838
              ],
              [
                1750.2135212357755,
                1363.5340748876945
              ],
              [
                1750.213284121627,
                1363.5273145154088
              ],
              [
                1750.21435546875,
                1363.5054931640625
              ],
              [
                1750.2114509483335,
                1363.4463702927594
              ],
              [
                1750.2075724134663,
                1363.3644677437833
              ],
              [
                1750.2065104828328,
                1363.3341909911055
              ],
              [
                1750.2059398494519,
                1363.3299930880885
              ],
              [
                1750.2052717700453,
                1363.3158853365328
              ],
              [
                1750.2049196917833,
                1363.3134235115008
              ],
              [
                1750.2047249220943,
                1363.3094588834033
              ],
              [
                1750.194347727447,
                1363.2395015195866
              ],
              [
                1750.180037201685,
                1363.1394385099115
              ],
              [
                1750.1795707197716,
                1363.136006804202
              ],
              [
                1750.1795104218193,
                1363.1357551247108
              ],
              [
                1750.1784671956525,
                1363.1284606093484
              ],
              [
                1750.1769333956122,
                1363.1221036303502
              ],
              [
                1750.1759260295564,
                1363.1153125200303
              ],
              [
                1750.1587574482564,
                1363.046771701431
              ],
              [
                1750.1340598878935,
                1362.944410332016
              ],
              [
                1750.1305963706982,
                1362.9343463778262
              ],
              [
                1750.1282361402143,
                1362.9249238095535
              ],
              [
                1750.1051103367759,
                1362.8602915187294
              ],
              [
                1750.072447808559,
                1362.7653838947265
              ],
              [
                1750.068897138362,
                1362.7575626266005
              ],
              [
                1750.0671784364924,
                1362.752628647167
              ],
              [
                1750.06461654437,
                1362.747118950507
              ],
              [
                1750.0621145337725,
                1362.7401262993324
              ],
              [
                1750.0338919600342,
                1362.6804546806902
              ],
              [
                1749.994183102208,
                1362.5929856658834
              ],
              [
                1749.9876648581037,
                1362.581623906789
              ],
              [
                1749.9828499156117,
                1362.5712687195687
              ],
              [
                1749.9798911497187,
                1362.566279560114
              ],
              [
                1749.9781979974466,
                1362.5626996904105
              ],
              [
                1749.9781354065458,
                1362.562595263801
              ],
              [
                1749.9779538568216,
                1362.5622114091605
              ],
              [
                1749.9775549275994,
                1362.5615458359632
              ],
              [
                1749.9774655755716,
                1362.561356916973
              ],
              [
                1749.9441338813947,
                1362.505746344887
              ],
              [
                1749.8999671480549,
                1362.4287606143487
              ],
              [
                1749.889870956178,
                1362.414484820025
              ],
              [
                1749.8808291425291,
                1362.3992382436873
              ],
              [
                1749.877975985155,
                1362.3953685633583
              ],
              [
                1749.87656227148,
                1362.3930099245858
              ],
              [
                1749.836084796921,
                1362.338432368131
              ],
              [
                1749.7906442744697,
                1362.2741804640073
              ],
              [
                1749.7764717596388,
                1362.2577004107486
              ],
              [
                1749.7621363944206,
                1362.238257641381
              ],
              [
                1749.760214719141,
                1362.2361334105406
              ],
              [
                1749.7596439536005,
                1362.2353638222978
              ],
              [
                1749.7130980802265,
                1362.1840083649574
              ],
              [
                1749.6671941924203,
                1362.130630504723
              ],
              [
                1749.6485727444722,
                1362.1127237334604
              ],
              [
                1749.6279586795606,
                1362.089936828252
              ],
              [
                1749.6277145389356,
                1362.089692687627
              ],
              [
                1749.5739210187644,
                1362.0409370829082
              ],
              [
                1749.530723215667,
                1361.999397177887
              ],
              [
                1749.5094510129998,
                1361.9825048756968
              ],
              [
                1749.4822875448897,
                1361.9578853432745
              ],
              [
                1749.4241584790998,
                1361.914773889877
              ],
              [
                1749.3824543463895,
                1361.8816565478066
              ],
              [
                1749.3585656129649,
                1361.8661269048766
              ],
              [
                1749.3246414426017,
                1361.840967025395
              ],
              [
                1749.2633781805423,
                1361.8042472392344
              ],
              [
                1749.2237163150965,
                1361.7784637622558
              ],
              [
                1749.1974494194812,
                1361.7647310605882
              ],
              [
                1749.1562944502145,
                1361.7400637213034
              ],
              [
                1749.107311113199,
                1361.7168963282895
              ],
              [
                1749.107317816,
                1361.7168829226878
              ],
              [
                1749.107073675375,
                1361.7167608523753
              ],
              [
                1749.1062919456222,
                1361.716414297925
              ],
              [
                1749.0930850091559,
                1361.710167882179
              ],
              [
                1749.0559316730364,
                1361.690743596631
              ],
              [
                1749.027602575906,
                1361.6791969978121
              ],
              [
                1749.0252882683087,
                1361.678102411838
              ],
              [
                1749.0243629953166,
                1361.677635189791
              ],
              [
                1749.0240134280623,
                1361.6774994573066
              ],
              [
                1748.9788678412926,
                1361.6561471849775
              ],
              [
                1748.927391941335,
                1361.6377288134627
              ],
              [
                1748.9266756656023,
                1361.6374130521303
              ]
            ]
          ]
        ]
      }
    }
  ]
}