{
  "type": "FeatureCollection",
  "features": [
    {
      "type": "Feature",
      "properties": {
        "image_id": "0014_top_20250708_t1",
        "zone_type": "parking_spot",
        "generated_at": "2025-11-03T11:20:41",
        "source": "merged_t1_polygons"
      },
      "geometry": {
        "type": "MultiPolygon",
        "coordinates": [
          [
            [
              [
                1786.5464265054459,
                638.4167874666086
              ],
              [
                1786.584253174588,
                638.4120988193486
              ],
              [
                1786.585300489092,
                638.4118640060333
              ],
              [
                1786.5858789647214,
                638.4117915681308
              ],
              [
                1786.5970277535237,
                638.4092814805043
              ],
              [
                1786.6321240034072,
                638.4040754436189
              ],
              [
                1786.661954986403,
                638.3966031713688
              ],
              [
                1786.6674177679165,
                638.395694054557
              ],
              [
                1786.674192687492,
                638.3938620630398
              ],
              [
                1786.6851348566227,
                638.3919331657546
              ],
              [
                1786.7054661817922,
                638.3862479699094
              ],
              [
                1786.7090981833528,
                638.3855650586002
              ],
              [
                1786.7268813178991,
                638.380339971956
              ],
              [
                1786.735218577553,
                638.378251597129
              ],
              [
                1786.7739393266038,
                638.3695702054201
              ],
              [
                1786.7869103629412,
                638.3653034789403
              ],
              [
                1786.822512713884,
                638.3563855542769
              ],
              [
                1786.852092181235,
                638.3458018516253
              ],
              [
                1786.8544417846324,
                638.3451694052447
              ],
              [
                1786.854896615436,
                638.3449983002412
              ],
              [
                1786.858828214999,
                638.3439351648094
              ],
              [
                1786.864512935241,
                638.3417741378121
              ],
              [
                1786.8741547507836,
                638.3390780218823
              ],
              [
                1786.895314835352,
                638.330850399677
              ],
              [
                1786.9007603583789,
                638.3292503819995
              ],
              [
                1786.9186368453948,
                638.3219917900659
              ],
              [
                1786.919286927199,
                638.3217591870771
              ],
              [
                1786.9586006639006,
                638.3088272241215
              ],
              [
                1786.972301930776,
                638.3027901154817
              ],
              [
                1787.0073102241051,
                638.2902639478351
              ],
              [
                1787.034207643538,
                638.277542415881
              ],
              [
                1787.035719462677,
                638.2769736773149
              ],
              [
                1787.0382656132701,
                638.2757226503004
              ],
              [
                1787.044172755856,
                638.2734770702083
              ],
              [
                1787.0487924548322,
                638.2711740847762
              ],
              [
                1787.0570837524358,
                638.2679502004835
              ],
              [
                1787.0786719829855,
                638.2570109155934
              ],
              [
                1787.0858486719064,
                638.2540968835319
              ],
              [
                1787.1012020256358,
                638.2459936248057
              ],
              [
                1787.1364926206875,
                638.2304437374686
              ],
              [
                1787.136614691,
                638.2303827023123
              ],
              [
                1787.1505330248165,
                638.2225246079942
              ],
              [
                1787.184736833027,
                638.2063474115092
              ],
              [
                1787.2087288398855,
                638.1919671560055
              ],
              [
                1787.2095507684803,
                638.1915633091636
              ],
              [
                1787.213981186873,
                638.1888251600126
              ],
              [
                1787.2216295953501,
                638.185012319957
              ],
              [
                1787.2252334785949,
                638.1827446180063
              ],
              [
                1787.2321601552942,
                638.1792347013607
              ],
              [
                1787.2537555174988,
                638.1654782901143
              ],
              [
                1787.2625166027701,
                638.1608543270422
              ],
              [
                1787.2782866580847,
                638.1503967144574
              ],
              [
                1787.3118322081239,
                638.1314573715991
              ],
              [
                1787.323932351446,
                638.1229168284968
              ],
              [
                1787.3530838254142,
                638.1054441074176
              ],
              [
                1787.3740284787857,
                638.0899104938031
              ],
              [
                1787.3743055010245,
                638.0897392846439
              ],
              [
                1787.3760827459287,
                638.0883869454544
              ],
              [
                1787.3810865535315,
                638.0846758688123
              ],
              [
                1787.3894544684185,
                638.0794104549175
              ],
              [
                1787.3921139080476,
                638.0773429348578
              ],
              [
                1787.3976978778926,
                638.0737859032671
              ],
              [
                1787.4188691558734,
                638.0571721018134
              ],
              [
                1787.4290016351883,
                638.0504529406511
              ],
              [
                1787.4441559133925,
                638.0380604358604
              ],
              [
                1787.4507195030285,
                638.0334277122059
              ],
              [
                1787.4711123781483,
                638.0191010934594
              ],
              [
                1787.4715412146934,
                638.0187312973618
              ],
              [
                1787.476222942129,
                638.015426832787
              ],
              [
                1787.4865223004113,
                638.0064793895424
              ],
              [
                1787.4900486312781,
                638.0038640843285
              ],
              [
                1787.4968912303018,
                637.9988780953848
              ],
              [
                1787.497494931978,
                637.9983415313468
              ],
              [
                1787.5107299277022,
                637.988525789538
              ],
              [
                1787.5370884475785,
                637.9646358196685
              ],
              [
                1787.5459977848645,
                637.9577094606884
              ],
              [
                1787.5478042748684,
                637.9559924531721
              ],
              [
                1787.5521027014702,
                637.9526193357727
              ],
              [
                1787.5724185806291,
                637.9331728459135
              ],
              [
                1787.583642842384,
                637.9239941363968
              ],
              [
                1787.5976669174713,
                637.9099700613095
              ],
              [
                1787.6212764634377,
                637.8896109802866
              ],
              [
                1787.622354262591,
                637.8884770112281
              ],
              [
                1787.6281229546903,
                637.8834655295668
              ],
              [
                1787.635154422817,
                637.8759911467338
              ],
              [
                1787.6416571733973,
                637.870211566774
              ],
              [
                1787.6436897799601,
                637.8680180038509
              ],
              [
                1787.656156921748,
                637.8567184451856
              ],
              [
                1787.656331031822,
                637.856526344322
              ],
              [
                1787.6565231326856,
                637.8563522342481
              ],
              [
                1787.656561502663,
                637.856309899502
              ],
              [
                1787.6572555545606,
                637.8556808475294
              ],
              [
                1787.6815786711184,
                637.8288444239279
              ],
              [
                1787.689720843568,
                637.821105565
              ],
              [
                1787.690783808783,
                637.8198728902014
              ],
              [
                1787.69388762317,
                637.8169018991588
              ],
              [
                1787.7129264193934,
                637.7947105593875
              ],
              [
                1787.7248974567092,
                637.7827395220716
              ],
              [
                1787.7374882033052,
                637.7673428222166
              ],
              [
                1787.757880359126,
                637.7458879215833
              ],
              [
                1787.759462336347,
                637.7438530330245
              ],
              [
                1787.7659947366901,
                637.7369091544346
              ],
              [
                1787.7699145549643,
                637.7317978462036
              ],
              [
                1787.7732988010764,
                637.7281456112213
              ],
              [
                1787.775664024676,
                637.7250372330703
              ],
              [
                1787.789062898913,
                637.7102538534836
              ],
              [
                1787.812122098339,
                637.6791621222876
              ],
              [
                1787.8192109567406,
                637.6709414797108
              ],
              [
                1787.8196554480219,
                637.6703087794657
              ],
              [
                1787.821687176688,
                637.6679406265307
              ],
              [
                1787.8390459333884,
                637.6431521019838
              ],
              [
                1787.8513562609635,
                637.6280983148758
              ],
              [
                1787.8623977321795,
                637.6114478021111
              ],
              [
                1787.879581353355,
                637.5893446051373
              ],
              [
                1787.8815041551707,
                637.58628884499
              ],
              [
                1787.8884427706537,
                637.5772411290124
              ],
              [
                1787.889817819188,
                637.5750162537477
              ],
              [
                1787.8905815698001,
                637.5740125322745
              ],
              [
                1787.8929574851409,
                637.5701682204988
              ],
              [
                1787.9059812167925,
                637.5526077511954
              ],
              [
                1787.9269477912649,
                637.5176271350019
              ],
              [
                1787.934270582462,
                637.5071700963744
              ],
              [
                1787.9495733036686,
                637.4799872442338
              ],
              [
                1787.9617576473547,
                637.4616132824576
              ],
              [
                1787.970872774958,
                637.444342727103
              ],
              [
                1787.9718896736745,
                637.4426461340921
              ],
              [
                1787.9851832183945,
                637.4215197320689
              ],
              [
                1787.986667731163,
                637.418541857341
              ],
              [
                1787.9924055943197,
                637.4092577997304
              ],
              [
                1787.9929617904402,
                637.4081258025268
              ],
              [
                1787.9942276559677,
                637.4060775890781
              ],
              [
                1787.9960396082897,
                637.4023544023654
              ],
              [
                1788.0068845208841,
                637.3842607588083
              ],
              [
                1788.0248671240765,
                637.3462397388314
              ],
              [
                1788.0305536007497,
                637.3361386167812
              ],
              [
                1788.0427118170985,
                637.3085103054117
              ],
              [
                1788.0439958341622,
                637.3057954794264
              ],
              [
                1788.0550002038444,
                637.2849453515939
              ],
              [
                1788.0619350286843,
                637.2678662393719
              ],
              [
                1788.0634285916487,
                637.2647083658036
              ],
              [
                1788.0684069111815,
                637.2545762494831
              ],
              [
                1788.0736479686457,
                637.2440628925747
              ],
              [
                1788.073905808789,
                637.2433846275258
              ],
              [
                1788.0778159624713,
                637.2354264939269
              ],
              [
                1788.079648169248,
                637.2305561274057
              ],
              [
                1788.082278653908,
                637.2251510262812
              ],
              [
                1788.0823100646571,
                637.2250655800382
              ],
              [
                1788.083011075783,
                637.223625147375
              ],
              [
                1788.0835399280227,
                637.2221865176684
              ],
              [
                1788.09080105721,
                637.2068341498864
              ],
              [
                1788.1053522585548,
                637.1661662665133
              ],
              [
                1788.1096089734517,
                637.1564933143951
              ],
              [
                1788.1103507288335,
                637.1542276009243
              ],
              [
                1788.110978262388,
                637.1527982055987
              ],
              [
                1788.1191848144092,
                637.1275068627349
              ],
              [
                1788.121099241087,
                637.1221563986041
              ],
              [
                1788.1301537023119,
                637.0998570380664
              ],
              [
                1788.1349235407079,
                637.0836233019129
              ],
              [
                1788.1460116904009,
                637.0541488158824
              ],
              [
                1788.1477698846106,
                637.0476169434338
              ],
              [
                1788.1498405894845,
                637.0418297110041
              ],
              [
                1788.1524369473696,
                637.0347668732163
              ],
              [
                1788.152613635644,
                637.0340795661784
              ],
              [
                1788.1569226636518,
                637.0220366396652
              ],
              [
                1788.163518814243,
                636.9957033303943
              ],
              [
                1788.1637582960425,
                636.9950064540492
              ],
              [
                1788.164821223099,
                636.9905038227831
              ],
              [
                1788.1653492020016,
                636.9883960128504
              ],
              [
                1788.1655405635604,
                636.9878272468945
              ],
              [
                1788.166341042783,
                636.9844363624932
              ],
              [
                1788.1676557675585,
                636.9791876869753
              ],
              [
                1788.1706753541123,
                636.9699642716821
              ],
              [
                1788.1714761090768,
                636.9663530604051
              ],
              [
                1788.1726333343393,
                636.9627866684777
              ],
              [
                1788.1782976216691,
                636.9367030238919
              ],
              [
                1788.1794859328334,
                636.9319590197995
              ],
              [
                1788.1864683789127,
                636.9081948630403
              ],
              [
                1788.1891795326733,
                636.8937758388472
              ],
              [
                1788.1963532342445,
                636.8671247991665
              ],
              [
                1788.1976215083284,
                636.8595577439755
              ],
              [
                1788.204612552994,
                636.8316479291885
              ],
              [
                1788.2084853657439,
                636.8055395463595
              ],
              [
                1788.209314854296,
                636.8020257764663
              ],
              [
                1788.21143076906,
                636.7861672044689
              ],
              [
                1788.213164640104,
                636.7783478652907
              ],
              [
                1788.2137628743933,
                636.773388030609
              ],
              [
                1788.2150257892192,
                636.7675723967003
              ],
              [
                1788.2180896706336,
                636.7407925820578
              ],
              [
                1788.2186326457304,
                636.7371321412852
              ],
              [
                1788.2233824140465,
                636.71187093137
              ],
              [
                1788.2244482773679,
                636.6994979867895
              ],
              [
                1788.228368487809,
                636.6761083668778
              ],
              [
                1788.228967967182,
                636.6674570636255
              ],
              [
                1788.2334114455318,
                636.6375015658153
              ],
              [
                1788.2334227303215,
                636.6372718586448
              ],
              [
                1788.2335335158443,
                636.6365250033153
              ],
              [
                1788.2347788498803,
                636.611175646666
              ],
              [
                1788.2355384542807,
                636.6054824867714
              ],
              [
                1788.236123592324,
                636.5880000207782
              ],
              [
                1788.2366676363754,
                636.5834894659627
              ],
              [
                1788.2368048786627,
                636.5772125558693
              ],
              [
                1788.2377327015408,
                636.5691029323759
              ],
              [
                1788.2380859201658,
                636.543858684537
              ],
              [
                1788.2383913490287,
                636.5376415372081
              ],
              [
                1788.240527537314,
                636.5128438556126
              ],
              [
                1788.240385429702,
                636.5026875401559
              ],
              [
                1788.241757210014,
                636.4828908832413
              ],
              [
                1788.2415443846824,
                636.475208329541
              ],
              [
                1788.2416808717126,
                636.4731367420833
              ],
              [
                1788.241632061362,
                636.4716753222184
              ],
              [
                1788.2431640625,
                636.4404907226562
              ],
              [
                1788.2431640625,
                636.4404296875
              ],
              [
                1788.2431640625,
                636.4403686523438
              ],
              [
                1788.2431640625,
                636.4402465820312
              ],
              [
                1788.2431325933148,
                636.4396060120522
              ],
              [
                1788.2431640625,
                636.43896484375
              ],
              [
                1788.2419500138972,
                636.413921069375
              ],
              [
                1788.242171338057,
                636.4073084552408
              ],
              [
                1788.2421564416413,
                636.407082136285
              ],
              [
                1788.242171338057,
                636.4066370685221
              ],
              [
                1788.2409426129343,
                636.3879692363885
              ],
              [
                1788.240957996224,
                636.3872656666039
              ],
              [
                1788.240514725056,
                636.3814684015493
              ],
              [
                1788.2403855516836,
                636.3795058903364
              ],
              [
                1788.240527537314,
                636.3693582928249
              ],
              [
                1788.2388402208023,
                636.3497712845557
              ],
              [
                1788.2380046444416,
                636.3325347539873
              ],
              [
                1788.2377327015408,
                636.3130992160616
              ],
              [
                1788.2368365926918,
                636.3052667886187
              ],
              [
                1788.236393840573,
                636.2892843540815
              ],
              [
                1788.2356010990381,
                636.2829536674948
              ],
              [
                1788.2337859990337,
                636.2455112167726
              ],
              [
                1788.2297514031861,
                636.2179429049435
              ],
              [
                1788.2291483094482,
                636.2087801943778
              ],
              [
                1788.2240614678806,
                636.1782139308158
              ],
              [
                1788.2233824140465,
                636.1703312170675
              ],
              [
                1788.2206803194385,
                636.1559603731522
              ],
              [
                1788.2164377530776,
                636.1269710030112
              ],
              [
                1788.2150257892192,
                636.1146297517372
              ],
              [
                1788.2138387285888,
                636.1091634210616
              ],
              [
                1788.2123286775056,
                636.0971044337161
              ],
              [
                1788.2115804341088,
                636.0937810407329
              ],
              [
                1788.2057397567094,
                636.0538718101867
              ],
              [
                1788.2047394315855,
                636.0498226511734
              ],
              [
                1788.205196952827,
                636.0529070088477
              ],
              [
                1788.2050945988608,
                636.0524926960653
              ],
              [
                1788.2047346233064,
                636.050065937999
              ],
              [
                1788.2046493832918,
                636.0497256407855
              ],
              [
                1788.2044590812263,
                636.0484432616602
              ],
              [
                1788.2026950667105,
                636.0414039249027
              ],
              [
                1788.202657044668,
                636.0411539976807
              ],
              [
                1788.2016807074322,
                636.0373561030231
              ],
              [
                1788.1985225439594,
                636.0247533857437
              ],
              [
                1788.1965973748695,
                636.0131852594272
              ],
              [
                1788.1875297672639,
                635.9796521826121
              ],
              [
                1788.1864683789127,
                635.9740072853972
              ],
              [
                1788.183586735286,
                635.9641998583024
              ],
              [
                1788.173435240791,
                635.9231082027441
              ],
              [
                1788.1726333343393,
                635.9194154799598
              ],
              [
                1788.1721708772454,
                635.9179902576634
              ],
              [
                1788.1702672535737,
                635.9102846879787
              ],
              [
                1788.1697874054382,
                635.9081533976355
              ],
              [
                1788.169600942071,
                635.9075875636512
              ],
              [
                1788.1592883549672,
                635.8658438305101
              ],
              [
                1788.1574047832787,
                635.860503324151
              ],
              [
                1788.1582141375768,
                635.8637344476291
              ],
              [
                1788.1580692284806,
                635.8633235856723
              ],
              [
                1788.1567305078718,
                635.8579813931307
              ],
              [
                1788.1526068348453,
                635.8464616132167
              ],
              [
                1788.152559017682,
                635.8462756072524
              ],
              [
                1788.1518436652184,
                635.8443296434695
              ],
              [
                1788.1481388769241,
                635.8339800484594
              ],
              [
                1788.144838485122,
                635.8217748123446
              ],
              [
                1788.1311893987784,
                635.785870014524
              ],
              [
                1788.1301537023119,
                635.7823451103711
              ],
              [
                1788.1277564191196,
                635.7764410724734
              ],
              [
                1788.094867418001,
                635.6831906160695
              ],
              [
                1788.091850977114,
                635.6767154140465
              ],
              [
                1788.0930361821177,
                635.6800278401286
              ],
              [
                1788.0930070744685,
                635.6799653565872
              ],
              [
                1788.090555795544,
                635.6731175309874
              ],
              [
                1788.0831556725348,
                635.6574786114667
              ],
              [
                1788.0831331460954,
                635.6574173330938
              ],
              [
                1788.0828995855275,
                635.6569374145041
              ],
              [
                1788.0792201012898,
                635.6491614413483
              ],
              [
                1788.0743803905207,
                635.6364302714878
              ],
              [
                1788.055651578756,
                635.5988610053811
              ],
              [
                1788.0550002038444,
                635.5972567968436
              ],
              [
                1788.053597381021,
                635.5945988494974
              ],
              [
                1788.0130810894464,
                635.5076251003022
              ],
              [
                1788.0088605296262,
                635.5004682807928
              ],
              [
                1788.0065727649085,
                635.4956334735527
              ],
              [
                1787.9924552606346,
                635.4720916554464
              ],
              [
                1787.9859156402695,
                635.4589734319936
              ],
              [
                1787.9616192269013,
                635.4203610221842
              ],
              [
                1787.9146963666828,
                635.3407937477576
              ],
              [
                1787.909174266831,
                635.3332154086396
              ],
              [
                1787.905590880948,
                635.3272398893815
              ],
              [
                1787.8887061204177,
                635.3044858637669
              ],
              [
                1787.88031377523,
                635.2911485589252
              ],
              [
                1787.8517361108525,
                635.2543892671359
              ],
              [
                1787.800635907885,
                635.1842611134481
              ],
              [
                1787.7937108847811,
                635.1764695960161
              ],
              [
                1787.7885834509898,
                635.1695598290926
              ],
              [
                1787.768998114004,
                635.1479638389393
              ],
              [
                1787.758612781001,
                635.1346052424792
              ],
              [
                1787.7260884181728,
                635.1003858603417
              ],
              [
                1787.6719693792738,
                635.0394951703527
              ],
              [
                1787.663568613053,
                635.0317108244496
              ],
              [
                1787.6566782435439,
                635.0241130817005
              ],
              [
                1787.6345097413146,
                635.0040345265545
              ],
              [
                1787.6220088853127,
                634.9908821837759
              ],
              [
                1787.5859520178353,
                634.9597894771457
              ],
              [
                1787.5299034237212,
                634.9078535426736
              ],
              [
                1787.5199833567772,
                634.9003051765145
              ],
              [
                1787.5111466183814,
                634.8923015262293
              ],
              [
                1787.4865605474506,
                634.8740818145994
              ],
              [
                1787.4718448000233,
                634.8613920706031
              ],
              [
                1787.4327347296166,
                634.8339160494651
              ],
              [
                1787.3757703447745,
                634.7905707739499
              ],
              [
                1787.3643169753975,
                634.7834922023891
              ],
              [
                1787.3533912726145,
                634.7753956197909
              ],
              [
                1787.3265978204527,
                634.759351623234
              ],
              [
                1787.309596523288,
                634.7474076917756
              ],
              [
                1787.2679643142737,
                634.7239429829082
              ],
              [
                1787.2110156122303,
                634.6887467494302
              ],
              [
                1787.2108150058066,
                634.688648183361
              ],
              [
                1787.2102831903553,
                634.6883195033364
              ],
              [
                1787.197417443139,
                634.6819980401156
              ],
              [
                1787.1849327208927,
                634.6745221523679
              ],
              [
                1787.156182156822,
                634.6609404220716
              ],
              [
                1787.136858831625,
                634.6500494265939
              ],
              [
                1787.1367367613125,
                634.6499883914377
              ],
              [
                1787.0932784419408,
                634.6308303267386
              ],
              [
                1787.036451884552,
                634.6029091351851
              ],
              [
                1787.0211629312082,
                634.5971575097572
              ],
              [
                1787.0073946400198,
                634.5906533863215
              ],
              [
                1786.9796895154766,
                634.5807560478954
              ],
              [
                1786.9595125796648,
                634.5718612943177
              ],
              [
                1786.9144251633838,
                634.5570033117725
              ],
              [
                1786.8551742065074,
                634.5347134072553
              ],
              [
                1786.8374493761964,
                634.5299423872659
              ],
              [
                1786.8263017589115,
                634.5259600286687
              ],
              [
                1786.823000995134,
                634.5247789965043
              ],
              [
                1786.822983458068,
                634.524774603698
              ],
              [
                1786.822488219252,
                634.5245976853031
              ],
              [
                1786.7960026126477,
                634.5179786717082
              ],
              [
                1786.775562422677,
                634.5112428679994
              ],
              [
                1786.7291975430944,
                634.5008040739202
              ],
              [
                1786.6681501897915,
                634.4843718634116
              ],
              [
                1786.6486161453156,
                634.48109786557
              ],
              [
                1786.6326122846572,
                634.4770891071623
              ],
              [
                1786.632053927133,
                634.4770062826476
              ],
              [
                1786.6319956671105,
                634.4769917228949
              ],
              [
                1786.6220690002822,
                634.4755251586627
              ],
              [
                1786.606972725448,
                634.473285837827
              ],
              [
                1786.5866113865964,
                634.4687015959317
              ],
              [
                1786.539328370282,
                634.462780719829
              ],
              [
                1786.4771337575028,
                634.4523566098475
              ],
              [
                1786.456013000666,
                634.4508930779729
              ],
              [
                1786.4384659212842,
                634.4482902146243
              ],
              [
                1786.4140188745198,
                634.4470892082306
              ],
              [
                1786.394431466231,
                634.4446364328644
              ],
              [
                1786.3465980994783,
                634.443311332835
              ],
              [
                1786.2839162738662,
                634.4389678876424
              ],
              [
                1786.2614015516774,
                634.4395915999391
              ],
              [
                1786.242431640625,
                634.4386596679688
              ],
              [
                1786.219445585412,
                634.43978890045
              ],
              [
                1786.2008249370713,
                634.4392730634237
              ],
              [
                1786.15281815892,
                634.4425996227212
              ],
              [
                1786.0903097447065,
                634.4443312570831
              ],
              [
                1786.0666330808328,
                634.4472960974053
              ],
              [
                1786.0463973599658,
                634.4482902146243
              ],
              [
                1786.0250963852616,
                634.4514499157426
              ],
              [
                1786.0076074534347,
                634.4526617856287
              ],
              [
                1785.959813813504,
                634.4606722247453
              ],
              [
                1785.8981298243411,
                634.4683964201505
              ],
              [
                1785.873559531122,
                634.4739282846499
              ],
              [
                1785.8522509965928,
                634.4770891071623
              ],
              [
                1785.8328119466355,
                634.4819583356951
              ],
              [
                1785.816591021146,
                634.4846770391929
              ],
              [
                1785.7694067485359,
                634.4973777028298
              ],
              [
                1785.7091787882605,
                634.5109376922181
              ],
              [
                1785.6840158464024,
                634.5192298185308
              ],
              [
                1785.661862286116,
                634.5247789965043
              ],
              [
                1785.644412858547,
                634.5310225015222
              ],
              [
                1785.62956700443,
                634.5350185830365
              ],
              [
                1785.583397548766,
                634.5523872942375
              ],
              [
                1785.5252286312727,
                634.5715561185365
              ],
              [
                1785.4998025011155,
                634.5827649147725
              ],
              [
                1785.4770647758949,
                634.5909006029461
              ],
              [
                1785.46168259836,
                634.5981758310966
              ],
              [
                1785.4482893263855,
                634.6032143109663
              ],
              [
                1785.4035482534894,
                634.6251974140091
              ],
              [
                1785.348004449625,
                634.6496832156564
              ],
              [
                1785.3233432623128,
                634.6636054641672
              ],
              [
                1785.299638166973,
                634.674817139272
              ],
              [
                1785.2996120603207,
                634.6748327869973
              ],
              [
                1785.2995160966605,
                634.6748781744283
              ],
              [
                1785.2862385706733,
                634.6828364172413
              ],
              [
                1785.2744580205822,
                634.6886246791177
              ],
              [
                1785.2262554953936,
                634.7184154780277
              ],
              [
                1785.1726648621886,
                634.7486695815259
              ],
              [
                1785.151618285422,
                634.7635247110267
              ],
              [
                1785.1311691042733,
                634.7757814785199
              ],
              [
                1785.1198387362724,
                634.7841846521371
              ],
              [
                1785.109703288038,
                634.7904487036374
              ],
              [
                1785.0614155579353,
                634.8271917488067
              ],
              [
                1785.0082741281835,
                634.864700120338
              ],
              [
                1784.9907548105116,
                634.8799198161927
              ],
              [
                1784.9735230019853,
                634.8926997963995
              ],
              [
                1784.9640952835623,
                634.9012445823024
              ],
              [
                1784.9555702090913,
                634.9077314723611
              ],
              [
                1784.9079840747434,
                634.9518258942522
              ],
              [
                1784.8563741156222,
                634.9966614235582
              ],
              [
                1784.8422277340183,
                635.011698890827
              ],
              [
                1784.8280960079394,
                635.0245071407519
              ],
              [
                1784.8204850927689,
                635.0329044916023
              ],
              [
                1784.8135042535387,
                635.0393731000402
              ],
              [
                1784.7896635691004,
                635.066196852915
              ],
              [
                1784.7893887440175,
                635.0664599172475
              ],
              [
                1784.7882481573406,
                635.0677893682373
              ],
              [
                1784.7674982218143,
                635.0911356418802
              ],
              [
                1784.7185023336224,
                635.1432177986904
              ],
              [
                1784.7075006584548,
                635.1575636047721
              ],
              [
                1784.696288663587,
                635.1699341347977
              ],
              [
                1784.6903699432194,
                635.1779146053809
              ],
              [
                1784.6848377249275,
                635.1841390431356
              ],
              [
                1784.6646036903574,
                635.2119075333501
              ],
              [
                1784.6615891904994,
                635.2154211898755
              ],
              [
                1784.650387569274,
                635.2314172469378
              ],
              [
                1784.6413252387445,
                635.2438540763677
              ],
              [
                1784.5960542996588,
                635.3028858241126
              ],
              [
                1784.5879015887817,
                635.3160771874121
              ],
              [
                1784.5793703457075,
                635.3275802370858
              ],
              [
                1784.5749837014148,
                635.334898910939
              ],
              [
                1784.5707772661297,
                635.3406716774451
              ],
              [
                1784.5542280044408,
                635.3687343241
              ],
              [
                1784.5490057847255,
                635.3761917200319
              ],
              [
                1784.5316695964793,
                635.4069867031866
              ],
              [
                1784.5306941984136,
                635.4086406894357
              ],
              [
                1784.50875969686,
                635.444131458476
              ],
              [
                1784.505274575983,
                635.4496025400183
              ],
              [
                1784.5048020080108,
                635.4505351335508
              ],
              [
                1784.4902694143448,
                635.4740493640469
              ],
              [
                1784.4846099112513,
                635.4856784706533
              ],
              [
                1784.4784670416159,
                635.495927229473
              ],
              [
                1784.4754207107821,
                635.5023681548631
              ],
              [
                1784.4723925433661,
                635.5075030299897
              ],
              [
                1784.4594841004675,
                635.5352127643096
              ],
              [
                1784.4527227664378,
                635.547223199625
              ],
              [
                1784.4344477305656,
                635.588751361889
              ],
              [
                1784.426762666219,
                635.6045425773165
              ],
              [
                1784.4165590768603,
                635.6246789428766
              ],
              [
                1784.4149539899915,
                635.6288069610374
              ],
              [
                1784.4022184164046,
                635.6549759268438
              ],
              [
                1784.3989393900906,
                635.66389581847
              ],
              [
                1784.3970422968182,
                635.6678602410491
              ],
              [
                1784.3966957556765,
                635.6688180875402
              ],
              [
                1784.39455050529,
                635.6733538383949
              ],
              [
                1784.3926254895744,
                635.6787338969042
              ],
              [
                1784.3906062148114,
                635.683068545757
              ],
              [
                1784.3811762744886,
                635.7098053334082
              ],
              [
                1784.3736673937358,
                635.7268685020111
              ],
              [
                1784.3568435808268,
                635.7782573297549
              ],
              [
                1784.3454312554616,
                635.8076079445289
              ],
              [
                1784.343275233895,
                635.8153182814702
              ],
              [
                1784.3407329672511,
                635.8222339755742
              ],
              [
                1784.340513077378,
                635.8228124100009
              ],
              [
                1784.3404929010137,
                635.8228870245637
              ],
              [
                1784.332792544818,
                635.8438342010024
              ],
              [
                1784.3313593985051,
                635.8494090562111
              ],
              [
                1784.3295836044904,
                635.8543173855882
              ],
              [
                1784.3290808849822,
                635.8563031023587
              ],
              [
                1784.3287006837588,
                635.8573606096345
              ],
              [
                1784.3286742633375,
                635.8574656008077
              ],
              [
                1784.3284288988482,
                635.858151348616
              ],
              [
                1784.3283870631396,
                635.8583183661264
              ],
              [
                1784.3281847582232,
                635.858883770491
              ],
              [
                1784.3271744454948,
                635.8629171649943
              ],
              [
                1784.3261852778453,
                635.8657217601976
              ],
              [
                1784.3259347866199,
                635.8667357093418
              ],
              [
                1784.3254528559703,
                635.8681021312914
              ],
              [
                1784.3193731213728,
                635.8927119422003
              ],
              [
                1784.3126010130752,
                635.9133975447241
              ],
              [
                1784.3001568639904,
                635.9695176482412
              ],
              [
                1784.2925761115891,
                635.99662783869
              ],
              [
                1784.290823340188,
                636.0065708881555
              ],
              [
                1784.2887541876305,
                636.0142228570835
              ],
              [
                1784.288320965955,
                636.0168260378073
              ],
              [
                1784.282694517832,
                636.0387125914307
              ],
              [
                1784.282555750911,
                636.03962473683
              ],
              [
                1784.2820841662694,
                636.0414591734619
              ],
              [
                1784.2819017207078,
                636.0426584281439
              ],
              [
                1784.2809195468,
                636.0465379656763
              ],
              [
                1784.2806606905733,
                636.0482650303302
              ],
              [
                1784.2805912833567,
                636.0485408452005
              ],
              [
                1784.2804181710408,
                636.0497026447125
              ],
              [
                1784.280250728256,
                636.0503711137802
              ],
              [
                1784.2802503829791,
                636.0503734414481
              ],
              [
                1784.2801286579436,
                636.0508593950302
              ],
              [
                1784.280106111837,
                636.0510113885343
              ],
              [
                1784.280006587631,
                636.0514087114365
              ],
              [
                1784.2797642446437,
                636.0530424551522
              ],
              [
                1784.2790014542281,
                636.056130110968
              ],
              [
                1784.275216485848,
                636.0819927233605
              ],
              [
                1784.2701117270835,
                636.1050139511156
              ],
              [
                1784.2628356770756,
                636.1653381515531
              ],
              [
                1784.2585026691725,
                636.1899182604503
              ],
              [
                1784.2576422672896,
                636.2011709159958
              ],
              [
                1784.2562032530518,
                636.2098177920341
              ],
              [
                1784.2560125481116,
                636.2127151429099
              ],
              [
                1784.2548118561556,
                636.2207260478966
              ],
              [
                1784.251821068591,
                636.2403851503544
              ],
              [
                1784.2517986782216,
                636.2408296906448
              ],
              [
                1784.25152845423,
                636.2426325999675
              ],
              [
                1784.2514717593913,
                636.2437748979116
              ],
              [
                1784.2512076950932,
                636.2455550748097
              ],
              [
                1784.2511715160836,
                636.2462915154682
              ],
              [
                1784.2509552119038,
                636.2477695175538
              ],
              [
                1784.2496529187242,
                636.2746336286677
              ],
              [
                1784.246608730812,
                636.2998723504436
              ],
              [
                1784.2452124479228,
                636.3637327125583
              ],
              [
                1784.2435390740884,
                636.3856177173851
              ],
              [
                1784.2437671215985,
                636.3960476930646
              ],
              [
                1784.243329604721,
                636.4050729280807
              ],
              [
                1784.2432020535175,
                636.4073430204019
              ],
              [
                1784.243180224443,
                636.4076746661783
              ],
              [
                1784.2431814170413,
                636.4077102980467
              ],
              [
                1784.2421218398529,
                636.4265681211795
              ],
              [
                1784.2421979161124,
                636.4284177547325
              ],
              [
                1784.2415771484375,
                636.4412231445312
              ],
              [
                1784.2415771484375,
                636.4412841796875
              ],
              [
                1784.2415847380714,
                636.4414348649219
              ],
              [
                1784.2415771484375,
                636.4415893554688
              ],
              [
                1784.2429091699473,
                636.4690753810619
              ],
              [
                1784.2423183709634,
                636.4960961498024
              ],
              [
                1784.2474108595407,
                636.5626976077692
              ],
              [
                1784.247829433937,
                636.5818415167439
              ],
              [
                1784.2487397822642,
                636.5893890232758
              ],
              [
                1784.2492616901225,
                636.6001584985702
              ],
              [
                1784.2501106499915,
                636.6207991644807
              ],
              [
                1784.2503427636352,
                636.6224662571317
              ],
              [
                1784.2509552119038,
                636.6351040176024
              ],
              [
                1784.2514873124428,
                636.6387398498246
              ],
              [
                1784.25152845423,
                636.63956954847
              ],
              [
                1784.251582413469,
                636.6399295594894
              ],
              [
                1784.2516989982785,
                636.6422442441768
              ],
              [
                1784.2553061028266,
                636.6659545333092
              ],
              [
                1784.2572819660475,
                636.6917956067372
              ],
              [
                1784.2688840718529,
                636.7576115550357
              ],
              [
                1784.2697144017714,
                636.7632851825763
              ],
              [
                1784.2713324302085,
                636.776699916072
              ],
              [
                1784.2723477349666,
                636.7812786950419
              ],
              [
                1784.274546070196,
                636.7962998752049
              ],
              [
                1784.2769182135128,
                636.8133371446492
              ],
              [
                1784.2772288549295,
                636.8146312890306
              ],
              [
                1784.2790014542281,
                636.8267434241883
              ],
              [
                1784.2799791201069,
                636.8307008621357
              ],
              [
                1784.2801286579436,
                636.8317089643448
              ],
              [
                1784.2803721080147,
                636.8326808715091
              ],
              [
                1784.2803727985686,
                636.8326855268448
              ],
              [
                1784.280622528616,
                636.8336825050798
              ],
              [
                1784.2809195468,
                636.8356641827612
              ],
              [
                1784.2814329770313,
                636.8376922063486
              ],
              [
                1784.281962095957,
                636.8411702210693
              ],
              [
                1784.2872179281353,
                636.8616151003771
              ],
              [
                1784.2913554084641,
                636.8850860284975
              ],
              [
                1784.309028762573,
                636.9482892529785
              ],
              [
                1784.3124666064166,
                636.9622051049896
              ],
              [
                1784.3138217162002,
                636.9683163224634
              ],
              [
                1784.3144518754646,
                636.9702411623351
              ],
              [
                1784.3189977246661,
                636.9886420460386
              ],
              [
                1784.3222912691822,
                637.002363082257
              ],
              [
                1784.3226283308313,
                637.0033381696561
              ],
              [
                1784.3254528559703,
                637.0147714038649
              ],
              [
                1784.32728202987,
                637.0199576757244
              ],
              [
                1784.3280626879107,
                637.0230742373215
              ],
              [
                1784.3290989446791,
                637.0259703809734
              ],
              [
                1784.3295836044904,
                637.0278847628493
              ],
              [
                1784.3308889020461,
                637.0314926308146
              ],
              [
                1784.332060122943,
                637.0360486114976
              ],
              [
                1784.3383633081828,
                637.0531950823868
              ],
              [
                1784.3442105523366,
                637.0741059226586
              ],
              [
                1784.3675550895166,
                637.1341442142354
              ],
              [
                1784.3820904168451,
                637.1753563478143
              ],
              [
                1784.3858011605093,
                637.1860911774763
              ],
              [
                1784.386127386228,
                637.1868024004349
              ],
              [
                1784.3898737929364,
                637.1974246183055
              ],
              [
                1784.392342126281,
                637.2027232326873
              ],
              [
                1784.3941842943525,
                637.2078717475426
              ],
              [
                1784.3963844190584,
                637.212523520398
              ],
              [
                1784.3970422968182,
                637.2143419073884
              ],
              [
                1784.3994578861477,
                637.2193898494265
              ],
              [
                1784.4014859945296,
                637.2249068856562
              ],
              [
                1784.4082513873993,
                637.2388083666903
              ],
              [
                1784.4153383737353,
                637.2570349243109
              ],
              [
                1784.44390507433,
                637.313410137561
              ],
              [
                1784.463098770253,
                637.3546120252576
              ],
              [
                1784.466847885429,
                637.3627856812084
              ],
              [
                1784.4671406521206,
                637.3632884762892
              ],
              [
                1784.4716601214911,
                637.3729901340728
              ],
              [
                1784.4747882990505,
                637.3782945967836
              ],
              [
                1784.4781008306784,
                637.3852983564645
              ],
              [
                1784.481816577885,
                637.3914977061522
              ],
              [
                1784.4826325564118,
                637.393202885198
              ],
              [
                1784.4864554406788,
                637.3995014978035
              ],
              [
                1784.4895369924698,
                637.4058334484531
              ],
              [
                1784.4962067250428,
                637.4166253024521
              ],
              [
                1784.504053872858,
                637.4321113271692
              ],
              [
                1784.537351588861,
                637.4843834077853
              ],
              [
                1784.5611092762235,
                637.5246694095619
              ],
              [
                1784.5646657647474,
                637.530777293365
              ],
              [
                1784.564915969284,
                637.5311244336158
              ],
              [
                1784.5700448442547,
                637.5398214866174
              ],
              [
                1784.5738410700933,
                637.5450312958467
              ],
              [
                1784.57900413477,
                637.5536453488517
              ],
              [
                1784.5845508613331,
                637.5611242438529
              ],
              [
                1784.5855130964544,
                637.5627096296089
              ],
              [
                1784.5910116627872,
                637.5700229140238
              ],
              [
                1784.5953218777838,
                637.5769969883874
              ],
              [
                1784.60137553921,
                637.5848907547077
              ],
              [
                1784.6095026709518,
                637.5976490497676
              ],
              [
                1784.6470052330844,
                637.6454392662403
              ],
              [
                1784.6750298759353,
                637.6838993181923
              ],
              [
                1784.678330675806,
                637.6884789333797
              ],
              [
                1784.6785411035075,
                637.6887180056439
              ],
              [
                1784.6841053030525,
                637.6963541209269
              ],
              [
                1784.6885684196798,
                637.7013756855455
              ],
              [
                1784.6959224526495,
                637.7112914511398
              ],
              [
                1784.7035691312735,
                637.7197282608805
              ],
              [
                1784.704672679892,
                637.7211960189148
              ],
              [
                1784.712079917691,
                637.7292454572333
              ],
              [
                1784.7177699117474,
                637.7366650138096
              ],
              [
                1784.7227337218305,
                637.741941496075
              ],
              [
                1784.7306692384461,
                637.7520538733452
              ],
              [
                1784.7718227600826,
                637.7950472350567
              ],
              [
                1784.8036006247946,
                637.8308013088181
              ],
              [
                1784.806768783018,
                637.8344007339616
              ],
              [
                1784.8069520557217,
                637.8345720879329
              ],
              [
                1784.8127718316637,
                637.8411200640223
              ],
              [
                1784.8178943912915,
                637.8458667472418
              ],
              [
                1784.827729797002,
                637.8567184451856
              ],
              [
                1784.837690177234,
                637.8657460076114
              ],
              [
                1784.838940059119,
                637.867104253075
              ],
              [
                1784.8484473462638,
                637.875573866923
              ],
              [
                1784.8556416937472,
                637.8832213889418
              ],
              [
                1784.8590965580634,
                637.886222760633
              ],
              [
                1784.8663866750599,
                637.8938387950449
              ],
              [
                1784.9094322980593,
                637.9307692757208
              ],
              [
                1784.913445348245,
                637.9344064923955
              ],
              [
                1784.945404746204,
                637.9640208159019
              ],
              [
                1784.9487666828018,
                637.9671641164371
              ],
              [
                1784.9489428982974,
                637.9672993501484
              ],
              [
                1784.9548377872163,
                637.9727616917014
              ],
              [
                1784.9606088747437,
                637.9771530211187
              ],
              [
                1784.9731567910478,
                637.988525789538
              ],
              [
                1784.985582000225,
                637.9977409527118
              ],
              [
                1784.9869954884482,
                637.9990001656973
              ],
              [
                1784.9987470925146,
                638.0075424775367
              ],
              [
                1785.0075417063085,
                638.015182692162
              ],
              [
                1785.0091300656838,
                638.0163037905942
              ],
              [
                1785.015347947688,
                638.0216383485631
              ],
              [
                1785.0593695084942,
                638.0524654985278
              ],
              [
                1785.0678625801258,
                638.0587643897428
              ],
              [
                1785.0988790329225,
                638.0823653940492
              ],
              [
                1785.1029828670646,
                638.0855148147059
              ],
              [
                1785.1031770508096,
                638.0856358369762
              ],
              [
                1785.108970866163,
                638.0900444604251
              ],
              [
                1785.1153784858413,
                638.0940045871735
              ],
              [
                1785.1308028933358,
                638.1054441074176
              ],
              [
                1785.1457757289986,
                638.1144184797456
              ],
              [
                1785.1473836962,
                638.1155873207979
              ],
              [
                1785.1602986579019,
                638.1231435473662
              ],
              [
                1785.1761184778445,
                638.134221754337
              ],
              [
                1785.2205018619673,
                638.1592076001904
              ],
              [
                1785.2330008098604,
                638.1666991812529
              ],
              [
                1785.262321933676,
                638.1848206323592
              ],
              [
                1785.2679603969398,
                638.18833472477
              ],
              [
                1785.268199891067,
                638.1884534098114
              ],
              [
                1785.2737255987072,
                638.1918684849448
              ],
              [
                1785.2807584570064,
                638.1953240133591
              ],
              [
                1785.299149885723,
                638.2063474115092
              ],
              [
                1785.3166810007806,
                638.2146390114136
              ],
              [
                1785.3185281889123,
                638.215719755775
              ],
              [
                1785.3312822788046,
                638.2215719843707
              ],
              [
                1785.3471499574375,
                638.2305047726248
              ],
              [
                1785.3914287268785,
                638.2499920529359
              ],
              [
                1785.407278356756,
                638.2574883695788
              ],
              [
                1785.4338964764383,
                638.2705669309522
              ],
              [
                1785.4421406670413,
                638.2746524678861
              ],
              [
                1785.442452580707,
                638.2747708918678
              ],
              [
                1785.4475569045105,
                638.2772788530962
              ],
              [
                1785.4552054498379,
                638.2801561964175
              ],
              [
                1785.4765764946449,
                638.2902639478351
              ],
              [
                1785.4966026185123,
                638.2974294095307
              ],
              [
                1785.4987467470655,
                638.2984132453463
              ],
              [
                1785.5110848715892,
                638.3026532461521
              ],
              [
                1785.5269173301363,
                638.309621180483
              ],
              [
                1785.5711270570157,
                638.3240946800049
              ],
              [
                1785.5890383287028,
                638.3305034354905
              ],
              [
                1785.6116227535963,
                638.3389995797047
              ],
              [
                1785.6238781302009,
                638.3436525675502
              ],
              [
                1785.6242869694327,
                638.3437637924138
              ],
              [
                1785.628834582555,
                638.345474581026
              ],
              [
                1785.6370911971524,
                638.3476970267474
              ],
              [
                1785.661374004866,
                638.3563855542769
              ],
              [
                1785.6837582799476,
                638.3619925232982
              ],
              [
                1785.6862679600133,
                638.3628549757301
              ],
              [
                1785.6979326363373,
                638.3656086322782
              ],
              [
                1785.7134463728491,
                638.3706875611437
              ],
              [
                1785.757229020569,
                638.3803959857794
              ],
              [
                1785.7765644920853,
                638.3852392692634
              ],
              [
                1785.7933493734124,
                638.3897572817309
              ],
              [
                1785.8114558435768,
                638.394683153613
              ],
              [
                1785.8119814281613,
                638.3947725007253
              ],
              [
                1785.815858599271,
                638.3958161248696
              ],
              [
                1785.8247168787461,
                638.397300814224
              ],
              [
                1785.8517627153428,
                638.4040754436189
              ],
              [
                1785.8762971606723,
                638.4077147847955
              ],
              [
                1785.8792486375962,
                638.4084115339837
              ],
              [
                1785.890104379206,
                638.4098599508995
              ],
              [
                1785.8946714844744,
                638.4108726671151
              ],
              [
                1785.8973974024661,
                638.4114863923495
              ],
              [
                1785.8974935119472,
                638.4114984273755
              ],
              [
                1785.9050627792406,
                638.4131768471352
              ],
              [
                1785.948175211093,
                638.4183768863871
              ],
              [
                1785.968097357203,
                638.4213320576042
              ],
              [
                1785.9766805925897,
                638.4227706482742
              ],
              [
                1786.0031016892658,
                638.4272621207459
              ],
              [
                1786.0037574494827,
                638.4273088569967
              ],
              [
                1786.0068750315597,
                638.4278313784338
              ],
              [
                1786.0163281314149,
                638.4284864171267
              ],
              [
                1786.0459090787158,
                638.4328743361569
              ],
              [
                1786.0723191235882,
                638.4341717784638
              ],
              [
                1786.0757919272912,
                638.4346351339682
              ],
              [
                1786.0846180404958,
                638.4349305439299
              ],
              [
                1786.0895773228315,
                638.4355515554169
              ],
              [
                1786.090861790065,
                638.435587138268
              ],
              [
                1786.0999211785686,
                638.4366798434065
              ],
              [
                1786.1421797600697,
                638.4376038114569
              ],
              [
                1786.1615782377928,
                638.4385567975579
              ],
              [
                1786.1970051161732,
                638.4410816830724
              ],
              [
                1786.1977968438005,
                638.4410610254557
              ],
              [
                1786.2000925151963,
                638.4412201006388
              ],
              [
                1786.2101305900137,
                638.4409420216714
              ],
              [
                1786.241943359375,
                638.4425048828125
              ],
              [
                1786.2698943218668,
                638.4411317400773
              ],
              [
                1786.2739659588217,
                638.4412680177444
              ],
              [
                1786.2804718630118,
                638.440839796199
              ],
              [
                1786.2831838519912,
                638.4409149248576
              ],
              [
                1786.2856862255242,
                638.440741526553
              ],
              [
                1786.2961449779273,
                638.4409702032555
              ],
              [
                1786.3374131001542,
                638.4378147551997
              ],
              [
                1786.3546291562695,
                638.4369689845973
              ],
              [
                1786.3913342449769,
                638.4360112819381
              ],
              [
                1786.3922593518803,
                638.4358966141641
              ],
              [
                1786.393699044356,
                638.4358567311981
              ],
              [
                1786.404305852014,
                638.4345285250284
              ],
              [
                1786.4379776400342,
                638.4328743361569
              ],
              [
                1786.4670829608124,
                638.4285569696567
              ],
              [
                1786.471822832966,
                638.4282449891358
              ],
              [
                1786.475956879339,
                638.4275570005993
              ],
              [
                1786.4764013356278,
                638.4275262026525
              ],
              [
                1786.4801183947368,
                638.4269032060419
              ],
              [
                1786.4918444348623,
                638.4260066081713
              ],
              [
                1786.5109767971026,
                638.4226339348792
              ],
              [
                1786.5127742516825,
                638.422479093734
              ],
              [
                1786.526568617246,
                638.4198853921372
              ],
              [
                1786.532018093763,
                638.4189247525844
              ],
              [
                1786.5464265054459,
                638.4167874666086
              ]
            ],
            [
              [
                1788.2298101819317,
                636.2188359214003
              ],
              [
                1788.2334114455318,
                636.2431136685597
              ],
              [
                1788.2334317062714,
                636.2435259569816
              ],
              [
                1788.2298428039594,
                636.219331542857
              ],
              [
                1788.2298101819317,
                636.2188359214003
              ]
            ],
            [
              [
                1788.2195540598782,
                636.1499704643228
              ],
              [
                1788.219075171958,
                636.1467420642014
              ],
              [
                1788.2173549876795,
                636.1349880798173
              ],
              [
                1788.2172958302806,
                636.1344710153597
              ],
              [
                1788.2197478006897,
                636.1510008571721
              ],
              [
                1788.2195540598782,
                636.1499704643228
              ]
            ],
            [
              [
                1788.1819654435308,
                635.9586819307757
              ],
              [
                1788.1786931158651,
                635.9456236389012
              ],
              [
                1788.1763103571975,
                635.9359786059953
              ],
              [
                1788.1821810559195,
                635.9594157490606
              ],
              [
                1788.1819654435308,
                635.9586819307757
              ]
            ]
          ]
        ]
      }
    }
  ]
}