{
  "type": "FeatureCollection",
  "features": [
    {
      "type": "Feature",
      "properties": {
        "image_id": "0017_top_20250708_t1",
        "zone_type": "parking_spot",
        "generated_at": "2025-11-03T11:20:41",
        "source": "merged_t1_polygons"
      },
      "geometry": {
        "type": "MultiPolygon",
        "coordinates": [
          [
            [
              [
                1027.35497380821,
                1269.2150829696461
              ],
              [
                1027.3342592827075,
                1269.2184444743762
              ],
              [
                1027.326026658888,
                1269.219073958235
              ],
              [
                1027.304608616319,
                1269.2228495537017
              ],
              [
                1027.2718569960784,
                1269.226252822539
              ],
              [
                1027.2559292352855,
                1269.2295099820362
              ],
              [
                1027.237768309787,
                1269.2317610439327
              ],
              [
                1027.2177158159393,
                1269.23625691651
              ],
              [
                1027.1894091997178,
                1269.240455806381
              ],
              [
                1027.1885747840483,
                1269.2406648166257
              ],
              [
                1027.1858691606553,
                1269.2410661579436
              ],
              [
                1027.1693321489001,
                1269.245208463749
              ],
              [
                1027.1584120081018,
                1269.246980558646
              ],
              [
                1027.1402341780893,
                1269.2518256555943
              ],
              [
                1027.1327362371276,
                1269.2531474006516
              ],
              [
                1027.1120388791064,
                1269.258934949316
              ],
              [
                1027.0795657871456,
                1269.2655755588314
              ],
              [
                1027.0600938620094,
                1269.271596571799
              ],
              [
                1027.0480821577712,
                1269.2742896578611
              ],
              [
                1027.0316353158005,
                1269.2796997249
              ],
              [
                1026.9954804501785,
                1269.2887560472857
              ],
              [
                1026.9951999635784,
                1269.288856406996
              ],
              [
                1026.994625957991,
                1269.2890001879107
              ],
              [
                1026.9767037199472,
                1269.2954128672216
              ],
              [
                1026.9659965107435,
                1269.2982667538845
              ],
              [
                1026.950455016678,
                1269.3041182266318
              ],
              [
                1026.9437163429664,
                1269.3060025445238
              ],
              [
                1026.92387380799,
                1269.313717867251
              ],
              [
                1026.8920548151034,
                1269.3235567798106
              ],
              [
                1026.869592168607,
                1269.3330026198296
              ],
              [
                1026.8634208204742,
                1269.3350326391596
              ],
              [
                1026.8523906912853,
                1269.3398927801106
              ],
              [
                1026.8098284477699,
                1269.3551217943525
              ],
              [
                1026.789682520685,
                1269.3646501082412
              ],
              [
                1026.779634827045,
                1269.3684331296972
              ],
              [
                1026.7667513444023,
                1269.3748113976746
              ],
              [
                1026.7607873413142,
                1269.3771303659228
              ],
              [
                1026.7419252647032,
                1269.386688241877
              ],
              [
                1026.7111299131168,
                1269.399638094623
              ],
              [
                1026.6863534117979,
                1269.4130528100284
              ],
              [
                1026.6855288636875,
                1269.4134161258128
              ],
              [
                1026.6852847230625,
                1269.4135381961253
              ],
              [
                1026.6812675507786,
                1269.415802351219
              ],
              [
                1026.6811343324375,
                1269.4158575320628
              ],
              [
                1026.6808901918125,
                1269.4159796023753
              ],
              [
                1026.6795064157136,
                1269.4167595250376
              ],
              [
                1026.632401838848,
                1269.4390383306784
              ],
              [
                1026.6104858569367,
                1269.452174264715
              ],
              [
                1026.6011744534385,
                1269.456784091763
              ],
              [
                1026.5908940381166,
                1269.4632194615674
              ],
              [
                1026.5857109384558,
                1269.4658458650456
              ],
              [
                1026.56794866634,
                1269.477160568526
              ],
              [
                1026.5385334868956,
                1269.4930867986166
              ],
              [
                1026.5108136633412,
                1269.5118244860098
              ],
              [
                1026.5104690637818,
                1269.512018480038
              ],
              [
                1026.5103686064786,
                1269.5120888276654
              ],
              [
                1026.5081525001494,
                1269.5133378675569
              ],
              [
                1026.5064787761537,
                1269.514513709876
              ],
              [
                1026.4912514808018,
                1269.5236405994722
              ],
              [
                1026.481976556202,
                1269.529055289872
              ],
              [
                1026.480822534499,
                1269.5298914693287
              ],
              [
                1026.4640548464608,
                1269.53994163477
              ],
              [
                1026.4640521735162,
                1269.5399436171608
              ],
              [
                1026.4634444948983,
                1269.5403078457075
              ],
              [
                1026.4401628527155,
                1269.5575746883505
              ],
              [
                1026.432384556724,
                1269.5624437728754
              ],
              [
                1026.4245789033548,
                1269.568488206435
              ],
              [
                1026.4201732158574,
                1269.571294663139
              ],
              [
                1026.4036259585741,
                1269.5842798427468
              ],
              [
                1026.375927734375,
                1269.6030029296876
              ],
              [
                1026.3509605720617,
                1269.6237181132371
              ],
              [
                1026.3496985336255,
                1269.624601885812
              ],
              [
                1026.349346288427,
                1269.6249040903938
              ],
              [
                1026.3459042234142,
                1269.6273222463844
              ],
              [
                1026.344583255872,
                1269.6284613485618
              ],
              [
                1026.3360200904356,
                1269.6348122248858
              ],
              [
                1026.3223375464754,
                1269.6447263037503
              ],
              [
                1026.3207315776942,
                1269.6461509587118
              ],
              [
                1026.3057983926103,
                1269.657226163587
              ],
              [
                1026.2812369351009,
                1269.6794873710676
              ],
              [
                1026.2749384354345,
                1269.6843647158532
              ],
              [
                1026.2694109239917,
                1269.6896028156289
              ],
              [
                1026.2657683922798,
                1269.6924612306336
              ],
              [
                1026.25054916949,
                1269.7070291683208
              ],
              [
                1026.2248786378411,
                1269.7283279354074
              ],
              [
                1026.2034347749552,
                1269.7500031386592
              ],
              [
                1026.2016995493427,
                1269.7515758554807
              ],
              [
                1026.2007372609974,
                1269.7524014393302
              ],
              [
                1026.2004005769113,
                1269.7527531754665
              ],
              [
                1026.1994834368081,
                1269.7535844228025
              ],
              [
                1026.1957401381248,
                1269.7568123595572
              ],
              [
                1026.1946096350048,
                1269.7580017792693
              ],
              [
                1026.1929491703247,
                1269.7595067367315
              ],
              [
                1026.1748619387333,
                1269.775551920505
              ],
              [
                1026.1728674536523,
                1269.7777077437866
              ],
              [
                1026.1603713985644,
                1269.7890335079394
              ],
              [
                1026.135323300275,
                1269.816669825617
              ],
              [
                1026.1303969315932,
                1269.8213382575063
              ],
              [
                1026.1268892905573,
                1269.8253971977244
              ],
              [
                1026.1239834705802,
                1269.8281786672474
              ],
              [
                1026.1102047119912,
                1269.8442389848162
              ],
              [
                1026.0868408826652,
                1269.8678548674618
              ],
              [
                1026.0688999791314,
                1269.8899566669227
              ],
              [
                1026.0658965576797,
                1269.8932704318402
              ],
              [
                1026.0650198243836,
                1269.8941863610298
              ],
              [
                1026.0647192376941,
                1269.8945694042714
              ],
              [
                1026.0631639192807,
                1269.8962854336985
              ],
              [
                1026.062732883078,
                1269.8967513373495
              ],
              [
                1026.0591362424366,
                1269.9005354182605
              ],
              [
                1026.0586323544983,
                1269.9011835665312
              ],
              [
                1026.040982620613,
                1269.9202610254633
              ],
              [
                1026.038697106702,
                1269.9232804014273
              ],
              [
                1026.028564054212,
                1269.9344605019853
              ],
              [
                1026.0038963418797,
                1269.967721061768
              ],
              [
                1026.000192957306,
                1269.9720065107167
              ],
              [
                1025.9983933308204,
                1269.9745646798206
              ],
              [
                1025.996183917062,
                1269.9771399398755
              ],
              [
                1025.9839586000212,
                1269.9945978475348
              ],
              [
                1025.9631438478891,
                1270.0202400052212
              ],
              [
                1025.9484897006073,
                1270.0424282692948
              ],
              [
                1025.947591149797,
                1270.0436398248105
              ],
              [
                1025.922000376853,
                1270.0774476106033
              ],
              [
                1025.9195549536228,
                1270.0814422592794
              ],
              [
                1025.9116457363325,
                1270.0921066042733
              ],
              [
                1025.8882767488187,
                1270.1310954044764
              ],
              [
                1025.8856172895887,
                1270.1348758258528
              ],
              [
                1025.8851694627424,
                1270.1356699874723
              ],
              [
                1025.883600511288,
                1270.1379104700318
              ],
              [
                1025.8744588733841,
                1270.1541491368744
              ],
              [
                1025.8720518811504,
                1270.1581649608052
              ],
              [
                1025.8549788035773,
                1270.1840157965075
              ],
              [
                1025.8438496101044,
                1270.2051084805419
              ],
              [
                1025.8190712507385,
                1270.2455844354674
              ],
              [
                1025.8166255662036,
                1270.2506381806306
              ],
              [
                1025.8107424322409,
                1270.2604535966605
              ],
              [
                1025.7903931656192,
                1270.3034785060381
              ],
              [
                1025.7873174930003,
                1270.308941949625
              ],
              [
                1025.7871954226878,
                1270.30918609025
              ],
              [
                1025.7805310657732,
                1270.324330164235
              ],
              [
                1025.7769556766025,
                1270.331889689496
              ],
              [
                1025.7633874382354,
                1270.3576049909213
              ],
              [
                1025.7554794436462,
                1270.3769900942607
              ],
              [
                1025.733195311872,
                1270.4230378659836
              ],
              [
                1025.7309310256328,
                1270.4292006380392
              ],
              [
                1025.726825895915,
                1270.4378802055824
              ],
              [
                1025.7265491555565,
                1270.438653643071
              ],
              [
                1025.726337614665,
                1270.4391009087074
              ],
              [
                1025.7102998341018,
                1270.4839235026677
              ],
              [
                1025.7081400499858,
                1270.488831392636
              ],
              [
                1025.7037956876095,
                1270.5021013743585
              ],
              [
                1025.6991880206992,
                1270.5149789406912
              ],
              [
                1025.6892518267805,
                1270.539335829627
              ],
              [
                1025.6840860550594,
                1270.5566999226357
              ],
              [
                1025.6652069393958,
                1270.6080837470136
              ],
              [
                1025.6634552161004,
                1270.6148454393808
              ],
              [
                1025.6602160082232,
                1270.6238984189285
              ],
              [
                1025.6481455977726,
                1270.672086198609
              ],
              [
                1025.6470736693252,
                1270.6753604353491
              ],
              [
                1025.6451314961118,
                1270.6841191669453
              ],
              [
                1025.6395491580415,
                1270.7064051097589
              ],
              [
                1025.6332859356778,
                1270.7274581453034
              ],
              [
                1025.6303584504965,
                1270.7425997188027
              ],
              [
                1025.6157667150826,
                1270.7989241544174
              ],
              [
                1025.614761235249,
                1270.8053640446815
              ],
              [
                1025.612526118881,
                1270.8142871294053
              ],
              [
                1025.6049648655148,
                1270.8652609590988
              ],
              [
                1025.6045843833335,
                1270.8669768417406
              ],
              [
                1025.6040363297366,
                1270.8715206388547
              ],
              [
                1025.5994336801684,
                1270.9025491818575
              ],
              [
                1025.5960287470527,
                1270.920160217213
              ],
              [
                1025.5948345669376,
                1270.9329902316779
              ],
              [
                1025.5853550050574,
                1270.9937048638612
              ],
              [
                1025.5850139635518,
                1270.9997590151288
              ],
              [
                1025.5837272263432,
                1271.0084334927783
              ],
              [
                1025.5811191458436,
                1271.0615221909532
              ],
              [
                1025.581081387062,
                1271.0618352410686
              ],
              [
                1025.5810634383467,
                1271.062656143097
              ],
              [
                1025.5791607398467,
                1271.1013864608167
              ],
              [
                1025.5778390679982,
                1271.115586219061
              ],
              [
                1025.5778956035927,
                1271.1261237749748
              ],
              [
                1025.5742672925123,
                1271.1905333666464
              ],
              [
                1025.574505265527,
                1271.1961508176098
              ],
              [
                1025.5740966796875,
                1271.2044677734375
              ],
              [
                1025.578833208271,
                1271.300882027676
              ],
              [
                1025.5788920750674,
                1271.3118540916191
              ],
              [
                1025.5797611190533,
                1271.3202174034689
              ],
              [
                1025.5826113067624,
                1271.3874972575106
              ],
              [
                1025.5833409796053,
                1271.3926398211274
              ],
              [
                1025.5837272263432,
                1271.4005020540967
              ],
              [
                1025.5983402340196,
                1271.4990149498465
              ],
              [
                1025.5991776272265,
                1271.507073667984
              ],
              [
                1025.6004812373433,
                1271.5134484218534
              ],
              [
                1025.600507586664,
                1271.5136260545448
              ],
              [
                1025.6103059765371,
                1271.5826828157474
              ],
              [
                1025.611439744523,
                1271.587324676441
              ],
              [
                1025.612526118881,
                1271.5946484174697
              ],
              [
                1025.63736269179,
                1271.6938015745436
              ],
              [
                1025.638500363519,
                1271.699364876917
              ],
              [
                1025.6398475322162,
                1271.7037216135927
              ],
              [
                1025.6407309522237,
                1271.7072484239575
              ],
              [
                1025.6466489765162,
                1271.7314779353624
              ],
              [
                1025.6469515990127,
                1271.7328426896509
              ],
              [
                1025.6470725621282,
                1271.733212175019
              ],
              [
                1025.6570822176775,
                1271.7741935991066
              ],
              [
                1025.6585336408598,
                1271.7783207409452
              ],
              [
                1025.6602160082232,
                1271.7850371279465
              ],
              [
                1025.6953813000723,
                1271.8833175347543
              ],
              [
                1025.696481584498,
                1271.886875848959
              ],
              [
                1025.6976410478064,
                1271.8896331065844
              ],
              [
                1025.6998979731886,
                1271.8959407904692
              ],
              [
                1025.7063991810096,
                1271.914427064581
              ],
              [
                1025.7080179796733,
                1271.919371732364
              ],
              [
                1025.7086160925207,
                1271.9207308830412
              ],
              [
                1025.7224855475833,
                1271.960168869816
              ],
              [
                1025.7241706469188,
                1271.9637783690332
              ],
              [
                1025.726337614665,
                1271.9698346381676
              ],
              [
                1025.771687135743,
                1272.0657181444867
              ],
              [
                1025.7725628993105,
                1272.0678007509457
              ],
              [
                1025.7734267596566,
                1272.069396270221
              ],
              [
                1025.7774295604647,
                1272.0778594814626
              ],
              [
                1025.7832351582265,
                1272.0902951285095
              ],
              [
                1025.7870733523753,
                1272.09901703475
              ],
              [
                1025.7884419599247,
                1272.101448148547
              ],
              [
                1025.8058805010119,
                1272.1388016736926
              ],
              [
                1025.8077188901846,
                1272.1419008884845
              ],
              [
                1025.8102541509909,
                1272.1472612470895
              ],
              [
                1025.8653942324079,
                1272.2392569151216
              ],
              [
                1025.866011603304,
                1272.2403971771669
              ],
              [
                1025.866594774002,
                1272.2412598977635
              ],
              [
                1025.872570757065,
                1272.2512302231585
              ],
              [
                1025.8763343154912,
                1272.2575749493556
              ],
              [
                1025.883356370663,
                1272.2700485143432
              ],
              [
                1025.8858215166213,
                1272.2735687740112
              ],
              [
                1025.9064568043214,
                1272.30835639669
              ],
              [
                1025.9083726576077,
                1272.310962085582
              ],
              [
                1025.9111574550825,
                1272.3156082394767
              ],
              [
                1025.9754539194093,
                1272.4023019858105
              ],
              [
                1025.975927734375,
                1272.4030029296875
              ],
              [
                1025.9763615912316,
                1272.4035258395875
              ],
              [
                1025.9844009945405,
                1272.414365720107
              ],
              [
                1025.9847571966518,
                1272.4148501788552
              ],
              [
                1025.995939776437,
                1272.4308190444995
              ],
              [
                1025.9998466076393,
                1272.4353727892649
              ],
              [
                1026.0232372481696,
                1272.4671856282966
              ],
              [
                1026.0251601102013,
                1272.4693230256275
              ],
              [
                1026.028075772962,
                1272.4732543417647
              ],
              [
                1026.1006705402674,
                1272.5533503246143
              ],
              [
                1026.1012527400949,
                1272.5540520262214
              ],
              [
                1026.1017732796965,
                1272.5545670100819
              ],
              [
                1026.1080377593967,
                1272.5614787983172
              ],
              [
                1026.1237393299552,
                1272.5797803171276
              ],
              [
                1026.1294369327336,
                1272.5852340990577
              ],
              [
                1026.1550871821773,
                1272.613746167939
              ],
              [
                1026.156952630036,
                1272.6154480413527
              ],
              [
                1026.1598831173144,
                1272.6186813358106
              ],
              [
                1026.2397181831989,
                1272.6910396217636
              ],
              [
                1026.2407796721493,
                1272.6920897813973
              ],
              [
                1026.241710697349,
                1272.6928455313227
              ],
              [
                1026.2445079179104,
                1272.6953807842597
              ],
              [
                1026.2655242516548,
                1272.7154977537414
              ],
              [
                1026.273349486301,
                1272.7216384739595
              ],
              [
                1026.3007255393034,
                1272.7466140188726
              ],
              [
                1026.302475710955,
                1272.7479197293799
              ],
              [
                1026.3053101113603,
                1272.750488680163
              ],
              [
                1026.3489492477765,
                1272.782853669525
              ],
              [
                1026.349820603938,
                1272.783601239188
              ],
              [
                1026.3522695188024,
                1272.785316150345
              ],
              [
                1026.3911580621723,
                1272.814157859779
              ],
              [
                1026.3931648099087,
                1272.8157868161734
              ],
              [
                1026.3941729459368,
                1272.8164526354456
              ],
              [
                1026.4199290752324,
                1272.836664321236
              ],
              [
                1026.4301900275584,
                1272.8432006265148
              ],
              [
                1026.4348324585285,
                1272.8466640987353
              ],
              [
                1026.4386762264396,
                1272.8496139357997
              ],
              [
                1026.4393455877598,
                1272.8500311057671
              ],
              [
                1026.4587372828203,
                1272.8644982238745
              ],
              [
                1026.4603212883308,
                1272.8654528042414
              ],
              [
                1026.4629562136483,
                1272.8674069980425
              ],
              [
                1026.5083475148854,
                1272.8946134969938
              ],
              [
                1026.5105911340943,
                1272.896184644962
              ],
              [
                1026.5168064566105,
                1272.8996835915473
              ],
              [
                1026.551555604473,
                1272.920511429241
              ],
              [
                1026.55650767302,
                1272.9236659348617
              ],
              [
                1026.556940601195,
                1272.9239518604852
              ],
              [
                1026.5570333744708,
                1272.9240008107151
              ],
              [
                1026.5854667978308,
                1272.9421131193294
              ],
              [
                1026.5941701366894,
                1272.946523314183
              ],
              [
                1026.6036537563148,
                1272.9524338458639
              ],
              [
                1026.6092910162943,
                1272.9552274777632
              ],
              [
                1026.6180099603782,
                1272.9604818362782
              ],
              [
                1026.623642817927,
                1272.9639006467132
              ],
              [
                1026.6238381479957,
                1272.9639941179191
              ],
              [
                1026.6275871549497,
                1272.9662534083127
              ],
              [
                1026.6289613882382,
                1272.9669066705635
              ],
              [
                1026.6313032060355,
                1272.9683103021341
              ],
              [
                1026.6776438043312,
                1272.9902277728218
              ],
              [
                1026.6816226136875,
                1272.9924676632497
              ],
              [
                1026.6836879642506,
                1272.993376549017
              ],
              [
                1026.6846743715,
                1272.9939325069997
              ],
              [
                1026.684918512125,
                1272.9940545773122
              ],
              [
                1026.6969371506332,
                1272.9993528460318
              ],
              [
                1026.7193002080398,
                1273.0099297844663
              ],
              [
                1026.7605432006892,
                1273.0308286184522
              ],
              [
                1026.7665932173647,
                1273.0331810311461
              ],
              [
                1026.7778340264163,
                1273.03875158898
              ],
              [
                1026.7886158510773,
                1273.0428451146804
              ],
              [
                1026.8025037957366,
                1273.0494909063068
              ],
              [
                1026.8032809962342,
                1273.0497720911837
              ],
              [
                1026.8056345935809,
                1273.0508909087187
              ],
              [
                1026.8067629625682,
                1273.0512965865605
              ],
              [
                1026.8087298149574,
                1273.05222683846
              ],
              [
                1026.8519851309388,
                1273.0677038379956
              ],
              [
                1026.8621426937727,
                1273.0721816744322
              ],
              [
                1026.8904817404248,
                1273.0815204455403
              ],
              [
                1026.90884233121,
                1273.0884913945788
              ],
              [
                1026.9434722023414,
                1273.1019564398512
              ],
              [
                1026.9466424121945,
                1273.1028429174287
              ],
              [
                1026.9595714895759,
                1273.107751688644
              ],
              [
                1026.9746050710592,
                1273.1118415800277
              ],
              [
                1026.9870338929773,
                1273.116374691293
              ],
              [
                1026.9881804383078,
                1273.1166672193124
              ],
              [
                1026.9889609402758,
                1273.1169495986346
              ],
              [
                1026.9903536469362,
                1273.117302187089
              ],
              [
                1026.9911496721345,
                1273.1175883787412
              ],
              [
                1026.9920037642196,
                1273.117803306074
              ],
              [
                1026.9935273251785,
                1273.1183484449018
              ],
              [
                1026.994591827598,
                1273.118615088877
              ],
              [
                1026.994870098616,
                1273.1187146558393
              ],
              [
                1027.0302192384402,
                1273.1275691544192
              ],
              [
                1027.0460928507603,
                1273.1328001007505
              ],
              [
                1027.0782901319212,
                1273.1400491390523
              ],
              [
                1027.1302774822966,
                1273.1541923168838
              ],
              [
                1027.1324920965026,
                1273.1548115837234
              ],
              [
                1027.1326673116173,
                1273.1548424708312
              ],
              [
                1027.1471492029518,
                1273.1587822747067
              ],
              [
                1027.1654241213525,
                1273.1618889320089
              ],
              [
                1027.1805973278954,
                1273.1657602033297
              ],
              [
                1027.1864850127097,
                1273.1666493502873
              ],
              [
                1027.1879443559678,
                1273.167014896744
              ],
              [
                1027.217598919571,
                1273.171413735721
              ],
              [
                1027.2350438868411,
                1273.1753413728181
              ],
              [
                1027.2711673959273,
                1273.1798648325796
              ],
              [
                1027.3387950486408,
                1273.1913612418398
              ],
              [
                1027.3602416661627,
                1273.19288974947
              ],
              [
                1027.3781217997082,
                1273.1955899732159
              ],
              [
                1027.3818328554096,
                1273.195775538781
              ],
              [
                1027.3820907193408,
                1273.1958137892818
              ],
              [
                1027.409147762698,
                1273.197143016586
              ],
              [
                1027.4272238072065,
                1273.1994065358856
              ],
              [
                1027.4672290891288,
                1273.200514779019
              ],
              [
                1027.470667752742,
                1273.2007598537289
              ],
              [
                1027.4712286382219,
                1273.2008174933742
              ],
              [
                1027.4714978063032,
                1273.200819011925
              ],
              [
                1027.5326984755482,
                1273.2051808041663
              ],
              [
                1027.5571607703077,
                1273.2045425383135
              ],
              [
                1027.57763671875,
                1273.20556640625
              ],
              [
                1027.6036181342026,
                1273.204293085668
              ],
              [
                1027.6208303363662,
                1273.2047699053264
              ],
              [
                1027.662311685355,
                1273.2018955160743
              ],
              [
                1027.6646788136454,
                1273.2019088705715
              ],
              [
                1027.6673084613178,
                1273.2016685843114
              ],
              [
                1027.727027604352,
                1273.2001104030319
              ],
              [
                1027.751919938211,
                1273.1970249774422
              ],
              [
                1027.7734460727,
                1273.1959700052778
              ],
              [
                1027.7959834130072,
                1273.1926329297155
              ],
              [
                1027.8140478200028,
                1273.1913811831214
              ],
              [
                1027.8549907154743,
                1273.1845189610367
              ],
              [
                1027.8573294669475,
                1273.1843052556608
              ],
              [
                1027.8625558668568,
                1273.183311561604
              ],
              [
                1027.919946533963,
                1273.1761979404423
              ],
              [
                1027.945165394247,
                1273.1705437418552
              ],
              [
                1027.9672554626984,
                1273.1672728932726
              ],
              [
                1027.968260664971,
                1273.1670215687573
              ],
              [
                1027.9683056440322,
                1273.167014896744
              ],
              [
                1027.9781813896223,
                1273.1645411512513
              ],
              [
                1027.9863048367692,
                1273.1625100959384
              ],
              [
                1028.0050642522915,
                1273.159365929557
              ],
              [
                1028.0449096250907,
                1273.148640688933
              ],
              [
                1028.0473781508385,
                1273.148171348774
              ],
              [
                1028.0553357105086,
                1273.1458429885483
              ],
              [
                1028.1096326859788,
                1273.1336693265139
              ],
              [
                1028.134900827444,
                1273.1253575582416
              ],
              [
                1028.1573270864394,
                1273.119750459228
              ],
              [
                1028.15810518383,
                1273.1194725869743
              ],
              [
                1028.158694354509,
                1273.1193250074018
              ],
              [
                1028.158972625527,
                1273.1192254404395
              ],
              [
                1028.1600371279465,
                1273.1189587964643
              ],
              [
                1028.1747848879868,
                1273.1136819635453
              ],
              [
                1028.1920882690074,
                1273.1090243857134
              ],
              [
                1028.2303049546956,
                1273.094647465578
              ],
              [
                1028.23304676216,
                1273.0938452202024
              ],
              [
                1028.2422665099123,
                1273.0901475901717
              ],
              [
                1028.244534745007,
                1273.0892942918226
              ],
              [
                1028.2942940232758,
                1273.0729263452154
              ],
              [
                1028.3072337981405,
                1273.0672247683217
              ],
              [
                1028.3074166774645,
                1273.067163566773
              ],
              [
                1028.309697338234,
                1273.0661392731395
              ],
              [
                1028.3185088607174,
                1273.0622567038124
              ],
              [
                1028.3448346381676,
                1273.0528371900225
              ],
              [
                1028.3580122947922,
                1273.0466046226104
              ],
              [
                1028.3733659470518,
                1273.0408286577838
              ],
              [
                1028.4094650450186,
                1273.0230917073936
              ],
              [
                1028.4125981778893,
                1273.0218351473982
              ],
              [
                1028.4230907506346,
                1273.0163968457998
              ],
              [
                1028.4274570885632,
                1273.014251486952
              ],
              [
                1028.4721859800625,
                1272.9945428585622
              ],
              [
                1028.4724301206875,
                1272.9944207882497
              ],
              [
                1028.4842804867374,
                1272.9877302392692
              ],
              [
                1028.4882964556423,
                1272.985926581559
              ],
              [
                1028.497590366546,
                1272.980589111184
              ],
              [
                1028.5222612470895,
                1272.9689206536966
              ],
              [
                1028.5338341388324,
                1272.96198412933
              ],
              [
                1028.5471972528553,
                1272.9554182896322
              ],
              [
                1028.5807451051824,
                1272.9346845766445
              ],
              [
                1028.5843525077323,
                1272.9328148595096
              ],
              [
                1028.596372055385,
                1272.925026590279
              ],
              [
                1028.6072548381485,
                1272.918300660639
              ],
              [
                1028.6476476378114,
                1272.8954954575368
              ],
              [
                1028.6558884966453,
                1272.8896788809727
              ],
              [
                1028.6602431426916,
                1272.8871780183642
              ],
              [
                1028.6685759341362,
                1272.881223005222
              ],
              [
                1028.6906082394767,
                1272.868017349605
              ],
              [
                1028.6911305218364,
                1272.8676299986075
              ],
              [
                1028.6923172238517,
                1272.8669187167925
              ],
              [
                1028.7019397348329,
                1272.8597821762667
              ],
              [
                1028.7119519853995,
                1272.8535942651126
              ],
              [
                1028.7425813415166,
                1272.8302878099755
              ],
              [
                1028.7467028112458,
                1272.8276172339433
              ],
              [
                1028.7603463331166,
                1272.8167700925883
              ],
              [
                1028.7752257379386,
                1272.8054480726403
              ],
              [
                1028.8120383718165,
                1272.7794649187247
              ],
              [
                1028.8170164051094,
                1272.775140312362
              ],
              [
                1028.8215666341355,
                1272.7718885000695
              ],
              [
                1028.8277049501783,
                1272.766508335604
              ],
              [
                1028.8499633261397,
                1272.750000398913
              ],
              [
                1028.8597383678346,
                1272.7411408175458
              ],
              [
                1028.8660850643462,
                1272.736311496389
              ],
              [
                1028.893504063329,
                1272.7109044124654
              ],
              [
                1028.8981301324359,
                1272.7072265039315
              ],
              [
                1028.9127408283607,
                1272.693102187497
              ],
              [
                1028.9425556579715,
                1272.6660796010844
              ],
              [
                1028.9639383843778,
                1272.6475036155043
              ],
              [
                1028.9660956917978,
                1272.6452104185141
              ],
              [
                1028.970681243388,
                1272.6411912344986
              ],
              [
                1028.9743837469127,
                1272.6372323027772
              ],
              [
                1028.9953903201856,
                1272.6181930545606
              ],
              [
                1029.0050041284692,
                1272.6075858517004
              ],
              [
                1029.0081510198988,
                1272.6046698687098
              ],
              [
                1029.025789558702,
                1272.58482430567
              ],
              [
                1029.0271231873178,
                1272.5835567368752
              ],
              [
                1029.0324573336998,
                1272.5773709579564
              ],
              [
                1029.0372177111726,
                1272.5727690500034
              ],
              [
                1029.0474917667127,
                1272.5607079668282
              ],
              [
                1029.0958307861365,
                1272.5073740777004
              ],
              [
                1029.1061212878415,
                1272.4963708758512
              ],
              [
                1029.1078349265817,
                1272.4941295497142
              ],
              [
                1029.127197664538,
                1272.4727660605147
              ],
              [
                1029.1363302369418,
                1272.4604522120994
              ],
              [
                1029.1368175485097,
                1272.4599039256145
              ],
              [
                1029.1413458618497,
                1272.4536894247826
              ],
              [
                1029.1550817453938,
                1272.4351687298094
              ],
              [
                1029.1566133004906,
                1272.4333926515858
              ],
              [
                1029.1597652413166,
                1272.428906098493
              ],
              [
                1029.1626642384547,
                1272.4255028615266
              ],
              [
                1029.1691430236378,
                1272.4162092908734
              ],
              [
                1029.2252349445416,
                1272.3405780907267
              ],
              [
                1029.2265554954051,
                1272.338850897535
              ],
              [
                1029.2267533652275,
                1272.3385307374372
              ],
              [
                1029.2441159824175,
                1272.3151199582267
              ],
              [
                1029.2697549001539,
                1272.2723440082432
              ],
              [
                1029.2705976793181,
                1272.2711443748506
              ],
              [
                1029.271974794881,
                1272.268701030538
              ],
              [
                1029.2732960315084,
                1272.266805766905
              ],
              [
                1029.276631105817,
                1272.2608717521775
              ],
              [
                1029.3450192865091,
                1272.1467729658395
              ],
              [
                1029.3675760096964,
                1272.0990807816916
              ],
              [
                1029.3679559444997,
                1272.0984066831875
              ],
              [
                1029.3680780148122,
                1272.0981625425625
              ],
              [
                1029.3682000851247,
                1272.0979184019375
              ],
              [
                1029.369311256719,
                1272.095411910116
              ],
              [
                1029.428935822835,
                1271.9693463569176
              ],
              [
                1029.4950574292768,
                1271.7845488466965
              ],
              [
                1029.5013411322082,
                1271.7594628984034
              ],
              [
                1029.50152685073,
                1271.7589224696742
              ],
              [
                1029.5023511523761,
                1271.7554306718669
              ],
              [
                1029.542747318619,
                1271.5941601362197
              ],
              [
                1029.546678998914,
                1271.567654900636
              ],
              [
                1029.5470834089836,
                1271.5659417920913
              ],
              [
                1029.548428162289,
                1271.5558629989957
              ],
              [
                1029.5715462111568,
                1271.4000137728467
              ],
              [
                1029.5729006044444,
                1271.3724444641289
              ],
              [
                1029.5733070089682,
                1271.3693985023965
              ],
              [
                1029.5738559031893,
                1271.3529989114552
              ],
              [
                1029.5811767578125,
                1271.2039794921875
              ],
              [
                1029.5797890345775,
                1271.1757317368065
              ],
              [
                1029.5799398927445,
                1271.1712244708658
              ],
              [
                1029.5784720231804,
                1271.1489233539494
              ],
              [
                1029.5715462111568,
                1271.0079452115283
              ],
              [
                1029.5673155075042,
                1270.9794241242123
              ],
              [
                1029.5669168641357,
                1270.9733675967216
              ],
              [
                1029.5623178223889,
                1270.9457324678713
              ],
              [
                1029.5551652559639,
                1270.8975137817401
              ],
              [
                1029.544120296789,
                1270.8214082333836
              ],
              [
                1029.5435010046194,
                1270.8188797864564
              ],
              [
                1029.542747318619,
                1270.8137988481553
              ],
              [
                1029.5356382311293,
                1270.785417779998
              ],
              [
                1029.534365929557,
                1270.777772661771
              ],
              [
                1029.5256418584431,
                1270.745510023209
              ],
              [
                1029.520624983147,
                1270.725481534331
              ],
              [
                1029.4984231939336,
                1270.6348360386069
              ],
              [
                1029.4966458786203,
                1270.6297515829272
              ],
              [
                1029.4950574292768,
                1270.6234101376785
              ],
              [
                1029.485099461074,
                1270.5955794809577
              ],
              [
                1029.4826070398094,
                1270.5863622146885
              ],
              [
                1029.468899673152,
                1270.550304106761
              ],
              [
                1029.467800077261,
                1270.5472309421204
              ],
              [
                1029.4350384825268,
                1270.4535081934393
              ],
              [
                1029.4315980055533,
                1270.4460529297212
              ],
              [
                1029.428935822835,
                1270.4386126274574
              ],
              [
                1029.4162208409687,
                1270.4117290570216
              ],
              [
                1029.4121489452084,
                1270.4010176738316
              ],
              [
                1029.3941914373854,
                1270.3649956133563
              ],
              [
                1029.3545508454756,
                1270.279097329801
              ],
              [
                1029.34896788226,
                1270.2695346228127
              ],
              [
                1029.3450192865091,
                1270.2611860185355
              ],
              [
                1029.344495175485,
                1270.2603115921195
              ],
              [
                1029.3440427240091,
                1270.259354963848
              ],
              [
                1029.3290994279778,
                1270.2344235806206
              ],
              [
                1029.323684194957,
                1270.2235608343374
              ],
              [
                1029.3021094811895,
                1270.1892738111098
              ],
              [
                1029.2577027290972,
                1270.1132122749373
              ],
              [
                1029.2502532317633,
                1270.102876649493
              ],
              [
                1029.2431394199175,
                1270.0910079714608
              ],
              [
                1029.2242532173193,
                1270.0655428751388
              ],
              [
                1029.2180823299175,
                1270.055735961269
              ],
              [
                1029.1941266676217,
                1270.0249219252194
              ],
              [
                1029.1919958578455,
                1270.022048860827
              ],
              [
                1029.1453874945337,
                1269.9573832110302
              ],
              [
                1029.1439728759603,
                1269.955772277502
              ],
              [
                1029.143690808569,
                1269.9553809299016
              ],
              [
                1029.1364524579662,
                1269.9471572556654
              ],
              [
                1029.126221102038,
                1269.9333618691728
              ],
              [
                1029.1031920321577,
                1269.9079532060607
              ],
              [
                1029.0963813356884,
                1269.899192644823
              ],
              [
                1029.0720500784369,
                1269.8735933550176
              ],
              [
                1029.0642924979127,
                1269.865034183886
              ],
              [
                1029.0186411770735,
                1269.8130475602593
              ],
              [
                1029.0173135395942,
                1269.8118005000608
              ],
              [
                1029.015252701357,
                1269.8094591293195
              ],
              [
                1029.0065335694467,
                1269.8013070267432
              ],
              [
                1028.9944137576856,
                1269.787934875127
              ],
              [
                1028.9671367988751,
                1269.7632124807296
              ],
              [
                1028.9597774400002,
                1269.7554695861197
              ],
              [
                1028.935409282231,
                1269.734456335839
              ],
              [
                1028.9231167359517,
                1269.723315021319
              ],
              [
                1028.9218060063442,
                1269.7220895320936
              ],
              [
                1028.8786329293978,
                1269.6815367255117
              ],
              [
                1028.8774762493597,
                1269.6806426621713
              ],
              [
                1028.8732548015732,
                1269.6766957468442
              ],
              [
                1028.862981848842,
                1269.668811936628
              ],
              [
                1028.8489867636397,
                1269.6561275307745
              ],
              [
                1028.8174588798981,
                1269.6327448585748
              ],
              [
                1028.8096133547108,
                1269.625979472947
              ],
              [
                1028.7854122087253,
                1269.6089774273933
              ],
              [
                1028.773584621022,
                1269.6002054905123
              ],
              [
                1028.7494186280583,
                1269.5816596929014
              ],
              [
                1028.7266542369036,
                1269.5640638090547
              ],
              [
                1028.7257416291309,
                1269.5634891657978
              ],
              [
                1028.7190386173104,
                1269.5583450485753
              ],
              [
                1028.70716197987,
                1269.550943102417
              ],
              [
                1028.6913406613517,
                1269.539209212895
              ],
              [
                1028.6556650105385,
                1269.5178260507034
              ],
              [
                1028.6473650779756,
                1269.5119950941194
              ],
              [
                1028.623421545484,
                1269.498500061488
              ],
              [
                1028.612817514154,
                1269.4921442497046
              ],
              [
                1028.5755572454552,
                1269.4689223146963
              ],
              [
                1028.5641070045876,
                1269.4617124224512
              ],
              [
                1028.563495217641,
                1269.461404826612
              ],
              [
                1028.5540610874352,
                1269.4555251385111
              ],
              [
                1028.540557130551,
                1269.4488330425538
              ],
              [
                1028.5229936689645,
                1269.4383059088034
              ],
              [
                1028.4833807656223,
                1269.4195704008519
              ],
              [
                1028.4746273863125,
                1269.4146368289378
              ],
              [
                1028.4743832456875,
                1269.4145147586253
              ],
              [
                1028.4739831525114,
                1269.4143383824776
              ],
              [
                1028.474505316,
                1269.4132940555003
              ],
              [
                1028.474261175375,
                1269.4131719851878
              ],
              [
                1028.4205354832395,
                1269.3893544476764
              ],
              [
                1028.3966046368423,
                1269.3774951443772
              ],
              [
                1028.3924906253812,
                1269.3754266909466
              ],
              [
                1028.3922155634016,
                1269.3753200707392
              ],
              [
                1028.3798808173337,
                1269.369207395395
              ],
              [
                1028.3647549752704,
                1269.363464580503
              ],
              [
                1028.3455670600426,
                1269.3543893724775
              ],
              [
                1028.3253328321996,
                1269.3471494499888
              ],
              [
                1028.3047764588703,
                1269.3380364507252
              ],
              [
                1028.243318275521,
                1269.317358817608
              ],
              [
                1028.1981433541741,
                1269.300207295731
              ],
              [
                1028.1814326616789,
                1269.2956611456784
              ],
              [
                1028.1607695498215,
                1269.2882677660357
              ],
              [
                1028.1454433201982,
                1269.284428745366
              ],
              [
                1028.129062598457,
                1269.278917444252
              ],
              [
                1028.0596840399883,
                1269.2625393882724
              ],
              [
                1028.054476755079,
                1269.2611227444936
              ],
              [
                1028.0523270109466,
                1269.2604832013028
              ],
              [
                1028.0516319929789,
                1269.2603488259156
              ],
              [
                1028.0105656407982,
                1269.2491767096683
              ],
              [
                1027.992340860361,
                1269.2460785756036
              ],
              [
                1027.9703808393447,
                1269.2405778766936
              ],
              [
                1027.9603515943772,
                1269.2390901787371
              ],
              [
                1027.9486294338287,
                1269.2363229520045
              ],
              [
                1027.8715565078483,
                1269.2255328727201
              ],
              [
                1027.859624939037,
                1269.2232260126777
              ],
              [
                1027.8587704468496,
                1269.2231039423652
              ],
              [
                1027.8552831367886,
                1269.2227793537734
              ],
              [
                1027.8189197951092,
                1269.2165977425352
              ],
              [
                1027.7992870462542,
                1269.2151985099338
              ],
              [
                1027.7762344759717,
                1269.2117789841557
              ],
              [
                1027.7717339944777,
                1269.2115578896774
              ],
              [
                1027.7650273557924,
                1269.2106189716044
              ],
              [
                1027.7184073382195,
                1269.2084558954325
              ],
              [
                1027.7179499151814,
                1269.2084007229996
              ],
              [
                1027.7165661310253,
                1269.2083704670774
              ],
              [
                1027.68448504684,
                1269.206881968523
              ],
              [
                1027.6633444450015,
                1269.2049142633107
              ],
              [
                1027.6555729567285,
                1269.2049559585305
              ],
              [
                1027.6250163682018,
                1269.2027781802087
              ],
              [
                1027.6064681152448,
                1269.2032621379324
              ],
              [
                1027.579833984375,
                1269.2020263671875
              ],
              [
                1027.57958984375,
                1269.2020263671875
              ],
              [
                1027.5583787831422,
                1269.2030683997755
              ],
              [
                1027.5537332957874,
                1269.2028902036127
              ],
              [
                1027.538774659238,
                1269.2038078310318
              ],
              [
                1027.5384714214463,
                1269.203799430611
              ],
              [
                1027.535074564108,
                1269.2040348108594
              ],
              [
                1027.5306590400216,
                1269.2043056781913
              ],
              [
                1027.5217261158227,
                1269.204110363151
              ],
              [
                1027.4997321520798,
                1269.2057920682148
              ],
              [
                1027.4670765724434,
                1269.20596727038
              ],
              [
                1027.4551021285142,
                1269.2072115523902
              ],
              [
                1027.430687239398,
                1269.2078485813431
              ],
              [
                1027.4107350583447,
                1269.210321670863
              ],
              [
                1027.3835555630908,
                1269.2116569138432
              ],
              [
                1027.364326968989,
                1269.2145092063383
              ],
              [
                1027.35497380821,
                1269.2150829696461
              ]
            ]
          ]
        ]
      }
    }
  ]
}