{
  "type": "FeatureCollection",
  "features": [
    {
      "type": "Feature",
      "properties": {
        "image_id": "0019_top_20250702_t1",
        "zone_type": "parking_spot",
        "generated_at": "2025-11-03T11:20:41",
        "source": "merged_t1_polygons"
      },
      "geometry": {
        "type": "MultiPolygon",
        "coordinates": [
          [
            [
              [
                1698.2134423722218,
                301.52665821215174
              ],
              [
                1698.212379634506,
                301.53090089893647
              ],
              [
                1698.2070185819393,
                301.5670421796576
              ],
              [
                1698.204635863606,
                301.5776067564681
              ],
              [
                1698.2037107566011,
                301.58515799170834
              ],
              [
                1698.2002902844363,
                301.60127464907356
              ],
              [
                1698.1999373493,
                301.60441194228855
              ],
              [
                1698.1963698841157,
                301.62207781945773
              ],
              [
                1698.1930727122428,
                301.6545150624874
              ],
              [
                1698.190237975655,
                301.6705351455169
              ],
              [
                1698.190023553234,
                301.6733001755998
              ],
              [
                1698.189147117145,
                301.6783591962001
              ],
              [
                1698.1880743178988,
                301.6934079957237
              ],
              [
                1698.183949974841,
                301.72051820699505
              ],
              [
                1698.1837944081003,
                301.72360684225
              ],
              [
                1698.1835807419682,
                301.7250472623096
              ],
              [
                1698.181577689517,
                301.7658203316261
              ],
              [
                1698.1803442316384,
                301.7758884973136
              ],
              [
                1698.180270745988,
                301.7792313206558
              ],
              [
                1698.1785881463475,
                301.79418820052626
              ],
              [
                1698.178538740724,
                301.7974988026453
              ],
              [
                1698.1765647866246,
                301.81691836320266
              ],
              [
                1698.176460353466,
                301.8482009868256
              ],
              [
                1698.1751298306338,
                301.86535840739595
              ],
              [
                1698.1752822931435,
                301.8728494118984
              ],
              [
                1698.1748786893143,
                301.87851100527945
              ],
              [
                1698.1752874707795,
                301.89250429671165
              ],
              [
                1698.173828125,
                301.9214782714844
              ],
              [
                1698.1760151623623,
                301.9666002793133
              ],
              [
                1698.1756913721706,
                301.9882970097831
              ],
              [
                1698.1759809245007,
                301.99181242275404
              ],
              [
                1698.1759109876018,
                302.012761800469
              ],
              [
                1698.1787356433194,
                302.0425243159934
              ],
              [
                1698.1791061002978,
                302.0607261342464
              ],
              [
                1698.1805595470335,
                302.0729765191149
              ],
              [
                1698.1807379976203,
                302.0790851891034
              ],
              [
                1698.1818991468185,
                302.08799609873506
              ],
              [
                1698.1832061884663,
                302.11496241603993
              ],
              [
                1698.1843476872968,
                302.12276225446345
              ],
              [
                1698.1845565657293,
                302.1268132675779
              ],
              [
                1698.1899541718194,
                302.161459597922
              ],
              [
                1698.1916272543135,
                302.1817722505558
              ],
              [
                1698.1923073017838,
                302.18552464456616
              ],
              [
                1698.1944147561758,
                302.20773023361136
              ],
              [
                1698.1998611734023,
                302.2356603972346
              ],
              [
                1698.2021288268197,
                302.25477332819327
              ],
              [
                1698.2058324634306,
                302.27166553748606
              ],
              [
                1698.2066660617754,
                302.27806275115415
              ],
              [
                1698.207759145537,
                302.28273227513677
              ],
              [
                1698.2112524307906,
                302.30660182262574
              ],
              [
                1698.2127387675894,
                302.312618280578
              ],
              [
                1698.2127458454436,
                302.3126659955948
              ],
              [
                1698.2130886224286,
                302.3140344380267
              ],
              [
                1698.2148088629563,
                302.3209977015421
              ],
              [
                1698.2162631818865,
                302.330332731412
              ],
              [
                1698.2235945539471,
                302.3581627364129
              ],
              [
                1698.2262456503881,
                302.37279106582
              ],
              [
                1698.2273853348627,
                302.37680902783114
              ],
              [
                1698.2318986639682,
                302.3999541551978
              ],
              [
                1698.2396262418351,
                302.4257982555662
              ],
              [
                1698.2439782331835,
                302.4456475972873
              ],
              [
                1698.2508002042844,
                302.4666849992759
              ],
              [
                1698.2511860044478,
                302.4682466577525
              ],
              [
                1698.2524018877164,
                302.47344076664206
              ],
              [
                1698.2526426562563,
                302.4741429555259
              ],
              [
                1698.2577038325328,
                302.4946298023024
              ],
              [
                1698.2598487267107,
                302.5007112384733
              ],
              [
                1698.2604357347857,
                302.50305470607145
              ],
              [
                1698.265471936501,
                302.5171299469502
              ],
              [
                1698.2687337516684,
                302.5295118492287
              ],
              [
                1698.27666398396,
                302.5505410952931
              ],
              [
                1698.2792203978,
                302.55955374214585
              ],
              [
                1698.2809069979858,
                302.5638575574121
              ],
              [
                1698.2880032864143,
                302.5875903742857
              ],
              [
                1698.2976491649847,
                302.61115650237093
              ],
              [
                1698.3042548211954,
                302.6315268386048
              ],
              [
                1698.313301651078,
                302.6522667562407
              ],
              [
                1698.322124769499,
                302.67728301674305
              ],
              [
                1698.3249311179109,
                302.6833072265966
              ],
              [
                1698.3265573412275,
                302.6878522162927
              ],
              [
                1698.335869339209,
                302.7075407818183
              ],
              [
                1698.341411752776,
                302.722238053525
              ],
              [
                1698.3466301314847,
                302.7326748109428
              ],
              [
                1698.3466933090094,
                302.7328396762475
              ],
              [
                1698.346815379322,
                302.73311433445065
              ],
              [
                1698.348706781423,
                302.7368669910881
              ],
              [
                1698.3500523867401,
                302.7403006659772
              ],
              [
                1698.352390777728,
                302.74489733770173
              ],
              [
                1698.3621906492028,
                302.768839690356
              ],
              [
                1698.3733809439843,
                302.7899989345452
              ],
              [
                1698.3823831851305,
                302.8106366322064
              ],
              [
                1698.393654526467,
                302.8308314018667
              ],
              [
                1698.4039110980536,
                302.85284853251034
              ],
              [
                1698.4073642150838,
                302.85870399633103
              ],
              [
                1698.4104738775534,
                302.8652788252145
              ],
              [
                1698.4253005070955,
                302.89001556216385
              ],
              [
                1698.433526335408,
                302.9064672187893
              ],
              [
                1698.4421148723632,
                302.91996494554513
              ],
              [
                1698.4460225596401,
                302.92735382232837
              ],
              [
                1698.4468174816154,
                302.9288887614722
              ],
              [
                1698.4469073785194,
                302.9290268880603
              ],
              [
                1698.453749386786,
                302.9419641454326
              ],
              [
                1698.4661102519929,
                302.9606497299515
              ],
              [
                1698.4776175046063,
                302.98126717990857
              ],
              [
                1698.4910777978814,
                303.00065744044474
              ],
              [
                1698.5022958208172,
                303.01967988505487
              ],
              [
                1698.5063676628713,
                303.0252679404593
              ],
              [
                1698.511377181645,
                303.0336258176017
              ],
              [
                1698.52956715274,
                303.05815215441413
              ],
              [
                1698.5303385443308,
                303.0593968223542
              ],
              [
                1698.5332094467956,
                303.0631289886242
              ],
              [
                1698.5441004981806,
                303.0802453422531
              ],
              [
                1698.5509353219334,
                303.08887748643843
              ],
              [
                1698.5514053271597,
                303.0895879805855
              ],
              [
                1698.5548926335557,
                303.09494622667734
              ],
              [
                1698.5552192791545,
                303.09535342832356
              ],
              [
                1698.5618015635027,
                303.1053036889616
              ],
              [
                1698.5749697061326,
                303.1215081473819
              ],
              [
                1698.589048664252,
                303.14178962717114
              ],
              [
                1698.6046234724495,
                303.1601108200303
              ],
              [
                1698.616356279615,
                303.1762125193644
              ],
              [
                1698.6210098929705,
                303.1814484166368
              ],
              [
                1698.6282954995245,
                303.1912719198898
              ],
              [
                1698.6513358588784,
                303.21669303901655
              ],
              [
                1698.6532973766198,
                303.2192430073426
              ],
              [
                1698.6551414497847,
                303.22119657889846
              ],
              [
                1698.6577327060375,
                303.2245258642304
              ],
              [
                1698.6595393986897,
                303.2264319066188
              ],
              [
                1698.6624019429223,
                303.23008364365586
              ],
              [
                1698.6643915616069,
                303.23216876284863
              ],
              [
                1698.6719614505648,
                303.24172926876855
              ],
              [
                1698.675776965252,
                303.24564257486134
              ],
              [
                1698.678867723051,
                303.24949556314283
              ],
              [
                1698.6794991890085,
                303.25014008178397
              ],
              [
                1698.685311091899,
                303.2572920956537
              ],
              [
                1698.6989433858703,
                303.27106264058256
              ],
              [
                1698.7156129322052,
                303.29067161228903
              ],
              [
                1698.7331866264337,
                303.30766127703225
              ],
              [
                1698.7450228082262,
                303.3209784624598
              ],
              [
                1698.7502167489936,
                303.325791289108
              ],
              [
                1698.760102843877,
                303.3366989139356
              ],
              [
                1698.787973359575,
                303.36195927693774
              ],
              [
                1698.7896016546847,
                303.3636901389419
              ],
              [
                1698.7898372170685,
                303.3638947809206
              ],
              [
                1698.7908387328591,
                303.3649513699024
              ],
              [
                1698.7917284940222,
                303.36589396379344
              ],
              [
                1698.7932406529108,
                303.3672025335508
              ],
              [
                1698.7964523314254,
                303.37056837071515
              ],
              [
                1698.8031390350422,
                303.3763356187027
              ],
              [
                1698.817526079642,
                303.39102004994555
              ],
              [
                1698.818516505923,
                303.3918484030832
              ],
              [
                1698.8230936675334,
                303.39647198365833
              ],
              [
                1698.836875556918,
                303.40790429615043
              ],
              [
                1698.8561021145915,
                303.42649189445467
              ],
              [
                1698.8755170542556,
                303.44189747421916
              ],
              [
                1698.8870887637788,
                303.4526200901389
              ],
              [
                1698.8927812405375,
                303.45695160313863
              ],
              [
                1698.9055298379228,
                303.46850625828796
              ],
              [
                1698.9361573733206,
                303.4912211866467
              ],
              [
                1698.9383440962197,
                303.49311940086847
              ],
              [
                1698.9394619685459,
                303.4939134580919
              ],
              [
                1698.9434944234456,
                303.4973914300102
              ],
              [
                1698.9512769899677,
                303.50288399009185
              ],
              [
                1698.9695069337815,
                303.51813078982354
              ],
              [
                1698.9708913146758,
                303.5190726547693
              ],
              [
                1698.973828125,
                303.5215087890625
              ],
              [
                1698.9876317862572,
                303.5308595043104
              ],
              [
                1699.0091750890526,
                303.5479539210505
              ],
              [
                1699.0302323810695,
                303.5615407700845
              ],
              [
                1699.0412218427255,
                303.56990285886263
              ],
              [
                1699.04170497555,
                303.57020145136914
              ],
              [
                1699.0419542646005,
                303.57039114011263
              ],
              [
                1699.047662490654,
                303.5739190178291
              ],
              [
                1699.0631759402108,
                303.5854245761676
              ],
              [
                1699.0959241670823,
                303.6050531079734
              ],
              [
                1699.0968703955614,
                303.60572524158044
              ],
              [
                1699.0975368729,
                303.6061071610412
              ],
              [
                1699.102142146363,
                303.6093573409291
              ],
              [
                1699.1045013620417,
                303.61070015538667
              ],
              [
                1699.1058924012511,
                303.6116819809742
              ],
              [
                1699.1075949189676,
                303.6126431983851
              ],
              [
                1699.1092346325968,
                303.61379526568106
              ],
              [
                1699.1140725496664,
                303.6165115318643
              ],
              [
                1699.1226968884225,
                303.62235373085826
              ],
              [
                1699.1333187711955,
                303.6295803395775
              ],
              [
                1699.1483985883915,
                303.63778544668065
              ],
              [
                1699.1733706072202,
                303.6538982046569
              ],
              [
                1699.195488036448,
                303.66528022953537
              ],
              [
                1699.2067089971447,
                303.67221516463235
              ],
              [
                1699.2137453754574,
                303.6756724225719
              ],
              [
                1699.231522932598,
                303.6863278802592
              ],
              [
                1699.2661313440835,
                303.7026964398415
              ],
              [
                1699.2709000286284,
                303.7054106717823
              ],
              [
                1699.2757263905307,
                303.70756784804723
              ],
              [
                1699.281109918375,
                303.71060731168734
              ],
              [
                1699.2836978455741,
                303.71174827289707
              ],
              [
                1699.2850814357203,
                303.7125250946307
              ],
              [
                1699.2873466898327,
                303.71351157867997
              ],
              [
                1699.3023023599224,
                303.72166424373466
              ],
              [
                1699.303471333371,
                303.72216236350994
              ],
              [
                1699.3073539703505,
                303.72427495226657
              ],
              [
                1699.3227324360278,
                303.73076247463484
              ],
              [
                1699.347121243924,
                303.743313391623
              ],
              [
                1699.3693601886623,
                303.7521322893618
              ],
              [
                1699.380540302948,
                303.75762553278366
              ],
              [
                1699.3889900904228,
                303.76080429927003
              ],
              [
                1699.4089495415199,
                303.77024441658506
              ],
              [
                1699.4440757641125,
                303.7828127799969
              ],
              [
                1699.4481772966278,
                303.78464598868925
              ],
              [
                1699.451785676899,
                303.7858545674725
              ],
              [
                1699.4584561703352,
                303.78879544396347
              ],
              [
                1699.4645792241367,
                303.79081321818984
              ],
              [
                1699.4793701490455,
                303.79711588674115
              ],
              [
                1699.4819770477116,
                303.7979410217025
              ],
              [
                1699.4899045793788,
                303.8012853110547
              ],
              [
                1699.5054134134475,
                303.80608446607374
              ],
              [
                1699.5287683599738,
                303.8153459165398
              ],
              [
                1699.5507975983487,
                303.82167544957684
              ],
              [
                1699.5618179809926,
                303.8258212607135
              ],
              [
                1699.5708028229265,
                303.82823972451337
              ],
              [
                1699.570920492608,
                303.82828339173625
              ],
              [
                1699.571824939118,
                303.82852216570706
              ],
              [
                1699.593747051741,
                303.8363660230269
              ],
              [
                1699.6288376371524,
                303.8451557570979
              ],
              [
                1699.6323028698969,
                303.84631639052884
              ],
              [
                1699.6346334332757,
                303.8468524122608
              ],
              [
                1699.642406327323,
                303.84941387028186
              ],
              [
                1699.6499992966508,
                303.85112338498294
              ],
              [
                1699.6628707829977,
                303.85519746485744
              ],
              [
                1699.6669152452178,
                303.85606064888026
              ],
              [
                1699.6791790776272,
                303.8598556493684
              ],
              [
                1699.6946508498106,
                303.86300796830113
              ],
              [
                1699.7165779356785,
                303.86930815045196
              ],
              [
                1699.7380837843232,
                303.87326699962074
              ],
              [
                1699.7488419977085,
                303.87616280455705
              ],
              [
                1699.758262752328,
                303.8777417673944
              ],
              [
                1699.7588761865336,
                303.8779037140872
              ],
              [
                1699.7608600595158,
                303.87822565235285
              ],
              [
                1699.7841357622178,
                303.884055912369
              ],
              [
                1699.8186501560888,
                303.8891756390681
              ],
              [
                1699.8215411133367,
                303.88984054950356
              ],
              [
                1699.822541045695,
                303.8899701975825
              ],
              [
                1699.8313573634036,
                303.89195514234945
              ],
              [
                1699.8404121950489,
                303.8930890069055
              ],
              [
                1699.8511047728425,
                303.8953710562392
              ],
              [
                1699.85655157454,
                303.89599466909607
              ],
              [
                1699.8733199573358,
                303.89941116786116
              ],
              [
                1699.888085771503,
                303.9009208845965
              ],
              [
                1699.8884510452544,
                303.90099285535746
              ],
              [
                1699.8889600439036,
                303.90104067015557
              ],
              [
                1699.908757123953,
                303.9046849650259
              ],
              [
                1699.929449904387,
                303.9064335402144
              ],
              [
                1699.9398584299972,
                303.9081780581213
              ],
              [
                1699.9495909409827,
                303.9088524581988
              ],
              [
                1699.950761314985,
                303.9090423837534
              ],
              [
                1699.9539512874933,
                303.90924566601007
              ],
              [
                1699.9782821255908,
                303.9128548049069
              ],
              [
                1700.0111546737728,
                303.914469729643
              ],
              [
                1700.023537283769,
                303.9160203054169
              ],
              [
                1700.0339899842281,
                303.91630987051815
              ],
              [
                1700.0423287917235,
                303.9172645936482
              ],
              [
                1700.049111465223,
                303.91738480469405
              ],
              [
                1700.0704219529048,
                303.9195636753968
              ],
              [
                1700.0853240724316,
                303.9196051728826
              ],
              [
                1700.1034713649974,
                303.92113865001096
              ],
              [
                1700.123091303734,
                303.9208749114242
              ],
              [
                1700.1330759136338,
                303.9215667803263
              ],
              [
                1700.1429889455214,
                303.9212921653507
              ],
              [
                1700.1447630662717,
                303.92140522189544
              ],
              [
                1700.1492560612464,
                303.9212542157583
              ],
              [
                1700.17431640625,
                303.9224853515625
              ],
              [
                1700.2040980184252,
                303.9210222747753
              ],
              [
                1700.2171438129287,
                303.92138367485757
              ],
              [
                1700.2288747696318,
                303.92057079541445
              ],
              [
                1700.2347718206672,
                303.9206753103484
              ],
              [
                1700.2427961457156,
                303.9200436806473
              ],
              [
                1700.2685507388464,
                303.9201153986912
              ],
              [
                1700.2829273529308,
                303.91872633520825
              ],
              [
                1700.2988618991715,
                303.91851213705183
              ],
              [
                1700.3171843032533,
                303.91646653233914
              ],
              [
                1700.3266824427935,
                303.91620341088566
              ],
              [
                1700.327413196981,
                303.91611190435026
              ],
              [
                1700.3274148646685,
                303.9161118581513
              ],
              [
                1700.3366430939088,
                303.91495628039337
              ],
              [
                1700.3390486321648,
                303.9148754320858
              ],
              [
                1700.3449044598638,
                303.9141048978801
              ],
              [
                1700.3703506869092,
                303.9128548049069
              ],
              [
                1700.3967589729007,
                303.90893750572513
              ],
              [
                1700.4103612965653,
                303.90799495265253
              ],
              [
                1700.4231979842073,
                303.90584346335464
              ],
              [
                1700.4266515508516,
                303.90557161802764
              ],
              [
                1700.4357987514534,
                303.9039559535293
              ],
              [
                1700.4657619129264,
                303.90106092322577
              ],
              [
                1700.479461045301,
                303.8983491462791
              ],
              [
                1700.4930635108792,
                303.89683049907717
              ],
              [
                1700.5099012074754,
                303.8932605447108
              ],
              [
                1700.5195947850339,
                303.8920466950838
              ],
              [
                1700.5295164978143,
                303.8898128767808
              ],
              [
                1700.5317825231298,
                303.88951470372893
              ],
              [
                1700.5390171350373,
                303.88783550075925
              ],
              [
                1700.5644970502822,
                303.884055912369
              ],
              [
                1700.5650487192952,
                303.88391772647486
              ],
              [
                1700.5653515424697,
                303.88387280690023
              ],
              [
                1700.565735892589,
                303.8837765322072
              ],
              [
                1700.5669384565322,
                303.8835981486971
              ],
              [
                1700.5892142196244,
                303.8780183605142
              ],
              [
                1700.601377728854,
                303.8759796990883
              ],
              [
                1700.615099691711,
                303.8722861371227
              ],
              [
                1700.61619089044,
                303.8720933993526
              ],
              [
                1700.6243225153069,
                303.8698332731107
              ],
              [
                1700.6249203486454,
                303.86972510560224
              ],
              [
                1700.626919778738,
                303.8691593273189
              ],
              [
                1700.6601200781977,
                303.8625872463844
              ],
              [
                1700.6733667275985,
                303.858602333359
              ],
              [
                1700.6842223340857,
                303.85630071095136
              ],
              [
                1700.6986350253674,
                303.85173678341005
              ],
              [
                1700.7085458211145,
                303.84950542301624
              ],
              [
                1700.7190014020805,
                303.8460599197626
              ],
              [
                1700.721143908895,
                303.84556262925804
              ],
              [
                1700.7279519392237,
                303.8432663708679
              ],
              [
                1700.757327167009,
                303.83590825935505
              ],
              [
                1700.778828035546,
                303.8282151255793
              ],
              [
                1700.78840174557,
                303.82563815524475
              ],
              [
                1700.810176037377,
                303.81744677892107
              ],
              [
                1700.8412207104495,
                303.80810778923745
              ],
              [
                1700.8580168537737,
                303.80126688143093
              ],
              [
                1700.870513549488,
                303.79730967367357
              ],
              [
                1700.8771851502877,
                303.7944541920033
              ],
              [
                1700.880731097306,
                303.7933189474198
              ],
              [
                1700.8859693837921,
                303.7910377525481
              ],
              [
                1700.8924959781023,
                303.78888699669784
              ],
              [
                1700.9033036944097,
                303.7841225481122
              ],
              [
                1700.905343820527,
                303.7834344406145
              ],
              [
                1700.9106520478342,
                303.78104773977583
              ],
              [
                1700.9421246772301,
                303.7697866529132
              ],
              [
                1700.9625677222707,
                303.76011781269705
              ],
              [
                1700.9696794236145,
                303.7574424273149
              ],
              [
                1700.9893657391258,
                303.74776974236556
              ],
              [
                1701.0162517927643,
                303.7368193110272
              ],
              [
                1701.0362630547434,
                303.72636797792245
              ],
              [
                1701.0501588044049,
                303.7204205209862
              ],
              [
                1701.0579459923467,
                303.7161445296369
              ],
              [
                1701.0656265720922,
                303.7127997528338
              ],
              [
                1701.0675769404806,
                303.7117047113889
              ],
              [
                1701.06972015975,
                303.71075989957797
              ],
              [
                1701.080539121354,
                303.70466261205553
              ],
              [
                1701.0826420514977,
                303.7037170863937
              ],
              [
                1701.0865715768925,
                303.70146835738626
              ],
              [
                1701.119551286152,
                303.68587011658735
              ],
              [
                1701.1386727279862,
                303.6744091654132
              ],
              [
                1701.1435107294178,
                303.6720320591636
              ],
              [
                1701.1610188157265,
                303.6612114667469
              ],
              [
                1701.1837724586032,
                303.649327863339
              ],
              [
                1701.1845511069357,
                303.6488223371832
              ],
              [
                1701.1867290104092,
                303.6476836986818
              ],
              [
                1701.2090579283458,
                303.63316806420244
              ],
              [
                1701.2214431890911,
                303.62636724364955
              ],
              [
                1701.230022718649,
                303.6204989367755
              ],
              [
                1701.2414733752157,
                303.6140699238842
              ],
              [
                1701.2422336765192,
                303.6135357341018
              ],
              [
                1701.2425799217256,
                303.61334059924
              ],
              [
                1701.2543197761424,
                303.60509299229994
              ],
              [
                1701.2878982785392,
                303.58496681249574
              ],
              [
                1701.3054619956085,
                303.57194067213663
              ],
              [
                1701.308265461962,
                303.5702080346439
              ],
              [
                1701.3220969328645,
                303.5596834073928
              ],
              [
                1701.345467041702,
                303.54449091313086
              ],
              [
                1701.3654850537448,
                303.5285945664308
              ],
              [
                1701.3660514066248,
                303.5282164195553
              ],
              [
                1701.3687981494195,
                303.5259636299829
              ],
              [
                1701.371252896312,
                303.52401431016136
              ],
              [
                1701.377490234375,
                303.5197692871094
              ],
              [
                1701.3784345492186,
                303.51898682476065
              ],
              [
                1701.3827316074203,
                303.51604768270016
              ],
              [
                1701.3902576101343,
                303.5097388874075
              ],
              [
                1701.400756767567,
                303.502404050329
              ],
              [
                1701.4019889965477,
                303.50135084662946
              ],
              [
                1701.4048281984608,
                303.4993562204125
              ],
              [
                1701.405202873822,
                303.4990331288103
              ],
              [
                1701.4064835984927,
                303.4981332881416
              ],
              [
                1701.415499042245,
                303.4903316363884
              ],
              [
                1701.4455443808272,
                303.4680484946161
              ],
              [
                1701.4613499720663,
                303.453723141742
              ],
              [
                1701.4623985409087,
                303.45292526592016
              ],
              [
                1701.4699192762293,
                303.4459563771732
              ],
              [
                1701.4725318905657,
                303.4435884415658
              ],
              [
                1701.4937359109795,
                303.4267502830506
              ],
              [
                1701.5167581151095,
                303.4046116532044
              ],
              [
                1701.517861170196,
                303.4037069631106
              ],
              [
                1701.5193214228652,
                303.40224750332794
              ],
              [
                1701.526626297877,
                303.3961946601499
              ],
              [
                1701.531187823589,
                303.3916018230133
              ],
              [
                1701.5324843856583,
                303.3905149585795
              ],
              [
                1701.5367172666326,
                303.3861966709866
              ],
              [
                1701.5488257354696,
                303.37584738982724
              ],
              [
                1701.5525765896405,
                303.3719492185445
              ],
              [
                1701.5549922837502,
                303.3698661072397
              ],
              [
                1701.5563153078713,
                303.3684741332226
              ],
              [
                1701.5589795137903,
                303.36616862199656
              ],
              [
                1701.565068062439,
                303.35971854415646
              ],
              [
                1701.590971374873,
                303.33624115026373
              ],
              [
                1701.612102745993,
                303.3129262750788
              ],
              [
                1701.6302068877328,
                303.2955169562145
              ],
              [
                1701.6533797297886,
                303.2685711617818
              ],
              [
                1701.663110077751,
                303.25877402233886
              ],
              [
                1701.6723208556557,
                303.2475019226015
              ],
              [
                1701.683881451376,
                303.23548727735164
              ],
              [
                1701.6896317904834,
                303.2282098123551
              ],
              [
                1701.6915961794384,
                303.2261430485364
              ],
              [
                1701.6936483823513,
                303.22350331126864
              ],
              [
                1701.6974106311927,
                303.2195176655457
              ],
              [
                1701.7010418207824,
                303.2147971278498
              ],
              [
                1701.7227787192255,
                303.1908141562179
              ],
              [
                1701.7386329785818,
                303.1694371621121
              ],
              [
                1701.7536569697822,
                303.15196699693024
              ],
              [
                1701.7747090879334,
                303.12219976266266
              ],
              [
                1701.7856616204472,
                303.1087961131392
              ],
              [
                1701.7947277152928,
                303.09520341050745
              ],
              [
                1701.804642877801,
                303.0826550639248
              ],
              [
                1701.8117807097483,
                303.0715503512508
              ],
              [
                1701.8132971736675,
                303.0695997320904
              ],
              [
                1701.815835998999,
                303.065564973435
              ],
              [
                1701.8203694634817,
                303.0596714805573
              ],
              [
                1701.822040745329,
                303.0569748074807
              ],
              [
                1701.839697037105,
                303.03316805392984
              ],
              [
                1701.850937570919,
                303.0144143562441
              ],
              [
                1701.8629798433674,
                302.99738684658877
              ],
              [
                1701.8814929853706,
                302.96511713466055
              ],
              [
                1701.8931316298201,
                302.9476674349019
              ],
              [
                1701.9016910033915,
                302.9316720261924
              ],
              [
                1701.9099645621957,
                302.9188004015885
              ],
              [
                1701.9177992183438,
                302.9035227184254
              ],
              [
                1701.918899038707,
                302.90177485902194
              ],
              [
                1701.921113038166,
                302.897333662438
              ],
              [
                1701.925041799662,
                302.89077891987864
              ],
              [
                1701.92660583665,
                302.8882552902215
              ],
              [
                1701.9268097358195,
                302.8878374027115
              ],
              [
                1701.9277044694625,
                302.88639371795585
              ],
              [
                1701.9278545533311,
                302.8860861238918
              ],
              [
                1701.9406003411966,
                302.8648210615426
              ],
              [
                1701.9479598087958,
                302.84926077465815
              ],
              [
                1701.9571957975204,
                302.83316179505414
              ],
              [
                1701.9728092200264,
                302.79876919957013
              ],
              [
                1701.984512245301,
                302.77689906259775
              ],
              [
                1701.9921806779676,
                302.7584778878881
              ],
              [
                1701.9988475018542,
                302.74547749308886
              ],
              [
                1702.006626568125,
                302.7257968557724
              ],
              [
                1702.0073637889582,
                302.7243180195278
              ],
              [
                1702.0086353020506,
                302.720973222714
              ],
              [
                1702.0155093726182,
                302.70643922162566
              ],
              [
                1702.016138233757,
                302.7051503825585
              ],
              [
                1702.0162062710924,
                302.70496575360073
              ],
              [
                1702.0245168775225,
                302.6873944526208
              ],
              [
                1702.0287812197118,
                302.6754764146041
              ],
              [
                1702.0354605038715,
                302.6607635662109
              ],
              [
                1702.0478793910984,
                302.62467796158046
              ],
              [
                1702.0589464936786,
                302.59809247286023
              ],
              [
                1702.0653277114598,
                302.577285984185
              ],
              [
                1702.0704486197048,
                302.56433034987185
              ],
              [
                1702.0773772239286,
                302.54014318437453
              ],
              [
                1702.0778218835594,
                302.5389734786709
              ],
              [
                1702.0784379966483,
                302.5366950201805
              ],
              [
                1702.0906384839643,
                302.5025969423996
              ],
              [
                1702.092630373695,
                302.4946448728418
              ],
              [
                1702.097072583206,
                302.48173712892145
              ],
              [
                1702.1060746440346,
                302.44442723837216
              ],
              [
                1702.1157363258474,
                302.4129245252361
              ],
              [
                1702.1204329460209,
                302.3898393364096
              ],
              [
                1702.1240887611089,
                302.37707719822066
              ],
              [
                1702.129350730535,
                302.3484137567497
              ],
              [
                1702.129580773307,
                302.3475630315884
              ],
              [
                1702.1297951980964,
                302.34627457694637
              ],
              [
                1702.1383283733064,
                302.3122082319229
              ],
              [
                1702.1384185577326,
                302.3116002579062
              ],
              [
                1702.1388166545564,
                302.3100109662979
              ],
              [
                1702.1393118992273,
                302.30667229792004
              ],
              [
                1702.141479890965,
                302.2976868515891
              ],
              [
                1702.1449420111246,
                302.2734787848286
              ],
              [
                1702.1449675026286,
                302.273368554632
              ],
              [
                1702.1450532201482,
                302.2727011816992
              ],
              [
                1702.1469200138085,
                302.259648062953
              ],
              [
                1702.1543491631571,
                302.22313173649013
              ],
              [
                1702.1569741200753,
                302.19794131094335
              ],
              [
                1702.159259135813,
                302.18549418144653
              ],
              [
                1702.1617504683143,
                302.15594957294786
              ],
              [
                1702.1639266642187,
                302.1407330312594
              ],
              [
                1702.1676155470943,
                302.1158646029248
              ],
              [
                1702.1676847673664,
                302.11445537257237
              ],
              [
                1702.1682844653578,
                302.11026212440476
              ],
              [
                1702.1696685806567,
                302.08105278366156
              ],
              [
                1702.1703137556156,
                302.07602962963216
              ],
              [
                1702.1705500006299,
                302.06766023624533
              ],
              [
                1702.1744228919688,
                302.03049399544057
              ],
              [
                1702.17461098055,
                302.0034372933132
              ],
              [
                1702.1756261439548,
                301.991398512722
              ],
              [
                1702.1752514187317,
                301.9632367174876
              ],
              [
                1702.17724609375,
                301.921142578125
              ],
              [
                1702.1772438563191,
                301.92109824246677
              ],
              [
                1702.17724609375,
                301.9210510253906
              ],
              [
                1702.17724609375,
                301.9209899902344
              ],
              [
                1702.1772164636068,
                301.9204030340011
              ],
              [
                1702.17724609375,
                301.9197998046875
              ],
              [
                1702.1772164612692,
                301.92040298769285
              ],
              [
                1702.175606759191,
                301.8885157078292
              ],
              [
                1702.1759276146825,
                301.877148840095
              ],
              [
                1702.175527806888,
                301.87155104581103
              ],
              [
                1702.1757692595797,
                301.836817871049
              ],
              [
                1702.173188422123,
                301.808195945056
              ],
              [
                1702.1730345403387,
                301.7966312383563
              ],
              [
                1702.1692502700325,
                301.7625972838615
              ],
              [
                1702.1670786744266,
                301.71957921376617
              ],
              [
                1702.1625544485848,
                301.68990828648066
              ],
              [
                1702.1617535235591,
                301.67869436420347
              ],
              [
                1702.1612459631576,
                301.67575204558403
              ],
              [
                1702.158375639669,
                301.6439196703018
              ],
              [
                1702.1527376228378,
                301.6140902698888
              ],
              [
                1702.1515089069783,
                301.60303977500746
              ],
              [
                1702.144380979914,
                301.5692944130462
              ],
              [
                1702.138450443619,
                301.52931398487397
              ],
              [
                1702.13747047036,
                301.5254017123227
              ],
              [
                1702.1366797928724,
                301.52021626511856
              ],
              [
                1702.1366630846785,
                301.5201514235125
              ],
              [
                1702.1364356522474,
                301.5186598686342
              ],
              [
                1702.129924307712,
                301.4933904685229
              ],
              [
                1702.1283627418086,
                301.4851285963093
              ],
              [
                1702.127931752892,
                301.48263016122525
              ],
              [
                1702.1278020654565,
                301.482162191648
              ],
              [
                1702.1224051507081,
                301.4536084047682
              ],
              [
                1702.1134751739075,
                301.42297871691335
              ],
              [
                1702.1112534199276,
                301.41246038646966
              ],
              [
                1702.1011896443651,
                301.3805605358909
              ],
              [
                1702.097972107689,
                301.3677154094469
              ],
              [
                1702.0927600346547,
                301.3466177562913
              ],
              [
                1702.0925094621464,
                301.3459073059896
              ],
              [
                1702.0907605542768,
                301.3389252743973
              ],
              [
                1702.0884793204832,
                301.33254965305395
              ],
              [
                1702.086114386638,
                301.3233717545036
              ],
              [
                1702.078073733711,
                301.3015523025972
              ],
              [
                1702.0681951262252,
                301.26766882557473
              ],
              [
                1702.05580022984,
                301.2366865462296
              ],
              [
                1702.0526499126217,
                301.2267007662488
              ],
              [
                1702.040010103652,
                301.19705544141544
              ],
              [
                1702.0283390976886,
                301.1639645418507
              ],
              [
                1702.0275608396812,
                301.1622939048277
              ],
              [
                1702.024638947835,
                301.15412776417605
              ],
              [
                1702.0205982484226,
                301.1455844230683
              ],
              [
                1702.016382374382,
                301.13414405103526
              ],
              [
                1702.0074655334024,
                301.115869153283
              ],
              [
                1701.9962539512705,
                301.0878446858959
              ],
              [
                1701.980289732502,
                301.0569876756642
              ],
              [
                1701.9762542540893,
                301.0475228911344
              ],
              [
                1701.961687250079,
                301.02088725486135
              ],
              [
                1701.9465527691339,
                300.9883990260834
              ],
              [
                1701.9450492889284,
                300.98584956892006
              ],
              [
                1701.9407224115091,
                300.97670115525426
              ],
              [
                1701.934479067192,
                300.96628476455527
              ],
              [
                1701.9279486100875,
                300.9529007156379
              ],
              [
                1701.918812697841,
                300.9381595942515
              ],
              [
                1701.9072562947488,
                300.91582238792637
              ],
              [
                1701.887691788907,
                300.88558721731
              ],
              [
                1701.882791076395,
                300.87662630840555
              ],
              [
                1701.8667301355863,
                300.85304347956816
              ],
              [
                1701.8481680463703,
                300.8215676735389
              ],
              [
                1701.8457499016092,
                300.818249095185
              ],
              [
                1701.8398191074175,
                300.80835416286703
              ],
              [
                1701.8309710006718,
                300.7964238719905
              ],
              [
                1701.8217122369192,
                300.78148452530206
              ],
              [
                1701.8130033061232,
                300.77016293630237
              ],
              [
                1701.8020367823308,
                300.7532151676942
              ],
              [
                1701.7789173067035,
                300.7241048988255
              ],
              [
                1701.773146901322,
                300.7156320151971
              ],
              [
                1701.7560038138633,
                300.6950846639535
              ],
              [
                1701.7341075875725,
                300.66503503922934
              ],
              [
                1701.7305969545864,
                300.66108513787907
              ],
              [
                1701.722900789538,
                300.65070806057895
              ],
              [
                1701.711094972589,
                300.637682348851
              ],
              [
                1701.6987534046302,
                300.62163834031367
              ],
              [
                1701.6910919888203,
                300.6135220007409
              ],
              [
                1701.6815821692824,
                300.6015479660307
              ],
              [
                1701.6585282288847,
                300.57768111503765
              ],
              [
                1701.6570973669766,
                300.5759384493244
              ],
              [
                1701.6540892356256,
                300.57293195132553
              ],
              [
                1701.6483617314893,
                300.56606708293356
              ],
              [
                1701.6305185499475,
                300.54848441112114
              ],
              [
                1701.6054410589613,
                300.520269096134
              ],
              [
                1701.6006754050347,
                300.51585313006086
              ],
              [
                1701.5910934451856,
                300.50528106653314
              ],
              [
                1701.5848816167832,
                300.4996509934462
              ],
              [
                1701.5844567033937,
                300.49918568746585
              ],
              [
                1701.5759383137677,
                300.4915306674179
              ],
              [
                1701.5603222872278,
                300.4749873838628
              ],
              [
                1701.5542896202196,
                300.469766923458
              ],
              [
                1701.5470220866093,
                300.46224312757886
              ],
              [
                1701.5268275557285,
                300.44503078859594
              ],
              [
                1701.5263936371541,
                300.44459246946667
              ],
              [
                1701.523399904997,
                300.4421093101692
              ],
              [
                1701.5220115292677,
                300.4409259603887
              ],
              [
                1701.5182273811336,
                300.4371438669675
              ],
              [
                1701.5140585747126,
                300.43372474681826
              ],
              [
                1701.5096191856658,
                300.4293501726719
              ],
              [
                1701.4914215770214,
                300.4146159850045
              ],
              [
                1701.4633751034087,
                300.38862746845484
              ],
              [
                1701.4572109620303,
                300.38393705694426
              ],
              [
                1701.4456664511397,
                300.3734737221808
              ],
              [
                1701.439369425973,
                300.368803530026
              ],
              [
                1701.4377297748877,
                300.3673300635046
              ],
              [
                1701.4257486723,
                300.3585320536906
              ],
              [
                1701.4078263719302,
                300.34302271771776
              ],
              [
                1701.4039513889088,
                300.3403001440121
              ],
              [
                1701.3996184473067,
                300.3366070619549
              ],
              [
                1701.3781804953533,
                300.3216566750325
              ],
              [
                1701.375537109375,
                300.3194641113281
              ],
              [
                1701.3709870850578,
                300.31638213992267
              ],
              [
                1701.3664176175623,
                300.31263441052283
              ],
              [
                1701.3610036465234,
                300.3090195684265
              ],
              [
                1701.3582352718465,
                300.3067780787439
              ],
              [
                1701.3399876232945,
                300.29473960614445
              ],
              [
                1701.309242024462,
                300.2713446997311
              ],
              [
                1701.3015588152034,
                300.2665962152666
              ],
              [
                1701.2880203488517,
                300.25655540430114
              ],
              [
                1701.287426997844,
                300.25619976339357
              ],
              [
                1701.2871658566642,
                300.2560060878949
              ],
              [
                1701.2815244247295,
                300.25262474372033
              ],
              [
                1701.2787269478074,
                300.2505704895951
              ],
              [
                1701.262896035357,
                300.24119426548214
              ],
              [
                1701.2428161486532,
                300.2270860819752
              ],
              [
                1701.241563400433,
                300.22638272191807
              ],
              [
                1701.2407536120595,
                300.2258179921558
              ],
              [
                1701.2203700039095,
                300.21436124840324
              ],
              [
                1701.2161799778385,
                300.21152312279366
              ],
              [
                1701.2096572949586,
                300.2079674647416
              ],
              [
                1701.2031310976604,
                300.20361000280604
              ],
              [
                1701.19643549255,
                300.20003434110055
              ],
              [
                1701.1956459045869,
                300.1995134283356
              ],
              [
                1701.1793407798682,
                300.1909052320063
              ],
              [
                1701.1774827070979,
                300.1899129632656
              ],
              [
                1701.1444872919178,
                300.1695206752114
              ],
              [
                1701.1355350117103,
                300.16512205699473
              ],
              [
                1701.118818864277,
                300.1551027838033
              ],
              [
                1701.1124618561855,
                300.15209614289597
              ],
              [
                1701.1089951088672,
                300.1500428816009
              ],
              [
                1701.0911036292694,
                300.1417062150466
              ],
              [
                1701.0717953550625,
                300.1308538699533
              ],
              [
                1701.0700011230388,
                300.13005845556535
              ],
              [
                1701.0669693455297,
                300.1283562530256
              ],
              [
                1701.0502882295011,
                300.121091878227
              ],
              [
                1701.0471849447651,
                300.11940020939034
              ],
              [
                1701.0385698357386,
                300.1157291626463
              ],
              [
                1701.0299414466472,
                300.11112133408614
              ],
              [
                1701.0026449197649,
                300.09982776708387
              ],
              [
                1700.9706559861145,
                300.0841103070601
              ],
              [
                1700.9611834747068,
                300.08054679710267
              ],
              [
                1700.9413922553551,
                300.07118624747744
              ],
              [
                1700.9343572124565,
                300.0686690688786
              ],
              [
                1700.9301855238432,
                300.0667252398763
              ],
              [
                1700.915591061753,
                300.06160577900357
              ],
              [
                1700.9023106385578,
                300.05571833549095
              ],
              [
                1700.8929045164396,
                300.05255364152157
              ],
              [
                1700.8820738707434,
                300.0478370584396
              ],
              [
                1700.8706882635386,
                300.0441919253219
              ],
              [
                1700.870117155642,
                300.04394856638385
              ],
              [
                1700.8593408161917,
                300.04053764191934
              ],
              [
                1700.8485177282196,
                300.0360597363707
              ],
              [
                1700.8198554587518,
                300.0273799260962
              ],
              [
                1700.78937830807,
                300.01591457913025
              ],
              [
                1700.779447507762,
                300.01324149025174
              ],
              [
                1700.756594745134,
                300.0050646410356
              ],
              [
                1700.7489348568993,
                300.00314593891625
              ],
              [
                1700.744037772946,
                300.0014281346194
              ],
              [
                1700.7328771090051,
                299.9987123491286
              ],
              [
                1700.7265967781445,
                299.9965993290178
              ],
              [
                1700.7092177001823,
                299.9924966852324
              ],
              [
                1700.6900096341176,
                299.98634717063214
              ],
              [
                1700.6711545098146,
                299.98234873881137
              ],
              [
                1700.6604862891352,
                299.9791180758812
              ],
              [
                1700.6313420724052,
                299.97337572114674
              ],
              [
                1700.602354291354,
                299.9655730352867
              ],
              [
                1700.5920217613902,
                299.96384125460804
              ],
              [
                1700.5662060346572,
                299.9573747516935
              ],
              [
                1700.5579890226638,
                299.9561558731049
              ],
              [
                1700.552362827012,
                299.95478682009866
              ],
              [
                1700.5306952362325,
                299.9517328886057
              ],
              [
                1700.5294110351008,
                299.9514375266683
              ],
              [
                1700.5192797083912,
                299.9501239307692
              ],
              [
                1700.5190248632443,
                299.9500880117034
              ],
              [
                1700.5109924918752,
                299.94838466099816
              ],
              [
                1700.498382531845,
                299.9456933968858
              ],
              [
                1700.4982063848606,
                299.9456732295417
              ],
              [
                1700.492729433283,
                299.94451178307673
              ],
              [
                1700.4751882613048,
                299.94260836223015
              ],
              [
                1700.4626231734956,
                299.9401326329238
              ],
              [
                1700.4351910394719,
                299.9375556870853
              ],
              [
                1700.4113378590653,
                299.93355778172247
              ],
              [
                1700.4006544077695,
                299.93281748763053
              ],
              [
                1700.3720596712842,
                299.9285758591556
              ],
              [
                1700.3633664608976,
                299.9281487891149
              ],
              [
                1700.3570254291578,
                299.9272550544711
              ],
              [
                1700.3261972704313,
                299.92597963663695
              ],
              [
                1700.307158512964,
                299.9237998594768
              ],
              [
                1700.3008215340626,
                299.9236875475895
              ],
              [
                1700.292239098766,
                299.92275625370115
              ],
              [
                1700.2764344939128,
                299.92264226405143
              ],
              [
                1700.26183989232,
                299.92127126251705
              ],
              [
                1700.2366486960523,
                299.9214529523261
              ],
              [
                1700.2181203754287,
                299.92016905951743
              ],
              [
                1700.2071317642333,
                299.9204734706431
              ],
              [
                1700.176025390625,
                299.9189453125
              ],
              [
                1700.17578125,
                299.9189453125
              ],
              [
                1700.1678806713837,
                299.91942978668794
              ],
              [
                1700.1599259533018,
                299.9191006853168
              ],
              [
                1700.1321043548674,
                299.920697330153
              ],
              [
                1700.1147154840203,
                299.9203891427766
              ],
              [
                1700.1020682803526,
                299.9213846594617
              ],
              [
                1700.0905770998675,
                299.9213017800952
              ],
              [
                1700.0904726515953,
                299.92131159185607
              ],
              [
                1700.0891122561175,
                299.9213017800952
              ],
              [
                1700.0750995996025,
                299.92261811432064
              ],
              [
                1700.0601778934215,
                299.922725736123
              ],
              [
                1700.0376716367114,
                299.9251679263172
              ],
              [
                1700.024513846269,
                299.9255324289581
              ],
              [
                1700.0118160032434,
                299.9271224788573
              ],
              [
                1699.9797469693408,
                299.9286979294681
              ],
              [
                1699.9715775127386,
                299.9299097538809
              ],
              [
                1699.9629819160452,
                299.93040304383715
              ],
              [
                1699.9463971777166,
                299.93301145468223
              ],
              [
                1699.9314147226087,
                299.9339301991342
              ],
              [
                1699.923130689663,
                299.93546961940916
              ],
              [
                1699.922835753836,
                299.93549283509736
              ],
              [
                1699.9055570360395,
                299.9385447645494
              ],
              [
                1699.888328974942,
                299.9401631505019
              ],
              [
                1699.8746627774105,
                299.94285628039944
              ],
              [
                1699.8596875589044,
                299.9444812654986
              ],
              [
                1699.8402141152787,
                299.94861081857937
              ],
              [
                1699.8323339259036,
                299.94959759202555
              ],
              [
                1699.819744204396,
                299.95243209761503
              ],
              [
                1699.7856006059678,
                299.957496822006
              ],
              [
                1699.7769709763204,
                299.959658431704
              ],
              [
                1699.768109321778,
                299.9610521730676
              ],
              [
                1699.7469628778815,
                299.9665571545837
              ],
              [
                1699.7332964142474,
                299.9689710537724
              ],
              [
                1699.714021891213,
                299.9743282678623
              ],
              [
                1699.6907099999273,
                299.97866031220934
              ],
              [
                1699.6720904706858,
                299.98426324492027
              ],
              [
                1699.66240735807,
                299.986316653054
              ],
              [
                1699.6462092137272,
                299.9915025330274
              ],
              [
                1699.643382889823,
                299.99213886409314
              ],
              [
                1699.6309649532154,
                299.99623103660116
              ],
              [
                1699.595211895491,
                300.0051867113481
              ],
              [
                1699.5862329670604,
                300.00839942331186
              ],
              [
                1699.5772040224958,
                300.0107498976129
              ],
              [
                1699.5595342785698,
                300.01726698098554
              ],
              [
                1699.5478528815916,
                300.0205137406781
              ],
              [
                1699.5343328864415,
                300.0257168426412
              ],
              [
                1699.509288534304,
                300.03325311372475
              ],
              [
                1699.4854429161044,
                300.0429723005266
              ],
              [
                1699.470343121444,
                300.0478065408615
              ],
              [
                1699.4438375474751,
                300.05934931912844
              ],
              [
                1699.4104143852699,
                300.07130831778994
              ],
              [
                1699.401213608217,
                300.07565996124686
              ],
              [
                1699.3921232736736,
                300.07901272449857
              ],
              [
                1699.3778960777063,
                300.0859207596988
              ],
              [
                1699.3682226389383,
                300.08964353383334
              ],
              [
                1699.3562508230627,
                300.0956294417711
              ],
              [
                1699.3339609050886,
                300.10471454389653
              ],
              [
                1699.3142071225286,
                300.11504209865126
              ],
              [
                1699.312218365328,
                300.11587248815323
              ],
              [
                1699.3046840102531,
                300.11994858881775
              ],
              [
                1699.2854476466578,
                300.12832573544745
              ],
              [
                1699.2618576987377,
                300.14157039774267
              ],
              [
                1699.232987776348,
                300.1552248541158
              ],
              [
                1699.223707457758,
                300.1607872630157
              ],
              [
                1699.214667665632,
                300.16517654691626
              ],
              [
                1699.2037573029895,
                300.17187620180766
              ],
              [
                1699.1960693296412,
                300.1757201884818
              ],
              [
                1699.1856295740597,
                300.1822642454987
              ],
              [
                1699.1661762630283,
                300.19243470952136
              ],
              [
                1699.1437447448284,
                300.20701704261654
              ],
              [
                1699.1357307522135,
                300.2113526281177
              ],
              [
                1699.12692632197,
                300.2173281113411
              ],
              [
                1699.1096008435343,
                300.22705556439706
              ],
              [
                1699.0890190612408,
                300.24151638112284
              ],
              [
                1699.0646407839608,
                300.2561281582074
              ],
              [
                1699.0554359912862,
                300.2629548977228
              ],
              [
                1699.0465636061808,
                300.26840310510306
              ],
              [
                1699.038757821355,
                300.2743293438023
              ],
              [
                1699.0329873495252,
                300.27794650671126
              ],
              [
                1699.0240501852863,
                300.28482835798843
              ],
              [
                1699.0074382317355,
                300.29562749507227
              ],
              [
                1698.9867349647827,
                300.31206800417993
              ],
              [
                1698.9845375561256,
                300.3135324388676
              ],
              [
                1698.9814320993908,
                300.31607365898896
              ],
              [
                1698.9696988579688,
                300.3240368985552
              ],
              [
                1698.9598900162084,
                300.3322428025554
              ],
              [
                1698.9445906202573,
                300.34299220013963
              ],
              [
                1698.927040341583,
                300.35817960146414
              ],
              [
                1698.9069946816728,
                300.37304647608704
              ],
              [
                1698.8980308033974,
                300.38117086178534
              ],
              [
                1698.8894465249598,
                300.3876881414974
              ],
              [
                1698.8885651928545,
                300.38850597368435
              ],
              [
                1698.8875531214278,
                300.3892745627257
              ],
              [
                1698.8834402537996,
                300.3931016995893
              ],
              [
                1698.880487080407,
                300.3953757206926
              ],
              [
                1698.8730005696611,
                300.4023847335694
              ],
              [
                1698.859169362458,
                300.41336812515254
              ],
              [
                1698.8424786620137,
                300.4294182494986
              ],
              [
                1698.8400830520634,
                300.4313632004281
              ],
              [
                1698.8378501519037,
                300.433567916737
              ],
              [
                1698.8329716279918,
                300.437560051932
              ],
              [
                1698.8275992675558,
                300.4429149094239
              ],
              [
                1698.8157939735347,
                300.4527910101704
              ],
              [
                1698.8053152957855,
                300.4635162263754
              ],
              [
                1698.7920947049597,
                300.4749568662847
              ],
              [
                1698.7775298595025,
                300.4903865511485
              ],
              [
                1698.761567687627,
                300.5048538204394
              ],
              [
                1698.7609681357253,
                300.50551532402443
              ],
              [
                1698.7599807735644,
                300.50641021692377
              ],
              [
                1698.7519087123342,
                300.515316364045
              ],
              [
                1698.7448449628757,
                300.52187117083366
              ],
              [
                1698.7438600714352,
                300.5229849123812
              ],
              [
                1698.7413099496002,
                300.5253578711445
              ],
              [
                1698.733626531181,
                300.53409272023396
              ],
              [
                1698.7226983857047,
                300.5446014519886
              ],
              [
                1698.7075092794776,
                300.5622636158711
              ],
              [
                1698.70194307486,
                300.5677595633927
              ],
              [
                1698.6999667198315,
                300.5701316352083
              ],
              [
                1698.6942628642012,
                300.5758169078961
              ],
              [
                1698.6870961768652,
                300.58451676101737
              ],
              [
                1698.6755653183563,
                300.5963189133019
              ],
              [
                1698.664812770278,
                300.6097966177093
              ],
              [
                1698.6536635875573,
                300.62160782273554
              ],
              [
                1698.6510583486506,
                300.6249946270217
              ],
              [
                1698.6500208883099,
                300.6260974373624
              ],
              [
                1698.6418726992363,
                300.6367223957061
              ],
              [
                1698.628173429212,
                300.6518372109696
              ],
              [
                1698.620010565163,
                300.6628435590265
              ],
              [
                1698.6192812446757,
                300.66366105158556
              ],
              [
                1698.618766553603,
                300.6643649956939
              ],
              [
                1698.6138091400896,
                300.6699719519459
              ],
              [
                1698.612945987642,
                300.67116212925345
              ],
              [
                1698.6127701097466,
                300.6713618299135
              ],
              [
                1698.6122606043903,
                300.67206686107687
              ],
              [
                1698.6093715955092,
                300.67535121385026
              ],
              [
                1698.6049647870009,
                300.68150418238577
              ],
              [
                1698.5992483036553,
                300.6881514112729
              ],
              [
                1698.5858447626392,
                300.70710372488696
              ],
              [
                1698.5776775918416,
                300.7169061720096
              ],
              [
                1698.5759670934729,
                300.7194196328301
              ],
              [
                1698.5697413111643,
                300.7269772935888
              ],
              [
                1698.5613445259823,
                300.7394881477559
              ],
              [
                1698.5504244458104,
                300.75317584406673
              ],
              [
                1698.540057976241,
                300.7692417027849
              ],
              [
                1698.5300989602013,
                300.78216652564663
              ],
              [
                1698.5291057946272,
                300.78376656137465
              ],
              [
                1698.5275728543463,
                300.7857654627845
              ],
              [
                1698.5212102879946,
                300.79606031139764
              ],
              [
                1698.5112551113325,
                300.80948331325766
              ],
              [
                1698.5048522616917,
                300.82016582251197
              ],
              [
                1698.504673198491,
                300.8204107276441
              ],
              [
                1698.5045262137562,
                300.82065919078303
              ],
              [
                1698.5005070777902,
                300.82620106746543
              ],
              [
                1698.4967552702542,
                300.8325907908756
              ],
              [
                1698.4930543333082,
                300.8377581923041
              ],
              [
                1698.4913703049092,
                300.8406885402181
              ],
              [
                1698.4899254300701,
                300.84273156161436
              ],
              [
                1698.4785219464377,
                300.86260863767893
              ],
              [
                1698.4684573895527,
                300.8773978183458
              ],
              [
                1698.4670155796414,
                300.88003428128695
              ],
              [
                1698.4606009773943,
                300.8895917668622
              ],
              [
                1698.4516216419133,
                300.90629951628364
              ],
              [
                1698.4416310343918,
                300.92178286747435
              ],
              [
                1698.4331903512389,
                300.9382907819964
              ],
              [
                1698.4236115905746,
                300.9537226089666
              ],
              [
                1698.4230148404376,
                300.95494388308504
              ],
              [
                1698.4217879690323,
                300.9569290027188
              ],
              [
                1698.4170745903082,
                300.9666140197161
              ],
              [
                1698.4103518072409,
                300.9778303056449
              ],
              [
                1698.4102386943719,
                300.97806946271277
              ],
              [
                1698.4101076666159,
                300.97828806931676
              ],
              [
                1698.4055535820628,
                300.98791687210536
              ],
              [
                1698.4027902281846,
                300.9926231548231
              ],
              [
                1698.397961069444,
                301.0030319268652
              ],
              [
                1698.395709475917,
                301.006956613149
              ],
              [
                1698.3955730204098,
                301.00725719164586
              ],
              [
                1698.395465335292,
                301.007444894399
              ],
              [
                1698.3951926164684,
                301.0080456280421
              ],
              [
                1698.393518594375,
                301.01095856416106
              ],
              [
                1698.384856192997,
                301.0302691884516
              ],
              [
                1698.3753115030893,
                301.04772240543366
              ],
              [
                1698.3741378440175,
                301.0504727551819
              ],
              [
                1698.367888384432,
                301.062101054959
              ],
              [
                1698.3590466524233,
                301.08329774650275
              ],
              [
                1698.3502802076832,
                301.10044277111854
              ],
              [
                1698.3437559740214,
                301.11715046875264
              ],
              [
                1698.3349650064717,
                301.1351415515855
              ],
              [
                1698.3346740057395,
                301.1359301534029
              ],
              [
                1698.333736971092,
                301.13785556551574
              ],
              [
                1698.3305935966087,
                301.1464064452727
              ],
              [
                1698.32619113029,
                301.15571467823855
              ],
              [
                1698.3230472666728,
                301.16450118843113
              ],
              [
                1698.3215684546958,
                301.16768862077424
              ],
              [
                1698.3176320304976,
                301.1788928498975
              ],
              [
                1698.317200628941,
                301.1798431232422
              ],
              [
                1698.3153572521762,
                301.1851994296413
              ],
              [
                1698.3117573903435,
                301.1932244075099
              ],
              [
                1698.3065326955825,
                301.2088984917924
              ],
              [
                1698.2991175208845,
                301.2262751937275
              ],
              [
                1698.2982115926072,
                301.229140438492
              ],
              [
                1698.2924925319928,
                301.24285100601963
              ],
              [
                1698.284568197896,
                301.26872251818986
              ],
              [
                1698.2772915107505,
                301.28735714945935
              ],
              [
                1698.2726400168328,
                301.304040096005
              ],
              [
                1698.2650627614623,
                301.3245741933258
              ],
              [
                1698.264980623365,
                301.324892542833
              ],
              [
                1698.2643110995054,
                301.32671383967437
              ],
              [
                1698.262536021335,
                301.3336187897801
              ],
              [
                1698.2600695238482,
                301.3405121884598
              ],
              [
                1698.25813170187,
                301.3482484074499
              ],
              [
                1698.2575980314073,
                301.34976739164443
              ],
              [
                1698.2520143707331,
                301.3724534663409
              ],
              [
                1698.2485864063901,
                301.38273735936997
              ],
              [
                1698.245945906138,
                301.3944448983343
              ],
              [
                1698.2405933163732,
                301.41137392040616
              ],
              [
                1698.2399584857942,
                301.4143651293479
              ],
              [
                1698.2351363735534,
                301.43010845036434
              ],
              [
                1698.2289538456105,
                301.4607239640672
              ],
              [
                1698.2233996539244,
                301.48064450672393
              ],
              [
                1698.2206304901642,
                301.49662885137167
              ],
              [
                1698.2142130725194,
                301.52159223010256
              ],
              [
                1698.2134423722218,
                301.52665821215174
              ]
            ],
            [
              [
                1702.1388166545564,
                302.3099804487198
              ],
              [
                1702.1384296581475,
                302.311525424988
              ],
              [
                1702.1388904440828,
                302.30841905853555
              ],
              [
                1702.1393001474958,
                302.3067210040803
              ],
              [
                1702.1388166545564,
                302.3099804487198
              ]
            ],
            [
              [
                1702.1640483383235,
                302.13988225349595
              ],
              [
                1702.167682500078,
                302.11447122605693
              ],
              [
                1702.1676155470943,
                302.11583408534665
              ],
              [
                1702.1640483383235,
                302.13988225349595
              ]
            ]
          ]
        ]
      }
    }
  ]
}