{
  "type": "FeatureCollection",
  "features": [
    {
      "type": "Feature",
      "properties": {
        "image_id": "0027_top_20250709_t1",
        "zone_type": "parking_spot",
        "generated_at": "2025-11-03T11:20:42",
        "source": "merged_t1_polygons"
      },
      "geometry": {
        "type": "MultiPolygon",
        "coordinates": [
          [
            [
              [
                934.458067292176,
                -31.472395438207048
              ],
              [
                934.4521500667594,
                -31.471170391680428
              ],
              [
                934.4330383272451,
                -31.465174855870544
              ],
              [
                934.4016728224175,
                -31.457746066045154
              ],
              [
                934.3971500409457,
                -31.45620297841419
              ],
              [
                934.3848743852154,
                -31.453213344908594
              ],
              [
                934.3668118018005,
                -31.446898184471923
              ],
              [
                934.3459542882997,
                -31.44136000126199
              ],
              [
                934.2968697151099,
                -31.423071013291416
              ],
              [
                934.2674932050696,
                -31.41408217183278
              ],
              [
                934.2428179644181,
                -31.403713014406502
              ],
              [
                934.2377898671903,
                -31.402072884785635
              ],
              [
                934.2353462273105,
                -31.400998572670094
              ],
              [
                934.2195808587991,
                -31.395619726643798
              ],
              [
                934.2176642621569,
                -31.39475223059861
              ],
              [
                934.200965650851,
                -31.388913951154077
              ],
              [
                934.183563706695,
                -31.380853019118806
              ],
              [
                934.1801240657281,
                -31.37957140356878
              ],
              [
                934.1823092563205,
                -31.38060492174758
              ],
              [
                934.1806215900798,
                -31.379998185405274
              ],
              [
                934.1782564285007,
                -31.378875519046076
              ],
              [
                934.163990634598,
                -31.373560062149497
              ],
              [
                934.1199706697389,
                -31.35208948797703
              ],
              [
                934.0815703546615,
                -31.33595270868961
              ],
              [
                934.0571883981365,
                -31.322673973393027
              ],
              [
                934.0568057191564,
                -31.322505733928544
              ],
              [
                934.054582349402,
                -31.32125468485968
              ],
              [
                934.0527586576899,
                -31.320261478285623
              ],
              [
                934.0241856258612,
                -31.30702587279531
              ],
              [
                934.0076078573068,
                -31.297284944032675
              ],
              [
                933.9994443059185,
                -31.2933032021991
              ],
              [
                934.0050247863209,
                -31.29664801343112
              ],
              [
                934.0035301359376,
                -31.29593855082237
              ],
              [
                933.9978622574945,
                -31.292531563963088
              ],
              [
                933.9894597431437,
                -31.288433268833124
              ],
              [
                933.9515454636762,
                -31.265139437096856
              ],
              [
                933.9044609604969,
                -31.239496595282684
              ],
              [
                933.8750661214409,
                -31.219404763542176
              ],
              [
                933.8562118127886,
                -31.208326162894046
              ],
              [
                933.8406184104276,
                -31.196987908183193
              ],
              [
                933.8283745696706,
                -31.18946551898301
              ],
              [
                933.8368148205068,
                -31.195725235626337
              ],
              [
                933.8355184945085,
                -31.194946008321807
              ],
              [
                933.82706145635,
                -31.188658766456747
              ],
              [
                933.8240068993291,
                -31.18678210314489
              ],
              [
                933.7952559988687,
                -31.165013537469438
              ],
              [
                933.7925816592871,
                -31.163025344976532
              ],
              [
                933.7908699643134,
                -31.161855374719597
              ],
              [
                933.785884237315,
                -31.1585831351546
              ],
              [
                933.7851815169761,
                -31.15956083301746
              ],
              [
                933.7710654097918,
                -31.148318652290673
              ],
              [
                933.7379658496121,
                -31.125694585781876
              ],
              [
                933.7090971990939,
                -31.101356373803664
              ],
              [
                933.6986381501939,
                -31.09375140359154
              ],
              [
                933.6841838001553,
                -31.08091591222321
              ],
              [
                933.6691918106919,
                -31.069564820535167
              ],
              [
                933.6510366573697,
                -31.052814003055467
              ],
              [
                933.647681347479,
                -31.05015081081005
              ],
              [
                933.6792983175757,
                -31.078806762150126
              ],
              [
                933.6782007286524,
                -31.07799077824423
              ],
              [
                933.6466192234899,
                -31.049307776794244
              ],
              [
                933.6356594864975,
                -31.04060876313519
              ],
              [
                933.6348353138089,
                -31.039823913657436
              ],
              [
                933.6306034020623,
                -31.036453585276227
              ],
              [
                933.6207548510909,
                -31.02687783900001
              ],
              [
                933.5837779242869,
                -30.99570380534405
              ],
              [
                933.5564315565498,
                -30.967471667708313
              ],
              [
                933.5529598874398,
                -30.96438881868523
              ],
              [
                933.552776781971,
                -30.964209527913745
              ],
              [
                933.5416450879669,
                -30.952206254027338
              ],
              [
                933.5387093733185,
                -30.94917544932188
              ],
              [
                933.5264739037079,
                -30.937886416693658
              ],
              [
                933.5234639529657,
                -30.934512714720434
              ],
              [
                933.5208489583941,
                -30.932092306507172
              ],
              [
                933.5160569243858,
                -30.92671271960884
              ],
              [
                933.512638069526,
                -30.92345698632818
              ],
              [
                933.5339914615569,
                -30.9470168238394
              ],
              [
                933.5330881667568,
                -30.946196432096574
              ],
              [
                933.5117556019172,
                -30.92261662331748
              ],
              [
                933.5052642621625,
                -30.91643500059818
              ],
              [
                933.4942856918709,
                -30.903911873349745
              ],
              [
                933.4890310576463,
                -30.898802792404304
              ],
              [
                933.4830612548225,
                -30.891724845436965
              ],
              [
                933.4434649488168,
                -30.85084598460355
              ],
              [
                933.4206551238634,
                -30.821969445122413
              ],
              [
                933.439166770236,
                -30.842393899465485
              ],
              [
                933.4390885933552,
                -30.842294628314992
              ],
              [
                933.4203430336145,
                -30.821574348429905
              ],
              [
                933.404315033256,
                -30.801283391085736
              ],
              [
                933.4035808160716,
                -30.80044587809592
              ],
              [
                933.3927578081841,
                -30.78829585759731
              ],
              [
                933.3918954451437,
                -30.787116511594906
              ],
              [
                933.3895508751126,
                -30.78444208787093
              ],
              [
                933.4022930383478,
                -30.80162290611383
              ],
              [
                933.4015748836288,
                -30.800829098567636
              ],
              [
                933.3888464242167,
                -30.783638528939797
              ],
              [
                933.3865656037702,
                -30.781036823624472
              ],
              [
                933.371071564262,
                -30.75963248407722
              ],
              [
                933.3669159959538,
                -30.754020132728783
              ],
              [
                933.3617224064593,
                -30.747862483624218
              ],
              [
                933.3590874867378,
                -30.744026702998895
              ],
              [
                933.3183925735187,
                -30.692508189785435
              ],
              [
                933.3004356231587,
                -30.664284080300124
              ],
              [
                933.3198722014226,
                -30.690491272301156
              ],
              [
                933.3198406688397,
                -30.690441999483067
              ],
              [
                933.3002105269679,
                -30.66393028194311
              ],
              [
                933.2894374502373,
                -30.646997534954153
              ],
              [
                933.2790901132471,
                -30.632846777159727
              ],
              [
                933.2781654365308,
                -30.631286722281416
              ],
              [
                933.276254456724,
                -30.628646787057836
              ],
              [
                933.2854709401728,
                -30.644023560722093
              ],
              [
                933.2849243078266,
                -30.643285300018004
              ],
              [
                933.2757297077394,
                -30.627921869231436
              ],
              [
                933.2735100078909,
                -30.624855450740213
              ],
              [
                933.2552600328806,
                -30.593718703249703
              ],
              [
                933.2513623384158,
                -30.587205972019447
              ],
              [
                933.2499184045207,
                -30.58510396731173
              ],
              [
                933.2490166368253,
                -30.583465507501963
              ],
              [
                933.2078361844634,
                -30.518739505991967
              ],
              [
                933.1950521715329,
                -30.493168958953447
              ],
              [
                933.2156766382511,
                -30.52757880284169
              ],
              [
                933.2156740885612,
                -30.527573801904797
              ],
              [
                933.1948921022628,
                -30.492848788845425
              ],
              [
                933.1883264270193,
                -30.47971614352006
              ],
              [
                933.1808997084215,
                -30.467186263212053
              ],
              [
                933.1801101435033,
                -30.465503561685566
              ],
              [
                933.1785598708032,
                -30.46285860192117
              ],
              [
                933.1846499293309,
                -30.475734948825142
              ],
              [
                933.1842570840889,
                -30.47507853629739
              ],
              [
                933.1781775373361,
                -30.462206293048556
              ],
              [
                933.1760638978752,
                -30.458600158895532
              ],
              [
                933.1552097996137,
                -30.413576630533495
              ],
              [
                933.1543535415859,
                -30.411763672748254
              ],
              [
                933.1498867035693,
                -30.402829115795164
              ],
              [
                933.1496064024363,
                -30.40231566244988
              ],
              [
                933.1494733441089,
                -30.40200231535433
              ],
              [
                933.1157366958695,
                -30.334522365559796
              ],
              [
                933.1073823017393,
                -30.312366276293652
              ],
              [
                933.1258191766352,
                -30.35134777308933
              ],
              [
                933.1072795278836,
                -30.312093717124682
              ],
              [
                933.1038140755234,
                -30.302903239557228
              ],
              [
                933.0990969356433,
                -30.292850185915935
              ],
              [
                933.0984473746469,
                -30.291027833729714
              ],
              [
                933.0972346664314,
                -30.28840962401135
              ],
              [
                933.1008007804708,
                -30.29837624507682
              ],
              [
                933.1005403074673,
                -30.297824744776555
              ],
              [
                933.0969780424673,
                -30.287855578653822
              ],
              [
                933.0950709420513,
                -30.283738191817346
              ],
              [
                933.075202102926,
                -30.22709648156785
              ],
              [
                933.0729210757908,
                -30.22172475293326
              ],
              [
                933.0715359814876,
                -30.217300822235774
              ],
              [
                933.043070782995,
                -30.141810311618233
              ],
              [
                933.0382995337335,
                -30.123696962398785
              ],
              [
                933.0532824114185,
                -30.165571300321584
              ],
              [
                933.0382434608732,
                -30.123484089994943
              ],
              [
                933.0368717429681,
                -30.118276563813804
              ],
              [
                933.0344402039915,
                -30.1114548482324
              ],
              [
                933.0339434745559,
                -30.109477165275155
              ],
              [
                933.0330382424085,
                -30.1068965466146
              ],
              [
                933.0347309072878,
                -30.113654043604004
              ],
              [
                933.0345782325882,
                -30.113226776277283
              ],
              [
                933.032886182253,
                -30.10646305640367
              ],
              [
                933.0312830904901,
                -30.101892992769496
              ],
              [
                933.020384917944,
                -30.05754721960151
              ],
              [
                933.0197715441883,
                -30.055670883196306
              ],
              [
                933.0183306774685,
                -30.04918830605209
              ],
              [
                933.0162477087179,
                -30.040712494227236
              ],
              [
                933.0142992149696,
                -30.034489090313592
              ],
              [
                933.0124053239329,
                -30.02539338629663
              ],
              [
                933.0108533672231,
                -30.01950160988438
              ],
              [
                933.0098249201787,
                -30.016139393347242
              ],
              [
                933.0093781219892,
                -30.013901057357806
              ],
              [
                932.9906090364293,
                -29.942646972181628
              ],
              [
                932.9884924463049,
                -29.929059759942973
              ],
              [
                932.9990369236131,
                -29.97115567304013
              ],
              [
                932.9884701226734,
                -29.928916455901778
              ],
              [
                932.9882702460185,
                -29.92763337019627
              ],
              [
                932.9875289583341,
                -29.924682000869396
              ],
              [
                932.9872049404751,
                -29.922534514642567
              ],
              [
                932.9865774636,
                -29.919981247381273
              ],
              [
                932.9870765651419,
                -29.92334591667162
              ],
              [
                932.9870045472978,
                -29.923058036037673
              ],
              [
                932.9865050889708,
                -29.91968674764992
              ],
              [
                932.9852925586382,
                -29.914752838330294
              ],
              [
                932.9792957708928,
                -29.873567070777487
              ],
              [
                932.9775926437852,
                -29.865904562712256
              ],
              [
                932.9753192394072,
                -29.847281741309047
              ],
              [
                932.974304963287,
                -29.84241052369275
              ],
              [
                932.9733215696963,
                -29.833267651627363
              ],
              [
                932.9707601868024,
                -29.82043582811449
              ],
              [
                932.9694031060967,
                -29.80651788756186
              ],
              [
                932.9589077903133,
                -29.739144388357843
              ],
              [
                932.9584607121791,
                -29.73047248054553
              ],
              [
                932.9575263291059,
                -29.7240551641937
              ],
              [
                932.9557301581364,
                -29.686815805068385
              ],
              [
                932.9540362237178,
                -29.67293977032029
              ],
              [
                932.9534424187867,
                -29.64844589229969
              ],
              [
                932.9533232025836,
                -29.647337507515317
              ],
              [
                932.9532685978082,
                -29.641275945366267
              ],
              [
                932.9532611685815,
                -29.6409694969642
              ],
              [
                932.9513933381637,
                -29.621813412429926
              ],
              [
                932.9514553560124,
                -29.59818788813714
              ],
              [
                932.9508528941179,
                -29.58569726490238
              ],
              [
                932.948514063325,
                -29.541964005461907
              ],
              [
                932.9486177100468,
                -29.539549237930416
              ],
              [
                932.9483032226562,
                -29.533449172973633
              ],
              [
                932.9483207821298,
                -29.53319990843065
              ],
              [
                932.9482421875,
                -29.531570434570312
              ],
              [
                932.9498387834076,
                -29.499799424760365
              ],
              [
                932.9493248351258,
                -29.478599556142154
              ],
              [
                932.9518602927947,
                -29.443928364568915
              ],
              [
                932.9519171999949,
                -29.422249727338304
              ],
              [
                932.9548961302128,
                -29.393274229029814
              ],
              [
                932.9567721284919,
                -29.349567108810984
              ],
              [
                932.9577330591325,
                -29.342709512217166
              ],
              [
                932.9583253643209,
                -29.330923102229942
              ],
              [
                932.9617955488662,
                -29.308068408860578
              ],
              [
                932.9635029892252,
                -29.2847199647056
              ],
              [
                932.9674372692831,
                -29.261832863937503
              ],
              [
                932.968055269047,
                -29.253060082197106
              ],
              [
                932.9681163042032,
                -29.25262902140609
              ],
              [
                932.9707296971857,
                -29.239264077909958
              ],
              [
                932.9723265564736,
                -29.223731725618837
              ],
              [
                932.9788890963447,
                -29.191731322324443
              ],
              [
                932.983495755167,
                -29.158856308753567
              ],
              [
                932.9860973695369,
                -29.148016212069937
              ],
              [
                932.988473224329,
                -29.13236879273068
              ],
              [
                932.9921668890295,
                -29.117971905703108
              ],
              [
                932.9964367367847,
                -29.093132688768634
              ],
              [
                933.006447677004,
                -29.056601621374536
              ],
              [
                933.0083570577318,
                -29.04683701049798
              ],
              [
                933.0090988334698,
                -29.044421928336572
              ],
              [
                933.0124182021542,
                -29.028235948720233
              ],
              [
                933.0229734905171,
                -28.994365186238422
              ],
              [
                933.0284371835199,
                -28.971599721422663
              ],
              [
                933.0317151130623,
                -28.96208783096316
              ],
              [
                933.034535162175,
                -28.950764163900185
              ],
              [
                933.0364457818471,
                -28.945382510331967
              ],
              [
                933.0377586659514,
                -28.940201857851704
              ],
              [
                933.0378166176539,
                -28.94004184459937
              ],
              [
                933.0383817813209,
                -28.937838992384364
              ],
              [
                933.0407989557997,
                -28.93124987086021
              ],
              [
                933.0478149336226,
                -28.905647764257463
              ],
              [
                933.0630850779106,
                -28.865651502380036
              ],
              [
                933.069097669298,
                -28.84635775617622
              ],
              [
                933.0702561299861,
                -28.84260512219861
              ],
              [
                933.0702982377933,
                -28.842505263572676
              ],
              [
                933.0717929651795,
                -28.837708847355987
              ],
              [
                933.0865079730522,
                -28.803090001557337
              ],
              [
                933.0911797530127,
                -28.789533438287506
              ],
              [
                933.0938635738314,
                -28.783653480933395
              ],
              [
                933.0994614729107,
                -28.76788584596399
              ],
              [
                933.1025635512508,
                -28.761265950496487
              ],
              [
                933.1053440166061,
                -28.753588672943785
              ],
              [
                933.1079319637346,
                -28.748186483322606
              ],
              [
                933.1171521801648,
                -28.724036469809086
              ],
              [
                933.1373775906357,
                -28.68341303894973
              ],
              [
                933.1380980791272,
                -28.681718002140848
              ],
              [
                933.1476418633722,
                -28.659084926572184
              ],
              [
                933.1479907722999,
                -28.658444238209313
              ],
              [
                933.1498596816292,
                -28.6540474016976
              ],
              [
                933.168678830341,
                -28.619741451242614
              ],
              [
                933.1711417653394,
                -28.61434543051906
              ],
              [
                933.1725550492822,
                -28.61190273339523
              ],
              [
                933.1818060776999,
                -28.592160858955733
              ],
              [
                933.1863367325532,
                -28.584521073123394
              ],
              [
                933.1910927742989,
                -28.574593111661674
              ],
              [
                933.1936588344537,
                -28.570370229745762
              ],
              [
                933.2037934072964,
                -28.550014592476426
              ],
              [
                933.2288053892997,
                -28.510047391473094
              ],
              [
                933.2428969575423,
                -28.48417157382547
              ],
              [
                933.2436713114621,
                -28.48303556824956
              ],
              [
                933.2458410814347,
                -28.47908023412055
              ],
              [
                933.245902116591,
                -28.478981051991642
              ],
              [
                933.2687723541056,
                -28.445514568762896
              ],
              [
                933.280793704044,
                -28.4252436494545
              ],
              [
                933.2869581761507,
                -28.416830531118674
              ],
              [
                933.2941604796822,
                -28.404977933945695
              ],
              [
                933.2965236727432,
                -28.40183884384059
              ],
              [
                933.306920065179,
                -28.385226217694598
              ],
              [
                933.307164205804,
                -28.38487526554616
              ],
              [
                933.3353303014574,
                -28.348118972089942
              ],
              [
                933.3538010550543,
                -28.32109034306594
              ],
              [
                933.3810391674953,
                -28.288431132172697
              ],
              [
                933.3954923857922,
                -28.26870573902331
              ],
              [
                933.3956144561047,
                -28.26855505848132
              ],
              [
                933.4003917858798,
                -28.263214800650616
              ],
              [
                933.4191522131409,
                -28.2387327503778
              ],
              [
                933.4525153475714,
                -28.202729318436276
              ],
              [
                933.4762867606502,
                -28.17422677096163
              ],
              [
                933.4805257549688,
                -28.170033265754924
              ],
              [
                933.4830687855176,
                -28.16700134037712
              ],
              [
                933.5097912596494,
                -28.14092069530801
              ],
              [
                933.5098879512431,
                -28.140816351718332
              ],
              [
                933.52605979708,
                -28.122738925534094
              ],
              [
                933.529963097727,
                -28.119152494814955
              ],
              [
                933.5482685330999,
                -28.09939840072708
              ],
              [
                933.5485737088811,
                -28.099098946991727
              ],
              [
                933.566268952729,
                -28.08389805480454
              ],
              [
                933.5691222447555,
                -28.080881043809484
              ],
              [
                933.581100110732,
                -28.070538184408125
              ],
              [
                933.6122393570791,
                -28.039733096720727
              ],
              [
                933.6197353865548,
                -28.033617242150886
              ],
              [
                933.6256037224593,
                -28.027889853844005
              ],
              [
                933.6536670705412,
                -28.00549080992148
              ],
              [
                933.6701282642056,
                -27.990365935880078
              ],
              [
                933.6811206658836,
                -27.982091507982183
              ],
              [
                933.6963358736027,
                -27.96855899378548
              ],
              [
                933.7142627173215,
                -27.955552583452597
              ],
              [
                933.7219492375584,
                -27.948915291112534
              ],
              [
                933.7298335067652,
                -27.943389838420533
              ],
              [
                933.7493408203125,
                -27.92663230895996
              ],
              [
                933.7583791806769,
                -27.92050065361298
              ],
              [
                933.7604158414135,
                -27.91883898447016
              ],
              [
                933.7715214074166,
                -27.911424183928794
              ],
              [
                933.7812680468656,
                -27.90364480548544
              ],
              [
                933.8101179501301,
                -27.88499000470873
              ],
              [
                933.8264411823417,
                -27.872702843817844
              ],
              [
                933.8390371151593,
                -27.865025380629028
              ],
              [
                933.8569829264985,
                -27.852005208774102
              ],
              [
                933.8739088080475,
                -27.842124949520972
              ],
              [
                933.8870265263264,
                -27.833225843468348
              ],
              [
                933.8873035382953,
                -27.833031707970306
              ],
              [
                933.8873558582928,
                -27.8330024235082
              ],
              [
                933.906491947544,
                -27.820020433496037
              ],
              [
                933.9172404941947,
                -27.814132612906164
              ],
              [
                933.9194614487676,
                -27.81264975870814
              ],
              [
                933.9344362838019,
                -27.804603816710586
              ],
              [
                933.9485180273056,
                -27.79549834009108
              ],
              [
                933.9486400976181,
                -27.795427768191665
              ],
              [
                933.9775697409389,
                -27.78058708214988
              ],
              [
                933.9839927888598,
                -27.776672110969262
              ],
              [
                933.9915471911146,
                -27.772050247140346
              ],
              [
                933.9916880262539,
                -27.77198171584905
              ],
              [
                933.9935027020593,
                -27.770875636061437
              ],
              [
                934.0077025651146,
                -27.7640246152814
              ],
              [
                934.0283911975155,
                -27.751947900037795
              ],
              [
                934.0427820790883,
                -27.745363657209957
              ],
              [
                934.0729089694513,
                -27.72886080048404
              ],
              [
                934.0854337503869,
                -27.723473249653455
              ],
              [
                934.087922038796,
                -27.722136298417077
              ],
              [
                934.1076572350202,
                -27.713853191371594
              ],
              [
                934.1272003495646,
                -27.703827722892193
              ],
              [
                934.1505935037487,
                -27.69465728093119
              ],
              [
                934.1625642193991,
                -27.68883225313591
              ],
              [
                934.166946743086,
                -27.687193932609542
              ],
              [
                934.169714114296,
                -27.685858756517206
              ],
              [
                934.1854934495854,
                -27.68006909461526
              ],
              [
                934.2088726468418,
                -27.669372438466837
              ],
              [
                934.2202972721632,
                -27.665461530126915
              ],
              [
                934.2472160074482,
                -27.653882401087497
              ],
              [
                934.2993643887592,
                -27.635144669432258
              ],
              [
                934.3093163067275,
                -27.632435733500976
              ],
              [
                934.3140414637403,
                -27.630583406200373
              ],
              [
                934.3313702832735,
                -27.62572741693183
              ],
              [
                934.3407126382446,
                -27.6222349607565
              ],
              [
                934.3497043715109,
                -27.6198177785032
              ],
              [
                934.3533891493338,
                -27.618465781262067
              ],
              [
                934.3586877856775,
                -27.617091350635302
              ],
              [
                934.3651068931584,
                -27.61475216810217
              ],
              [
                934.3783535626065,
                -27.611355277442147
              ],
              [
                934.3966498814149,
                -27.605092032582533
              ],
              [
                934.4097413439747,
                -27.602019283927525
              ],
              [
                934.4174168344789,
                -27.59947126639004
              ],
              [
                934.4245414760192,
                -27.5978398335764
              ],
              [
                934.4364446713539,
                -27.594033471238742
              ],
              [
                934.4416220495948,
                -27.592924758938565
              ],
              [
                934.4468552857052,
                -27.591296013001262
              ],
              [
                934.4613329669769,
                -27.58826958573659
              ],
              [
                934.4640038748443,
                -27.587451333919027
              ],
              [
                934.4762082691668,
                -27.58495532957311
              ],
              [
                934.4942496263893,
                -27.57969745732352
              ],
              [
                934.498279658116,
                -27.578955036880025
              ],
              [
                934.5072822148852,
                -27.576432284595764
              ],
              [
                934.5181577700226,
                -27.574533676614507
              ],
              [
                934.5243814488942,
                -27.572860610290906
              ],
              [
                934.5344059382819,
                -27.571165796126582
              ],
              [
                934.5514651123573,
                -27.566522248042926
              ],
              [
                934.55541727537,
                -27.565950198491947
              ],
              [
                934.555717998083,
                -27.565873083094832
              ],
              [
                934.5789926119895,
                -27.562293653290563
              ],
              [
                934.5898736588043,
                -27.559739720006764
              ],
              [
                934.5923653226957,
                -27.55941076611626
              ],
              [
                934.6033667834274,
                -27.55689160161737
              ],
              [
                934.6186747394544,
                -27.55489516616994
              ],
              [
                934.6332703001862,
                -27.551780127842846
              ],
              [
                934.6449711132985,
                -27.55044048342427
              ],
              [
                934.6510819277345,
                -27.5491907188734
              ],
              [
                934.6718916850971,
                -27.546971884684506
              ],
              [
                934.6936093743757,
                -27.542971008860338
              ],
              [
                934.7018802133914,
                -27.542301443921744
              ],
              [
                934.7039568980091,
                -27.541935411733796
              ],
              [
                934.7099816313785,
                -27.541481673568022
              ],
              [
                934.711909731608,
                -27.54115569471236
              ],
              [
                934.720475302672,
                -27.540534866577723
              ],
              [
                934.7502098557605,
                -27.535961955251704
              ],
              [
                934.7700201427274,
                -27.534887847694364
              ],
              [
                934.7758678495006,
                -27.534041430675853
              ],
              [
                934.7793945866105,
                -27.53393437954344
              ],
              [
                934.7925275679487,
                -27.532221600291397
              ],
              [
                934.8090457300159,
                -27.531655323589302
              ],
              [
                934.8244943190674,
                -27.529886590433836
              ],
              [
                934.833651467906,
                -27.529724295958214
              ],
              [
                934.8409560999919,
                -27.528945441734823
              ],
              [
                934.8542646115371,
                -27.52880287752837
              ],
              [
                934.8561326490521,
                -27.528612717493996
              ],
              [
                934.8713822541439,
                -27.528579423302954
              ],
              [
                934.8956627898087,
                -27.526613794986336
              ],
              [
                934.9151932464492,
                -27.527016607459863
              ],
              [
                934.9466996995164,
                -27.52530833743828
              ],
              [
                934.9674182375701,
                -27.526225987025366
              ],
              [
                934.9831782783519,
                -27.52568570028629
              ],
              [
                935.000765619902,
                -27.526762489380022
              ],
              [
                935.0169373480109,
                -27.526475873733645
              ],
              [
                935.0234724428994,
                -27.526990279618985
              ],
              [
                935.0318955901562,
                -27.52690004869418
              ],
              [
                935.0471379042274,
                -27.52819569912418
              ],
              [
                935.0545785908636,
                -27.52817945400564
              ],
              [
                935.0768806915847,
                -27.53035138456787
              ],
              [
                935.0983341203093,
                -27.530793858026083
              ],
              [
                935.1116628442886,
                -27.53242838361081
              ],
              [
                935.1404752864429,
                -27.5336545139224
              ],
              [
                935.1429292755861,
                -27.533999587225686
              ],
              [
                935.1432854212924,
                -27.534015361357987
              ],
              [
                935.1433464564486,
                -27.534021083403886
              ],
              [
                935.1502808358904,
                -27.535033343713813
              ],
              [
                935.1614060003063,
                -27.536597734186085
              ],
              [
                935.1735844501924,
                -27.5373433626245
              ],
              [
                935.1920683304038,
                -27.540261198902435
              ],
              [
                935.2088170781952,
                -27.541579566054384
              ],
              [
                935.2127399095132,
                -27.542272453372508
              ],
              [
                935.222159885842,
                -27.54307318456883
              ],
              [
                935.2389609095717,
                -27.546135860809834
              ],
              [
                935.2520905950829,
                -27.547414519066773
              ],
              [
                935.2813893292705,
                -27.553242250155066
              ],
              [
                935.2995412654805,
                -27.555468254999468
              ],
              [
                935.305934918323,
                -27.556920998981056
              ],
              [
                935.3328490029234,
                -27.560705584623513
              ],
              [
                935.3431030917446,
                -27.563180969339204
              ],
              [
                935.3470028664742,
                -27.563750246981066
              ],
              [
                935.3571722180473,
                -27.566324239102027
              ],
              [
                935.3620138437401,
                -27.56708853052402
              ],
              [
                935.3809099050045,
                -27.57195344148683
              ],
              [
                935.3853130751089,
                -27.572753947018107
              ],
              [
                935.3983564177839,
                -27.575057784729445
              ],
              [
                935.3990581942583,
                -27.575252838418166
              ],
              [
                935.4113294860969,
                -27.577483784931616
              ],
              [
                935.4304151654316,
                -27.582884571655846
              ],
              [
                935.4467241076611,
                -27.586128538751492
              ],
              [
                935.4794683019778,
                -27.59610016509083
              ],
              [
                935.4971237912335,
                -27.600362282282664
              ],
              [
                935.4972171669186,
                -27.60038349878719
              ],
              [
                935.4972310616408,
                -27.60038817785769
              ],
              [
                935.521690755183,
                -27.606292861598998
              ],
              [
                935.5322045559606,
                -27.609941673236786
              ],
              [
                935.5330981421305,
                -27.610162120374177
              ],
              [
                935.5399436879537,
                -27.612586020897663
              ],
              [
                935.5465256226682,
                -27.61425199222084
              ],
              [
                935.5644601248307,
                -27.620816060730988
              ],
              [
                935.5958661128668,
                -27.629703197535108
              ],
              [
                935.6174851419275,
                -27.63813058865863
              ],
              [
                935.636562914004,
                -27.64394036405553
              ],
              [
                935.6683914678975,
                -27.657205303174646
              ],
              [
                935.7052188492751,
                -27.669986235646423
              ],
              [
                935.7157946878409,
                -27.67485210481454
              ],
              [
                935.7186105965765,
                -27.675849173979604
              ],
              [
                935.7320373992034,
                -27.682149723620565
              ],
              [
                935.7398017911879,
                -27.68499150871527
              ],
              [
                935.7481709374365,
                -27.689073686516792
              ],
              [
                935.7745526846708,
                -27.69935764986405
              ],
              [
                935.7982630543448,
                -27.711330875240705
              ],
              [
                935.8197380045744,
                -27.720280823401545
              ],
              [
                935.8501992606164,
                -27.736690706326186
              ],
              [
                935.8817017248296,
                -27.751184769220703
              ],
              [
                935.8921400230009,
                -27.75727814822886
              ],
              [
                935.89676921668,
                -27.759450405122994
              ],
              [
                935.914687056969,
                -27.770122485908665
              ],
              [
                935.9246769612935,
                -27.775167172162487
              ],
              [
                935.9247845891738,
                -27.775219669290742
              ],
              [
                935.9248003598173,
                -27.77522948575594
              ],
              [
                935.9457461501737,
                -27.78580665819476
              ],
              [
                935.9710314457736,
                -27.80178460820711
              ],
              [
                935.9944459757492,
                -27.814398326272663
              ],
              [
                936.0231119662886,
                -27.83373330181641
              ],
              [
                936.0494742920695,
                -27.84912236619082
              ],
              [
                936.0595831814904,
                -27.85642435719935
              ],
              [
                936.0658489967561,
                -27.860156351994803
              ],
              [
                936.0804353395032,
                -27.870917671661356
              ],
              [
                936.1078723583403,
                -27.888255310200545
              ],
              [
                936.1341496687298,
                -27.90862732154949
              ],
              [
                936.1589667847686,
                -27.925366262805184
              ],
              [
                936.1854452542651,
                -27.947338767818408
              ],
              [
                936.2069536416863,
                -27.96287499984325
              ],
              [
                936.2165530349371,
                -27.97134079061873
              ],
              [
                936.2242128362158,
                -27.976991937830338
              ],
              [
                936.2356988394702,
                -27.987355350717323
              ],
              [
                936.2594405330027,
                -28.005761574296496
              ],
              [
                936.2860694082183,
                -28.03083924081493
              ],
              [
                936.3116806839791,
                -28.052092126489597
              ],
              [
                936.3356264981475,
                -28.076352742948597
              ],
              [
                936.3526539793538,
                -28.0913694309371
              ],
              [
                936.3615786986653,
                -28.10093227787862
              ],
              [
                936.3703273906535,
                -28.108825912007614
              ],
              [
                936.3789982327496,
                -28.118354693595887
              ],
              [
                936.3990569807837,
                -28.137244961769138
              ],
              [
                936.4159676120396,
                -28.156546798013053
              ],
              [
                936.4173283166999,
                -28.15785798042173
              ],
              [
                936.425414172766,
                -28.167320806149828
              ],
              [
                936.4510841676461,
                -28.193328270164713
              ],
              [
                936.4710337854058,
                -28.218018188451985
              ],
              [
                936.4758422250334,
                -28.223068580604252
              ],
              [
                936.4772531819542,
                -28.224877618915844
              ],
              [
                936.4852006439785,
                -28.23339333355727
              ],
              [
                936.4933025360616,
                -28.243968876023278
              ],
              [
                936.5027779183243,
                -28.25438180328526
              ],
              [
                936.5089650263518,
                -28.26269427618792
              ],
              [
                936.5254379063283,
                -28.281496462041314
              ],
              [
                936.5385336777726,
                -28.299703840621735
              ],
              [
                936.5430958120102,
                -28.305042877191937
              ],
              [
                936.554324318042,
                -28.321099684531877
              ],
              [
                936.5758047743346,
                -28.347684189409485
              ],
              [
                936.5904101568007,
                -28.369960221862122
              ],
              [
                936.5969090638009,
                -28.378292702870855
              ],
              [
                936.6002279558774,
                -28.38354051019867
              ],
              [
                936.6033430774222,
                -28.38760673322983
              ],
              [
                936.6104920882435,
                -28.39909741431142
              ],
              [
                936.6202819782602,
                -28.412250279126745
              ],
              [
                936.6243550283601,
                -28.419023410841472
              ],
              [
                936.637421217005,
                -28.437189659715976
              ],
              [
                936.6469933970922,
                -28.453616828350057
              ],
              [
                936.654043292285,
                -28.463698205922267
              ],
              [
                936.6673926727815,
                -28.487373444574146
              ],
              [
                936.68461459913,
                -28.513640212399544
              ],
              [
                936.6945724781053,
                -28.532717363101995
              ],
              [
                936.7021296861757,
                -28.54466676397918
              ],
              [
                936.7112774020773,
                -28.56287958710563
              ],
              [
                936.7174136477031,
                -28.572963505091554
              ],
              [
                936.7193944520941,
                -28.577065791673597
              ],
              [
                936.7217018473954,
                -28.580902791442803
              ],
              [
                936.7240606653131,
                -28.585874788366144
              ],
              [
                936.733977208532,
                -28.60289293117589
              ],
              [
                936.7404422702996,
                -28.61692752051889
              ],
              [
                936.7491311558716,
                -28.632337332201967
              ],
              [
                936.7633739898308,
                -28.66452623635675
              ],
              [
                936.7764423826611,
                -28.68956246144847
              ],
              [
                936.7825645726365,
                -28.70481016765109
              ],
              [
                936.7904847224602,
                -28.720578944187878
              ],
              [
                936.7974914832836,
                -28.738806347481717
              ],
              [
                936.8015811623167,
                -28.747276156766443
              ],
              [
                936.8048784420993,
                -28.756225256926854
              ],
              [
                936.8060555364737,
                -28.758706376628258
              ],
              [
                936.8071220142081,
                -28.761678314384888
              ],
              [
                936.814218033271,
                -28.77708260858959
              ],
              [
                936.8181007001572,
                -28.788208983655657
              ],
              [
                936.8274684091226,
                -28.809380071298925
              ],
              [
                936.8411870594435,
                -28.850813225266492
              ],
              [
                936.8503840579119,
                -28.87371893893372
              ],
              [
                936.853565385559,
                -28.88467712240707
              ],
              [
                936.861118195522,
                -28.904325019155035
              ],
              [
                936.8660526879138,
                -28.922257407401343
              ],
              [
                936.8685034444939,
                -28.928908970977787
              ],
              [
                936.8722091311811,
                -28.94305562229128
              ],
              [
                936.8725262980755,
                -28.943939466593264
              ],
              [
                936.8727364283807,
                -28.944776008859442
              ],
              [
                936.8774058641269,
                -28.958156990278468
              ],
              [
                936.8793178019558,
                -28.965975933582918
              ],
              [
                936.8883210151968,
                -28.993167494829063
              ],
              [
                936.8999288488254,
                -29.04437753471973
              ],
              [
                936.9057116509824,
                -29.064296579237347
              ],
              [
                936.9068958828882,
                -29.070685243810225
              ],
              [
                936.9133458134377,
                -29.09412487033901
              ],
              [
                936.9163230279864,
                -29.111462713569445
              ],
              [
                936.9175536152984,
                -29.1161605445204
              ],
              [
                936.9204533697757,
                -29.134201420687962
              ],
              [
                936.9229596789849,
                -29.144451068617435
              ],
              [
                936.9235745962137,
                -29.148694990133237
              ],
              [
                936.9311187721419,
                -29.181977475270592
              ],
              [
                936.9386903576742,
                -29.24171911574259
              ],
              [
                936.9398336304848,
                -29.2483769781292
              ],
              [
                936.9418804481699,
                -29.259419098821024
              ],
              [
                936.9419414833261,
                -29.259873047795633
              ],
              [
                936.9420269187561,
                -29.26114961764979
              ],
              [
                936.946661598863,
                -29.288139730656717
              ],
              [
                936.9478421124473,
                -29.304600990299473
              ],
              [
                936.9482722086466,
                -29.30727684176596
              ],
              [
                936.9495159267518,
                -29.32713547311791
              ],
              [
                936.9501193631072,
                -29.33189673185786
              ],
              [
                936.9504606033007,
                -29.33425184004382
              ],
              [
                936.9504866689128,
                -29.33479486346993
              ],
              [
                936.955460655809,
                -29.374040822667745
              ],
              [
                936.9572768775269,
                -29.436160778940575
              ],
              [
                936.9607427909042,
                -29.484489998324737
              ],
              [
                936.96033076375,
                -29.499817578640826
              ],
              [
                936.9603714752492,
                -29.500467625184378
              ],
              [
                936.9601021388198,
                -29.508322520468326
              ],
              [
                936.9597594339917,
                -29.521071281619925
              ],
              [
                936.9611185775346,
                -29.567557862319575
              ],
              [
                936.9567922821526,
                -29.631450555541615
              ],
              [
                936.9554529720023,
                -29.681273446303955
              ],
              [
                936.9510555942636,
                -29.716172565261694
              ],
              [
                936.9480395213805,
                -29.760715298117365
              ],
              [
                936.937252402715,
                -29.825719493562065
              ],
              [
                936.930843389536,
                -29.87658365093608
              ],
              [
                936.9233455682003,
                -29.90952339123327
              ],
              [
                936.9163460409038,
                -29.951703203517525
              ],
              [
                936.8988563911204,
                -30.017110261736523
              ],
              [
                936.8871524593413,
                -30.068528461236657
              ],
              [
                936.8768863175624,
                -30.09927302074389
              ],
              [
                936.8663351108049,
                -30.138731980940968
              ],
              [
                936.8662740756487,
                -30.13892271580425
              ],
              [
                936.8431738700745,
                -30.200233476019577
              ],
              [
                936.8248034559558,
                -30.255248329915496
              ],
              [
                936.8165041193802,
                -30.27379581899649
              ],
              [
                936.8159707950765,
                -30.27534392626449
              ],
              [
                936.8110067515656,
                -30.286154356567017
              ],
              [
                936.8063405302441,
                -30.299148173981397
              ],
              [
                936.8042333786822,
                -30.303586284839916
              ],
              [
                936.7949136775144,
                -30.328321907288796
              ],
              [
                936.7669433668156,
                -30.384554975304912
              ],
              [
                936.7444004119664,
                -30.434934328534847
              ],
              [
                936.7356462227921,
                -30.450270513503824
              ],
              [
                936.7336273230271,
                -30.454667166182
              ],
              [
                936.7276475504267,
                -30.464892382663557
              ],
              [
                936.7218771401112,
                -30.47704609820128
              ],
              [
                936.7164675398909,
                -30.486034384639467
              ],
              [
                936.7047763647488,
                -30.509538973273926
              ],
              [
                936.6740238025135,
                -30.558285529174896
              ],
              [
                936.6722948021262,
                -30.56151266913312
              ],
              [
                936.6712987123332,
                -30.562998865957958
              ],
              [
                936.6477152099511,
                -30.60431405204152
              ],
              [
                936.6385186904098,
                -30.6172998317982
              ],
              [
                936.6340136653748,
                -30.625003277951674
              ],
              [
                936.6269668161873,
                -30.634743736219487
              ],
              [
                936.6203276572742,
                -30.64577498799202
              ],
              [
                936.6105484121822,
                -30.658901752286482
              ],
              [
                936.5967852416875,
                -30.680718053470233
              ],
              [
                936.5662483950501,
                -30.719737193244153
              ],
              [
                936.5625352902043,
                -30.72527726068631
              ],
              [
                936.5590381744227,
                -30.72952886267418
              ],
              [
                936.5350752866862,
                -30.763365226646485
              ],
              [
                936.5280192559644,
                -30.771513313004466
              ],
              [
                936.5219123132157,
                -30.779954592135713
              ],
              [
                936.5195095016142,
                -30.78268352995008
              ],
              [
                936.5193667805311,
                -30.782882378875577
              ],
              [
                936.512370650618,
                -30.790791315188734
              ],
              [
                936.5118637605133,
                -30.791367003925004
              ],
              [
                936.5026766480343,
                -30.8036989435508
              ],
              [
                936.4957694742884,
                -30.811281981731018
              ],
              [
                936.489695043473,
                -30.81929709085464
              ],
              [
                936.4806683173684,
                -30.829089054376936
              ],
              [
                936.4720462551454,
                -30.840106087504594
              ],
              [
                936.4530139231201,
                -30.859919655833853
              ],
              [
                936.4496781055104,
                -30.86407269561119
              ],
              [
                936.4416435711813,
                -30.872250796879964
              ],
              [
                936.439049540512,
                -30.875404477409568
              ],
              [
                936.4353333871278,
                -30.879119562117538
              ],
              [
                936.4340659962477,
                -30.88065566646552
              ],
              [
                936.4301265409704,
                -30.884556796947173
              ],
              [
                936.407489264688,
                -30.91069762446528
              ],
              [
                936.4032438124923,
                -30.914729602705524
              ],
              [
                936.3956009009809,
                -30.923409863039602
              ],
              [
                936.3924184370422,
                -30.926394059788752
              ],
              [
                936.3846564075545,
                -30.935168824929185
              ],
              [
                936.3738411466796,
                -30.9451409517721
              ],
              [
                936.3700647899783,
                -30.949286823600747
              ],
              [
                936.3688776958737,
                -30.950356685090554
              ],
              [
                936.3592887059324,
                -30.960758578161567
              ],
              [
                936.3369895621679,
                -30.980706567313753
              ],
              [
                936.3318368683151,
                -30.986070768169295
              ],
              [
                936.3196466564002,
                -30.996427641821665
              ],
              [
                936.309796988176,
                -31.006453311126474
              ],
              [
                936.2924142895947,
                -31.02092932150431
              ],
              [
                936.2913819792021,
                -31.021951589116323
              ],
              [
                936.2861815922079,
                -31.02615749782097
              ],
              [
                936.282817013023,
                -31.029167325901852
              ],
              [
                936.2772963713559,
                -31.034344032137646
              ],
              [
                936.2661687336258,
                -31.044912139166986
              ],
              [
                936.2653233776601,
                -31.045571109507037
              ],
              [
                936.2561720584064,
                -31.05415230247389
              ],
              [
                936.252728425685,
                -31.056811990503753
              ],
              [
                936.2351808720508,
                -31.072991575318834
              ],
              [
                936.2268367874832,
                -31.079245164925755
              ],
              [
                936.2158930429788,
                -31.08903503394331
              ],
              [
                936.1712845668213,
                -31.121804057134653
              ],
              [
                936.1564207893575,
                -31.134182353623768
              ],
              [
                936.131426310489,
                -31.15108360753919
              ],
              [
                936.1159595558738,
                -31.16244535948277
              ],
              [
                936.1048992583941,
                -31.170987774772946
              ],
              [
                936.1019338412792,
                -31.17285540580016
              ],
              [
                936.0724849306694,
                -31.19492629923742
              ],
              [
                936.0683940417728,
                -31.197386598658596
              ],
              [
                936.0608350798504,
                -31.202939350509165
              ],
              [
                936.0095620543198,
                -31.233488155662226
              ],
              [
                935.9910770963731,
                -31.245987674836638
              ],
              [
                935.9646925279254,
                -31.260221713999027
              ],
              [
                935.9531811465977,
                -31.26708027055164
              ],
              [
                935.9501604759768,
                -31.2690132332568
              ],
              [
                935.9485710976076,
                -31.269826967999016
              ],
              [
                935.8955497681089,
                -31.301417424131532
              ],
              [
                935.8377410011364,
                -31.328709967184817
              ],
              [
                935.8154126896907,
                -31.340755722648993
              ],
              [
                935.7882279091887,
                -31.35208597508906
              ],
              [
                935.7840634670854,
                -31.354052081985106
              ],
              [
                935.7792117599158,
                -31.356536073688623
              ],
              [
                935.776667978221,
                -31.357543623299687
              ],
              [
                935.7215667061794,
                -31.38355791002893
              ],
              [
                935.7151011594431,
                -31.38588041092953
              ],
              [
                935.7142766127855,
                -31.386268342287266
              ],
              [
                935.7023111724751,
                -31.39047472560439
              ],
              [
                935.6796626850258,
                -31.398610330317062
              ],
              [
                935.6790616270519,
                -31.398879018126934
              ],
              [
                935.6768819968482,
                -31.399609186416985
              ],
              [
                935.6575032620218,
                -31.40657025729347
              ],
              [
                935.6311771414206,
                -31.4175426317865
              ],
              [
                935.605433462293,
                -31.425366766408636
              ],
              [
                935.6006564507162,
                -31.427258861224054
              ],
              [
                935.5968474861459,
                -31.42835852978509
              ],
              [
                935.5404959840008,
                -31.44860065621607
              ],
              [
                935.527792968762,
                -31.451825619644932
              ],
              [
                935.522466144285,
                -31.453698234862756
              ],
              [
                935.4973960253592,
                -31.459736342239793
              ],
              [
                935.494934148256,
                -31.46056106222751
              ],
              [
                935.4784190905887,
                -31.464360356355574
              ],
              [
                935.4706107698416,
                -31.46634268483243
              ],
              [
                935.4402053900293,
                -31.475583624470868
              ],
              [
                935.4182025982956,
                -31.47993426989345
              ],
              [
                935.4161409939888,
                -31.480529466146816
              ],
              [
                935.4107714580865,
                -31.481534321494298
              ],
              [
                935.3540132827849,
                -31.495943738171775
              ],
              [
                935.3348339993867,
                -31.49888920669791
              ],
              [
                935.3248008284997,
                -31.501305683593245
              ],
              [
                935.3078279221002,
                -31.503604907467178
              ],
              [
                935.3056927592964,
                -31.504096102331054
              ],
              [
                935.2775402679646,
                -31.507747646077288
              ],
              [
                935.244399464826,
                -31.514300627408968
              ],
              [
                935.2181027968097,
                -31.516816262473178
              ],
              [
                935.163844367774,
                -31.525149029223854
              ],
              [
                935.1381117522346,
                -31.526595399511518
              ],
              [
                935.1233234399207,
                -31.528598688749494
              ],
              [
                935.1145565491142,
                -31.528887593241798
              ],
              [
                935.1131214199654,
                -31.529073737935235
              ],
              [
                935.0784088632838,
                -31.53017989307526
              ],
              [
                935.0457095422421,
                -31.533308029253476
              ],
              [
                935.0206755774356,
                -31.53319621292927
              ],
              [
                934.9717491175069,
                -31.535946255100967
              ],
              [
                934.9395499207407,
                -31.534654769112496
              ],
              [
                934.9201161489491,
                -31.535295190454217
              ],
              [
                934.9194101414672,
                -31.53524656837112
              ],
              [
                934.9190354811666,
                -31.535258507348164
              ],
              [
                934.8777181802179,
                -31.532557681605994
              ],
              [
                934.8461145225782,
                -31.532416521192292
              ],
              [
                934.8227413043741,
                -31.529969661826588
              ],
              [
                934.7795052373897,
                -31.528235495129444
              ],
              [
                934.7697484750299,
                -31.526897111710102
              ],
              [
                934.7670463029199,
                -31.52677816969268
              ],
              [
                934.7481573784394,
                -31.524088562360912
              ],
              [
                934.7252645717825,
                -31.52259210736241
              ],
              [
                934.7177243610573,
                -31.52135665498413
              ],
              [
                934.7172790036825,
                -31.521325983633133
              ],
              [
                934.7121734865516,
                -31.520447152403964
              ],
              [
                934.677481602891,
                -31.514762938562036
              ],
              [
                934.6476023206678,
                -31.5116349824154
              ],
              [
                934.6262258894177,
                -31.507209407756566
              ],
              [
                934.5888918082927,
                -31.502088106928323
              ],
              [
                934.5817192836329,
                -31.500389324188884
              ],
              [
                934.5741666806008,
                -31.499313903695246
              ],
              [
                934.55560846446,
                -31.494794205033266
              ],
              [
                934.5336353509448,
                -31.49119394287353
              ],
              [
                934.5177964656076,
                -31.48698832896681
              ],
              [
                934.5169082269435,
                -31.48683543321563
              ],
              [
                934.5166030511623,
                -31.48676676866485
              ],
              [
                934.5065428608835,
                -31.4840002199225
              ],
              [
                934.4806435832506,
                -31.477123324240285
              ],
              [
                934.460339070521,
                -31.473090573719873
              ],
              [
                934.458067292176,
                -31.472395438207048
              ]
            ],
            [
              [
                933.5722664176335,
                -30.98177896120403
              ],
              [
                933.5714865549382,
                -30.981070673150512
              ],
              [
                933.5713012046565,
                -30.98091071838011
              ],
              [
                933.5712433874355,
                -30.980849823200554
              ],
              [
                933.5601046190113,
                -30.970733354424997
              ],
              [
                933.5577859482888,
                -30.9686743702462
              ],
              [
                933.572412032378,
                -30.981930680154285
              ],
              [
                933.5722664176335,
                -30.98177896120403
              ]
            ],
            [
              [
                933.3675160881692,
                -30.754731617010734
              ],
              [
                933.3678443037599,
                -30.75517416450472
              ],
              [
                933.3675715849943,
                -30.754797415429298
              ],
              [
                933.3675160881692,
                -30.754731617010734
              ]
            ],
            [
              [
                933.251824103414,
                -30.587878185756914
              ],
              [
                933.2517816899659,
                -30.587816442440207
              ],
              [
                933.2526359667976,
                -30.589241717227626
              ],
              [
                933.2519849347008,
                -30.588130974774657
              ],
              [
                933.251824103414,
                -30.587878185756914
              ]
            ]
          ]
        ]
      }
    }
  ]
}