{
  "type": "FeatureCollection",
  "features": [
    {
      "type": "Feature",
      "properties": {
        "image_id": "0028_top_20250709_t1",
        "zone_type": "parking_spot",
        "generated_at": "2025-11-03T11:20:42",
        "source": "merged_t1_polygons"
      },
      "geometry": {
        "type": "MultiPolygon",
        "coordinates": [
          [
            [
              [
                1375.347267752519,
                283.62826070044247
              ],
              [
                1375.324246540005,
                283.63114346380354
              ],
              [
                1375.3040856534512,
                283.6321252431332
              ],
              [
                1375.2745413609562,
                283.636471670538
              ],
              [
                1375.2622461253097,
                283.6373236508631
              ],
              [
                1375.2319788491113,
                283.6423965888851
              ],
              [
                1375.176422155655,
                283.64875736172957
              ],
              [
                1375.166252569716,
                283.6509277922154
              ],
              [
                1375.1550878321536,
                283.65232586350993
              ],
              [
                1375.1330537974861,
                283.65728670354014
              ],
              [
                1375.1114785784848,
                283.6604607556231
              ],
              [
                1375.0850789172548,
                283.66701770922856
              ],
              [
                1375.071229693021,
                283.6693389044273
              ],
              [
                1375.053549933018,
                283.6740977927721
              ],
              [
                1375.0533678527438,
                283.67412993303503
              ],
              [
                1375.052006782117,
                283.6745131650868
              ],
              [
                1375.037703384013,
                283.67836323287713
              ],
              [
                1374.9881881658102,
                283.6889309531113
              ],
              [
                1374.97755685663,
                283.6922959726283
              ],
              [
                1374.966136796073,
                283.6948671355775
              ],
              [
                1374.9452835836473,
                283.70173904556464
              ],
              [
                1374.9225389020012,
                283.70738820223465
              ],
              [
                1374.8994491465412,
                283.7155773398108
              ],
              [
                1374.884205676305,
                283.7196804482709
              ],
              [
                1374.862225908232,
                283.72794912370654
              ],
              [
                1374.8614266967077,
                283.7281741549917
              ],
              [
                1374.8568468534093,
                283.7299726964
              ],
              [
                1374.8479590815955,
                283.7333162303367
              ],
              [
                1374.804687531858,
                283.7470125312276
              ],
              [
                1374.7937313475934,
                283.7516811505623
              ],
              [
                1374.7821866390852,
                283.7554855618959
              ],
              [
                1374.7626915133033,
                283.7640805418097
              ],
              [
                1374.7390568456958,
                283.77246294087576
              ],
              [
                1374.719339450766,
                283.78170227237496
              ],
              [
                1374.7029279982605,
                283.7878761762007
              ],
              [
                1374.6771586334055,
                283.80053770991645
              ],
              [
                1374.67582117372,
                283.80106294112414
              ],
              [
                1374.669714523721,
                283.8041953028096
              ],
              [
                1374.6646310890185,
                283.80669300037573
              ],
              [
                1374.6276197427349,
                283.8224641742341
              ],
              [
                1374.6272408129823,
                283.82267073718526
              ],
              [
                1374.6270093911724,
                283.82276935001534
              ],
              [
                1374.6161645153102,
                283.8286811306266
              ],
              [
                1374.604840387125,
                283.83367369417203
              ],
              [
                1374.6025675611154,
                283.8349568995749
              ],
              [
                1374.6025210511875,
                283.8348638797189
              ],
              [
                1374.586074734371,
                283.84414849796974
              ],
              [
                1374.5627709197859,
                283.85506838210836
              ],
              [
                1374.5463884110125,
                283.86479042197084
              ],
              [
                1374.5290966924572,
                283.873286544352
              ],
              [
                1374.5001917983104,
                283.8911507513759
              ],
              [
                1374.4983963040804,
                283.89207173707734
              ],
              [
                1374.4916945378468,
                283.89640234715375
              ],
              [
                1374.4899100746954,
                283.8975052060329
              ],
              [
                1374.4891523222702,
                283.89791827356385
              ],
              [
                1374.4890522395908,
                283.89797059819324
              ],
              [
                1374.489030968282,
                283.89798442629484
              ],
              [
                1374.458014358099,
                283.91489226341866
              ],
              [
                1374.4442609027867,
                283.92420820395967
              ],
              [
                1374.4271814637511,
                283.9338502455883
              ],
              [
                1374.4122112370728,
                283.94441655565527
              ],
              [
                1374.3953514504567,
                283.9544218313931
              ],
              [
                1374.3821725140256,
                283.9640906803919
              ],
              [
                1374.364341959913,
                283.97511056887174
              ],
              [
                1374.3330887972734,
                283.998891690165
              ],
              [
                1374.3309157879255,
                284.00029586569883
              ],
              [
                1374.325215256619,
                284.00484409771707
              ],
              [
                1374.2986572265625,
                284.0228332519531
              ],
              [
                1374.2845420014464,
                284.0345282659601
              ],
              [
                1374.262790729746,
                284.0498807844004
              ],
              [
                1374.249498846236,
                284.0614279478316
              ],
              [
                1374.2383847533613,
                284.06958190519566
              ],
              [
                1374.2366275400984,
                284.071155540322
              ],
              [
                1374.2343524576409,
                284.07282831262273
              ],
              [
                1374.225746508816,
                284.08057046332294
              ],
              [
                1374.2102088809663,
                284.09239333759547
              ],
              [
                1374.1775139703036,
                284.1226892043266
              ],
              [
                1374.1750444730849,
                284.12465952002435
              ],
              [
                1374.1710278509197,
                284.12857916273924
              ],
              [
                1374.149399092748,
                284.146499431647
              ],
              [
                1374.1466470328378,
                284.14927038236715
              ],
              [
                1374.1432665757784,
                284.15208071446267
              ],
              [
                1374.1322168471136,
                284.16331526954724
              ],
              [
                1374.1108907171847,
                284.1818420876206
              ],
              [
                1374.099458827406,
                284.1939940762479
              ],
              [
                1374.0933581031254,
                284.19945745068657
              ],
              [
                1374.0922283724412,
                284.20068708893575
              ],
              [
                1374.0877919179984,
                284.2046782466304
              ],
              [
                1374.0810098250317,
                284.21211219600644
              ],
              [
                1374.0681429254137,
                284.2240349652746
              ],
              [
                1374.0350148580067,
                284.26130818600143
              ],
              [
                1374.0323318055844,
                284.2639264573868
              ],
              [
                1374.029939318008,
                284.2667792074026
              ],
              [
                1374.012915312874,
                284.283920069458
              ],
              [
                1374.009572130566,
                284.28801143772284
              ],
              [
                1374.0029031723957,
                284.2947919461132
              ],
              [
                1373.9927547667799,
                284.307419464028
              ],
              [
                1373.9730189351849,
                284.328398462753
              ],
              [
                1373.9635523870882,
                284.34074251592597
              ],
              [
                1373.9616456412766,
                284.34281788452
              ],
              [
                1373.9610784031522,
                284.34357074769986
              ],
              [
                1373.954924067065,
                284.3503166037566
              ],
              [
                1373.9497968853248,
                284.3571890675109
              ],
              [
                1373.9394763968025,
                284.36880090836996
              ],
              [
                1373.9070056909302,
                284.41336258365754
              ],
              [
                1373.904196427307,
                284.41671228834343
              ],
              [
                1373.9031407325645,
                284.41826160181165
              ],
              [
                1373.8903637701778,
                284.4338979786577
              ],
              [
                1373.8867357549295,
                284.4393374245552
              ],
              [
                1373.8775082062334,
                284.45081913319785
              ],
              [
                1373.8683968164682,
                284.4648221077086
              ],
              [
                1373.8505709012213,
                284.48806648817515
              ],
              [
                1373.8429174203604,
                284.5004500803404
              ],
              [
                1373.837039862063,
                284.5083283472734
              ],
              [
                1373.833371243805,
                284.51441595575403
              ],
              [
                1373.8254159380047,
                284.5253335426795
              ],
              [
                1373.7951734524386,
                284.57661584169523
              ],
              [
                1373.7921439902345,
                284.58115788317764
              ],
              [
                1373.7919120739166,
                284.58149823826363
              ],
              [
                1373.7918903299314,
                284.5815381934575
              ],
              [
                1373.7828937608049,
                284.59502665689496
              ],
              [
                1373.779271855614,
                284.6017951257963
              ],
              [
                1373.7683377706005,
                284.61859933653574
              ],
              [
                1373.7604096567716,
                284.63395044616317
              ],
              [
                1373.7447860159073,
                284.65923002810945
              ],
              [
                1373.7392680218827,
                284.6705683628896
              ],
              [
                1373.7352846776248,
                284.6771782194028
              ],
              [
                1373.732854810882,
                284.68228980171205
              ],
              [
                1373.7270312152411,
                284.69216489522404
              ],
              [
                1373.7009210791225,
                284.74821386569937
              ],
              [
                1373.691513145324,
                284.7657950291991
              ],
              [
                1373.6881673246078,
                284.7738323884144
              ],
              [
                1373.6764854361395,
                284.79645188586375
              ],
              [
                1373.6698974126416,
                284.81311059617195
              ],
              [
                1373.656735017967,
                284.84015659090636
              ],
              [
                1373.6530661026698,
                284.8501370923424
              ],
              [
                1373.6506471772188,
                284.85522565803404
              ],
              [
                1373.6492168171458,
                284.859204120204
              ],
              [
                1373.6452448866864,
                284.8677304109913
              ],
              [
                1373.6239781292384,
                284.92802822396294
              ],
              [
                1373.6228259781544,
                284.93079593117665
              ],
              [
                1373.621600635951,
                284.93368374268897
              ],
              [
                1373.621529715836,
                284.9339098236335
              ],
              [
                1373.6170788969464,
                284.94460161893664
              ],
              [
                1373.6142538943411,
                284.95381277372417
              ],
              [
                1373.6028712964255,
                284.98259521527035
              ],
              [
                1373.5977899112195,
                285.00050418001183
              ],
              [
                1373.5873091463804,
                285.029014865065
              ],
              [
                1373.5851604871898,
                285.03737302345644
              ],
              [
                1373.5839497071963,
                285.0407407365877
              ],
              [
                1373.5832642751761,
                285.04346455051956
              ],
              [
                1373.5808239497203,
                285.05038362543195
              ],
              [
                1373.5673378072818,
                285.10497341220423
              ],
              [
                1373.566691153263,
                285.10702618322483
              ],
              [
                1373.565481256435,
                285.1124884384849
              ],
              [
                1373.5653718534697,
                285.11293128450865
              ],
              [
                1373.5633662904363,
                285.1193246693169
              ],
              [
                1373.5630937592957,
                285.1206246279725
              ],
              [
                1373.5602890647776,
                285.12976956656075
              ],
              [
                1373.558201450118,
                285.14003077075216
              ],
              [
                1373.5482327513016,
                285.17516470931116
              ],
              [
                1373.5448325989655,
                285.19424614639865
              ],
              [
                1373.5372111193944,
                285.2238932554932
              ],
              [
                1373.5362184526057,
                285.2304182719598
              ],
              [
                1373.5358403067942,
                285.23192097215366
              ],
              [
                1373.5356340385188,
                285.2333052895004
              ],
              [
                1373.5343725479781,
                285.23841160510864
              ],
              [
                1373.525060230047,
                285.3020424851966
              ],
              [
                1373.5234453151625,
                285.3097455409933
              ],
              [
                1373.5231779985274,
                285.3121807346514
              ],
              [
                1373.5216762274679,
                285.31956235530674
              ],
              [
                1373.5209189343707,
                285.326829726153
              ],
              [
                1373.5188356163892,
                285.3373654516251
              ],
              [
                1373.5185848393753,
                285.339926459766
              ],
              [
                1373.5180231546133,
                285.34280687576364
              ],
              [
                1373.5176389413787,
                285.34685521067775
              ],
              [
                1373.5131171202736,
                285.372231381039
              ],
              [
                1373.5115782674286,
                285.39238361203303
              ],
              [
                1373.5113019762398,
                285.3941997346003
              ],
              [
                1373.5111022791211,
                285.39538265900677
              ],
              [
                1373.5110868319084,
                285.3956139254656
              ],
              [
                1373.506948021716,
                285.4228192323857
              ],
              [
                1373.506718885553,
                285.4273685211832
              ],
              [
                1373.5063263056538,
                285.43005101169445
              ],
              [
                1373.5032317463763,
                285.4938865485641
              ],
              [
                1373.5022155002096,
                285.5031443196706
              ],
              [
                1373.5021724009603,
                285.50673102314585
              ],
              [
                1373.5016024986562,
                285.5122000963563
              ],
              [
                1373.5015938560234,
                285.51344334641
              ],
              [
                1373.499817979821,
                285.53157911308915
              ],
              [
                1373.499817979821,
                285.5346291194399
              ],
              [
                1373.4995193860393,
                285.537775308906
              ],
              [
                1373.4995594536056,
                285.5497774221152
              ],
              [
                1373.4978761599593,
                285.5718211948499
              ],
              [
                1373.4982561333923,
                285.58770749310554
              ],
              [
                1373.497706218624,
                285.59594048911924
              ],
              [
                1373.4979161257659,
                285.6021392599594
              ],
              [
                1373.496826171875,
                285.623779296875
              ],
              [
                1373.496826171875,
                285.62445068359375
              ],
              [
                1373.499817979821,
                285.686166633849
              ],
              [
                1373.499817979821,
                285.72672166816085
              ],
              [
                1373.5001618845859,
                285.730233724105
              ],
              [
                1373.500173185062,
                285.73361874617234
              ],
              [
                1373.50223008496,
                285.75385431909575
              ],
              [
                1373.5026625405083,
                285.77193484058563
              ],
              [
                1373.504039963797,
                285.7829824093205
              ],
              [
                1373.504508882838,
                285.7968300642989
              ],
              [
                1373.505559186138,
                285.8045980338105
              ],
              [
                1373.5060034741075,
                285.8137629450334
              ],
              [
                1373.5060319408922,
                285.81436368690476
              ],
              [
                1373.5060329323915,
                285.8143706197322
              ],
              [
                1373.5062042353413,
                285.8179043105712
              ],
              [
                1373.5069667278626,
                285.8231144065479
              ],
              [
                1373.5070700920285,
                285.8251666074581
              ],
              [
                1373.5076131351182,
                285.82873614876087
              ],
              [
                1373.5076766829168,
                285.82996878515604
              ],
              [
                1373.50794138952,
                285.83166789255137
              ],
              [
                1373.5082025463512,
                285.8366950037853
              ],
              [
                1373.5145397147555,
                285.87706432690896
              ],
              [
                1373.5188356163892,
                285.9209353296249
              ],
              [
                1373.5196132145281,
                285.9248677876522
              ],
              [
                1373.5199782825532,
                285.92845928991727
              ],
              [
                1373.5257283617332,
                285.95693334285374
              ],
              [
                1373.5274283162912,
                285.9705677608135
              ],
              [
                1373.5286161698434,
                285.9757776393402
              ],
              [
                1373.528763086052,
                285.9769529690089
              ],
              [
                1373.5290085416823,
                285.97802782208356
              ],
              [
                1373.531441559927,
                285.9960222543092
              ],
              [
                1373.5335777066612,
                286.0049466864897
              ],
              [
                1373.5342504776656,
                286.009543717157
              ],
              [
                1373.534976180301,
                286.01248124746365
              ],
              [
                1373.5362321735686,
                286.0209484662979
              ],
              [
                1373.5386282129646,
                286.03051399176155
              ],
              [
                1373.5403847078426,
                286.0417032966328
              ],
              [
                1373.5495191588125,
                286.0761076952185
              ],
              [
                1373.5566898386924,
                286.1123711534765
              ],
              [
                1373.5579853682116,
                286.1166681362887
              ],
              [
                1373.5587447719909,
                286.12042865901066
              ],
              [
                1373.5696814176213,
                286.1561348214552
              ],
              [
                1373.573340584853,
                286.1721583575542
              ],
              [
                1373.574243507996,
                286.17484100145515
              ],
              [
                1373.578232210342,
                286.1915050737333
              ],
              [
                1373.5807969133111,
                286.19886088021576
              ],
              [
                1373.5839220629107,
                286.2113371767746
              ],
              [
                1373.5859424242985,
                286.2169837085863
              ],
              [
                1373.5861090131716,
                286.2176415074901
              ],
              [
                1373.5898166493623,
                286.2278859390817
              ],
              [
                1373.593636534024,
                286.2422733209707
              ],
              [
                1373.6043537586036,
                286.2704617577974
              ],
              [
                1373.6130202686975,
                286.29920664115303
              ],
              [
                1373.6149102802538,
                286.3037988466902
              ],
              [
                1373.6161009304303,
                286.30768610335537
              ],
              [
                1373.6308885626318,
                286.34313717540056
              ],
              [
                1373.6372132283248,
                286.3619281721518
              ],
              [
                1373.6391295681779,
                286.36616435588985
              ],
              [
                1373.644408214618,
                286.3813040044847
              ],
              [
                1373.645825655778,
                286.38434612878325
              ],
              [
                1373.6500436693525,
                286.3961346869958
              ],
              [
                1373.650381710814,
                286.39684941561524
              ],
              [
                1373.65040988029,
                286.3969281440271
              ],
              [
                1373.6529059530765,
                286.40220564652566
              ],
              [
                1373.6536098745273,
                286.4041506256926
              ],
              [
                1373.6612507634572,
                286.420112221407
              ],
              [
                1373.6673847145144,
                286.436245735321
              ],
              [
                1373.6784551973315,
                286.4581954264902
              ],
              [
                1373.6872906320248,
                286.47966309000196
              ],
              [
                1373.6898419798886,
                286.4844689189817
              ],
              [
                1373.6914967828695,
                286.488436054416
              ],
              [
                1373.705071798135,
                286.5136949339758
              ],
              [
                1373.7105352664378,
                286.5260189878749
              ],
              [
                1373.7106573367503,
                286.5262631284999
              ],
              [
                1373.715190475449,
                286.53430604004217
              ],
              [
                1373.7158537027071,
                286.53576763920097
              ],
              [
                1373.7197408162176,
                286.5443603358539
              ],
              [
                1373.7219178372368,
                286.54811901614227
              ],
              [
                1373.7343264166159,
                286.57435475294886
              ],
              [
                1373.7381060519422,
                286.58066069352464
              ],
              [
                1373.7392529046735,
                286.58305643567036
              ],
              [
                1373.7521074314145,
                286.60422734025167
              ],
              [
                1373.760835274713,
                286.62153222822633
              ],
              [
                1373.7710502393209,
                286.6374363022612
              ],
              [
                1373.7787938633626,
                286.65202252680376
              ],
              [
                1373.7820618744172,
                286.6569495105727
              ],
              [
                1373.7842093758318,
                286.6609453425128
              ],
              [
                1373.7989220443187,
                286.68286659521374
              ],
              [
                1373.8080156019319,
                286.699000820163
              ],
              [
                1373.8123535967559,
                286.7051756328165
              ],
              [
                1373.8124318246155,
                286.70531205612565
              ],
              [
                1373.8146829072568,
                286.70849672074837
              ],
              [
                1373.8208307393604,
                286.7190677231351
              ],
              [
                1373.8219915284324,
                286.7206859935559
              ],
              [
                1373.8242516157406,
                286.7245477173022
              ],
              [
                1373.824820164878,
                286.7253344506598
              ],
              [
                1373.8352297207075,
                286.7427017453361
              ],
              [
                1373.840504816958,
                286.74981438925846
              ],
              [
                1373.8421957612136,
                286.7525993085486
              ],
              [
                1373.8615113684566,
                286.7782787378722
              ],
              [
                1373.8729821237469,
                286.7961380010584
              ],
              [
                1373.8811855573329,
                286.8063923272192
              ],
              [
                1373.8866588378391,
                286.8146440631422
              ],
              [
                1373.890685704792,
                286.819590561488
              ],
              [
                1373.8933497096018,
                286.8235598157862
              ],
              [
                1373.9081101153997,
                286.8414779077067
              ],
              [
                1373.9219999807594,
                286.8612490968983
              ],
              [
                1373.926862655418,
                286.8668881304451
              ],
              [
                1373.9320943114913,
                286.8741816469674
              ],
              [
                1373.933797419294,
                286.8761323951674
              ],
              [
                1373.9369888597466,
                286.8805485704771
              ],
              [
                1373.9399974528033,
                286.8839646792375
              ],
              [
                1373.952148038587,
                286.9003478476242
              ],
              [
                1373.9590943358858,
                286.9080119056543
              ],
              [
                1373.9614259492328,
                286.91111170466127
              ],
              [
                1373.9883975122216,
                286.9404077175089
              ],
              [
                1374.00261788607,
                286.9581832440661
              ],
              [
                1374.002862026695,
                286.95845790226923
              ],
              [
                1374.0079571807282,
                286.9636437841296
              ],
              [
                1374.0098586642644,
                286.9659795169153
              ],
              [
                1374.0146721036965,
                286.97083664808747
              ],
              [
                1374.0178712626387,
                286.9747202014789
              ],
              [
                1374.0319481015576,
                286.98875117859717
              ],
              [
                1374.0514900939322,
                287.0114131821876
              ],
              [
                1374.0539267986064,
                287.0137291873865
              ],
              [
                1374.0576392457763,
                287.01798144295265
              ],
              [
                1374.0599618454619,
                287.0201783196244
              ],
              [
                1374.0641996517138,
                287.02499013923216
              ],
              [
                1374.0702578260684,
                287.03066191657996
              ],
              [
                1374.0839553829394,
                287.04577484167
              ],
              [
                1374.0927075071922,
                287.05370730470946
              ],
              [
                1374.0957707796963,
                287.0570345746445
              ],
              [
                1374.1272656523113,
                287.0850767446528
              ],
              [
                1374.142779102567,
                287.10086643810445
              ],
              [
                1374.1470876512476,
                287.1044541357003
              ],
              [
                1374.1472204612935,
                287.104588151267
              ],
              [
                1374.152832670385,
                287.10924191014067
              ],
              [
                1374.1565800264293,
                287.112977057443
              ],
              [
                1374.1676376393568,
                287.1220255906752
              ],
              [
                1374.1963218306303,
                287.14915709811845
              ],
              [
                1374.1993312093136,
                287.15150285783454
              ],
              [
                1374.204705830407,
                287.15653467969804
              ],
              [
                1374.2143742807639,
                287.16397964049975
              ],
              [
                1374.2293823769853,
                287.17758218602233
              ],
              [
                1374.2400298461223,
                287.18547888732417
              ],
              [
                1374.243908903438,
                287.1889326934739
              ],
              [
                1374.2802037893644,
                287.21529898951877
              ],
              [
                1374.2961967492768,
                287.22861621257454
              ],
              [
                1374.3059681225548,
                287.2352225331301
              ],
              [
                1374.308145954563,
                287.2370046705074
              ],
              [
                1374.314183868116,
                287.2410285602009
              ],
              [
                1374.346878670762,
                287.266513605137
              ],
              [
                1374.3506309502213,
                287.2689008559613
              ],
              [
                1374.3572060995252,
                287.27396389367937
              ],
              [
                1374.3709781343146,
                287.2825967567955
              ],
              [
                1374.3870284792733,
                287.294500503902
              ],
              [
                1374.399612781063,
                287.30204324412125
              ],
              [
                1374.4043833072953,
                287.3055087766259
              ],
              [
                1374.4453717225092,
                287.32947181024844
              ],
              [
                1374.461586275837,
                287.3404342956536
              ],
              [
                1374.4708032726444,
                287.3454055444286
              ],
              [
                1374.4711157162383,
                287.34561376843624
              ],
              [
                1374.471687482489,
                287.34591865529325
              ],
              [
                1374.5079381966752,
                287.3689818488157
              ],
              [
                1374.512477036007,
                287.37129393684717
              ],
              [
                1374.5202880796412,
                287.3761902119088
              ],
              [
                1374.5385717727206,
                287.3853320584485
              ],
              [
                1374.5553754716605,
                287.3954038079936
              ],
              [
                1374.5698882931342,
                287.4022678613495
              ],
              [
                1374.5756156445689,
                287.4056162395261
              ],
              [
                1374.6177362783208,
                287.4249247848029
              ],
              [
                1374.6262769692974,
                287.4295805035003
              ],
              [
                1374.6290956223445,
                287.4307815802434
              ],
              [
                1374.637299700517,
                287.4352065045888
              ],
              [
                1374.6408338401318,
                287.4366789855078
              ],
              [
                1374.6780331596385,
                287.4556283457126
              ],
              [
                1374.683388453258,
                287.45774039871714
              ],
              [
                1374.6924413889383,
                287.4622668665573
              ],
              [
                1374.7155429767586,
                287.4711573961473
              ],
              [
                1374.7328020805824,
                287.47932034431943
              ],
              [
                1374.7491847370761,
                287.48518215254325
              ],
              [
                1374.755921758858,
                287.48827047478625
              ],
              [
                1374.7935151562388,
                287.50117283219987
              ],
              [
                1374.8556139982877,
                287.52566374815063
              ],
              [
                1374.8618005897765,
                287.5274439010586
              ],
              [
                1374.8720716315916,
                287.5313966597125
              ],
              [
                1374.9001806966921,
                287.5392093707893
              ],
              [
                1374.9175995908035,
                287.5454419507613
              ],
              [
                1374.9357436688604,
                287.54998680571924
              ],
              [
                1374.9435282485886,
                287.55265853631465
              ],
              [
                1374.9761029398614,
                287.5603336855635
              ],
              [
                1375.039062955096,
                287.57845003515683
              ],
              [
                1375.0460793943341,
                287.5797608571895
              ],
              [
                1375.0575151642474,
                287.5829393466182
              ],
              [
                1375.071797499217,
                287.58546202678764
              ],
              [
                1375.0737931695835,
                287.58600167174455
              ],
              [
                1375.090866089268,
                287.58884294926463
              ],
              [
                1375.1079883012803,
                287.59313184010335
              ],
              [
                1375.1277374952704,
                287.59606135629696
              ],
              [
                1375.1365899093123,
                287.5981471350512
              ],
              [
                1375.1640098557277,
                287.6017928084217
              ],
              [
                1375.2267088141098,
                287.61350632482
              ],
              [
                1375.2345361915063,
                287.6142064633736
              ],
              [
                1375.247054503836,
                287.61641756529326
              ],
              [
                1375.2650888920693,
                287.6178371308243
              ],
              [
                1375.269388104534,
                287.61855260632325
              ],
              [
                1375.287316449552,
                287.6197326580707
              ],
              [
                1375.3021346646533,
                287.62193073264126
              ],
              [
                1375.3232877531232,
                287.6229699172407
              ],
              [
                1375.3332078822227,
                287.6242888676844
              ],
              [
                1375.3554588343795,
                287.6250226793286
              ],
              [
                1375.4168421256888,
                287.6305132551137
              ],
              [
                1375.4254430228798,
                287.6304593054114
              ],
              [
                1375.4389342340203,
                287.631521257614
              ],
              [
                1375.4605881534733,
                287.63113747969743
              ],
              [
                1375.4672449786783,
                287.63157563493195
              ],
              [
                1375.4858117012798,
                287.6309542068257
              ],
              [
                1375.4981689453125,
                287.6315612792969
              ],
              [
                1375.4984130859375,
                287.6315612792969
              ],
              [
                1375.5078215739845,
                287.63109906991804
              ],
              [
                1375.508181596177,
                287.6311152414212
              ],
              [
                1375.5157354952212,
                287.63071028389834
              ],
              [
                1375.5206298990004,
                287.63046983725917
              ],
              [
                1375.531448330389,
                287.63082661708904
              ],
              [
                1375.548631552713,
                287.62968659712703
              ],
              [
                1375.6077307795545,
                287.62931589327786
              ],
              [
                1375.6170483802907,
                287.6283644953423
              ],
              [
                1375.631377262964,
                287.62811054091384
              ],
              [
                1375.6564127272502,
                287.62524419139817
              ],
              [
                1375.6654190102088,
                287.6249427511557
              ],
              [
                1375.6842327664433,
                287.62243254376847
              ],
              [
                1375.6944473665967,
                287.62193073264126
              ],
              [
                1375.702903531822,
                287.6206763790218
              ],
              [
                1375.7047113040544,
                287.6205794660288
              ],
              [
                1375.7190822067932,
                287.6183780576388
              ],
              [
                1375.729361459018,
                287.61769608120215
              ],
              [
                1375.7416855020304,
                287.615638096812
              ],
              [
                1375.7976357842767,
                287.6099251472524
              ],
              [
                1375.8075931921462,
                287.6079353031995
              ],
              [
                1375.822601281845,
                287.6062170035048
              ],
              [
                1375.8506782355332,
                287.60022471664075
              ],
              [
                1375.8619622999038,
                287.5987191511711
              ],
              [
                1375.8806203924662,
                287.5943145729959
              ],
              [
                1375.8885937299697,
                287.59313184010335
              ],
              [
                1375.8959977483748,
                287.59127723003985
              ],
              [
                1375.8992539141084,
                287.5907784339172
              ],
              [
                1375.915606180425,
                287.58659518930943
              ],
              [
                1375.9250006926698,
                287.58502640546686
              ],
              [
                1375.9327716007049,
                287.5829202073944
              ],
              [
                1375.9848271094477,
                287.5725176663063
              ],
              [
                1375.9952876601283,
                287.5693616406446
              ],
              [
                1376.0108352716898,
                287.56604341212307
              ],
              [
                1376.04151702887,
                287.5563320294536
              ],
              [
                1376.0549429774867,
                287.5531625929176
              ],
              [
                1376.0731805079795,
                287.5468952591882
              ],
              [
                1376.0789824404465,
                287.5454419507613
              ],
              [
                1376.0852750627382,
                287.5431904145033
              ],
              [
                1376.089925527809,
                287.54200073029955
              ],
              [
                1376.1079860531547,
                287.53543073250273
              ],
              [
                1376.1164418208075,
                287.5331389126214
              ],
              [
                1376.1206161491307,
                287.53154910672527
              ],
              [
                1376.1689807830435,
                287.51695713825205
              ],
              [
                1376.1793424276102,
                287.5127075661973
              ],
              [
                1376.194335905642,
                287.5079618340068
              ],
              [
                1376.2270965513285,
                287.49400195708483
              ],
              [
                1376.2424641904345,
                287.4887208625338
              ],
              [
                1376.2600168652332,
                287.48066679781766
              ],
              [
                1376.2637799506676,
                287.47932034431943
              ],
              [
                1376.2689434921137,
                287.4768781710966
              ],
              [
                1376.2748797323193,
                287.47471870539306
              ],
              [
                1376.292012967754,
                287.46649853290154
              ],
              [
                1376.2997485280382,
                287.4633259843163
              ],
              [
                1376.30180192338,
                287.46254394232807
              ],
              [
                1376.3024757776018,
                287.4622074704108
              ],
              [
                1376.3468313458018,
                287.4440161319723
              ],
              [
                1376.3570489591941,
                287.43862699174156
              ],
              [
                1376.3714036947651,
                287.4325101910003
              ],
              [
                1376.405637331132,
                287.41384868207206
              ],
              [
                1376.4226827485877,
                287.4060273729625
              ],
              [
                1376.4392953990582,
                287.39630771960594
              ],
              [
                1376.4412065595895,
                287.3954038079936
              ],
              [
                1376.4452641582207,
                287.39297177696795
              ],
              [
                1376.4523254806604,
                287.38958390030604
              ],
              [
                1376.4674620657604,
                287.3803911110369
              ],
              [
                1376.5168579195251,
                287.35433794455514
              ],
              [
                1376.5268227249478,
                287.34778785568443
              ],
              [
                1376.5403987278385,
                287.34038727759696
              ],
              [
                1376.5754304129382,
                287.3166584699608
              ],
              [
                1376.5938272413,
                287.30589493798533
              ],
              [
                1376.609262512883,
                287.2946749460214
              ],
              [
                1376.6095535519767,
                287.294500503902
              ],
              [
                1376.6120708233068,
                287.2926335682448
              ],
              [
                1376.612627879781,
                287.29222864053565
              ],
              [
                1376.6205444357322,
                287.2874207376886
              ],
              [
                1376.633742557608,
                287.2775070648155
              ],
              [
                1376.6774898321753,
                287.24875100545336
              ],
              [
                1376.6870846985075,
                287.2410291345037
              ],
              [
                1376.699755859375,
                287.2324462890625
              ],
              [
                1376.7329984371695,
                287.20473055672693
              ],
              [
                1376.7374727389154,
                287.2014781598149
              ],
              [
                1376.7471976172908,
                287.19448792401164
              ],
              [
                1376.7477048027736,
                287.1940404109133
              ],
              [
                1376.7542154490518,
                287.18930778288484
              ],
              [
                1376.7706281163812,
                287.1746864768931
              ],
              [
                1376.77790761023,
                287.16921853824414
              ],
              [
                1376.7892390952222,
                287.158816100881
              ],
              [
                1376.8272431977446,
                287.12823070603787
              ],
              [
                1376.8417260348333,
                287.114079795135
              ],
              [
                1376.8580750730623,
                287.100448915776
              ],
              [
                1376.8845489111125,
                287.0732965548933
              ],
              [
                1376.89671923012,
                287.0625581222066
              ],
              [
                1376.8977932484484,
                287.06140078906833
              ],
              [
                1376.902270878381,
                287.0574118702625
              ],
              [
                1376.904474057596,
                287.05501767749104
              ],
              [
                1376.9051072730688,
                287.05445189332784
              ],
              [
                1376.9167908536856,
                287.04172207667494
              ],
              [
                1376.9228911413195,
                287.03612194041284
              ],
              [
                1376.9324396381387,
                287.02544521959004
              ],
              [
                1376.9647346241034,
                286.99389038912454
              ],
              [
                1376.9824968397288,
                286.97283822692214
              ],
              [
                1377.0018666744352,
                286.9529719445498
              ],
              [
                1377.0219207479697,
                286.9276443486216
              ],
              [
                1377.0323603310735,
                286.9163949358719
              ],
              [
                1377.033865501103,
                286.9144081180713
              ],
              [
                1377.036538257608,
                286.91150363610234
              ],
              [
                1377.0375863389165,
                286.9101096515189
              ],
              [
                1377.0389493496148,
                286.9086245865501
              ],
              [
                1377.0495253630452,
                286.8945249689126
              ],
              [
                1377.0540910473185,
                286.88941981599953
              ],
              [
                1377.0619509457556,
                286.87866750165966
              ],
              [
                1377.0886939925037,
                286.8469710641319
              ],
              [
                1377.1085664107588,
                286.8182138963857
              ],
              [
                1377.1297276268194,
                286.79148801803433
              ],
              [
                1377.1441054078555,
                286.76889192736195
              ],
              [
                1377.1527725735034,
                286.7574513069326
              ],
              [
                1377.1545471934573,
                286.75454764809825
              ],
              [
                1377.1556978410456,
                286.75301724679633
              ],
              [
                1377.1558192584944,
                286.75281719850307
              ],
              [
                1377.1577212717013,
                286.75028149266853
              ],
              [
                1377.167000071776,
                286.73496065440776
              ],
              [
                1377.1702368234776,
                286.73053278908446
              ],
              [
                1377.173735843923,
                286.7245988210518
              ],
              [
                1377.174648018114,
                286.72334300558964
              ],
              [
                1377.1776258616153,
                286.71827869035064
              ],
              [
                1377.1979761906873,
                286.68882994288043
              ],
              [
                1377.2186731993618,
                286.65170134184115
              ],
              [
                1377.224807434976,
                286.64206078995096
              ],
              [
                1377.2252307004228,
                286.64141504113434
              ],
              [
                1377.225287006022,
                286.64130709709576
              ],
              [
                1377.240301789592,
                286.61770989457057
              ],
              [
                1377.2498545522956,
                286.59860436916347
              ],
              [
                1377.2567589939354,
                286.58730722189534
              ],
              [
                1377.258060884937,
                286.5846041450438
              ],
              [
                1377.2602596889928,
                286.58097355476986
              ],
              [
                1377.2663181983296,
                286.56828738752466
              ],
              [
                1377.2679656538598,
                286.5655192889524
              ],
              [
                1377.2696405080783,
                286.5619546695907
              ],
              [
                1377.2702037452086,
                286.56099947907995
              ],
              [
                1377.2705658599389,
                286.5602188562319
              ],
              [
                1377.2725843517958,
                286.55678607708614
              ],
              [
                1377.2775943086367,
                286.5460020887038
              ],
              [
                1377.2915716912069,
                286.5209279019368
              ],
              [
                1377.30973013777,
                286.4794203079802
              ],
              [
                1377.3171478672982,
                286.46519970304774
              ],
              [
                1377.319541975509,
                286.4592295227361
              ],
              [
                1377.332416372224,
                286.43348072930627
              ],
              [
                1377.3380785120685,
                286.4184659696295
              ],
              [
                1377.3432859105399,
                286.40765400591994
              ],
              [
                1377.3441011710102,
                286.4054143530228
              ],
              [
                1377.3455602555116,
                286.4023591146825
              ],
              [
                1377.3486581706932,
                286.39378009835264
              ],
              [
                1377.3509501719116,
                286.38890199503476
              ],
              [
                1377.3521614234778,
                286.38549553631606
              ],
              [
                1377.3539916405773,
                286.38155597344877
              ],
              [
                1377.3599380912128,
                286.3646521565497
              ],
              [
                1377.3686158772414,
                286.34481598732344
              ],
              [
                1377.382773770913,
                286.3015485882403
              ],
              [
                1377.3911216269034,
                286.2807315653295
              ],
              [
                1377.3947757394399,
                286.26811729109016
              ],
              [
                1377.4050943733316,
                286.24075452500995
              ],
              [
                1377.4078577745322,
                286.23026461008084
              ],
              [
                1377.4114931984939,
                286.22027751012234
              ],
              [
                1377.4119300253544,
                286.2185621719241
              ],
              [
                1377.4127874670326,
                286.2161876698064
              ],
              [
                1377.4138300251363,
                286.2120620798562
              ],
              [
                1377.4163275439812,
                286.2050381922667
              ],
              [
                1377.4169093565142,
                286.2027014575231
              ],
              [
                1377.4181100952558,
                286.1992881494722
              ],
              [
                1377.4238287853937,
                286.17608192369903
              ],
              [
                1377.428397029758,
                286.1621210862607
              ],
              [
                1377.4382861766583,
                286.11791595441144
              ],
              [
                1377.446421477064,
                286.08983227901444
              ],
              [
                1377.4500147409583,
                286.07036749398776
              ],
              [
                1377.453476250017,
                286.0577755589719
              ],
              [
                1377.4537993118372,
                286.05586980343793
              ],
              [
                1377.4575649431135,
                286.04157540719325
              ],
              [
                1377.4584530216428,
                286.03587497971057
              ],
              [
                1377.4607028400915,
                286.0270403592397
              ],
              [
                1377.4607894668181,
                286.0264656900518
              ],
              [
                1377.463475375873,
                286.0156782685897
              ],
              [
                1377.463651899089,
                286.0144812520181
              ],
              [
                1377.464341286498,
                286.0116837442897
              ],
              [
                1377.4686428340365,
                285.98221971535116
              ],
              [
                1377.47036290223,
                285.97453089830253
              ],
              [
                1377.4738383830202,
                285.9466321031615
              ],
              [
                1377.4775503198543,
                285.92120669211425
              ],
              [
                1377.482501323313,
                285.89438700371215
              ],
              [
                1377.4837847527701,
                285.87898440126105
              ],
              [
                1377.487005941566,
                285.8599824703934
              ],
              [
                1377.4870965732746,
                285.85864327287055
              ],
              [
                1377.4879525941099,
                285.8533932925799
              ],
              [
                1377.4883640227242,
                285.8471367785668
              ],
              [
                1377.4917216205886,
                285.8241384599957
              ],
              [
                1377.4919448190633,
                285.8226249351518
              ],
              [
                1377.4919459423186,
                285.8226019381076
              ],
              [
                1377.4922537300906,
                285.8204937043289
              ],
              [
                1377.4939680676036,
                285.78504469113824
              ],
              [
                1377.494125822184,
                285.78377834470024
              ],
              [
                1377.494256237188,
                285.77908593020715
              ],
              [
                1377.4972263475354,
                285.7176700887678
              ],
              [
                1377.4990048716586,
                285.6963257913676
              ],
              [
                1377.498861278805,
                285.68750707011236
              ],
              [
                1377.500541800629,
                285.6619517052856
              ],
              [
                1377.5005003823019,
                285.6605851307328
              ],
              [
                1377.500551798453,
                285.65982539241213
              ],
              [
                1377.5003384424224,
                285.65331829580896
              ],
              [
                1377.5015869140625,
                285.62750244140625
              ],
              [
                1377.4959959083815,
                285.5115310210618
              ],
              [
                1377.4957691470395,
                285.49760452670387
              ],
              [
                1377.4954872189971,
                285.49517860940847
              ],
              [
                1377.4947296998312,
                285.47018468791595
              ],
              [
                1377.494195953004,
                285.4659799209136
              ],
              [
                1377.4939775278667,
                285.45931822278703
              ],
              [
                1377.4931981414854,
                285.45349834872746
              ],
              [
                1377.4923027724567,
                285.4349261590485
              ],
              [
                1377.4912106911295,
                285.42742577557647
              ],
              [
                1377.4909792814863,
                285.4229119412842
              ],
              [
                1377.4838747728445,
                285.37704289759205
              ],
              [
                1377.4763207313126,
                285.32516195535715
              ],
              [
                1377.4705697752054,
                285.27985689827767
              ],
              [
                1377.4690345218949,
                285.2730625260996
              ],
              [
                1377.4673492773995,
                285.26047838175447
              ],
              [
                1377.4661972274916,
                285.2556340192521
              ],
              [
                1377.4645365429244,
                285.2442284849119
              ],
              [
                1377.4612019450858,
                285.2306596669537
              ],
              [
                1377.4596325417108,
                285.22052708275805
              ],
              [
                1377.4446625227238,
                285.1633590741899
              ],
              [
                1377.4394911201261,
                285.14231611074035
              ],
              [
                1377.428284348609,
                285.0927197502709
              ],
              [
                1377.425385151339,
                285.08391787308386
              ],
              [
                1377.4249647940744,
                285.08209812245127
              ],
              [
                1377.4248380299443,
                285.0817188578202
              ],
              [
                1377.4209349694977,
                285.06530651357974
              ],
              [
                1377.4196675175044,
                285.0616518542767
              ],
              [
                1377.4185460110725,
                285.0570883304727
              ],
              [
                1377.4172997382757,
                285.05353547958873
              ],
              [
                1377.4165494961962,
                285.0505067282225
              ],
              [
                1377.4110084327872,
                285.034839711353
              ],
              [
                1377.4077533126156,
                285.02240894970697
              ],
              [
                1377.38745812324,
                284.9682526558158
              ],
              [
                1377.3849650672169,
                284.9612036928483
              ],
              [
                1377.3682625344438,
                284.91049529721687
              ],
              [
                1377.3655348310629,
                284.90429007073556
              ],
              [
                1377.3644106295887,
                284.9009265809452
              ],
              [
                1377.362208115742,
                284.89596941556624
              ],
              [
                1377.3552016057363,
                284.8757663569021
              ],
              [
                1377.3532889887815,
                284.8716415242597
              ],
              [
                1377.3518030661937,
                284.86744016929754
              ],
              [
                1377.3410669085147,
                284.8444609428073
              ],
              [
                1377.335885577087,
                284.8306349221505
              ],
              [
                1377.314347459791,
                284.78727174325644
              ],
              [
                1377.310090751636,
                284.77816086171754
              ],
              [
                1377.2910566589874,
                284.734860385364
              ],
              [
                1377.2889646537792,
                284.73112143768253
              ],
              [
                1377.286848409763,
                284.7263584385367
              ],
              [
                1377.2816563766246,
                284.71715552739477
              ],
              [
                1377.2708105680422,
                284.69376498640804
              ],
              [
                1377.2700964719445,
                284.6925587646901
              ],
              [
                1377.2696089169326,
                284.6915152221697
              ],
              [
                1377.2530280980643,
                284.66348698977816
              ],
              [
                1377.2509415231552,
                284.6591995105313
              ],
              [
                1377.2498900742291,
                284.65749823043154
              ],
              [
                1377.2447829087414,
                284.64721585859536
              ],
              [
                1377.2241603167504,
                284.61457244370706
              ],
              [
                1377.2162184525807,
                284.60110539410897
              ],
              [
                1377.1973771778373,
                284.567431223394
              ],
              [
                1377.1963493671376,
                284.5659483206724
              ],
              [
                1377.1929856946736,
                284.55998619023705
              ],
              [
                1377.1873159589725,
                284.55186032988587
              ],
              [
                1377.1747718217594,
                284.5304266479322
              ],
              [
                1377.173497457569,
                284.52866323866414
              ],
              [
                1377.1709219526203,
                284.52429594502325
              ],
              [
                1377.1653753710675,
                284.51668400806443
              ],
              [
                1377.1655589110785,
                284.51699022607283
              ],
              [
                1377.1619220372356,
                284.51205288798246
              ],
              [
                1377.1615964511675,
                284.51150968044516
              ],
              [
                1377.1522816570086,
                284.49895013443563
              ],
              [
                1377.151185659441,
                284.4971568473643
              ],
              [
                1377.1490574601828,
                284.49434763372983
              ],
              [
                1377.1451566378412,
                284.488035970597
              ],
              [
                1377.139843914371,
                284.4811083618915
              ],
              [
                1377.1354005702794,
                284.47407501105266
              ],
              [
                1377.135034359342,
                284.47355621222454
              ],
              [
                1377.1203990915922,
                284.45496011547345
              ],
              [
                1377.1040427347382,
                284.43251321623194
              ],
              [
                1377.0836787453968,
                284.40332756414824
              ],
              [
                1377.0786357555398,
                284.39739777638795
              ],
              [
                1377.0620345777534,
                284.37442579475726
              ],
              [
                1377.0601905496717,
                284.3723319919846
              ],
              [
                1377.0568614938225,
                284.3677633107137
              ],
              [
                1377.0497127278866,
                284.3597200546014
              ],
              [
                1377.049631084197,
                284.3596092169658
              ],
              [
                1377.0457867201794,
                284.3553583345447
              ],
              [
                1377.044678133288,
                284.3538635781571
              ],
              [
                1377.0321989752902,
                284.3400949490661
              ],
              [
                1377.030773417011,
                284.338213218425
              ],
              [
                1377.027809690881,
                284.33501958720603
              ],
              [
                1377.0227086038776,
                284.3283679451749
              ],
              [
                1377.0108464254179,
                284.3157585638279
              ],
              [
                1377.006194457397,
                284.3098476062097
              ],
              [
                1376.996712705248,
                284.30008839791395
              ],
              [
                1376.9804773040464,
                284.2818215402325
              ],
              [
                1376.9765945492056,
                284.277412863959
              ],
              [
                1376.9599247127815,
                284.2578116760132
              ],
              [
                1376.9558391059247,
                284.25384608364607
              ],
              [
                1376.9348237857862,
                284.2299842260022
              ],
              [
                1376.9323283986205,
                284.2276479973676
              ],
              [
                1376.9281949652113,
                284.22299736761835
              ],
              [
                1376.9192430237365,
                284.2147022898704
              ],
              [
                1376.9234015284214,
                284.21929049274365
              ],
              [
                1376.923111771238,
                284.2190192165911
              ],
              [
                1376.9245587401383,
                284.2206157007528
              ],
              [
                1376.920759158836,
                284.21710985957384
              ],
              [
                1376.9150680545606,
                284.210816955205
              ],
              [
                1376.914945984248,
                284.2106948848925
              ],
              [
                1376.9147858608549,
                284.2105495403654
              ],
              [
                1376.9128707889356,
                284.20843658411127
              ],
              [
                1376.8969389206256,
                284.1939967803714
              ],
              [
                1376.8951323160575,
                284.19205003209026
              ],
              [
                1376.8912265802787,
                284.1886038216231
              ],
              [
                1376.8848368218778,
                284.1818115700425
              ],
              [
                1376.8653555251133,
                284.16488742852266
              ],
              [
                1376.8610241799588,
                284.16042933903674
              ],
              [
                1376.8574735345785,
                284.15746524062786
              ],
              [
                1376.8468209173557,
                284.1475942770686
              ],
              [
                1376.8341481347381,
                284.1357297784299
              ],
              [
                1376.8228525409575,
                284.1247659921309
              ],
              [
                1376.8199924802634,
                284.12247698712787
              ],
              [
                1376.794317607093,
                284.09843968553633
              ],
              [
                1376.7911004343184,
                284.0959623779725
              ],
              [
                1376.7861290096587,
                284.0913557399392
              ],
              [
                1376.7753742375428,
                284.08317223086135
              ],
              [
                1376.7803665933068,
                284.0876970383749
              ],
              [
                1376.779834999185,
                284.087287696934
              ],
              [
                1376.7832374978916,
                284.0903715420045
              ],
              [
                1376.7794008973553,
                284.08746652572836
              ],
              [
                1376.7674437948897,
                284.0766292397589
              ],
              [
                1376.747860136564,
                284.0621050088637
              ],
              [
                1376.7456107032283,
                284.06012023028524
              ],
              [
                1376.740673156752,
                284.0565711253169
              ],
              [
                1376.7329368093165,
                284.04985026682226
              ],
              [
                1376.706794458267,
                284.0313984295188
              ],
              [
                1376.70415434541,
                284.02923893662967
              ],
              [
                1376.7121658235255,
                284.03518065375056
              ],
              [
                1376.7089034594244,
                284.032668547678
              ],
              [
                1376.7128055309809,
                284.03556252117943
              ],
              [
                1376.7006479328086,
                284.02631157527986
              ],
              [
                1376.679206062162,
                284.00980077152275
              ],
              [
                1376.6737126685605,
                284.00540421956697
              ],
              [
                1376.672273893168,
                284.0044628192631
              ],
              [
                1376.6418173379748,
                283.981010471555
              ],
              [
                1376.6378212270695,
                283.97850554915465
              ],
              [
                1376.631995930712,
                283.9740729712155
              ],
              [
                1376.6193999984866,
                283.9662882569802
              ],
              [
                1376.6252368184832,
                283.9706171377193
              ],
              [
                1376.62443051622,
                283.97011171515993
              ],
              [
                1376.6304209846414,
                283.97455454933714
              ],
              [
                1376.6296029619216,
                283.9740417799262
              ],
              [
                1376.6293467072428,
                283.973847747734
              ],
              [
                1376.627302924549,
                283.97259200400856
              ],
              [
                1376.626581469654,
                283.97204689596424
              ],
              [
                1376.6257140142225,
                283.97151527050397
              ],
              [
                1376.6097976926017,
                283.95971092187926
              ],
              [
                1376.5864602646227,
                283.9457230058572
              ],
              [
                1376.5836949050422,
                283.9437352673167
              ],
              [
                1376.5776550982337,
                283.940249073582
              ],
              [
                1376.5685460753114,
                283.9338197280102
              ],
              [
                1376.5491052491836,
                283.9228437126803
              ],
              [
                1376.5433015763083,
                283.91925684558373
              ],
              [
                1376.4787353578588,
                283.87878415332557
              ],
              [
                1376.4739183154343,
                283.87637563211325
              ],
              [
                1376.4672411981678,
                283.8722489466958
              ],
              [
                1376.452806087199,
                283.8651563914368
              ],
              [
                1376.4594789290177,
                283.869155938905
              ],
              [
                1376.458372642729,
                283.86860279576064
              ],
              [
                1376.464514425736,
                283.87228403882676
              ],
              [
                1376.461018201508,
                283.8705359267127
              ],
              [
                1376.4414507002145,
                283.85880761778765
              ],
              [
                1376.4143599442548,
                283.8459946444665
              ],
              [
                1376.4109944529926,
                283.8440520733007
              ],
              [
                1376.403803839833,
                283.84080859308125
              ],
              [
                1376.3933285581875,
                283.83489439729703
              ],
              [
                1376.3732621823497,
                283.82604756557106
              ],
              [
                1376.3065820485617,
                283.7927074986771
              ],
              [
                1376.3009189570512,
                283.7905280864636
              ],
              [
                1376.2934098923645,
                283.78683857854446
              ],
              [
                1376.2771783606156,
                283.7807323599798
              ],
              [
                1376.2846599653733,
                283.78427089549734
              ],
              [
                1376.2832372376206,
                283.78372336589536
              ],
              [
                1376.289366012218,
                283.7866220603992
              ],
              [
                1376.2864738476721,
                283.78550902545663
              ],
              [
                1376.2640240912926,
                283.7748910814618
              ],
              [
                1376.2332854714678,
                283.76389262742316
              ],
              [
                1376.2292260839235,
                283.76206155364537
              ],
              [
                1376.2246221781375,
                283.7605153979476
              ],
              [
                1376.2159823062273,
                283.7567062650209
              ],
              [
                1376.1954719759267,
                283.74994734746167
              ],
              [
                1376.1269518059084,
                283.72357770552185
              ],
              [
                1376.1204359234523,
                283.72176666318165
              ],
              [
                1376.11213221432,
                283.71864285061463
              ],
              [
                1376.0941875757424,
                283.7138126644943
              ],
              [
                1376.1024324555458,
                283.71676272965954
              ],
              [
                1376.100686614838,
                283.71627748587827
              ],
              [
                1376.106632031308,
                283.7184047899068
              ],
              [
                1376.1044969740083,
                283.71781136619256
              ],
              [
                1376.0792265810715,
                283.70876947501995
              ],
              [
                1376.0450503345658,
                283.700208770922
              ],
              [
                1376.0401966747283,
                283.69857873890976
              ],
              [
                1376.03822892609,
                283.69812990741866
              ],
              [
                1376.0320321492395,
                283.6960878387025
              ],
              [
                1376.013759908776,
                283.69197394565924
              ],
              [
                1376.011664907555,
                283.69130322531964
              ],
              [
                1376.0081537558426,
                283.6905586478504
              ],
              [
                1375.9415082732526,
                283.67203501861616
              ],
              [
                1375.9341524698432,
                283.6707357675182
              ],
              [
                1375.925108197604,
                283.66830130677107
              ],
              [
                1375.905573435927,
                283.6650271887231
              ],
              [
                1375.9145187801753,
                283.6672678808118
              ],
              [
                1375.9124536099437,
                283.66690311104543
              ],
              [
                1375.9180452077806,
                283.6683037333902
              ],
              [
                1375.91680079371,
                283.66808393328716
              ],
              [
                1375.8888378705947,
                283.6610795856779
              ],
              [
                1375.852788969254,
                283.65573223629787
              ],
              [
                1375.8430811131589,
                283.65354656663493
              ],
              [
                1375.8216187654546,
                283.6508590075167
              ],
              [
                1375.8175858921088,
                283.6501466835419
              ],
              [
                1375.8143847067206,
                283.64946783776423
              ],
              [
                1375.8127196151775,
                283.6492871559969
              ],
              [
                1375.751968933664,
                283.6385567999411
              ],
              [
                1375.7438066194698,
                283.6379143085112
              ],
              [
                1375.7340917653153,
                283.63628605320685
              ],
              [
                1375.7131280147084,
                283.63483340084866
              ],
              [
                1375.7226948793268,
                283.63625251115946
              ],
              [
                1375.72032495376,
                283.6360659639585
              ],
              [
                1375.7253983668704,
                283.6368185337024
              ],
              [
                1375.7251528714528,
                283.63679920968497
              ],
              [
                1375.6946915072217,
                283.63228069314
              ],
              [
                1375.6594169650862,
                283.6305477660078
              ],
              [
                1375.6509011927935,
                283.62948140356747
              ],
              [
                1375.6504276168655,
                283.6294682843681
              ],
              [
                1375.649070138106,
                283.6292982980987
              ],
              [
                1375.6263521705837,
                283.6286689554144
              ],
              [
                1375.5600892034797,
                283.6234531076204
              ],
              [
                1375.551174909675,
                283.62361109791453
              ],
              [
                1375.5408742816787,
                283.6228973310018
              ],
              [
                1375.5186787171253,
                283.6235122018595
              ],
              [
                1375.5287734558558,
                283.6240081245726
              ],
              [
                1375.5269553975897,
                283.6240403464812
              ],
              [
                1375.4986572265625,
                283.6226501464844
              ],
              [
                1375.4661786757708,
                283.6242317619426
              ],
              [
                1375.4554636089463,
                283.62393492865806
              ],
              [
                1375.4288497342425,
                283.6257790980805
              ],
              [
                1375.367646174536,
                283.62686382432054
              ],
              [
                1375.3580557528066,
                283.6279618467245
              ],
              [
                1375.347267752519,
                283.62826070044247
              ]
            ],
            [
              [
                1377.1169375367053,
                284.4503981011041
              ],
              [
                1377.1164147594143,
                284.4496747048198
              ],
              [
                1377.1192815826664,
                284.45354016850285
              ],
              [
                1377.1144627748877,
                284.44741721829723
              ],
              [
                1377.1140048825368,
                284.44679095792503
              ],
              [
                1377.109914584048,
                284.440928745634
              ],
              [
                1377.1169375367053,
                284.4503981011041
              ]
            ],
            [
              [
                1377.052815718669,
                284.36392132532734
              ],
              [
                1377.052768060762,
                284.3638679057606
              ],
              [
                1377.051594119826,
                284.3622741899626
              ],
              [
                1377.052815718669,
                284.36392132532734
              ]
            ],
            [
              [
                1376.994863922038,
                284.29818551539205
              ],
              [
                1376.9900247838546,
                284.29320477377803
              ],
              [
                1376.9850822010203,
                284.2873930493789
              ],
              [
                1376.994863922038,
                284.29818551539205
              ]
            ],
            [
              [
                1376.854818813811,
                284.1552490650429
              ],
              [
                1376.8508120823917,
                284.1519042234849
              ],
              [
                1376.8463525683476,
                284.14757570743467
              ],
              [
                1376.854818813811,
                284.1552490650429
              ]
            ],
            [
              [
                1376.697196479768,
                284.0240786317754
              ],
              [
                1376.6962167395363,
                284.023415002052
              ],
              [
                1376.6951432732533,
                284.022555870042
              ],
              [
                1376.697196479768,
                284.0240786317754
              ]
            ],
            [
              [
                1376.5329586240132,
                283.9133079125184
              ],
              [
                1376.545020452042,
                283.920537494017
              ],
              [
                1376.5376358458402,
                283.916368249853
              ],
              [
                1376.5329586240132,
                283.9133079125184
              ]
            ],
            [
              [
                1376.3627403356581,
                283.8213969937878
              ],
              [
                1376.3613803752376,
                283.82068231746575
              ],
              [
                1376.3653327061654,
                283.82255163077735
              ],
              [
                1376.3629385174027,
                283.82149608466
              ],
              [
                1376.3627403356581,
                283.8213969937878
              ]
            ],
            [
              [
                1376.1845551147371,
                283.7462861149803
              ],
              [
                1376.1868092227085,
                283.74709264770894
              ],
              [
                1376.1857072182024,
                283.7467294961898
              ],
              [
                1376.1845551147371,
                283.7462861149803
              ]
            ],
            [
              [
                1376.9951340198813,
                284.29846351687024
              ],
              [
                1376.9942493523265,
                284.2974590205736
              ],
              [
                1376.9955176689516,
                284.29885839232475
              ],
              [
                1376.9951340198813,
                284.29846351687024
              ]
            ]
          ]
        ]
      }
    }
  ]
}