{
  "type": "FeatureCollection",
  "features": [
    {
      "type": "Feature",
      "properties": {
        "image_id": "0028_top_20250707_t1",
        "zone_type": "parking_spot",
        "generated_at": "2025-11-03T11:20:42",
        "source": "merged_t1_polygons"
      },
      "geometry": {
        "type": "MultiPolygon",
        "coordinates": [
          [
            [
              [
                1847.5014284613849,
                593.6493574327862
              ],
              [
                1847.5060820020374,
                593.6594991548376
              ],
              [
                1847.511807209762,
                593.669284573238
              ],
              [
                1847.5164309088034,
                593.6790605634958
              ],
              [
                1847.5250546585908,
                593.6934484207901
              ],
              [
                1847.5301774134928,
                593.7038744989492
              ],
              [
                1847.5320633532647,
                593.7069260136008
              ],
              [
                1847.5336501385113,
                593.7101279819666
              ],
              [
                1847.5542817278802,
                593.7432319659065
              ],
              [
                1847.564665903802,
                593.7626545165249
              ],
              [
                1847.5772656776956,
                593.7815470483225
              ],
              [
                1847.5945396878826,
                593.8116568661201
              ],
              [
                1847.5978170308135,
                593.8162909572885
              ],
              [
                1847.6062144370146,
                593.8306436475501
              ],
              [
                1847.6123240472211,
                593.8390485994527
              ],
              [
                1847.617334212895,
                593.8474075558829
              ],
              [
                1847.6266426501734,
                593.8599585306313
              ],
              [
                1847.6320014380124,
                593.8686292314933
              ],
              [
                1847.6343909211432,
                593.8717694915337
              ],
              [
                1847.6364700485753,
                593.8751055118418
              ],
              [
                1847.6608368913812,
                593.9068565836565
              ],
              [
                1847.672483697501,
                593.9243202029894
              ],
              [
                1847.6853311146122,
                593.9400339562322
              ],
              [
                1847.7038625614678,
                593.9662370164615
              ],
              [
                1847.7097789936752,
                593.9731167494547
              ],
              [
                1847.722801592115,
                593.9910318553019
              ],
              [
                1847.7290807452632,
                593.998080312655
              ],
              [
                1847.7342525307745,
                594.005053658171
              ],
              [
                1847.7439550914305,
                594.0157587841842
              ],
              [
                1847.749284206736,
                594.02276231044
              ],
              [
                1847.7522100503527,
                594.0259198433308
              ],
              [
                1847.7548207468442,
                594.0293216961046
              ],
              [
                1847.782789208849,
                594.059235538241
              ],
              [
                1847.795481520306,
                594.0747595808244
              ],
              [
                1847.808121445321,
                594.0874711078746
              ],
              [
                1847.8273126435172,
                594.1097869757457
              ],
              [
                1847.8362604415388,
                594.1183913642406
              ],
              [
                1847.8546975047375,
                594.1390872846308
              ],
              [
                1847.8609400024,
                594.1448317431652
              ],
              [
                1847.866059875127,
                594.1504806522169
              ],
              [
                1847.8758697498395,
                594.1593718043911
              ],
              [
                1847.8809258344152,
                594.1648282659927
              ],
              [
                1847.8844115019156,
                594.1679262925561
              ],
              [
                1847.8875841293195,
                594.1713195958882
              ],
              [
                1847.9189489666273,
                594.198926439559
              ],
              [
                1847.9324982582925,
                594.2125524845958
              ],
              [
                1847.9445138348801,
                594.2224900765634
              ],
              [
                1847.9637836202705,
                594.2410203025819
              ],
              [
                1847.9758138230745,
                594.2505735126729
              ],
              [
                1847.9769514338855,
                594.2516547731884
              ],
              [
                1847.9774222331198,
                594.2520207852048
              ],
              [
                1848.0006057388978,
                594.273354663858
              ],
              [
                1848.006617559634,
                594.2778747116536
              ],
              [
                1848.0114868691728,
                594.2822879965693
              ],
              [
                1848.0116727410457,
                594.2824258485454
              ],
              [
                1848.0124634316728,
                594.2831424887568
              ],
              [
                1848.0220116240077,
                594.2902239108179
              ],
              [
                1848.0256917775107,
                594.2934947946036
              ],
              [
                1848.029750681193,
                594.2964523913902
              ],
              [
                1848.0335059299016,
                594.2997577031003
              ],
              [
                1848.0679923698722,
                594.324614122676
              ],
              [
                1848.082240457326,
                594.3363981330731
              ],
              [
                1848.0932580208162,
                594.3438362043541
              ],
              [
                1848.112052489548,
                594.3587609326621
              ],
              [
                1848.1279096913302,
                594.3690694189752
              ],
              [
                1848.130085432332,
                594.3707052716977
              ],
              [
                1848.1334947503315,
                594.3733557674175
              ],
              [
                1848.1342056018998,
                594.3738030625651
              ],
              [
                1848.1590921282036,
                594.3925142472956
              ],
              [
                1848.1637280595655,
                594.395327982665
              ],
              [
                1848.1701095339608,
                594.4000608066364
              ],
              [
                1848.1804217594913,
                594.4062417167543
              ],
              [
                1848.18222441182,
                594.4075552534016
              ],
              [
                1848.1868593547965,
                594.4102885980207
              ],
              [
                1848.1912075699163,
                594.413422614159
              ],
              [
                1848.2284754718992,
                594.4351229067618
              ],
              [
                1848.2432945334224,
                594.4451274087576
              ],
              [
                1848.2529878387613,
                594.4503805095804
              ],
              [
                1848.270790520841,
                594.4619537182131
              ],
              [
                1848.2903464118083,
                594.4721778124658
              ],
              [
                1848.2959499663923,
                594.4755788377392
              ],
              [
                1848.3013196233999,
                594.478957632457
              ],
              [
                1848.302423886545,
                594.4795081232897
              ],
              [
                1848.3059148286577,
                594.4816269180967
              ],
              [
                1848.3127880987072,
                594.4858748326011
              ],
              [
                1848.3133439418784,
                594.4861479408866
              ],
              [
                1848.3182029974216,
                594.4891334483618
              ],
              [
                1848.318608692453,
                594.4893313405196
              ],
              [
                1848.3285988726145,
                594.4953947873383
              ],
              [
                1848.3314051131067,
                594.4967376562813
              ],
              [
                1848.338456526348,
                594.500964110728
              ],
              [
                1848.3549377056527,
                594.5087591280043
              ],
              [
                1848.3591991820729,
                594.5112404934774
              ],
              [
                1848.3824337842088,
                594.5218978052112
              ],
              [
                1848.3859683168125,
                594.5239007687186
              ],
              [
                1848.4003572943216,
                594.5302445581382
              ],
              [
                1848.4141401171466,
                594.5377138944887
              ],
              [
                1848.4222338696334,
                594.5411304263773
              ],
              [
                1848.438575162901,
                594.5496738838378
              ],
              [
                1848.4593345793126,
                594.5581351719586
              ],
              [
                1848.4701156187898,
                594.5632342238788
              ],
              [
                1848.4864311260867,
                594.5711926919295
              ],
              [
                1848.4866194045105,
                594.5712852007524
              ],
              [
                1848.486625402646,
                594.5712874572201
              ],
              [
                1848.4927262437075,
                594.5742633590897
              ],
              [
                1848.4958311820378,
                594.575420385718
              ],
              [
                1848.507459850424,
                594.5809850469318
              ],
              [
                1848.508254261287,
                594.5812724583802
              ],
              [
                1848.5158831352699,
                594.5848806470539
              ],
              [
                1848.5334483142249,
                594.5911655685799
              ],
              [
                1848.535893685805,
                594.5922872183969
              ],
              [
                1848.5562260863378,
                594.5993155857607
              ],
              [
                1848.560461456779,
                594.6008310255364
              ],
              [
                1848.5633145687727,
                594.6020889009948
              ],
              [
                1848.571699017455,
                594.60485188904
              ],
              [
                1848.5814836524419,
                594.6083528874192
              ],
              [
                1848.5931644060793,
                594.6132835629435
              ],
              [
                1848.5994370895446,
                594.6152392678539
              ],
              [
                1848.6139027921165,
                594.6211353140096
              ],
              [
                1848.634704558452,
                594.6273956320832
              ],
              [
                1848.6498958503666,
                594.6328311632444
              ],
              [
                1848.6746824037552,
                594.6420676437281
              ],
              [
                1848.6786687952354,
                594.6431262875375
              ],
              [
                1848.700680645491,
                594.6510022534957
              ],
              [
                1848.719092831361,
                594.6556142659647
              ],
              [
                1848.7196217810242,
                594.6557971097241
              ],
              [
                1848.7244394648046,
                594.6569535279233
              ],
              [
                1848.746804649473,
                594.662555715045
              ],
              [
                1848.7472647257605,
                594.6627073273131
              ],
              [
                1848.7486998290321,
                594.6630304328116
              ],
              [
                1848.769155998292,
                594.6681544364668
              ],
              [
                1848.7786773898606,
                594.6711230275566
              ],
              [
                1848.7829633925471,
                594.6720143170394
              ],
              [
                1848.7952021874273,
                594.675697597947
              ],
              [
                1848.7954463280523,
                594.6757586331032
              ],
              [
                1848.8145057253378,
                594.67951395174
              ],
              [
                1848.835345175351,
                594.6847339622258
              ],
              [
                1848.8623562921503,
                594.6919071542534
              ],
              [
                1848.8670591982773,
                594.6926779114241
              ],
              [
                1848.8910693559678,
                594.6986921428377
              ],
              [
                1848.9614648298755,
                594.709134324978
              ],
              [
                1848.9689278040878,
                594.7106862769743
              ],
              [
                1848.977332589006,
                594.7115961181656
              ],
              [
                1848.993309443692,
                594.7147440760606
              ],
              [
                1849.0095979929927,
                594.7162742052624
              ],
              [
                1849.024750460727,
                594.7185218615274
              ],
              [
                1849.0539788260758,
                594.7233120851831
              ],
              [
                1849.0594609391956,
                594.723670674629
              ],
              [
                1849.0852157193408,
                594.7274910353757
              ],
              [
                1849.156525742459,
                594.7309942721685
              ],
              [
                1849.1621196624576,
                594.7315998294653
              ],
              [
                1849.1707122162798,
                594.7316912089366
              ],
              [
                1849.177007455237,
                594.7320004741952
              ],
              [
                1849.1940927248675,
                594.7336054464673
              ],
              [
                1849.2076822979589,
                594.7335074325853
              ],
              [
                1849.2163705540038,
                594.7339342592347
              ],
              [
                1849.2477437013358,
                594.7359864021348
              ],
              [
                1849.2540549421083,
                594.7357855745078
              ],
              [
                1849.28125,
                594.7371215820312
              ],
              [
                1849.3524468127046,
                594.7336239069094
              ],
              [
                1849.3564292110873,
                594.7336662586324
              ],
              [
                1849.362749735677,
                594.7331177567604
              ],
              [
                1849.380136059856,
                594.7322636214244
              ],
              [
                1849.395754723766,
                594.7321509728613
              ],
              [
                1849.4067785482046,
                594.7309547599018
              ],
              [
                1849.4084511268065,
                594.7308725913841
              ],
              [
                1849.4418244192402,
                594.7298106323543
              ],
              [
                1849.4489964755942,
                594.7288807261255
              ],
              [
                1849.4772842806592,
                594.7274910353757
              ],
              [
                1849.5473470590573,
                594.7170982039523
              ],
              [
                1849.5500221449665,
                594.716866057141
              ],
              [
                1849.5544104486355,
                594.7160504490838
              ],
              [
                1849.582420044609,
                594.7118956180045
              ],
              [
                1849.596245058283,
                594.7103954434858
              ],
              [
                1849.6036052029222,
                594.7088346456859
              ],
              [
                1849.6343915038508,
                594.7048429909098
              ],
              [
                1849.6424322268413,
                594.7029936516888
              ],
              [
                1849.6714306440322,
                594.6986921428377
              ],
              [
                1849.7393741201633,
                594.6816731880367
              ],
              [
                1849.741070924013,
                594.6813578208709
              ],
              [
                1849.7439485076986,
                594.6805273636083
              ],
              [
                1849.7817879035167,
                594.6710490883744
              ],
              [
                1849.7935252591176,
                594.6685600559304
              ],
              [
                1849.7970446338632,
                594.6674333185322
              ],
              [
                1849.8236297472906,
                594.6613188319351
              ],
              [
                1849.83251764089,
                594.6583419506685
              ],
              [
                1849.861819354509,
                594.6510022534957
              ],
              [
                1849.9267210095857,
                594.6277800699864
              ],
              [
                1849.927772025265,
                594.6274767517516
              ],
              [
                1849.9296147514203,
                594.626744672602
              ],
              [
                1849.9700231358024,
                594.612286321481
              ],
              [
                1850.0077553205597,
                594.5996484300955
              ],
              [
                1850.017434375697,
                594.5953223085921
              ],
              [
                1850.0466168647301,
                594.5848806470539
              ],
              [
                1850.1076418354958,
                594.5560179854319
              ],
              [
                1850.1083629683512,
                594.5557314934179
              ],
              [
                1850.1096699078323,
                594.5550587786538
              ],
              [
                1850.1466506768002,
                594.5375681775466
              ],
              [
                1850.1850325885594,
                594.5204131131886
              ],
              [
                1850.1954077157206,
                594.5145078155605
              ],
              [
                1850.224043473652,
                594.500964110728
              ],
              [
                1850.280466403657,
                594.4671455079522
              ],
              [
                1850.2811389535125,
                594.466799329553
              ],
              [
                1850.2823983870767,
                594.4659875216543
              ],
              [
                1850.3152777890868,
                594.446280366496
              ],
              [
                1850.3537904708246,
                594.4243597823353
              ],
              [
                1850.3647237797773,
                594.4166435802132
              ],
              [
                1850.3923904660392,
                594.4000608066364
              ],
              [
                1850.4436136494498,
                594.362071104678
              ],
              [
                1850.4444689551126,
                594.3615197902517
              ],
              [
                1850.4461226281976,
                594.3602103192192
              ],
              [
                1850.4743720625045,
                594.3392591108336
              ],
              [
                1850.512438193742,
                594.3123938714165
              ],
              [
                1850.5164010065787,
                594.3089759654246
              ],
              [
                1850.517482707754,
                594.3082124773183
              ],
              [
                1850.524772180724,
                594.3018798356238
              ],
              [
                1850.5500365683272,
                594.2831424887568
              ],
              [
                1850.5956038694435,
                594.2418426943901
              ],
              [
                1850.5968111187115,
                594.2408867267568
              ],
              [
                1850.5992179347081,
                594.2385670965689
              ],
              [
                1850.6224849812256,
                594.2174790748263
              ],
              [
                1850.6594802857621,
                594.1855708121213
              ],
              [
                1850.6634801273829,
                594.1813789804926
              ],
              [
                1850.6693827203153,
                594.1762511740981
              ],
              [
                1850.67708644526,
                594.1680621887484
              ],
              [
                1850.6863284955684,
                594.15982886245
              ],
              [
                1850.6875160412762,
                594.1585383576512
              ],
              [
                1850.695463562373,
                594.1513351444044
              ],
              [
                1850.7122922478807,
                594.1327675512317
              ],
              [
                1850.7124304277493,
                594.1326393272133
              ],
              [
                1850.71331176778,
                594.131642684366
              ],
              [
                1850.7350697443674,
                594.1076364565859
              ],
              [
                1850.7367273163536,
                594.1060389293867
              ],
              [
                1850.740127700643,
                594.1020558618112
              ],
              [
                1850.7582640083222,
                594.0820455298995
              ],
              [
                1850.7935306742652,
                594.045086085062
              ],
              [
                1850.7965316934897,
                594.0412576959927
              ],
              [
                1850.798407702876,
                594.039283917677
              ],
              [
                1850.7992364211184,
                594.0382179419805
              ],
              [
                1850.8072545023151,
                594.0296947989658
              ],
              [
                1850.8131279962874,
                594.0220359648096
              ],
              [
                1850.8205958747956,
                594.0139206282898
              ],
              [
                1850.8234529608678,
                594.0101206044691
              ],
              [
                1850.8272709067255,
                594.0059081503586
              ],
              [
                1850.8277093484533,
                594.0053169801236
              ],
              [
                1850.8280033286005,
                594.0049926230148
              ],
              [
                1850.8420078256668,
                593.9861097446338
              ],
              [
                1850.8431096891986,
                593.9848637279214
              ],
              [
                1850.8433538298236,
                593.9845585521401
              ],
              [
                1850.8504852747444,
                593.9746792277682
              ],
              [
                1850.857716903198,
                593.9649285055581
              ],
              [
                1850.8602265817406,
                593.962018139867
              ],
              [
                1850.8627698353805,
                593.9583980076645
              ],
              [
                1850.8628967226641,
                593.9582493772209
              ],
              [
                1850.86643205973,
                593.9531851039678
              ],
              [
                1850.8665336381662,
                593.9530405146269
              ],
              [
                1850.878478978579,
                593.9369340875868
              ],
              [
                1850.8824584519728,
                593.9316412496016
              ],
              [
                1850.913325751186,
                593.8922639507351
              ],
              [
                1850.9142024693099,
                593.8908892292733
              ],
              [
                1850.9152776024857,
                593.8895191669551
              ],
              [
                1850.9172679557416,
                593.8863946311507
              ],
              [
                1850.920108697105,
                593.882740601231
              ],
              [
                1850.9203252451748,
                593.8823964581394
              ],
              [
                1850.9243745375898,
                593.8771620807076
              ],
              [
                1850.9250097580493,
                593.8761459949745
              ],
              [
                1850.9297025362787,
                593.8700267735436
              ],
              [
                1850.9339449047752,
                593.8631624771233
              ],
              [
                1850.939755458233,
                593.8554342389839
              ],
              [
                1850.9435043939877,
                593.8492574644985
              ],
              [
                1850.94492164648,
                593.8473465207267
              ],
              [
                1850.9572565479664,
                593.8267669808858
              ],
              [
                1850.9591877797554,
                593.8240916092756
              ],
              [
                1850.9683127114342,
                593.808383095809
              ],
              [
                1850.9692829689566,
                593.8067844922849
              ],
              [
                1850.9742109605681,
                593.7997698631317
              ],
              [
                1850.9829346115816,
                593.784291944168
              ],
              [
                1850.9955805474413,
                593.7634564060115
              ],
              [
                1851.0207264005794,
                593.7239814443567
              ],
              [
                1851.0232455148418,
                593.7190100755674
              ],
              [
                1851.0300481748495,
                593.708128678919
              ],
              [
                1851.0311940777174,
                593.7058100099251
              ],
              [
                1851.0354874215927,
                593.6988632336094
              ],
              [
                1851.0383305755252,
                593.6930211411795
              ],
              [
                1851.0426359982757,
                593.685927494573
              ],
              [
                1851.057548710053,
                593.6547638759215
              ],
              [
                1851.0585953080079,
                593.652962164013
              ],
              [
                1851.0622107723154,
                593.6450214003307
              ],
              [
                1851.0666008470723,
                593.6358473066032
              ],
              [
                1851.0715692257497,
                593.6270321714686
              ],
              [
                1851.0716912960622,
                593.6267880308436
              ],
              [
                1851.08120069712,
                593.6053374861189
              ],
              [
                1851.087217307351,
                593.5927643639654
              ],
              [
                1851.1094418997022,
                593.5489050414984
              ],
              [
                1851.1120404603282,
                593.5422219730212
              ],
              [
                1851.1183696776707,
                593.5294151632821
              ],
              [
                1851.1197812624569,
                593.5256568503852
              ],
              [
                1851.123538419533,
                593.5179366708124
              ],
              [
                1851.1252413943166,
                593.5133040911813
              ],
              [
                1851.1282262578693,
                593.5070665167634
              ],
              [
                1851.142996491981,
                593.4662413008926
              ],
              [
                1851.1436682898845,
                593.4647560133536
              ],
              [
                1851.1441087415792,
                593.4634345615268
              ],
              [
                1851.1468268305248,
                593.4573033143389
              ],
              [
                1851.1547483105371,
                593.4337590446332
              ],
              [
                1851.1619008225134,
                593.4139893616854
              ],
              [
                1851.180569721101,
                593.3659760398461
              ],
              [
                1851.1829414809508,
                593.3574941823962
              ],
              [
                1851.188461589399,
                593.3427970172132
              ],
              [
                1851.1898678960151,
                593.3375014790317
              ],
              [
                1851.1929642911196,
                593.3290783966538
              ],
              [
                1851.1938072177636,
                593.3257994613838
              ],
              [
                1851.1956849501971,
                593.3206093722243
              ],
              [
                1851.204401395132,
                593.286179853167
              ],
              [
                1851.205945836998,
                593.2815894539258
              ],
              [
                1851.2112236139337,
                593.2592324320557
              ],
              [
                1851.218930259605,
                593.2287915692962
              ],
              [
                1851.2334248649734,
                593.176956145685
              ],
              [
                1851.2352449415948,
                593.1666312899368
              ],
              [
                1851.2396275607598,
                593.1501282550679
              ],
              [
                1851.2407378535067,
                593.1432420373571
              ],
              [
                1851.2430623181056,
                593.1342000062256
              ],
              [
                1851.2433401599937,
                593.1323736905713
              ],
              [
                1851.2443490078874,
                593.1283887921362
              ],
              [
                1851.248239979673,
                593.1024285905046
              ],
              [
                1851.2485403292455,
                593.1011562892975
              ],
              [
                1851.2500935065211,
                593.0900620318745
              ],
              [
                1851.2530921044267,
                593.0700556657187
              ],
              [
                1851.2534905934733,
                593.0682626509703
              ],
              [
                1851.2539377250669,
                593.0644137635064
              ],
              [
                1851.257763110248,
                593.0388911495941
              ],
              [
                1851.26749830739,
                592.9836657239247
              ],
              [
                1851.2684285309672,
                592.9714999143143
              ],
              [
                1851.2713592679522,
                592.9533230028753
              ],
              [
                1851.2718700553692,
                592.9448404324608
              ],
              [
                1851.273325415784,
                592.9352740293331
              ],
              [
                1851.2733415841246,
                592.9349530217288
              ],
              [
                1851.2737401004574,
                592.932294157845
              ],
              [
                1851.2739082555802,
                592.9289061377809
              ],
              [
                1851.2739387892818,
                592.9287002962841
              ],
              [
                1851.2759136375125,
                592.8885013370576
              ],
              [
                1851.2770622438595,
                592.8653590070097
              ],
              [
                1851.2772602606826,
                592.8636544876258
              ],
              [
                1851.2772989169166,
                592.8605904751138
              ],
              [
                1851.2780204022122,
                592.8460538578628
              ],
              [
                1851.282461902474,
                592.7879662669899
              ],
              [
                1851.2821567661877,
                592.7740105608094
              ],
              [
                1851.2833414627437,
                592.7543364818748
              ],
              [
                1851.283000266031,
                592.745718653894
              ],
              [
                1851.2835693359375,
                592.7342529296875
              ],
              [
                1851.2835314758443,
                592.7334366755271
              ],
              [
                1851.2835693359375,
                592.732666015625
              ],
              [
                1851.282246873816,
                592.7057409764216
              ],
              [
                1851.279252579213,
                592.6411847321414
              ],
              [
                1851.2781715426254,
                592.5917424676311
              ],
              [
                1851.2762846900464,
                592.5760989697101
              ],
              [
                1851.2754551044,
                592.5551455837796
              ],
              [
                1851.2751662983135,
                592.5530855358513
              ],
              [
                1851.2749767315206,
                592.5489985231138
              ],
              [
                1851.2743166683138,
                592.5442837289644
              ],
              [
                1851.273930900918,
                592.5364295892633
              ],
              [
                1851.2613196835048,
                592.4514470016562
              ],
              [
                1851.2612854302663,
                592.4512023327115
              ],
              [
                1851.260553836527,
                592.443626730257
              ],
              [
                1851.2599051034995,
                592.4402992623308
              ],
              [
                1851.254668546354,
                592.396884068303
              ],
              [
                1851.2519895715334,
                592.3848025396084
              ],
              [
                1851.2492727511205,
                592.3653964450775
              ],
              [
                1851.2482402907333,
                592.3610228726932
              ],
              [
                1851.2477785423305,
                592.3577292307489
              ],
              [
                1851.2468414699772,
                592.3538833795906
              ],
              [
                1851.2451084952888,
                592.3422054686914
              ],
              [
                1851.2256124450166,
                592.264406073009
              ],
              [
                1851.2237221481914,
                592.2547104019217
              ],
              [
                1851.2214385986717,
                592.2470250388834
              ],
              [
                1851.2121792603623,
                592.2052676619116
              ],
              [
                1851.2096416925383,
                592.1975165869026
              ],
              [
                1851.206678258873,
                592.1849632804492
              ],
              [
                1851.2030686632863,
                592.1742348191152
              ],
              [
                1851.2005867377036,
                592.1640487151878
              ],
              [
                1851.2001598601394,
                592.1628370016136
              ],
              [
                1851.1973799219343,
                592.1517436001619
              ],
              [
                1851.1973219675408,
                592.1515817003574
              ],
              [
                1851.1969617261518,
                592.150143536116
              ],
              [
                1851.1715486758549,
                592.0791188185582
              ],
              [
                1851.1689014077344,
                592.0702093482848
              ],
              [
                1851.164291001995,
                592.0588349789563
              ],
              [
                1851.1636880383744,
                592.057149808528
              ],
              [
                1851.1511128797017,
                592.0187386191986
              ],
              [
                1851.1495797253854,
                592.0152546817843
              ],
              [
                1851.1475592523998,
                592.0092494200361
              ],
              [
                1851.1423936919239,
                591.9975973627355
              ],
              [
                1851.1392373003275,
                591.9883853768861
              ],
              [
                1851.1385619682417,
                591.9869271467987
              ],
              [
                1851.13084011971,
                591.9653460258949
              ],
              [
                1851.099767405247,
                591.8996482909956
              ],
              [
                1851.0965993367913,
                591.8918323236582
              ],
              [
                1851.091008434853,
                591.8811290040628
              ],
              [
                1851.08706484075,
                591.8727909748815
              ],
              [
                1851.0724237179372,
                591.8397647035314
              ],
              [
                1851.0723016476247,
                591.8395205629064
              ],
              [
                1851.0692293966733,
                591.8340696282935
              ],
              [
                1851.0662367208854,
                591.8287536153862
              ],
              [
                1851.0469235833841,
                591.787919416973
              ],
              [
                1851.011101901636,
                591.7281545516018
              ],
              [
                1851.007485560131,
                591.7212313647314
              ],
              [
                1851.0008558701504,
                591.7110600808109
              ],
              [
                1850.9864514095327,
                591.6870276901595
              ],
              [
                1850.975774488712,
                591.6680618372194
              ],
              [
                1850.9752094897042,
                591.6672550114765
              ],
              [
                1850.9749433824431,
                591.6667828712433
              ],
              [
                1850.9706782885287,
                591.6607118276067
              ],
              [
                1850.9460202792925,
                591.6195724245858
              ],
              [
                1850.906426743021,
                591.5661867209407
              ],
              [
                1850.9023854039356,
                591.5599864902547
              ],
              [
                1850.894579932374,
                591.5502131459104
              ],
              [
                1850.8707081419052,
                591.5180257625278
              ],
              [
                1850.863191082938,
                591.507291307063
              ],
              [
                1850.8615602821833,
                591.505390469782
              ],
              [
                1850.8609590036156,
                591.504534594508
              ],
              [
                1850.8591254037033,
                591.5024082479716
              ],
              [
                1850.829101961413,
                591.4619263222977
              ],
              [
                1850.786752774233,
                591.4152011946342
              ],
              [
                1850.7822722520498,
                591.4095910677132
              ],
              [
                1850.7730700052289,
                591.4001045854409
              ],
              [
                1850.7386484302522,
                591.3621262299571
              ],
              [
                1850.73539152942,
                591.358330034435
              ],
              [
                1850.7340039420585,
                591.3570018269111
              ],
              [
                1850.6972946170606,
                591.3164993282519
              ],
              [
                1850.6532177869847,
                591.2765504180932
              ],
              [
                1850.6482585310002,
                591.2714379825222
              ],
              [
                1850.6373514044656,
                591.2621699672145
              ],
              [
                1850.5518676230147,
                591.1846919838995
              ],
              [
                1850.50707638879,
                591.1514725405685
              ],
              [
                1850.5015854072685,
                591.1468067378355
              ],
              [
                1850.4885770786277,
                591.137752517081
              ],
              [
                1850.3942215207267,
                591.0677736660199
              ],
              [
                1850.34968913603,
                591.0410819818309
              ],
              [
                1850.343611292244,
                591.036851604442
              ],
              [
                1850.3280176933838,
                591.0280926189891
              ],
              [
                1850.2258745283395,
                590.9668703619283
              ],
              [
                1850.1825110011328,
                590.946360941001
              ],
              [
                1850.1757992613125,
                590.9425909305002
              ],
              [
                1850.1572370518652,
                590.9344072532498
              ],
              [
                1850.0789234737092,
                590.8973676893081
              ],
              [
                1850.075270243927,
                590.8955727094038
              ],
              [
                1850.0745765274169,
                590.8953117368291
              ],
              [
                1850.0484479194176,
                590.8829538256024
              ],
              [
                1850.0064287061755,
                590.8679191106993
              ],
              [
                1849.9984530093523,
                590.864402798224
              ],
              [
                1849.975014805434,
                590.8566790372851
              ],
              [
                1849.9109501412993,
                590.8337563339236
              ],
              [
                1849.8939925658824,
                590.827376981474
              ],
              [
                1849.890474341145,
                590.8264299754799
              ],
              [
                1849.8636504091965,
                590.8168322191606
              ],
              [
                1849.8238263510434,
                590.8068568118913
              ],
              [
                1849.8145028523645,
                590.8037843719056
              ],
              [
                1849.785420320133,
                590.7972366019555
              ],
              [
                1849.7669881552404,
                590.7926195850018
              ],
              [
                1849.7661991797602,
                590.7923810153343
              ],
              [
                1849.7659550391352,
                590.792319980178
              ],
              [
                1849.765193981377,
                590.7921701678448
              ],
              [
                1849.7364055771054,
                590.78495904797
              ],
              [
                1849.7069685491665,
                590.7770354376304
              ],
              [
                1849.7003324034667,
                590.7759231883609
              ],
              [
                1849.6732616987197,
                590.7691423298186
              ],
              [
                1849.6362555553328,
                590.7636529869943
              ],
              [
                1849.6255518162839,
                590.761243099838
              ],
              [
                1849.5899829152831,
                590.7567890892365
              ],
              [
                1849.5716117264712,
                590.7540639808018
              ],
              [
                1849.5673874111967,
                590.7532324348109
              ],
              [
                1849.5636570813085,
                590.7528840206561
              ],
              [
                1849.5568200892885,
                590.751869848693
              ],
              [
                1849.5159521168778,
                590.7450201840662
              ],
              [
                1849.5059894507185,
                590.7443298357234
              ],
              [
                1849.4791153353467,
                590.7403434372806
              ],
              [
                1849.4454527972284,
                590.7386907319652
              ],
              [
                1849.4333718959185,
                590.7371779367706
              ],
              [
                1849.3903844206839,
                590.7359870796647
              ],
              [
                1849.3742863084285,
                590.735196722277
              ],
              [
                1849.3658862054094,
                590.7344121496301
              ],
              [
                1849.3631801543197,
                590.7344340749372
              ],
              [
                1849.3227346332412,
                590.7316314618612
              ],
              [
                1849.30926741192,
                590.7320045364863
              ],
              [
                1849.282958984375,
                590.730712890625
              ],
              [
                1849.2827758789062,
                590.7307218860199
              ],
              [
                1849.2825927734375,
                590.730712890625
              ],
              [
                1849.282531719284,
                590.7307158881566
              ],
              [
                1849.282470703125,
                590.730712890625
              ],
              [
                1849.2527331059862,
                590.7321738050921
              ],
              [
                1849.2397653667588,
                590.7318145673299
              ],
              [
                1849.222351871539,
                590.733021209947
              ],
              [
                1849.2220402329172,
                590.7330151675343
              ],
              [
                1849.219333713624,
                590.733230348774
              ],
              [
                1849.190362007003,
                590.7352379007018
              ],
              [
                1849.1875333069104,
                590.7353768658263
              ],
              [
                1849.1291281040815,
                590.7369948313019
              ],
              [
                1849.1126842522872,
                590.7390539640882
              ],
              [
                1849.0864364224658,
                590.7403434372806
              ],
              [
                1849.0599211220433,
                590.7442766105537
              ],
              [
                1849.0465478831222,
                590.745203289535
              ],
              [
                1849.0265210790535,
                590.7485598762048
              ],
              [
                1849.0252919760655,
                590.748657595776
              ],
              [
                1849.016533914374,
                590.7502337720355
              ],
              [
                1848.9962347124826,
                590.7536360138631
              ],
              [
                1848.9369481837161,
                590.7610599943692
              ],
              [
                1848.917966825542,
                590.7653335413106
              ],
              [
                1848.8922900590928,
                590.7691423298186
              ],
              [
                1848.8910751751373,
                590.7694466424076
              ],
              [
                1848.8910693559678,
                590.7694475055998
              ],
              [
                1848.8691742309738,
                590.7749319489026
              ],
              [
                1848.8555314508335,
                590.7772185430991
              ],
              [
                1848.8332158179867,
                590.7832252765073
              ],
              [
                1848.8310435351943,
                590.7836162192395
              ],
              [
                1848.8180451099972,
                590.787308799441
              ],
              [
                1848.8061988011448,
                590.790497488717
              ],
              [
                1848.7479971476355,
                590.8036012664369
              ],
              [
                1848.7266947334942,
                590.8106212051158
              ],
              [
                1848.700680645491,
                590.8171373949418
              ],
              [
                1848.6807946484557,
                590.8242527184551
              ],
              [
                1848.6685074341176,
                590.8275600869428
              ],
              [
                1848.6443071073463,
                590.8366641251129
              ],
              [
                1848.6411866260432,
                590.8375505884577
              ],
              [
                1848.6252377769902,
                590.8438379088836
              ],
              [
                1848.6205838465619,
                590.845588693518
              ],
              [
                1848.5640469906477,
                590.8642196927552
              ],
              [
                1848.5422962619282,
                590.8738082335475
              ],
              [
                1848.5158831352699,
                590.8832590013836
              ],
              [
                1848.4981342340222,
                590.8916536064845
              ],
              [
                1848.487229756073,
                590.8957558148726
              ],
              [
                1848.4616197415048,
                590.908339053332
              ],
              [
                1848.4575701968033,
                590.9099354559961
              ],
              [
                1848.4406910622863,
                590.918599634058
              ],
              [
                1848.386822809,
                590.9423467898752
              ],
              [
                1848.3867007386875,
                590.9424078250314
              ],
              [
                1848.3652743657042,
                590.9544916443285
              ],
              [
                1848.338456526348,
                590.9671755377095
              ],
              [
                1848.3229192004642,
                590.9764882524553
              ],
              [
                1848.3133984502697,
                590.9811661830239
              ],
              [
                1848.2869139563975,
                590.9975345004118
              ],
              [
                1848.281982421875,
                591.0000658916498
              ],
              [
                1848.2666779765823,
                591.0099396179079
              ],
              [
                1848.2187666374434,
                591.036851604442
              ],
              [
                1848.21675305964,
                591.0382531202279
              ],
              [
                1848.2130639413526,
                591.0403336701551
              ],
              [
                1848.1939036204442,
                591.053817215205
              ],
              [
                1848.1701095339608,
                591.0680788418011
              ],
              [
                1848.156804182755,
                591.0779467627914
              ],
              [
                1848.1486437177255,
                591.0829902075436
              ],
              [
                1848.1218678490395,
                591.1033644713676
              ],
              [
                1848.1161332874806,
                591.1070641475048
              ],
              [
                1848.1037696869266,
                591.1168932304512
              ],
              [
                1848.060792522419,
                591.1468067378355
              ],
              [
                1848.0561094347104,
                591.1507860561676
              ],
              [
                1848.050038148407,
                591.1550585557136
              ],
              [
                1848.033197481725,
                591.169619740133
              ],
              [
                1848.0124634316728,
                591.1849971596807
              ],
              [
                1848.0018698354638,
                591.1945986356145
              ],
              [
                1848.0012160904603,
                591.1950901603608
              ],
              [
                1848.0007106816347,
                591.1955552466449
              ],
              [
                1847.9945106387788,
                591.2002729762673
              ],
              [
                1847.9680607475905,
                591.2247820623072
              ],
              [
                1847.9616379387228,
                591.2298882060096
              ],
              [
                1847.9519291872678,
                591.2393102082427
              ],
              [
                1847.9141193986873,
                591.2714379825222
              ],
              [
                1847.907250381754,
                591.278519167002
              ],
              [
                1847.8992429888467,
                591.2854427126692
              ],
              [
                1847.8847371235793,
                591.3007615374306
              ],
              [
                1847.867036437627,
                591.3168045040331
              ],
              [
                1847.8666702266894,
                591.3171707149706
              ],
              [
                1847.8578297636873,
                591.3269246628003
              ],
              [
                1847.8524446832262,
                591.3319146039464
              ],
              [
                1847.826957715287,
                591.3605906317384
              ],
              [
                1847.8200009502673,
                591.3673419278093
              ],
              [
                1847.812639410168,
                591.3760524457971
              ],
              [
                1847.7801056776377,
                591.4095910677132
              ],
              [
                1847.7716096322229,
                591.420229089612
              ],
              [
                1847.762176582744,
                591.4301908002213
              ],
              [
                1847.7501825642216,
                591.4456950447744
              ],
              [
                1847.734862882337,
                591.4625977090164
              ],
              [
                1847.7276451548223,
                591.4723296879799
              ],
              [
                1847.723778154615,
                591.4766805470418
              ],
              [
                1847.6998953550053,
                591.509456476378
              ],
              [
                1847.6926016738307,
                591.5180867005175
              ],
              [
                1847.6872655967104,
                591.5258374818707
              ],
              [
                1847.659992525752,
                591.5599864902547
              ],
              [
                1847.6537418732826,
                591.5695762540504
              ],
              [
                1847.6536505185697,
                591.5696917501108
              ],
              [
                1847.6523822847469,
                591.5716621375612
              ],
              [
                1847.6504948839029,
                591.5745577917943
              ],
              [
                1847.6402006577227,
                591.5878647747611
              ],
              [
                1847.6307666158232,
                591.6029552763873
              ],
              [
                1847.6179445644575,
                591.6202438113046
              ],
              [
                1847.6122725770606,
                591.6297069505717
              ],
              [
                1847.6097176958172,
                591.6332131813514
              ],
              [
                1847.6078170025912,
                591.63643619416
              ],
              [
                1847.6068247885771,
                591.6378011766686
              ],
              [
                1847.5878168278844,
                591.6702892290264
              ],
              [
                1847.580680805171,
                591.6806544749804
              ],
              [
                1847.5770410452913,
                591.6872508211437
              ],
              [
                1847.5548923695565,
                591.7212313647314
              ],
              [
                1847.5496378661346,
                591.7312906771748
              ],
              [
                1847.5483490353147,
                591.7332930650844
              ],
              [
                1847.5440378982819,
                591.7416847697492
              ],
              [
                1847.534527020463,
                591.7568981765497
              ],
              [
                1847.527430995099,
                591.7712565785168
              ],
              [
                1847.5170412603659,
                591.7885908036917
              ],
              [
                1847.5128031165443,
                591.7975516059281
              ],
              [
                1847.5113329730536,
                591.800044533896
              ],
              [
                1847.509116802393,
                591.8048018466637
              ],
              [
                1847.5066923535999,
                591.8089456693812
              ],
              [
                1847.4925220710636,
                591.8398277605901
              ],
              [
                1847.4916631961253,
                591.8413516175939
              ],
              [
                1847.4915411258128,
                591.8415957582189
              ],
              [
                1847.4902107636897,
                591.8446135631449
              ],
              [
                1847.4853283013958,
                591.8534620620801
              ],
              [
                1847.483054151648,
                591.8587596944922
              ],
              [
                1847.4657785928962,
                591.8918323236582
              ],
              [
                1847.4615803372512,
                591.9021898741513
              ],
              [
                1847.4594421496795,
                591.906351894167
              ],
              [
                1847.4544926098959,
                591.9188432344066
              ],
              [
                1847.4462055176418,
                591.9356116921866
              ],
              [
                1847.4411910513645,
                591.9489625964081
              ],
              [
                1847.43312472404,
                591.9660174126136
              ],
              [
                1847.4301752163121,
                591.9742607344837
              ],
              [
                1847.429546644499,
                591.9756100496633
              ],
              [
                1847.4273154013217,
                591.9819363118651
              ],
              [
                1847.4239988640286,
                591.9891642275343
              ],
              [
                1847.415199560717,
                592.0147696236073
              ],
              [
                1847.4134140286928,
                592.0188199398666
              ],
              [
                1847.413301752396,
                592.0191606488504
              ],
              [
                1847.4131576391596,
                592.0194877150057
              ],
              [
                1847.4102078940828,
                592.0284550698987
              ],
              [
                1847.4074727662637,
                592.0348265508443
              ],
              [
                1847.4062368974596,
                592.0387281225567
              ],
              [
                1847.393476521953,
                592.0702093482848
              ],
              [
                1847.39036117275,
                592.0806941612519
              ],
              [
                1847.3877712273677,
                592.0872305041013
              ],
              [
                1847.3829163069856,
                592.1041177989202
              ],
              [
                1847.3761136059136,
                592.1222298382555
              ],
              [
                1847.3728965365171,
                592.1343439203666
              ],
              [
                1847.3670031175982,
                592.1508149228348
              ],
              [
                1847.3651660733544,
                592.1581488145565
              ],
              [
                1847.3651257075328,
                592.1582632641039
              ],
              [
                1847.3642860718876,
                592.1616619773421
              ],
              [
                1847.3631195051448,
                592.1663191728383
              ],
              [
                1847.359557133645,
                592.1766854404821
              ],
              [
                1847.3549242993467,
                592.1963104414979
              ],
              [
                1847.3527956023743,
                592.2027700968542
              ],
              [
                1847.3526380143858,
                592.2034700386346
              ],
              [
                1847.3524146578611,
                592.2041490523025
              ],
              [
                1847.3489671323705,
                592.2195257077796
              ],
              [
                1847.3478724068448,
                592.2229816977111
              ],
              [
                1847.3473549289004,
                592.2254331275092
              ],
              [
                1847.338655781496,
                592.2547104019217
              ],
              [
                1847.3369859970642,
                592.263275025436
              ],
              [
                1847.3368997607272,
                592.263567625152
              ],
              [
                1847.3365467023432,
                592.2654092563711
              ],
              [
                1847.3340145224367,
                592.274217159539
              ],
              [
                1847.3304312540054,
                592.2936198311397
              ],
              [
                1847.325985632943,
                592.3100602594272
              ],
              [
                1847.3255712072325,
                592.3125504972936
              ],
              [
                1847.3249476345527,
                592.3148986004009
              ],
              [
                1847.323497323403,
                592.3238936680112
              ],
              [
                1847.3207975539617,
                592.3344662122144
              ],
              [
                1847.3204737741967,
                592.3365704742056
              ],
              [
                1847.319313228256,
                592.3412036333115
              ],
              [
                1847.3189562885975,
                592.3436099250317
              ],
              [
                1847.3187028766936,
                592.3446216020615
              ],
              [
                1847.316657183434,
                592.3584125458074
              ],
              [
                1847.3140005753914,
                592.369666118065
              ],
              [
                1847.3122268539921,
                592.3829599846215
              ],
              [
                1847.3102543303069,
                592.3917211329349
              ],
              [
                1847.3101206116642,
                592.3927889851668
              ],
              [
                1847.3098860439327,
                592.3938352043184
              ],
              [
                1847.3071543009853,
                592.4158741274709
              ],
              [
                1847.3071076496153,
                592.416095127341
              ],
              [
                1847.306999348088,
                592.4170819205216
              ],
              [
                1847.3018240931606,
                592.443626730257
              ],
              [
                1847.301259088391,
                592.4494773154792
              ],
              [
                1847.3003129123545,
                592.4544127805641
              ],
              [
                1847.2998884268625,
                592.4590030437438
              ],
              [
                1847.2986807586774,
                592.4655423219599
              ],
              [
                1847.2971699459627,
                592.4832105082121
              ],
              [
                1847.2934346983643,
                592.5056551943778
              ],
              [
                1847.292670511984,
                592.5172653607247
              ],
              [
                1847.2912017446718,
                592.5268109579562
              ],
              [
                1847.2910156335163,
                592.5301712665479
              ],
              [
                1847.2904408568234,
                592.5339407860318
              ],
              [
                1847.2903484264605,
                592.5357717787895
              ],
              [
                1847.2899039841557,
                592.5387679654347
              ],
              [
                1847.2891656725487,
                592.5537966434468
              ],
              [
                1847.288668359101,
                592.5573836544372
              ],
              [
                1847.2885451524396,
                592.5604519968334
              ],
              [
                1847.2877769754068,
                592.5662094077599
              ],
              [
                1847.2875480436103,
                592.5730493191153
              ],
              [
                1847.2861891672394,
                592.5839010533002
              ],
              [
                1847.286149431721,
                592.5853354232243
              ],
              [
                1847.2859735813431,
                592.5867541339293
              ],
              [
                1847.2852226837397,
                592.6155331739391
              ],
              [
                1847.2833225731893,
                592.6352086869651
              ],
              [
                1847.2833225731893,
                592.6381413878614
              ],
              [
                1847.2824194291056,
                592.6479077264294
              ],
              [
                1847.2824561867285,
                592.6552804385856
              ],
              [
                1847.2821043153308,
                592.6593953956079
              ],
              [
                1847.2822912892764,
                592.6749552977303
              ],
              [
                1847.2804116697555,
                592.7035120685221
              ],
              [
                1847.2807896533677,
                592.7148052765448
              ],
              [
                1847.280439827386,
                592.7211215193736
              ],
              [
                1847.2806730188402,
                592.7266685810597
              ],
              [
                1847.2802734375,
                592.7348022460938
              ],
              [
                1847.2802734375,
                592.73486328125
              ],
              [
                1847.2802855834473,
                592.7351109582123
              ],
              [
                1847.2802734375,
                592.7353515625
              ],
              [
                1847.280295516736,
                592.7358176566677
              ],
              [
                1847.2802734375,
                592.7362670898438
              ],
              [
                1847.2809403460153,
                592.7498423245372
              ],
              [
                1847.280837120476,
                592.7524130564682
              ],
              [
                1847.2812845703156,
                592.760186286389
              ],
              [
                1847.2811440916305,
                592.7643834392904
              ],
              [
                1847.2811759569126,
                592.7648675636285
              ],
              [
                1847.2808257977986,
                592.7775075824601
              ],
              [
                1847.2809497886465,
                592.77929693915
              ],
              [
                1847.2809031802087,
                592.7810832627331
              ],
              [
                1847.2832473788062,
                592.8139749079721
              ],
              [
                1847.283388227569,
                592.8422258476834
              ],
              [
                1847.2844224780788,
                592.852312036288
              ],
              [
                1847.2844420627096,
                592.85394186197
              ],
              [
                1847.2858871745632,
                592.8671065018015
              ],
              [
                1847.2870445535318,
                592.9016861000526
              ],
              [
                1847.2884841009475,
                592.9124753656346
              ],
              [
                1847.2886136970492,
                592.9155581440016
              ],
              [
                1847.2889100430848,
                592.9176708904897
              ],
              [
                1847.2892350658922,
                592.9245321439361
              ],
              [
                1847.28967260458,
                592.9275915310375
              ],
              [
                1847.2899039841557,
                592.9323013705028
              ],
              [
                1847.292008812679,
                592.9464909718141
              ],
              [
                1847.2920540616685,
                592.9472770505391
              ],
              [
                1847.2930159040682,
                592.9534274068159
              ],
              [
                1847.2942145200036,
                592.9707250660965
              ],
              [
                1847.2945703053354,
                592.9728478306284
              ],
              [
                1847.2947227425352,
                592.9749866896404
              ],
              [
                1847.3004660508366,
                593.0087717133326
              ],
              [
                1847.3032101621727,
                593.0355327583894
              ],
              [
                1847.308193168904,
                593.0601928817368
              ],
              [
                1847.3132681535164,
                593.0982293897475
              ],
              [
                1847.3133803373871,
                593.0987046082498
              ],
              [
                1847.313390223829,
                593.0987787061538
              ],
              [
                1847.3153303093889,
                593.1069970404676
              ],
              [
                1847.316039640285,
                593.1119568711204
              ],
              [
                1847.3173732590958,
                593.1174841801237
              ],
              [
                1847.3187028766936,
                593.126447733876
              ],
              [
                1847.323573143418,
                593.1458909285265
              ],
              [
                1847.326229773568,
                593.1617414983853
              ],
              [
                1847.3268824588104,
                593.1641662912377
              ],
              [
                1847.3273017096683,
                593.1666325353294
              ],
              [
                1847.336629250572,
                593.2009186160728
              ],
              [
                1847.341698111521,
                593.2260036185573
              ],
              [
                1847.3492838339932,
                593.2508264787668
              ],
              [
                1847.3589467820825,
                593.2917593837367
              ],
              [
                1847.363242281985,
                593.3042590069958
              ],
              [
                1847.3663927660357,
                593.3168364443527
              ],
              [
                1847.3727878091856,
                593.3347093926286
              ],
              [
                1847.3765713174116,
                593.3487655151011
              ],
              [
                1847.3775817929213,
                593.3514515580496
              ],
              [
                1847.378332295731,
                593.3542102487055
              ],
              [
                1847.3913767372978,
                593.3885676442775
              ],
              [
                1847.3984887448419,
                593.4118403608479
              ],
              [
                1847.4084602216785,
                593.435840248651
              ],
              [
                1847.423388512466,
                593.4792805966845
              ],
              [
                1847.4285094449372,
                593.490440931931
              ],
              [
                1847.4325143724775,
                593.5016339545739
              ],
              [
                1847.440164627262,
                593.5178090593056
              ],
              [
                1847.4447670453412,
                593.5300431931456
              ],
              [
                1847.4461907869754,
                593.5329408608733
              ],
              [
                1847.447332395395,
                593.535947711865
              ],
              [
                1847.4641666826492,
                593.5699175608792
              ],
              [
                1847.4730459518723,
                593.59128866454
              ],
              [
                1847.4849102443568,
                593.6134796234631
              ],
              [
                1847.5003237337296,
                593.6474318145854
              ],
              [
                1847.5014284613849,
                593.6493574327862
              ]
            ]
          ]
        ]
      }
    }
  ]
}