{
  "type": "FeatureCollection",
  "features": [
    {
      "type": "Feature",
      "properties": {
        "image_id": "0029_top_20250707_t1",
        "zone_type": "parking_spot",
        "generated_at": "2025-11-03T11:20:42",
        "source": "merged_t1_polygons"
      },
      "geometry": {
        "type": "MultiPolygon",
        "coordinates": [
          [
            [
              [
                1698.6418196555023,
                1141.47219851414
              ],
              [
                1698.5863351649998,
                1141.4537036839724
              ],
              [
                1698.5360824096324,
                1141.4347988564741
              ],
              [
                1698.530716453208,
                1141.433354493684
              ],
              [
                1698.5237963848028,
                1141.4308046350106
              ],
              [
                1698.5172498477846,
                1141.4290844377806
              ],
              [
                1698.5094521456617,
                1141.4262632919904
              ],
              [
                1698.507462941676,
                1141.4257596896318
              ],
              [
                1698.5059843935715,
                1141.4252306566607
              ],
              [
                1698.5041788680542,
                1141.4247783960623
              ],
              [
                1698.5030547060715,
                1141.4243761644732
              ],
              [
                1698.484135754479,
                1141.4196372137988
              ],
              [
                1698.4674585655516,
                1141.4140781508231
              ],
              [
                1698.4035923758954,
                1141.399136309175
              ],
              [
                1698.3490583929165,
                1141.3844573126305
              ],
              [
                1698.3445145680516,
                1141.3836957461858
              ],
              [
                1698.3380159777748,
                1141.3819881476552
              ],
              [
                1698.32841064167,
                1141.380429416187
              ],
              [
                1698.3172315655738,
                1141.3775992343
              ],
              [
                1698.3149388654524,
                1141.3772555993926
              ],
              [
                1698.3126659955947,
                1141.376686275131
              ],
              [
                1698.2989154506063,
                1141.374646574461
              ],
              [
                1698.288498301276,
                1141.372209425845
              ],
              [
                1698.215738575694,
                1141.3621122834495
              ],
              [
                1698.1580419606278,
                1141.352442059066
              ],
              [
                1698.1543819144642,
                1141.352188441534
              ],
              [
                1698.1484093259899,
                1141.3512192238513
              ],
              [
                1698.1357433487317,
                1141.3503973835159
              ],
              [
                1698.1211369312825,
                1141.34820814173
              ],
              [
                1698.1204532639915,
                1141.3481742097713
              ],
              [
                1698.1185196322217,
                1141.3478873825932
              ],
              [
                1698.1103379775177,
                1141.3474854436718
              ],
              [
                1698.106450171652,
                1141.3469459181426
              ],
              [
                1698.0751031452319,
                1141.3455040564202
              ],
              [
                1698.074439713727,
                1141.3454218235306
              ],
              [
                1698.071841504994,
                1141.3453540315295
              ],
              [
                1698.0243512634445,
                1141.3431696341784
              ],
              [
                1698.0224174354446,
                1141.343044156466
              ],
              [
                1697.9648244769912,
                1141.339053336861
              ],
              [
                1697.9620826306789,
                1141.3391292926399
              ],
              [
                1697.9567254279962,
                1141.3387816869906
              ],
              [
                1697.9423357539213,
                1141.3392320236721
              ],
              [
                1697.9224853515625,
                1141.3382568359375
              ],
              [
                1697.92236328125,
                1141.3382568359375
              ],
              [
                1697.9221801757812,
                1141.3382658313324
              ],
              [
                1697.9219970703125,
                1141.3382568359375
              ],
              [
                1697.8316094830268,
                1141.3426972933592
              ],
              [
                1697.8186910135148,
                1141.3431015874842
              ],
              [
                1697.7712179478315,
                1141.344416706302
              ],
              [
                1697.7694017372344,
                1141.344644135911
              ],
              [
                1697.7647324435932,
                1141.3447902652947
              ],
              [
                1697.7517657618291,
                1141.346450769081
              ],
              [
                1697.7379023317076,
                1141.3470935809794
              ],
              [
                1697.7356216428377,
                1141.3474128735638
              ],
              [
                1697.7259627896533,
                1141.3478873825932
              ],
              [
                1697.6338524107784,
                1141.361550666606
              ],
              [
                1697.6101554722004,
                1141.3645852792347
              ],
              [
                1697.5790380274661,
                1141.3684818693694
              ],
              [
                1697.578128649638,
                1141.3686866107162
              ],
              [
                1697.574201383702,
                1141.3691895335205
              ],
              [
                1697.5647805068606,
                1141.3713303436582
              ],
              [
                1697.5543002536713,
                1141.3727975613795
              ],
              [
                1697.5479906622427,
                1141.374287053867
              ],
              [
                1697.5318164262803,
                1141.376686275131
              ],
              [
                1697.4399781915245,
                1141.3996905553845
              ],
              [
                1697.3923494947207,
                1141.4105137514282
              ],
              [
                1697.3900869913853,
                1141.411023141437
              ],
              [
                1697.390040619453,
                1141.4110384227154
              ],
              [
                1697.3868897739371,
                1141.411754424223
              ],
              [
                1697.3809466166929,
                1141.4137208038533
              ],
              [
                1697.373867089043,
                1141.415392053627
              ],
              [
                1697.3638806295828,
                1141.4187520023531
              ],
              [
                1697.3414277158035,
                1141.4243761644732
              ],
              [
                1697.3322381105054,
                1141.4276642578254
              ],
              [
                1697.3321266664148,
                1141.4276926915195
              ],
              [
                1697.3304732546887,
                1141.428295733334
              ],
              [
                1697.2516011217085,
                1141.4565166337666
              ],
              [
                1697.2045254425711,
                1141.472092303856
              ],
              [
                1697.2019046895105,
                1141.4732488794186
              ],
              [
                1697.1981532286297,
                1141.4745110601002
              ],
              [
                1697.1849440998517,
                1141.4803668975528
              ],
              [
                1697.1566302055824,
                1141.490497770915
              ],
              [
                1697.1455159430793,
                1141.495754425589
              ],
              [
                1697.1444553410379,
                1141.4961412544528
              ],
              [
                1697.1325796459575,
                1141.501872838458
              ],
              [
                1697.0749644447549,
                1141.5291227991827
              ],
              [
                1697.028668512125,
                1141.5496465945628
              ],
              [
                1697.0284243715,
                1141.5497686648753
              ],
              [
                1697.0133567022244,
                1141.5582610913218
              ],
              [
                1696.9792035966605,
                1141.5744143072409
              ],
              [
                1696.9665038570224,
                1141.5820262382438
              ],
              [
                1696.9645484156122,
                1141.5829699957783
              ],
              [
                1696.9471890213106,
                1141.5936031052472
              ],
              [
                1696.8926175709237,
                1141.6263119738467
              ],
              [
                1696.855686679837,
                1141.6471269300569
              ],
              [
                1696.8428847298494,
                1141.656120691633
              ],
              [
                1696.8108566042733,
                1141.6753176113325
              ],
              [
                1696.8105101979968,
                1141.6755745237367
              ],
              [
                1696.8101241823983,
                1141.6758058925825
              ],
              [
                1696.7965462617694,
                1141.6858759648342
              ],
              [
                1696.7942007195313,
                1141.687312674373
              ],
              [
                1696.7771583537242,
                1141.700255017427
              ],
              [
                1696.72499917197,
                1141.7389389030682
              ],
              [
                1696.6934384031017,
                1141.7611113088844
              ],
              [
                1696.6922525260309,
                1141.7621339192897
              ],
              [
                1696.6922213544667,
                1141.762155847931
              ],
              [
                1696.6895484841968,
                1141.7644656797931
              ],
              [
                1696.6832070360729,
                1141.7699340634858
              ],
              [
                1696.6524780801103,
                1141.792724210462
              ],
              [
                1696.6373975254708,
                1141.8063924284668
              ],
              [
                1696.6351117151778,
                1141.8081283224913
              ],
              [
                1696.6212226494645,
                1141.8210524815443
              ],
              [
                1696.5682455388505,
                1141.869068135772
              ],
              [
                1696.5432743178123,
                1141.8906014220572
              ],
              [
                1696.5418325445512,
                1141.8921183338703
              ],
              [
                1696.5415531012563,
                1141.8923598222182
              ],
              [
                1696.535502705108,
                1141.89874451044
              ],
              [
                1696.5070510860644,
                1141.9245315548144
              ],
              [
                1696.4910749269427,
                1141.9421585300704
              ],
              [
                1696.4888685433505,
                1141.94421163091
              ],
              [
                1696.4774922045658,
                1141.9571447548208
              ],
              [
                1696.4254164343429,
                1142.0146015131174
              ],
              [
                1696.406670422124,
                1142.0343244807605
              ],
              [
                1696.4050669992114,
                1142.036386954794
              ],
              [
                1696.4045795596032,
                1142.0369013260595
              ],
              [
                1696.4009095789274,
                1142.041640661308
              ],
              [
                1696.375243741712,
                1142.0699585488603
              ],
              [
                1696.3590415021433,
                1142.0918047399675
              ],
              [
                1696.3569301892592,
                1142.094204973616
              ],
              [
                1696.3476073177246,
                1142.1072219529344
              ],
              [
                1696.2980488892013,
                1142.1740437583958
              ],
              [
                1696.284969427895,
                1142.1908677972065
              ],
              [
                1696.2833057457344,
                1142.1935117585354
              ],
              [
                1696.2826586166254,
                1142.194347447349
              ],
              [
                1696.280861686986,
                1142.1972180178925
              ],
              [
                1696.2583254238325,
                1142.2276046511483
              ],
              [
                1696.2426125560942,
                1142.2538199872006
              ],
              [
                1696.2406129270582,
                1142.2566119520698
              ],
              [
                1696.2330209688275,
                1142.2698225837762
              ],
              [
                1696.1875166062946,
                1142.3457420260768
              ],
              [
                1696.1793675628555,
                1142.3586926702749
              ],
              [
                1696.1777497783962,
                1142.3619378828182
              ],
              [
                1696.176998935513,
                1142.3631373440635
              ],
              [
                1696.1765654961275,
                1142.3640128495797
              ],
              [
                1696.1574221197409,
                1142.3959516435355
              ],
              [
                1696.1429416968442,
                1142.4265679254127
              ],
              [
                1696.141077188125,
                1142.4298123239266
              ],
              [
                1696.1350055611426,
                1142.443347474559
              ],
              [
                1696.0950130608792,
                1142.5279045120005
              ],
              [
                1696.090902812604,
                1142.536149509769
              ],
              [
                1696.090040054062,
                1142.538419051498
              ],
              [
                1696.073505583415,
                1142.5733782524574
              ],
              [
                1696.061008726276,
                1142.6083046284057
              ],
              [
                1696.0593159840935,
                1142.6120781672755
              ],
              [
                1696.0546502034115,
                1142.6260755093215
              ],
              [
                1696.0215368809063,
                1142.7186210459986
              ],
              [
                1696.020444718003,
                1142.721494050626
              ],
              [
                1696.020246129163,
                1142.7222284554564
              ],
              [
                1696.0073839769732,
                1142.7581757626785
              ],
              [
                1695.9976095429026,
                1142.797197490848
              ],
              [
                1695.9961450001401,
                1142.8015911191355
              ],
              [
                1695.9928544168563,
                1142.816181018145
              ],
              [
                1695.959694087631,
                1142.9485644731553
              ],
              [
                1695.953348182387,
                1142.9913450913289
              ],
              [
                1695.9521944573562,
                1142.9964605162336
              ],
              [
                1695.9503210101752,
                1143.0117526287163
              ],
              [
                1695.9308951950932,
                1143.1427108365283
              ],
              [
                1695.928631089679,
                1143.1887977609856
              ],
              [
                1695.9279028253884,
                1143.1947422570793
              ],
              [
                1695.9275495325178,
                1143.2108133627655
              ],
              [
                1695.9212646484375,
                1143.3387451171875
              ],
              [
                1695.9236636831974,
                1143.387578591573
              ],
              [
                1695.9235124480767,
                1143.3944581971627
              ],
              [
                1695.9248310915734,
                1143.4113417349786
              ],
              [
                1695.9308951950932,
                1143.5347793978467
              ],
              [
                1695.9384492370457,
                1143.585704612138
              ],
              [
                1695.9390671257263,
                1143.5936158837821
              ],
              [
                1695.9422450035415,
                1143.6112935913118
              ],
              [
                1695.959694087631,
                1143.7289257612197
              ],
              [
                1695.9727900725984,
                1143.781207863878
              ],
              [
                1695.9744116781371,
                1143.7902284336135
              ],
              [
                1695.9796575591126,
                1143.8086244068752
              ],
              [
                1696.0073839769732,
                1143.9193144716965
              ],
              [
                1696.0262910166955,
                1143.9721561078024
              ],
              [
                1696.0291934927488,
                1143.9823343547203
              ],
              [
                1696.036723073089,
                1144.0013117522542
              ],
              [
                1696.073505583415,
                1144.1041119819176
              ],
              [
                1696.098365050872,
                1144.1566729097588
              ],
              [
                1696.1028660424568,
                1144.1680171152445
              ],
              [
                1696.1128873024284,
                1144.1873776309062
              ],
              [
                1696.1574221197409,
                1144.2815385908395
              ],
              [
                1696.188241045226,
                1144.332956861636
              ],
              [
                1696.194694338002,
                1144.3454242635605
              ],
              [
                1696.2073932527264,
                1144.3649103894145
              ],
              [
                1696.2583254238325,
                1144.4498855832267
              ],
              [
                1696.2949734423728,
                1144.4992997159668
              ],
              [
                1696.3037622605434,
                1144.5127859091333
              ],
              [
                1696.3192893388782,
                1144.532085907021
              ],
              [
                1696.375243741712,
                1144.6075316855147
              ],
              [
                1696.4174537319811,
                1144.654103233054
              ],
              [
                1696.428981701256,
                1144.6684323797135
              ],
              [
                1696.4474398185703,
                1144.6871877812428
              ],
              [
                1696.5070510860644,
                1144.7529586795606
              ],
              [
                1696.5071151452287,
                1144.7530167444345
              ],
              [
                1696.507173156377,
                1144.753080749873
              ],
              [
                1696.5074292908616,
                1144.7533128966384
              ],
              [
                1696.507661437627,
                1144.753569031123
              ],
              [
                1696.5082377402177,
                1144.7540913613448
              ],
              [
                1696.5087600704394,
                1144.7546676639356
              ],
              [
                1696.5558817449164,
                1144.7973762601973
              ],
              [
                1696.5691034167744,
                1144.81081087871
              ],
              [
                1696.5884082567777,
                1144.826856572141
              ],
              [
                1696.6541870644853,
                1144.886475008288
              ],
              [
                1696.6882338020814,
                1144.911725789825
              ],
              [
                1696.691257526621,
                1144.9143526140372
              ],
              [
                1696.7019828705631,
                1144.921922793975
              ],
              [
                1696.7094209035922,
                1144.9274392152342
              ],
              [
                1696.7227294921875,
                1144.9385009765624
              ],
              [
                1696.7232177734375,
                1144.9388671875
              ],
              [
                1696.7427766958842,
                1144.9521775568091
              ],
              [
                1696.7848613238182,
                1144.983389644106
              ],
              [
                1696.7853559139396,
                1144.9837692092372
              ],
              [
                1696.7854636040938,
                1144.9838363256013
              ],
              [
                1696.8118331667733,
                1145.0033933261675
              ],
              [
                1696.8488083711775,
                1145.0255554108055
              ],
              [
                1696.8556482606261,
                1145.0303831528493
              ],
              [
                1696.8676671499975,
                1145.0371688477123
              ],
              [
                1696.8751636257073,
                1145.0422703997272
              ],
              [
                1696.8952259280313,
                1145.0533770237016
              ],
              [
                1696.9427085454172,
                1145.0818370093136
              ],
              [
                1696.9503334438148,
                1145.0865891193014
              ],
              [
                1696.9520858699739,
                1145.0874575613525
              ],
              [
                1696.9801801591605,
                1145.1042966302591
              ],
              [
                1697.019521869328,
                1145.1229038733916
              ],
              [
                1697.03086577775,
                1145.1293084835622
              ],
              [
                1697.031109918375,
                1145.1294305538747
              ],
              [
                1697.0636662836878,
                1145.1437826264362
              ],
              [
                1697.1092246524356,
                1145.165330130101
              ],
              [
                1697.1245137139163,
                1145.1729068624174
              ],
              [
                1697.1282174739074,
                1145.1743130656519
              ],
              [
                1697.1576067680824,
                1145.188213166585
              ],
              [
                1697.1939546390313,
                1145.201218642768
              ],
              [
                1697.2083341000227,
                1145.2075576509947
              ],
              [
                1697.2505703502661,
                1145.2214760681643
              ],
              [
                1697.2830170992563,
                1145.233085700591
              ],
              [
                1697.3062511770759,
                1145.2419069620814
              ],
              [
                1697.3121747200503,
                1145.243518464131
              ],
              [
                1697.3424042783035,
                1145.2543347730268
              ],
              [
                1697.3752442147136,
                1145.262560748871
              ],
              [
                1697.3922842570103,
                1145.268176077313
              ],
              [
                1697.4454367908793,
                1145.2801430739028
              ],
              [
                1697.462623975633,
                1145.284448239566
              ],
              [
                1697.4938288904518,
                1145.2929375481442
              ],
              [
                1697.5021886081292,
                1145.294358664091
              ],
              [
                1697.5327929887803,
                1145.302024662369
              ],
              [
                1697.5616157038307,
                1145.3063001082694
              ],
              [
                1697.5812352930911,
                1145.3107173493806
              ],
              [
                1697.6464318776602,
                1145.3188813991737
              ],
              [
                1697.6465242812033,
                1145.3188951059444
              ],
              [
                1697.6854747361408,
                1145.3255165152773
              ],
              [
                1697.6964219624904,
                1145.326296727774
              ],
              [
                1697.7269393521533,
                1145.3308235549068
              ],
              [
                1697.7271690593238,
                1145.3308348396965
              ],
              [
                1697.7279159146533,
                1145.3309456252193
              ],
              [
                1697.7523672358584,
                1145.332146841603
              ],
              [
                1697.7734152134565,
                1145.334782512448
              ],
              [
                1697.8422376440096,
                1145.3366890603443
              ],
              [
                1697.8793781630482,
                1145.3393360776038
              ],
              [
                1697.8920025451744,
                1145.339006684466
              ],
              [
                1697.9239501953125,
                1145.340576171875
              ],
              [
                1697.924072265625,
                1145.340576171875
              ],
              [
                1697.9241943359375,
                1145.340576171875
              ],
              [
                1697.945237264037,
                1145.3395423991076
              ],
              [
                1697.9670217426162,
                1145.340145881889
              ],
              [
                1698.0386991119374,
                1145.3351791036857
              ],
              [
                1698.073707291852,
                1145.3342656764694
              ],
              [
                1698.0875344771116,
                1145.3325517852982
              ],
              [
                1698.1202286165967,
                1145.3309456252193
              ],
              [
                1698.120794129863,
                1145.3308617392504
              ],
              [
                1698.1215713900342,
                1145.3308235549068
              ],
              [
                1698.1391184694128,
                1145.3282206915587
              ],
              [
                1698.1602392262528,
                1145.326757159684
              ],
              [
                1698.2339368980413,
                1145.3144050828435
              ],
              [
                1698.266626221463,
                1145.3103532138798
              ],
              [
                1698.2804198429824,
                1145.3072606127698
              ],
              [
                1698.3157177534072,
                1145.302024662369
              ],
              [
                1698.331721614067,
                1145.298015903961
              ],
              [
                1698.3512556585415,
                1145.2947419061195
              ],
              [
                1698.426045937615,
                1145.2746104910254
              ],
              [
                1698.4563123734788,
                1145.2678245999514
              ],
              [
                1698.4692758331314,
                1145.263560365766
              ],
              [
                1698.506106463884,
                1145.2543347730268
              ],
              [
                1698.520483510766,
                1145.2491905833967
              ],
              [
                1698.5382796752574,
                1145.2444003622759
              ],
              [
                1698.6131607834016,
                1145.2162304754308
              ],
              [
                1698.6409737107758,
                1145.2070816186529
              ],
              [
                1698.6530859734567,
                1145.2017446635857
              ],
              [
                1698.6909039741051,
                1145.188213166585
              ],
              [
                1698.7036070801987,
                1145.1822050448584
              ],
              [
                1698.7195573533018,
                1145.1762046343463
              ],
              [
                1698.7934754965006,
                1145.1398856537432
              ],
              [
                1698.8188656675625,
                1145.1286981319997
              ],
              [
                1698.8191098081875,
                1145.1285760616872
              ],
              [
                1698.8301378370593,
                1145.1223604537965
              ],
              [
                1698.868330583027,
                1145.1042966302591
              ],
              [
                1698.8793483091158,
                1145.0976928593798
              ],
              [
                1698.8933886591053,
                1145.0907942661947
              ],
              [
                1698.9684266897948,
                1145.0444182127796
              ],
              [
                1698.9918474998506,
                1145.0312177965056
              ],
              [
                1699.001099300253,
                1145.0247181236393
              ],
              [
                1699.0366775754142,
                1145.0033933261675
              ],
              [
                1699.0460329602092,
                1144.9964548999237
              ],
              [
                1699.0581433916495,
                1144.9889702416751
              ],
              [
                1699.1322565185642,
                1144.932576164669
              ],
              [
                1699.1540957765858,
                1144.917233417678
              ],
              [
                1699.161747530812,
                1144.9106351254247
              ],
              [
                1699.1943236777022,
                1144.886475008288
              ],
              [
                1699.2020726263688,
                1144.879451770601
              ],
              [
                1699.2122764705962,
                1144.8716874729514
              ],
              [
                1699.2842007138102,
                1144.805040791771
              ],
              [
                1699.3042598618752,
                1144.7877433045053
              ],
              [
                1699.310493357855,
                1144.7811849475559
              ],
              [
                1699.339750671748,
                1144.7546676639356
              ],
              [
                1699.3459799715695,
                1144.7477946907147
              ],
              [
                1699.3543424261488,
                1144.7400458452723
              ],
              [
                1699.4221420025567,
                1144.663762838914
              ],
              [
                1699.423023525646,
                1144.6627902280652
              ],
              [
                1699.4408637575634,
                1144.644020245802
              ],
              [
                1699.4458575153171,
                1144.6375968027955
              ],
              [
                1699.4715580161005,
                1144.6092406698897
              ],
              [
                1699.4763830085697,
                1144.6027349206615
              ],
              [
                1699.4830089547597,
                1144.595279902177
              ],
              [
                1699.5445801599174,
                1144.5107817067244
              ],
              [
                1699.547340800669,
                1144.5070594135696
              ],
              [
                1699.5625647517925,
                1144.487476929356
              ],
              [
                1699.5664863836407,
                1144.4812445832995
              ],
              [
                1699.58847633398,
                1144.4515945676017
              ],
              [
                1699.5920382728766,
                1144.445651831576
              ],
              [
                1699.5970694135578,
                1144.4387472678675
              ],
              [
                1699.6516164617315,
                1144.3462516286206
              ],
              [
                1699.6553763034585,
                1144.33997871167
              ],
              [
                1699.668166616832,
                1144.3196520562876
              ],
              [
                1699.6711666401902,
                1144.313634126411
              ],
              [
                1699.6893796380716,
                1144.2832475752145
              ],
              [
                1699.6918427633927,
                1144.2780397342785
              ],
              [
                1699.6954541363214,
                1144.2719159153228
              ],
              [
                1699.742238261627,
                1144.171487405642
              ],
              [
                1699.7461158483486,
                1144.1632889373434
              ],
              [
                1699.7566313670834,
                1144.1421952167934
              ],
              [
                1699.7588386190557,
                1144.1363888987873
              ],
              [
                1699.7732961743975,
                1144.1058209662926
              ],
              [
                1699.7748445323664,
                1144.1014935956646
              ],
              [
                1699.777240464876,
                1144.0963503995556
              ],
              [
                1699.8155900914383,
                1143.9876173867483
              ],
              [
                1699.818737023917,
                1143.9788222996626
              ],
              [
                1699.8270894616844,
                1143.9568506759365
              ],
              [
                1699.8286081920157,
                1143.9512342329806
              ],
              [
                1699.8394177808393,
                1143.9210234560715
              ],
              [
                1699.8402518208193,
                1143.9176937818263
              ],
              [
                1699.8416614018422,
                1143.9136971851149
              ],
              [
                1699.870981614529,
                1143.7950135685082
              ],
              [
                1699.872617837011,
                1143.7884814022
              ],
              [
                1699.878848351432,
                1143.765440228854
              ],
              [
                1699.8797569975432,
                1143.7599802757277
              ],
              [
                1699.8871076701814,
                1143.7306347455947
              ],
              [
                1699.8874406501488,
                1143.7283899769925
              ],
              [
                1699.8881128035844,
                1143.7256692054382
              ],
              [
                1699.907404398741,
                1143.5938501258931
              ],
              [
                1699.9113992860107,
                1143.5698452939034
              ],
              [
                1699.9117508635436,
                1143.564503830427
              ],
              [
                1699.9159065627193,
                1143.5364883822217
              ],
              [
                1699.9159607961453,
                1143.5353844354763
              ],
              [
                1699.9161590459087,
                1143.5340297988523
              ],
              [
                1699.917491938922,
                1143.5065171150873
              ],
              [
                1699.9175452902182,
                1143.5061172523965
              ],
              [
                1699.9176212284492,
                1143.503848407368
              ],
              [
                1699.922857939271,
                1143.3957557342426
              ],
              [
                1699.9244223146195,
                1143.3719884197592
              ],
              [
                1699.9242535959193,
                1143.3669475256106
              ],
              [
                1699.925537109375,
                1143.3404541015625
              ],
              [
                1699.925531112445,
                1143.34033203125
              ],
              [
                1699.925537109375,
                1143.3402099609375
              ],
              [
                1699.9255341118433,
                1143.340148906784
              ],
              [
                1699.925537109375,
                1143.340087890625
              ],
              [
                1699.9255054723214,
                1143.3394439036047
              ],
              [
                1699.9255370315684,
                1143.338797591957
              ],
              [
                1699.924111520538,
                1143.3099346599815
              ],
              [
                1699.9241781739945,
                1143.3079432208658
              ],
              [
                1699.9235171894709,
                1143.2979009844832
              ],
              [
                1699.918632021621,
                1143.1989889001006
              ],
              [
                1699.9177894308432,
                1143.1738143882285
              ],
              [
                1699.9171531478669,
                1143.1690455102182
              ],
              [
                1699.9158586571334,
                1143.1428354022726
              ],
              [
                1699.911283957018,
                1143.1120433620724
              ],
              [
                1699.9111551453857,
                1143.1100863467216
              ],
              [
                1699.909645573042,
                1143.101015494896
              ],
              [
                1699.8942501413057,
                1142.9973897399937
              ],
              [
                1699.8915658308586,
                1142.9772710985337
              ],
              [
                1699.8907438638034,
                1142.9737891902128
              ],
              [
                1699.8870259999833,
                1142.9487644652436
              ],
              [
                1699.8789402261798,
                1142.9165104906654
              ],
              [
                1699.878604210807,
                1142.914491411771
              ],
              [
                1699.8762707199678,
                1142.9058618888628
              ],
              [
                1699.8718614716752,
                1142.8882734940107
              ],
              [
                1699.8716576578004,
                1142.887139730449
              ],
              [
                1699.8709925120602,
                1142.8848072331416
              ],
              [
                1699.8494866196538,
                1142.799020699431
              ],
              [
                1699.846009272605,
                1142.7842904209508
              ],
              [
                1699.8452129959196,
                1142.7819733079716
              ],
              [
                1699.839316537326,
                1142.7584524638075
              ],
              [
                1699.8274356008444,
                1142.72526388859
              ],
              [
                1699.8268453210594,
                1142.7230809646885
              ],
              [
                1699.823566455275,
                1142.7144556977585
              ],
              [
                1699.8179022137097,
                1142.698633030283
              ],
              [
                1699.8168758431887,
                1142.6950338093422
              ],
              [
                1699.8141945717568,
                1142.688275988646
              ],
              [
                1699.7847041656298,
                1142.6058965765978
              ],
              [
                1699.7815675422214,
                1142.596769208003
              ],
              [
                1699.7809724554604,
                1142.5954723020604
              ],
              [
                1699.7731894113226,
                1142.5737309059857
              ],
              [
                1699.7573167144235,
                1142.5401815015916
              ],
              [
                1699.7563872264584,
                1142.5377364238316
              ],
              [
                1699.7519258714356,
                1142.5287871196174
              ],
              [
                1699.745660857211,
                1142.5155450412806
              ],
              [
                1699.7432032934807,
                1142.509351048818
              ],
              [
                1699.7377025125556,
                1142.4987238466942
              ],
              [
                1699.7043829594147,
                1142.4282978082172
              ],
              [
                1699.7004048530707,
                1142.4198868090334
              ],
              [
                1699.69887405265,
                1142.4165506498498
              ],
              [
                1699.6986283267602,
                1142.4161306597362
              ],
              [
                1699.6892575677591,
                1142.396317854473
              ],
              [
                1699.6692342962563,
                1142.3629110442046
              ],
              [
                1699.667922476207,
                1142.3602795843374
              ],
              [
                1699.6623296565795,
                1142.351391348853
              ],
              [
                1699.655817140031,
                1142.3405258714174
              ],
              [
                1699.6513749979356,
                1142.331943900502
              ],
              [
                1699.6426336645395,
                1142.3185305713805
              ],
              [
                1699.5883542636675,
                1142.2279708620858
              ],
              [
                1699.5640386290095,
                1142.1951850240923
              ],
              [
                1699.5623206111675,
                1142.192454711269
              ],
              [
                1699.555651188673,
                1142.1838758699646
              ],
              [
                1699.5492977607466,
                1142.1753092640904
              ],
              [
                1699.542307075394,
                1142.1645822549292
              ],
              [
                1699.5299567323793,
                1142.1492309062105
              ],
              [
                1699.471435945788,
                1142.0703247597978
              ],
              [
                1699.4428757136964,
                1142.038813399617
              ],
              [
                1699.4406196169384,
                1142.035911394823
              ],
              [
                1699.4325596966576,
                1142.0274314287883
              ],
              [
                1699.4272899678601,
                1142.021617179042
              ],
              [
                1699.4170876346816,
                1142.008935784349
              ],
              [
                1699.4007520721748,
                1141.9923371232396
              ],
              [
                1699.3396286014356,
                1141.924897765752
              ],
              [
                1699.311076972142,
                1141.899020077371
              ],
              [
                1699.3103739312528,
                1141.8982727516832
              ],
              [
                1699.3074457522944,
                1141.895728931542
              ],
              [
                1699.3069779344276,
                1141.8953049261427
              ],
              [
                1699.3040157212502,
                1141.8921883361197
              ],
              [
                1699.2942073018924,
                1141.8837302994978
              ],
              [
                1699.2910544202991,
                1141.8808726941916
              ],
              [
                1699.276965919163,
                1141.8665572853524
              ],
              [
                1699.2563954297968,
                1141.8494596162686
              ],
              [
                1699.1942016073897,
                1141.7930904213995
              ],
              [
                1699.1810891219425,
                1141.7833655394045
              ],
              [
                1699.1801187693645,
                1141.7824939749278
              ],
              [
                1699.1728477155466,
                1141.7772532958488
              ],
              [
                1699.1606890330293,
                1141.768235802318
              ],
              [
                1699.1584739186915,
                1141.7663114484628
              ],
              [
                1699.156092612027,
                1141.764630670668
              ],
              [
                1699.1538516359608,
                1141.762698222947
              ],
              [
                1699.1419615210127,
                1141.7543450533863
              ],
              [
                1699.12333984375,
                1141.7388671875
              ],
              [
                1699.1228515625,
                1141.7385009765626
              ],
              [
                1699.095486701238,
                1141.719878457327
              ],
              [
                1699.0727712011744,
                1141.703031494296
              ],
              [
                1699.0559461260245,
                1141.6902289770749
              ],
              [
                1699.053323572448,
                1141.6886081498274
              ],
              [
                1699.0365555051017,
                1141.67617210352
              ],
              [
                1699.0130980047206,
                1141.6621122188697
              ],
              [
                1699.0061904083168,
                1141.6571335050733
              ],
              [
                1698.9925047845304,
                1141.6493471229776
              ],
              [
                1698.9916033592256,
                1141.6487138441194
              ],
              [
                1698.9875897334314,
                1141.6464516878948
              ],
              [
                1698.9709057102302,
                1141.6350977643353
              ],
              [
                1698.9332094958534,
                1141.6142288893886
              ],
              [
                1698.9254548649299,
                1141.6095809424837
              ],
              [
                1698.8911913934803,
                1141.5884049525553
              ],
              [
                1698.8852743550763,
                1141.585497671694
              ],
              [
                1698.8682085127145,
                1141.5752687994284
              ],
              [
                1698.8331970495685,
                1141.558709610608
              ],
              [
                1698.8198422300625,
                1141.5511114383128
              ],
              [
                1698.8195980894375,
                1141.5509893680003
              ],
              [
                1698.8165578732776,
                1141.5496497754345
              ],
              [
                1698.8101091019098,
                1141.5460796927232
              ],
              [
                1698.7625964337135,
                1141.5252210352203
              ],
              [
                1698.7173600876768,
                1141.5029945844037
              ],
              [
                1698.7112605801558,
                1141.5006999811194
              ],
              [
                1698.7040368431549,
                1141.4972183854413
              ],
              [
                1698.700467103772,
                1141.495903032703
              ],
              [
                1698.695909290201,
                1141.4937219843182
              ],
              [
                1698.695411399254,
                1141.4935418513858
              ],
              [
                1698.6907819037926,
                1141.4913522631025
              ],
              [
                1698.6619506773964,
                1141.4810362853452
              ],
              [
                1698.6418196555023,
                1141.47219851414
              ]
            ],
            [
              [
                1698.1388893846681,
                1145.3282365656503
              ],
              [
                1698.1214493197217,
                1145.3308235549068
              ],
              [
                1698.120854393657,
                1145.3308527999611
              ],
              [
                1698.1381429011249,
                1145.3282882921328
              ],
              [
                1698.1388893846681,
                1145.3282365656503
              ]
            ],
            [
              [
                1698.3291362966888,
                1145.298449215328
              ],
              [
                1698.3313526928432,
                1145.2980777368953
              ],
              [
                1698.3155956830947,
                1145.302024662369
              ],
              [
                1698.2806585093597,
                1145.3072071025367
              ],
              [
                1698.281436215109,
                1145.3070327368953
              ],
              [
                1698.3143749799697,
                1145.3021467326814
              ],
              [
                1698.3291362966888,
                1145.298449215328
              ]
            ],
            [
              [
                1698.5050419614645,
                1145.254357276377
              ],
              [
                1698.506106463884,
                1145.2540906324018
              ],
              [
                1698.5177290356887,
                1145.2499320097136
              ],
              [
                1698.5199907272952,
                1145.2493232266859
              ],
              [
                1698.5059843935715,
                1145.2543347730268
              ],
              [
                1698.469665569544,
                1145.2634321648552
              ],
              [
                1698.4720070186956,
                1145.262661962472
              ],
              [
                1698.5047636904465,
                1145.2544568433393
              ],
              [
                1698.5050419614645,
                1145.254357276377
              ]
            ],
            [
              [
                1698.701084182622,
                1145.1831541459203
              ],
              [
                1698.7030104593553,
                1145.1824294905439
              ],
              [
                1698.6907819037926,
                1145.188213166585
              ],
              [
                1698.6536133617867,
                1145.2015122835676
              ],
              [
                1698.656033876739,
                1145.2004457463004
              ],
              [
                1698.6909039741051,
                1145.18796902596
              ],
              [
                1698.701084182622,
                1145.1831541459203
              ]
            ],
            [
              [
                1698.8770885092183,
                1145.0988031906882
              ],
              [
                1698.8786710731492,
                1145.0980256128673
              ],
              [
                1698.8682085127145,
                1145.1042966302591
              ],
              [
                1698.8307747062663,
                1145.1220015021365
              ],
              [
                1698.8328309306623,
                1145.1208425747589
              ],
              [
                1698.868330583027,
                1145.1040524896341
              ],
              [
                1698.8770885092183,
                1145.0988031906882
              ]
            ],
            [
              [
                1699.0440579770036,
                1144.997675506672
              ],
              [
                1699.0453005865227,
                1144.9969075317545
              ],
              [
                1699.0365555051017,
                1145.0033933261675
              ],
              [
                1699.0018085928439,
                1145.0242198238916
              ],
              [
                1699.0034660666415,
                1145.0230553978338
              ],
              [
                1699.0366775754142,
                1145.0031491855425
              ],
              [
                1699.0440579770036,
                1144.997675506672
              ]
            ],
            [
              [
                1699.2003938566124,
                1144.8807291781923
              ],
              [
                1699.2013118522611,
                1144.8800306579778
              ],
              [
                1699.1942016073897,
                1144.886475008288
              ],
              [
                1699.1624977655886,
                1144.9099881798786
              ],
              [
                1699.1637706798017,
                1144.9088905152462
              ],
              [
                1699.1943236777022,
                1144.886230867663
              ],
              [
                1699.2003938566124,
                1144.8807291781923
              ]
            ],
            [
              [
                1699.3445983562208,
                1144.749074927719
              ],
              [
                1699.345217782755,
                1144.748500952646
              ],
              [
                1699.3396286014356,
                1144.7546676639356
              ],
              [
                1699.3112523579584,
                1144.7803863918784
              ],
              [
                1699.3121682129865,
                1144.7794228067237
              ],
              [
                1699.339750671748,
                1144.7544235233106
              ],
              [
                1699.3445983562208,
                1144.749074927719
              ]
            ],
            [
              [
                1699.4752892806698,
                1144.603965501393
              ],
              [
                1699.4756456478917,
                1144.6035645436807
              ],
              [
                1699.471435945788,
                1144.6092406698897
              ],
              [
                1699.4465936353606,
                1144.6366499356507
              ],
              [
                1699.4471918759516,
                1144.635880422084
              ],
              [
                1699.4715580161005,
                1144.6089965292647
              ],
              [
                1699.4752892806698,
                1144.603965501393
              ]
            ],
            [
              [
                1699.591213567481,
                1144.4467836287781
              ],
              [
                1699.5913503039635,
                1144.446595976352
              ],
              [
                1699.5883542636675,
                1144.4515945676017
              ],
              [
                1699.5671696850522,
                1144.4801586652372
              ],
              [
                1699.5674999253704,
                1144.479633839852
              ],
              [
                1699.58847633398,
                1144.4513504269767
              ],
              [
                1699.591213567481,
                1144.4467836287781
              ]
            ],
            [
              [
                1699.6892575677591,
                1144.2832475752145
              ],
              [
                1699.671769972711,
                1144.3124238649004
              ],
              [
                1699.6718898873823,
                1144.3121833207456
              ],
              [
                1699.689348342621,
                1144.2830556478943
              ],
              [
                1699.6892575677591,
                1144.2832475752145
              ]
            ]
          ]
        ]
      }
    }
  ]
}