{
  "type": "FeatureCollection",
  "features": [
    {
      "type": "Feature",
      "properties": {
        "image_id": "0034_top_20250704_t1",
        "zone_type": "parking_spot",
        "generated_at": "2025-11-03T11:20:42",
        "source": "merged_t1_polygons"
      },
      "geometry": {
        "type": "MultiPolygon",
        "coordinates": [
          [
            [
              [
                1204.233219833711,
                1205.9366390976716
              ],
              [
                1204.2339520652777,
                1205.929592410693
              ],
              [
                1204.2394939140527,
                1205.8922323009383
              ],
              [
                1204.2432411246523,
                1205.8701893263592
              ],
              [
                1204.243682665175,
                1205.8639940346109
              ],
              [
                1204.244148629141,
                1205.860852760711
              ],
              [
                1204.2473389545166,
                1205.84021388191
              ],
              [
                1204.2474175131524,
                1205.8388157347279
              ],
              [
                1204.2489143752193,
                1205.8287247103467
              ],
              [
                1204.248934626527,
                1205.8283124855093
              ],
              [
                1204.2490364455318,
                1205.8276260775342
              ],
              [
                1204.251416045796,
                1205.779188201394
              ],
              [
                1204.251926425438,
                1205.774956751119
              ],
              [
                1204.2521690354622,
                1205.7638607446245
              ],
              [
                1204.253061772123,
                1205.745688672431
              ],
              [
                1204.25350538587,
                1205.7414195213069
              ],
              [
                1204.2535340598554,
                1205.7360750347832
              ],
              [
                1204.2551637421002,
                1205.702902090609
              ],
              [
                1204.2570606869788,
                1205.6762858994518
              ],
              [
                1204.2568986424844,
                1205.670075352285
              ],
              [
                1204.2582443710846,
                1205.6461247499142
              ],
              [
                1204.2581116081292,
                1205.6428968990947
              ],
              [
                1204.2586669921875,
                1205.631591796875
              ],
              [
                1204.2586639946558,
                1205.6315307427215
              ],
              [
                1204.2586669921875,
                1205.6314697265625
              ],
              [
                1204.2561734866786,
                1205.5807132559028
              ],
              [
                1204.2562167852866,
                1205.5787329517602
              ],
              [
                1204.2558235422202,
                1205.57358997281
              ],
              [
                1204.2545454028364,
                1205.5475728479607
              ],
              [
                1204.2545583929393,
                1205.5451516487485
              ],
              [
                1204.2542789810036,
                1205.5421497069715
              ],
              [
                1204.2527473772998,
                1205.5109731973675
              ],
              [
                1204.2519902858444,
                1205.481956770648
              ],
              [
                1204.2512446423434,
                1205.4759411315006
              ],
              [
                1204.250255560946,
                1205.451893706613
              ],
              [
                1204.2496211382365,
                1205.4473371393221
              ],
              [
                1204.2490364455318,
                1205.4354354459033
              ],
              [
                1204.2364463908414,
                1205.3505601914262
              ],
              [
                1204.2363687138848,
                1205.3497256469004
              ],
              [
                1204.2361705995709,
                1205.3487009577013
              ],
              [
                1204.2319277779227,
                1205.320098177496
              ],
              [
                1204.2280778232548,
                1205.289037841037
              ],
              [
                1204.2267661745843,
                1205.2831876247678
              ],
              [
                1204.2234479974247,
                1205.2593557264445
              ],
              [
                1204.2220593213526,
                1205.253570447214
              ],
              [
                1204.220237552994,
                1205.2412890825303
              ],
              [
                1204.2201273079006,
                1205.2408489594463
              ],
              [
                1204.219993412369,
                1205.2399463090928
              ],
              [
                1204.192142811731,
                1205.128760478834
              ],
              [
                1204.1855492093264,
                1205.0993516890212
              ],
              [
                1204.1836698117313,
                1205.0936382375937
              ],
              [
                1204.1780749417553,
                1205.0703297888367
              ],
              [
                1204.1760112952948,
                1205.064359855249
              ],
              [
                1204.1723035230268,
                1205.049557598616
              ],
              [
                1204.1334560235046,
                1204.9409861107722
              ],
              [
                1204.1248062280279,
                1204.9146903517242
              ],
              [
                1204.122338943797,
                1204.9090908302112
              ],
              [
                1204.1145650504282,
                1204.8866016936174
              ],
              [
                1204.1119820083297,
                1204.8809702588846
              ],
              [
                1204.106181916585,
                1204.8647600883949
              ],
              [
                1204.0568072867527,
                1204.7603662046447
              ],
              [
                1204.0464227413747,
                1204.7367983949375
              ],
              [
                1204.0463006710622,
                1204.7365542543125
              ],
              [
                1204.0432939738357,
                1204.7312196282542
              ],
              [
                1204.0335183255086,
                1204.7099071898854
              ],
              [
                1204.0304481588837,
                1204.704634511266
              ],
              [
                1204.0222653802591,
                1204.687333479473
              ],
              [
                1203.9601369255913,
                1204.583678415061
              ],
              [
                1203.9489424058806,
                1204.5638165626494
              ],
              [
                1203.9460827346825,
                1204.559746033611
              ],
              [
                1203.9357004461901,
                1204.5419155777288
              ],
              [
                1203.932166179961,
                1204.537012045272
              ],
              [
                1203.9213620761675,
                1204.5189864870858
              ],
              [
                1203.8471557831451,
                1204.4189308835466
              ],
              [
                1203.834958027053,
                1204.4015682859142
              ],
              [
                1203.832435070475,
                1204.3986425222595
              ],
              [
                1203.8220355351316,
                1204.384213937714
              ],
              [
                1203.8180480768808,
                1204.3796836849695
              ],
              [
                1203.804443758288,
                1204.3613403847978
              ],
              [
                1203.718484246239,
                1204.2664986784548
              ],
              [
                1203.7054679138803,
                1204.2514042006248
              ],
              [
                1203.7034518689914,
                1204.2494880182933
              ],
              [
                1203.6935974279195,
                1204.238292137132
              ],
              [
                1203.6891536381158,
                1204.2341373393058
              ],
              [
                1203.6726364139356,
                1204.215913390752
              ],
              [
                1203.5754993908217,
                1204.1278735248457
              ],
              [
                1203.561744855177,
                1204.1148003049366
              ],
              [
                1203.5603864850036,
                1204.1137442713455
              ],
              [
                1203.5515995281357,
                1204.1055287546567
              ],
              [
                1203.546681377631,
                1204.1017544001736
              ],
              [
                1203.5272094198897,
                1204.0841060463995
              ],
              [
                1203.4222992093746,
                1204.0062993314616
              ],
              [
                1203.4130760508951,
                1203.9992211687413
              ],
              [
                1203.405201538731,
                1203.9930993107075
              ],
              [
                1203.404632112796,
                1203.992741006008
              ],
              [
                1203.397383343873,
                1203.9871780563878
              ],
              [
                1203.3919582589735,
                1203.9837969490222
              ],
              [
                1203.3695633176017,
                1203.96718772852
              ],
              [
                1203.258414472723,
                1203.9005676746942
              ],
              [
                1203.2324058139977,
                1203.8843581463236
              ],
              [
                1203.2264282584222,
                1203.8813958756466
              ],
              [
                1203.2012163252145,
                1203.8662844244284
              ],
              [
                1203.085411254517,
                1203.811512705119
              ],
              [
                1203.0582255438962,
                1203.7980404032076
              ],
              [
                1203.051639832441,
                1203.7955400120452
              ],
              [
                1203.0237897162926,
                1203.7823678881025
              ],
              [
                1202.9049473831456,
                1203.739845421368
              ],
              [
                1202.8764880807366,
                1203.7290403035436
              ],
              [
                1202.8692323634175,
                1203.7270663829725
              ],
              [
                1202.8389922060715,
                1203.7162462816607
              ],
              [
                1202.718730357289,
                1203.686122256732
              ],
              [
                1202.6889103673607,
                1203.6780097174808
              ],
              [
                1202.6853288312127,
                1203.677400871784
              ],
              [
                1202.683164838229,
                1203.676815711068
              ],
              [
                1202.678432330673,
                1203.6760281265433
              ],
              [
                1202.6486034955947,
                1203.6685563923186
              ],
              [
                1202.648601167927,
                1203.6685560470416
              ],
              [
                1202.6481152143447,
                1203.668434322006
              ],
              [
                1202.5262116084396,
                1203.6503516302396
              ],
              [
                1202.4972645216717,
                1203.6454307503477
              ],
              [
                1202.4925624011878,
                1203.6450956286424
              ],
              [
                1202.4875699032784,
                1203.6442647764893
              ],
              [
                1202.4832689162365,
                1203.6439816835841
              ],
              [
                1202.4539688509717,
                1203.6396354294682
              ],
              [
                1202.4244694061463,
                1203.6381862146739
              ],
              [
                1202.423963932084,
                1203.6381187722818
              ],
              [
                1202.421242437665,
                1203.6380276838781
              ],
              [
                1202.3316022143395,
                1203.6336239420934
              ],
              [
                1202.3033610947643,
                1203.6316111880212
              ],
              [
                1202.297606893818,
                1203.6317613256108
              ],
              [
                1202.2897130291342,
                1203.6312417478805
              ],
              [
                1202.2857866018408,
                1203.631373165381
              ],
              [
                1202.2579345703125,
                1203.6300048828125
              ],
              [
                1202.2269865205644,
                1203.631525939371
              ],
              [
                1202.2257899005533,
                1203.6314858885055
              ],
              [
                1202.2198599163949,
                1203.6318762027347
              ],
              [
                1202.1368615650608,
                1203.6359554641958
              ],
              [
                1202.1090319659604,
                1203.6366815891556
              ],
              [
                1202.102317252267,
                1203.6375138835308
              ],
              [
                1202.0915389976035,
                1203.6378746316568
              ],
              [
                1202.0878798247486,
                1203.6383628532867
              ],
              [
                1202.061570023987,
                1203.6396559459151
              ],
              [
                1202.0606869603414,
                1203.6397870776402
              ],
              [
                1202.0603158710226,
                1203.6398054053666
              ],
              [
                1202.0292325318064,
                1203.6444233830834
              ],
              [
                1202.027933026409,
                1203.6445089171143
              ],
              [
                1202.0219097620068,
                1203.6455113095615
              ],
              [
                1201.9739007622245,
                1203.652643892379
              ],
              [
                1201.973627014088,
                1203.6526693720527
              ],
              [
                1201.9732877393858,
                1203.652734967723
              ],
              [
                1201.9419176060271,
                1203.657395553763
              ],
              [
                1201.9161130363495,
                1203.6605940517452
              ],
              [
                1201.9085495626832,
                1203.6622898215633
              ],
              [
                1201.8949957079087,
                1203.6640982316414
              ],
              [
                1201.8919283280818,
                1203.6648223417935
              ],
              [
                1201.8662449339936,
                1203.6686380625167
              ],
              [
                1201.8332677553383,
                1203.676905136909
              ],
              [
                1201.8323380914585,
                1203.677059851693
              ],
              [
                1201.8283647173798,
                1203.6781342832824
              ],
              [
                1201.7826762358088,
                1203.689587964022
              ],
              [
                1201.7809249421787,
                1203.6899265606778
              ],
              [
                1201.77877916493,
                1203.690564923731
              ],
              [
                1201.7478155423237,
                1203.698327218202
              ],
              [
                1201.7264268843337,
                1203.7031226656736
              ],
              [
                1201.7191875430171,
                1203.7055039934633
              ],
              [
                1201.7125598024259,
                1203.7071655068721
              ],
              [
                1201.7020150303258,
                1203.709654789895
              ],
              [
                1201.7003563089158,
                1203.7102248100875
              ],
              [
                1201.6759329325575,
                1203.716347525174
              ],
              [
                1201.6416135954175,
                1203.728633254886
              ],
              [
                1201.640927644376,
                1203.7288187414406
              ],
              [
                1201.638217283824,
                1203.7298490757537
              ],
              [
                1201.5963454106288,
                1203.7448384828776
              ],
              [
                1201.5928026265021,
                1203.7458924517805
              ],
              [
                1201.5885133868662,
                1203.7476422120596
              ],
              [
                1201.559378562222,
                1203.7580719758787
              ],
              [
                1201.5417655470367,
                1203.7638656469721
              ],
              [
                1201.5355763484429,
                1203.7665927571468
              ],
              [
                1201.5175232333506,
                1203.7730554604207
              ],
              [
                1201.514493817378,
                1203.7740965202786
              ],
              [
                1201.5140633682797,
                1203.774294032335
              ],
              [
                1201.4912113747357,
                1203.7824746511774
              ],
              [
                1201.4561645245674,
                1203.7990558108145
              ],
              [
                1201.455583103519,
                1203.7992768360416
              ],
              [
                1201.4534550264818,
                1203.800337712614
              ],
              [
                1201.4166225828899,
                1203.8177636617104
              ],
              [
                1201.4110717877963,
                1203.8200280632354
              ],
              [
                1201.4044363095697,
                1203.8235291596748
              ],
              [
                1201.3783648569452,
                1203.8358639320113
              ],
              [
                1201.36387359025,
                1203.8422491336253
              ],
              [
                1201.363629449625,
                1203.8423712039378
              ],
              [
                1201.3584998177153,
                1203.8452623625433
              ],
              [
                1201.3138579677263,
                1203.8663830520663
              ],
              [
                1201.2787447810274,
                1203.8874332467988
              ],
              [
                1201.2781262640249,
                1203.887741586293
              ],
              [
                1201.2760263232985,
                1203.8890629497662
              ],
              [
                1201.2451404189803,
                1203.9075789080573
              ],
              [
                1201.2374825933825,
                1203.9116194285773
              ],
              [
                1201.2284537683597,
                1203.917582478739
              ],
              [
                1201.2012401740672,
                1203.9338969039757
              ],
              [
                1201.190891757962,
                1203.9397294691194
              ],
              [
                1201.18728849378,
                1203.9422608724587
              ],
              [
                1201.1455795097609,
                1203.9672652174993
              ],
              [
                1201.111089548388,
                1203.9928475123625
              ],
              [
                1201.1103013909565,
                1203.9933434513325
              ],
              [
                1201.1078175283913,
                1203.9952744730494
              ],
              [
                1201.083437958589,
                1204.0133575708116
              ],
              [
                1201.0737068020965,
                1204.0197844728891
              ],
              [
                1201.0624080109872,
                1204.0289561478785
              ],
              [
                1201.0359524549883,
                1204.0485790702419
              ],
              [
                1201.0286434812267,
                1204.053713847947
              ],
              [
                1201.0262675522142,
                1204.0557626688492
              ],
              [
                1200.987995464369,
                1204.0841502865012
              ],
              [
                1200.9548273837604,
                1204.1142131357249
              ],
              [
                1200.9537580745105,
                1204.1150444455616
              ],
              [
                1200.9506304185527,
                1204.118017176535
              ],
              [
                1200.9481169363426,
                1204.120295343837
              ],
              [
                1200.9460662438423,
                1204.1219045900086
              ],
              [
                1200.9411583035348,
                1204.1266025019559
              ],
              [
                1200.9329500733127,
                1204.134042268835
              ],
              [
                1200.9213216643368,
                1204.1434815076652
              ],
              [
                1200.9080542492234,
                1204.156607319093
              ],
              [
                1200.8832321510413,
                1204.1791055457422
              ],
              [
                1200.8784793959373,
                1204.1832039611197
              ],
              [
                1200.877042681357,
                1204.1847155506168
              ],
              [
                1200.842622375127,
                1204.215913390752
              ],
              [
                1200.8425003048144,
                1204.2160354610644
              ],
              [
                1200.842378234502,
                1204.216157531377
              ],
              [
                1200.8219057318458,
                1204.2387454572356
              ],
              [
                1200.8205627283305,
                1204.240001121507
              ],
              [
                1200.8136681227554,
                1204.2478342582735
              ],
              [
                1200.811306950259,
                1204.2504394106668
              ],
              [
                1200.8100350158072,
                1204.2516483412498
              ],
              [
                1200.8077321652838,
                1204.25431885743
              ],
              [
                1200.8042813221427,
                1204.2576220266224
              ],
              [
                1200.7951420116724,
                1204.2682746719652
              ],
              [
                1200.7947931826066,
                1204.26865954553
              ],
              [
                1200.7817947322826,
                1204.281519262841
              ],
              [
                1200.767256557839,
                1204.2990415290667
              ],
              [
                1200.7441832580507,
                1204.3244989923621
              ],
              [
                1200.741875500249,
                1204.326927019823
              ],
              [
                1200.7412295230295,
                1204.3277579367514
              ],
              [
                1200.7105708901495,
                1204.3615845254228
              ],
              [
                1200.6946386242116,
                1204.3830666992283
              ],
              [
                1200.6921246211184,
                1204.385922922089
              ],
              [
                1200.6813197957867,
                1204.4009138164556
              ],
              [
                1200.6805449026344,
                1204.4018124265392
              ],
              [
                1200.6804093780497,
                1204.402005335695
              ],
              [
                1200.6764817686244,
                1204.4065832992505
              ],
              [
                1200.6681076493887,
                1204.41854164764
              ],
              [
                1200.6564697265626,
                1204.432568359375
              ],
              [
                1200.656103515625,
                1204.433056640625
              ],
              [
                1200.641077826527,
                1204.455285074788
              ],
              [
                1200.6139831484454,
                1204.491818019067
              ],
              [
                1200.6124221970128,
                1204.4938520076896
              ],
              [
                1200.6121461827634,
                1204.4942948805635
              ],
              [
                1200.59365257227,
                1204.5192306277108
              ],
              [
                1200.5818544268711,
                1204.5389146441216
              ],
              [
                1200.5784597100599,
                1204.5436245621038
              ],
              [
                1200.5683156468172,
                1204.5610458919246
              ],
              [
                1200.5638983628505,
                1204.5673538294068
              ],
              [
                1200.5568015159627,
                1204.5799602499915
              ],
              [
                1200.546187384554,
                1204.5956623931456
              ],
              [
                1200.530735792238,
                1204.624200933534
              ],
              [
                1200.5194741768182,
                1204.6429898037538
              ],
              [
                1200.5096022869486,
                1204.6588295375648
              ],
              [
                1200.5077982116406,
                1204.6624699747806
              ],
              [
                1200.4927492681784,
                1204.687577620098
              ],
              [
                1200.48457317592,
                1204.704864514757
              ],
              [
                1200.4806418307414,
                1204.7116161742604
              ],
              [
                1200.4716534252477,
                1204.731212300441
              ],
              [
                1200.4676153445628,
                1204.738385309
              ],
              [
                1200.4674932742503,
                1204.738629449625
              ],
              [
                1200.4619033101528,
                1204.7513320750925
              ],
              [
                1200.4527386805605,
                1204.7682588193668
              ],
              [
                1200.43797930355,
                1204.8033573037399
              ],
              [
                1200.4232845438326,
                1204.8330098076663
              ],
              [
                1200.4205155478621,
                1204.8403029899314
              ],
              [
                1200.4088327318525,
                1204.8650042290199
              ],
              [
                1200.4036802902106,
                1204.87940433873
              ],
              [
                1200.3995951058218,
                1204.8883106779924
              ],
              [
                1200.3921649522106,
                1204.9098054080516
              ],
              [
                1200.3884379015483,
                1204.918274752011
              ],
              [
                1200.3841594363876,
                1204.931343448765
              ],
              [
                1200.376657365748,
                1204.9491837213534
              ],
              [
                1200.3655994098153,
                1204.9849450942727
              ],
              [
                1200.3542844441686,
                1205.0147472708259
              ],
              [
                1200.3513589315855,
                1205.0255008404615
              ],
              [
                1200.3438658310529,
                1205.0462119168383
              ],
              [
                1200.3435518974259,
                1205.0474519388742
              ],
              [
                1200.3427111254107,
                1205.049801739241
              ],
              [
                1200.3423007005206,
                1205.0514402472486
              ],
              [
                1200.3421007738482,
                1205.051999004866
              ],
              [
                1200.3419569929335,
                1205.0525730104534
              ],
              [
                1200.3418566332232,
                1205.0528534970535
              ],
              [
                1200.3395924043411,
                1205.061892805448
              ],
              [
                1200.3360852144947,
                1205.0720387732117
              ],
              [
                1200.3305532904878,
                1205.0950849865803
              ],
              [
                1200.3273715208877,
                1205.1048037947241
              ],
              [
                1200.3244163514566,
                1205.118130894332
              ],
              [
                1200.318676144769,
                1205.1366946933956
              ],
              [
                1200.311312807832,
                1205.1727019781085
              ],
              [
                1200.3032538581058,
                1205.2023249842018
              ],
              [
                1200.301340890224,
                1205.2135780219655
              ],
              [
                1200.3000789679677,
                1205.2183805066002
              ],
              [
                1200.299723090823,
                1205.2205735203788
              ],
              [
                1200.2952017733626,
                1205.2384324969262
              ],
              [
                1200.2949488922372,
                1205.2401196962608
              ],
              [
                1200.294166743881,
                1205.2432422075303
              ],
              [
                1200.292834698951,
                1205.2522221250272
              ],
              [
                1200.2907121588253,
                1205.2610647108195
              ],
              [
                1200.287320558385,
                1205.2854239517394
              ],
              [
                1200.284882234896,
                1205.2964202011156
              ],
              [
                1200.2832563068232,
                1205.3099004288288
              ],
              [
                1200.2793534084765,
                1205.3289859023284
              ],
              [
                1200.2756289363829,
                1205.3648286468879
              ],
              [
                1200.2706748909727,
                1205.3939708298908
              ],
              [
                1200.2699624876018,
                1205.403966620763
              ],
              [
                1200.2693100441638,
                1205.4079871583851
              ],
              [
                1200.2689841827553,
                1205.413009244806
              ],
              [
                1200.2653678513432,
                1205.4373885709033
              ],
              [
                1200.264934800416,
                1205.4462035250303
              ],
              [
                1200.263904595304,
                1205.453602690988
              ],
              [
                1200.2628598689284,
                1205.4790030059773
              ],
              [
                1200.2613792386246,
                1205.4912786004436
              ],
              [
                1200.26108340915,
                1205.5048086504974
              ],
              [
                1200.2590678563174,
                1205.5242054786931
              ],
              [
                1200.2588785710784,
                1205.5594859741732
              ],
              [
                1200.2568553286462,
                1205.5878742567982
              ],
              [
                1200.257079780108,
                1205.5964766249072
              ],
              [
                1200.2568725073031,
                1205.5996710563788
              ],
              [
                1200.2570759960633,
                1205.6061731626005
              ],
              [
                1200.2557373046875,
                1205.6334228515625
              ],
              [
                1200.2561570707257,
                1205.641967385565
              ],
              [
                1200.2559157851654,
                1205.6478337342892
              ],
              [
                1200.2573846367836,
                1205.673975618358
              ],
              [
                1200.257088878776,
                1205.6875023998023
              ],
              [
                1200.2581194321222,
                1205.7009803594165
              ],
              [
                1200.2580148492482,
                1205.7204733512515
              ],
              [
                1200.261211057561,
                1205.7548127263324
              ],
              [
                1200.2619257297806,
                1205.782203385602
              ],
              [
                1200.2628076887017,
                1205.7893187786904
              ],
              [
                1200.2628810856072,
                1205.7916640407818
              ],
              [
                1200.2636281952673,
                1205.797498133595
              ],
              [
                1200.2645740497294,
                1205.817883801105
              ],
              [
                1200.2649210592688,
                1205.8203624706161
              ],
              [
                1200.2653678513432,
                1205.8294571322217
              ],
              [
                1200.2665798820406,
                1205.8376279794827
              ],
              [
                1200.2668212017334,
                1205.841922866285
              ],
              [
                1200.2709272478928,
                1205.868485733408
              ],
              [
                1200.27205247386,
                1205.883201856737
              ],
              [
                1200.274401364123,
                1205.8965265447464
              ],
              [
                1200.2762045283027,
                1205.9158993530996
              ],
              [
                1200.282593294763,
                1205.9489434065913
              ],
              [
                1200.2858381923702,
                1205.975122315213
              ],
              [
                1200.2870890977938,
                1205.980701604412
              ],
              [
                1200.287280353833,
                1205.982195100673
              ],
              [
                1200.2880539490554,
                1205.9855993938365
              ],
              [
                1200.2902780301295,
                1206.0014858791412
              ],
              [
                1200.2919136921762,
                1206.0084146547597
              ],
              [
                1200.294166743881,
                1206.0236034955947
              ],
              [
                1200.2942884689166,
                1206.024089449177
              ],
              [
                1200.2942888141936,
                1206.0240917768447
              ],
              [
                1200.2960955309984,
                1206.0313045946434
              ],
              [
                1200.2965178173952,
                1206.0340364532262
              ],
              [
                1200.3033394690112,
                1206.060685435134
              ],
              [
                1200.3061259162766,
                1206.0764922784974
              ],
              [
                1200.3097807275265,
                1206.0895625680669
              ],
              [
                1200.3134617169278,
                1206.1086014250088
              ],
              [
                1200.322810462911,
                1206.1400260607716
              ],
              [
                1200.3283668062986,
                1206.1648084672288
              ],
              [
                1200.329695508733,
                1206.1688477811244
              ],
              [
                1200.3298452445356,
                1206.1695067104379
              ],
              [
                1200.3301842305498,
                1206.1705312568454
              ],
              [
                1200.332872522377,
                1206.1819190437695
              ],
              [
                1200.3365905645257,
                1206.1929698306162
              ],
              [
                1200.3419787035357,
                1206.2144804873215
              ],
              [
                1200.3445420821918,
                1206.22164465073
              ],
              [
                1200.3447250769436,
                1206.2223595250898
              ],
              [
                1200.3502547777,
                1206.2376105651022
              ],
              [
                1200.354484775977,
                1206.249432618314
              ],
              [
                1200.3589810601488,
                1206.2655121726586
              ],
              [
                1200.3639246886485,
                1206.2782263681477
              ],
              [
                1200.3694276080305,
                1206.2967237406854
              ],
              [
                1200.3812451132067,
                1206.3256923440993
              ],
              [
                1200.3831834918938,
                1206.331453604688
              ],
              [
                1200.3891097875971,
                1206.3494698045258
              ],
              [
                1200.3896819093716,
                1206.350768239519
              ],
              [
                1200.3919915288502,
                1206.3576329041828
              ],
              [
                1200.3982537774182,
                1206.371758782581
              ],
              [
                1200.4081003099775,
                1206.3992779975426
              ],
              [
                1200.4243604865906,
                1206.4336572524935
              ],
              [
                1200.4301088815478,
                1206.4484411743108
              ],
              [
                1200.4363189599449,
                1206.4606965096013
              ],
              [
                1200.4435632194854,
                1206.4784545793912
              ],
              [
                1200.456020512732,
                1206.502064354081
              ],
              [
                1200.4671270633128,
                1206.5271176206875
              ],
              [
                1200.4672491336253,
                1206.5273617613125
              ],
              [
                1200.476141547931,
                1206.5431391081831
              ],
              [
                1200.4920168463034,
                1206.5767046064645
              ],
              [
                1200.5119821107462,
                1206.6100146378003
              ],
              [
                1200.5188243806706,
                1206.6235175771692
              ],
              [
                1200.5262724781765,
                1206.635209897244
              ],
              [
                1200.5351545848273,
                1206.652043773805
              ],
              [
                1200.5513045360262,
                1206.676496877427
              ],
              [
                1200.5646073988069,
                1206.7000994529756
              ],
              [
                1200.573934223539,
                1206.713375493568
              ],
              [
                1200.592920150395,
                1206.7450515988517
              ],
              [
                1200.6164670032713,
                1206.7768008546093
              ],
              [
                1200.624273178764,
                1206.7890552997676
              ],
              [
                1200.6329238240312,
                1206.8000789788562
              ],
              [
                1200.6433196291391,
                1206.815819565091
              ],
              [
                1200.6625313816028,
                1206.8394869517108
              ],
              [
                1200.6785917776344,
                1206.8623477297108
              ],
              [
                1200.6880323446978,
                1206.8732955471382
              ],
              [
                1200.7098384682745,
                1206.9026977011397
              ],
              [
                1200.7367697887514,
                1206.932411834308
              ],
              [
                1200.7454397462586,
                1206.9434601233452
              ],
              [
                1200.755249330437,
                1206.9537082621205
              ],
              [
                1200.7670166639152,
                1206.9682047028507
              ],
              [
                1200.789280972225,
                1206.9907092026438
              ],
              [
                1200.8080818908072,
                1207.0125118150002
              ],
              [
                1200.8173659737438,
                1207.0213360211399
              ],
              [
                1200.841645812627,
                1207.0481246951856
              ],
              [
                1200.8716939327433,
                1207.0753587237873
              ],
              [
                1200.8811571828724,
                1207.0852450450448
              ],
              [
                1200.892072808705,
                1207.094609976501
              ],
              [
                1200.905054419091,
                1207.107731634905
              ],
              [
                1200.9303152064351,
                1207.1286904383076
              ],
              [
                1200.9518049495105,
                1207.1491157106884
              ],
              [
                1200.952335680409,
                1207.1495283151962
              ],
              [
                1200.952415301073,
                1207.1496039919384
              ],
              [
                1200.9608211551576,
                1207.1561389295052
              ],
              [
                1200.9870728066728,
                1207.179932039538
              ],
              [
                1200.9873975062906,
                1207.1801728531868
              ],
              [
                1200.9878052285478,
                1207.1805423911005
              ],
              [
                1201.0204821754905,
                1207.204777266651
              ],
              [
                1201.0301184555005,
                1207.213044598563
              ],
              [
                1201.0304527365356,
                1207.2132786868465
              ],
              [
                1201.0306067367505,
                1207.2134108095006
              ],
              [
                1201.0422644079104,
                1207.2215743723207
              ],
              [
                1201.056103515625,
                1207.233056640625
              ],
              [
                1201.0841208440595,
                1207.2519954315146
              ],
              [
                1201.108958617519,
                1207.2713049861675
              ],
              [
                1201.1170459860693,
                1207.2763938695168
              ],
              [
                1201.1454513308358,
                1207.29746070898
              ],
              [
                1201.1814011534887,
                1207.3190082034482
              ],
              [
                1201.1913772669068,
                1207.3259942152745
              ],
              [
                1201.204623422541,
                1207.3334512041763
              ],
              [
                1201.2187092681456,
                1207.342972771696
              ],
              [
                1201.246371062902,
                1207.3579496685338
              ],
              [
                1201.252381691391,
                1207.3615523006072
              ],
              [
                1201.2767834905874,
                1207.376906851207
              ],
              [
                1201.284007911607,
                1207.380508327504
              ],
              [
                1201.313798323223,
                1207.3983640130716
              ],
              [
                1201.35216093296,
                1207.4165081761887
              ],
              [
                1201.3624087465,
                1207.4222772335622
              ],
              [
                1201.3772205472126,
                1207.428795369078
              ],
              [
                1201.3913056943668,
                1207.4364214756895
              ],
              [
                1201.4179818610082,
                1207.4476391566718
              ],
              [
                1201.4314035485022,
                1207.4539871420895
              ],
              [
                1201.4542403300816,
                1207.4653716014584
              ],
              [
                1201.4605264480654,
                1207.4677612477547
              ],
              [
                1201.4912249321449,
                1207.4822805493975
              ],
              [
                1201.5315370349645,
                1207.4967044504247
              ],
              [
                1201.542054048886,
                1207.5013326062642
              ],
              [
                1201.558369355099,
                1207.5066739551787
              ],
              [
                1201.5722305963534,
                1207.512502790502
              ],
              [
                1201.5977077471243,
                1207.520380709819
              ],
              [
                1201.6187659932373,
                1207.527915470759
              ],
              [
                1201.6395848709385,
                1207.5358296960594
              ],
              [
                1201.6449066459897,
                1207.5372687458728
              ],
              [
                1201.676022442366,
                1207.5484021558393
              ],
              [
                1201.7177752901289,
                1207.5588606997546
              ],
              [
                1201.7285830915991,
                1207.5623989869248
              ],
              [
                1201.746298660474,
                1207.5663272615782
              ],
              [
                1201.7597415683956,
                1207.570484011481
              ],
              [
                1201.7839050207576,
                1207.5754253349583
              ],
              [
                1201.812535037583,
                1207.582596780843
              ],
              [
                1201.830995318021,
                1207.587588585807
              ],
              [
                1201.8353697595667,
                1207.5883165809394
              ],
              [
                1201.8664111528428,
                1207.5960920451814
              ],
              [
                1201.909062980157,
                1207.6024188461063
              ],
              [
                1201.9201994979906,
                1207.6048882729165
              ],
              [
                1201.9391705993407,
                1207.607176486952
              ],
              [
                1201.9520327773284,
                1207.6098067477735
              ],
              [
                1201.9748565311772,
                1207.6121783974706
              ],
              [
                1202.010711689859,
                1207.617497007842
              ],
              [
                1202.0265902529716,
                1207.6201395203857
              ],
              [
                1202.0300702061336,
                1207.6203685724709
              ],
              [
                1202.0605575162158,
                1207.6248909377193
              ],
              [
                1202.1035470309112,
                1207.6270028771494
              ],
              [
                1202.1150578973186,
                1207.628391269188
              ],
              [
                1202.1350994051577,
                1207.6288294692472
              ],
              [
                1202.1472523536931,
                1207.6300922999326
              ],
              [
                1202.1687852926716,
                1207.630207827434
              ],
              [
                1202.2112545880075,
                1207.632294210126
              ],
              [
                1202.2244471271158,
                1207.6331625489945
              ],
              [
                1202.2271134636233,
                1207.633073306726
              ],
              [
                1202.256591796875,
                1207.634521484375
              ],
              [
                1202.2993522762467,
                1207.6324207967289
              ],
              [
                1202.3112816966773,
                1207.6326816290366
              ],
              [
                1202.3321706575284,
                1207.6310844148347
              ],
              [
                1202.3435202262515,
                1207.6311453070018
              ],
              [
                1202.3638692159761,
                1207.629251282723
              ],
              [
                1202.412103059379,
                1207.6268817059445
              ],
              [
                1202.4226211586465,
                1207.6265296652182
              ],
              [
                1202.4245747273656,
                1207.6262690121848
              ],
              [
                1202.4526260775342,
                1207.6248909377193
              ],
              [
                1202.494599600565,
                1207.61866475373
              ],
              [
                1202.506981153612,
                1207.6177180339525
              ],
              [
                1202.5284607766646,
                1207.6139315830123
              ],
              [
                1202.5389462280996,
                1207.6129556279473
              ],
              [
                1202.5582569055048,
                1207.6092220845378
              ],
              [
                1202.6112002826746,
                1207.6013686764018
              ],
              [
                1202.6191644483413,
                1207.6003060652336
              ],
              [
                1202.6205181302876,
                1207.5999865042743
              ],
              [
                1202.6467724409072,
                1207.5960920451814
              ],
              [
                1202.686414268833,
                1207.5861622842078
              ],
              [
                1202.693014286645,
                1207.5850241392832
              ],
              [
                1202.6940412469983,
                1207.5847428804896
              ],
              [
                1202.7002715753724,
                1207.5836445915359
              ],
              [
                1202.7220565351854,
                1207.5775529195969
              ],
              [
                1202.7316483000088,
                1207.5756984393222
              ],
              [
                1202.7500844375181,
                1207.570213737199
              ],
              [
                1202.8065162290088,
                1207.5560783092903
              ],
              [
                1202.8121451259242,
                1207.55474950698
              ],
              [
                1202.81301631543,
                1207.5544501224017
              ],
              [
                1202.837161151384,
                1207.5484021558393
              ],
              [
                1202.8711921204729,
                1207.5362256803976
              ],
              [
                1202.8791908030835,
                1207.534035040989
              ],
              [
                1202.8833523741914,
                1207.5324501815255
              ],
              [
                1202.8892914695336,
                1207.5307894476637
              ],
              [
                1202.9110743615483,
                1207.522319660813
              ],
              [
                1202.9197706156854,
                1207.5197325482195
              ],
              [
                1202.9374929980577,
                1207.5125028470695
              ],
              [
                1202.996070065704,
                1207.4915436371277
              ],
              [
                1202.999666338872,
                1207.4903077765964
              ],
              [
                1203.0001701379342,
                1207.490076607826
              ],
              [
                1203.0219586616051,
                1207.4822805493975
              ],
              [
                1203.0503533139001,
                1207.4688508790382
              ],
              [
                1203.0595846203196,
                1207.4653353021179
              ],
              [
                1203.066681973889,
                1207.4618151461714
              ],
              [
                1203.0722204711858,
                1207.4596616262647
              ],
              [
                1203.0936792153373,
                1207.4487879553026
              ],
              [
                1203.1015014543912,
                1207.4455969367646
              ],
              [
                1203.1186472228233,
                1207.4365502657097
              ],
              [
                1203.1779517200175,
                1207.4085013274848
              ],
              [
                1203.1798848970252,
                1207.407614287025
              ],
              [
                1203.1801282652782,
                1207.4074718982436
              ],
              [
                1203.199385270527,
                1207.3983640130716
              ],
              [
                1203.2203778774203,
                1207.385781528722
              ],
              [
                1203.220530714078,
                1207.3857071481555
              ],
              [
                1203.2214540216796,
                1207.3851365126757
              ],
              [
                1203.222280327347,
                1207.3846412441185
              ],
              [
                1203.232515298536,
                1207.3795648879327
              ],
              [
                1203.2422420491177,
                1207.373507530672
              ],
              [
                1203.2472968740442,
                1207.370946127142
              ],
              [
                1203.268102824449,
                1207.3576925772625
              ],
              [
                1203.275090648805,
                1207.3540055714227
              ],
              [
                1203.2917540455164,
                1207.3430002999505
              ],
              [
                1203.350342318714,
                1207.3078838404117
              ],
              [
                1203.3510293897375,
                1207.3074818520479
              ],
              [
                1203.3511064400734,
                1207.3074258436943
              ],
              [
                1203.3677322629142,
                1207.29746070898
              ],
              [
                1203.3854155495683,
                1207.284345889773
              ],
              [
                1203.3963719200106,
                1207.2775227837942
              ],
              [
                1203.4083185210736,
                1207.2683741038002
              ],
              [
                1203.4128345966426,
                1207.2654973290485
              ],
              [
                1203.432661086802,
                1207.249938827038
              ],
              [
                1203.438866440091,
                1207.2458405271109
              ],
              [
                1203.455081828004,
                1207.2326778563145
              ],
              [
                1203.5253783652022,
                1207.1805423911005
              ],
              [
                1203.5257860874594,
                1207.1801728531868
              ],
              [
                1203.5261107870772,
                1207.179932039538
              ],
              [
                1203.5386543153172,
                1207.1685632482283
              ],
              [
                1203.5496280954499,
                1207.1601595522961
              ],
              [
                1203.5632892937767,
                1207.1474305563092
              ],
              [
                1203.5672394202202,
                1207.1443307615539
              ],
              [
                1203.5857704546877,
                1207.1265927364834
              ],
              [
                1203.5912515778507,
                1207.1221434923348
              ],
              [
                1203.6045784621592,
                1207.108958846429
              ],
              [
                1203.6103136035224,
                1207.1036150552295
              ],
              [
                1203.6462943787822,
                1207.0710039814337
              ],
              [
                1203.6563056108973,
                1207.0621060980238
              ],
              [
                1203.6573225541722,
                1207.0610086258896
              ],
              [
                1203.671537781123,
                1207.0481246951856
              ],
              [
                1203.6721181480361,
                1207.0474843589736
              ],
              [
                1203.672758484248,
                1207.0469039920606
              ],
              [
                1203.6813425946111,
                1207.037432885782
              ],
              [
                1203.690856182913,
                1207.0285684783987
              ],
              [
                1203.7056414323135,
                1207.011851467717
              ],
              [
                1203.7090243419198,
                1207.0086133249401
              ],
              [
                1203.7258222078449,
                1206.9890339804372
              ],
              [
                1203.72599796989,
                1206.9888352542673
              ],
              [
                1203.730778509905,
                1206.984105737159
              ],
              [
                1203.739834577138,
                1206.9731908302267
              ],
              [
                1203.7505905087692,
                1206.9610295863345
              ],
              [
                1203.7785301092872,
                1206.930202987573
              ],
              [
                1203.7879472385764,
                1206.9200401424712
              ],
              [
                1203.7890254161798,
                1206.9186232008735
              ],
              [
                1203.8045658286005,
                1206.9014769980147
              ],
              [
                1203.8113408838274,
                1206.8923418935362
              ],
              [
                1203.8187405868596,
                1206.8839753850464
              ],
              [
                1203.8339872285392,
                1206.862958429366
              ],
              [
                1203.836823895438,
                1206.859652052312
              ],
              [
                1203.8490114069964,
                1206.8422481313605
              ],
              [
                1203.8527275851677,
                1206.837125511339
              ],
              [
                1203.856103515625,
                1206.833056640625
              ],
              [
                1203.8564697265624,
                1206.832568359375
              ],
              [
                1203.8624288207757,
                1206.8237527015688
              ],
              [
                1203.8722199974213,
                1206.810255911263
              ],
              [
                1203.9005439383034,
                1206.7720654979687
              ],
              [
                1203.9052300073001,
                1206.7659070635245
              ],
              [
                1203.905823274092,
                1206.764947137691
              ],
              [
                1203.92148414648,
                1206.7438308957267
              ],
              [
                1203.926602091865,
                1206.735292119712
              ],
              [
                1203.932090013443,
                1206.7277272141412
              ],
              [
                1203.947078939733,
                1206.7022064518537
              ],
              [
                1203.949407301212,
                1206.6988815221557
              ],
              [
                1203.9580834853994,
                1206.683469659865
              ],
              [
                1203.963569170195,
                1206.6741295073457
              ],
              [
                1203.9663858576334,
                1206.6699626068544
              ],
              [
                1203.970743488202,
                1206.6619142184788
              ],
              [
                1203.9785575760486,
                1206.6486096311744
              ],
              [
                1204.0053432484312,
                1206.6039204366502
              ],
              [
                1204.0070540318197,
                1206.6011523309803
              ],
              [
                1204.0072889076305,
                1206.6006743003882
              ],
              [
                1204.0223874505716,
                1206.5754839033395
              ],
              [
                1204.026033035569,
                1206.567775961473
              ],
              [
                1204.0298485678848,
                1206.561279479247
              ],
              [
                1204.0438220015444,
                1206.531168812476
              ],
              [
                1204.0456903194997,
                1206.5278500425625
              ],
              [
                1204.0458123898122,
                1206.5276059019375
              ],
              [
                1204.0519892954035,
                1206.513569511559
              ],
              [
                1204.0575543439331,
                1206.501577661458
              ],
              [
                1204.059834561627,
                1206.4973661806332
              ],
              [
                1204.0629800030545,
                1206.4898861747558
              ],
              [
                1204.0686059741763,
                1206.4777630455492
              ],
              [
                1204.0924342674402,
                1206.4273823523592
              ],
              [
                1204.0924643999713,
                1206.4273210251768
              ],
              [
                1204.0924687809475,
                1206.4273093796792
              ],
              [
                1204.1063039868975,
                1206.3980572944176
              ],
              [
                1204.1086913907523,
                1206.3913849476314
              ],
              [
                1204.1111055905521,
                1206.3861827069034
              ],
              [
                1204.1232285263409,
                1206.351685597208
              ],
              [
                1204.1248677625142,
                1206.3479605995515
              ],
              [
                1204.1293652436523,
                1206.3342229121
              ],
              [
                1204.1340789109186,
                1206.3208096680157
              ],
              [
                1204.1359158764394,
                1206.3164412786466
              ],
              [
                1204.1381273052566,
                1206.3092895291645
              ],
              [
                1204.1415224097277,
                1206.2996283964646
              ],
              [
                1204.1571697551187,
                1206.2558969957106
              ],
              [
                1204.1596315714564,
                1206.2494128854241
              ],
              [
                1204.1600813055534,
                1206.2477597573675
              ],
              [
                1204.1724255933393,
                1206.2132597841965
              ],
              [
                1204.1737945773332,
                1206.2077944937366
              ],
              [
                1204.1751041401133,
                1206.2040679928573
              ],
              [
                1204.1845892274355,
                1206.1655396412318
              ],
              [
                1204.1859341431748,
                1206.1614315568384
              ],
              [
                1204.1889601729142,
                1206.1477848943734
              ],
              [
                1204.1924488301713,
                1206.1336139954735
              ],
              [
                1204.1938970974186,
                1206.1289303066044
              ],
              [
                1204.195345211968,
                1206.1218489149303
              ],
              [
                1204.196626267511,
                1206.116645277185
              ],
              [
                1204.2067930749595,
                1206.0760571066844
              ],
              [
                1204.2106621575192,
                1206.0618351720482
              ],
              [
                1204.2113098445334,
                1206.0580251517656
              ],
              [
                1204.2201154826814,
                1206.0228710737197
              ],
              [
                1204.2207271012603,
                1206.0187478761802
              ],
              [
                1204.2212480447445,
                1206.016631807761
              ],
              [
                1204.227409281667,
                1205.9743887104605
              ],
              [
                1204.2284234291665,
                1205.969815150447
              ],
              [
                1204.2300823162614,
                1205.9560616664128
              ],
              [
                1204.2321573256938,
                1205.9418348437057
              ],
              [
                1204.233219833711,
                1205.9366390976716
              ]
            ]
          ]
        ]
      }
    }
  ]
}