{
  "type": "FeatureCollection",
  "features": [
    {
      "type": "Feature",
      "properties": {
        "image_id": "0038_top_20250704_t1",
        "zone_type": "parking_spot",
        "generated_at": "2025-11-03T11:20:42",
        "source": "merged_t1_polygons"
      },
      "geometry": {
        "type": "MultiPolygon",
        "coordinates": [
          [
            [
              [
                1858.9876987788907,
                710.4997133986413
              ],
              [
                1858.9914620785655,
                710.5216203478208
              ],
              [
                1859.0037614704436,
                710.6045361127823
              ],
              [
                1859.0077920266556,
                710.620626995153
              ],
              [
                1859.0089865258094,
                710.6279528647547
              ],
              [
                1859.0111189994282,
                710.6360473676064
              ],
              [
                1859.0130959033231,
                710.647555335853
              ],
              [
                1859.0200154145462,
                710.6728798715947
              ],
              [
                1859.0204174642327,
                710.6750342272308
              ],
              [
                1859.023441632799,
                710.6854193969752
              ],
              [
                1859.03040919704,
                710.7109198006839
              ],
              [
                1859.0514513597857,
                710.794924823259
              ],
              [
                1859.0572282525739,
                710.8110701570084
              ],
              [
                1859.0578625413436,
                710.8134778080158
              ],
              [
                1859.06005360136,
                710.8194145704072
              ],
              [
                1859.0639971481098,
                710.8338474526433
              ],
              [
                1859.0753897883258,
                710.8638123672195
              ],
              [
                1859.0756779229628,
                710.8648018382254
              ],
              [
                1859.0773017217132,
                710.8688411331188
              ],
              [
                1859.0874429839864,
                710.895514674278
              ],
              [
                1859.1175729662275,
                710.9797223334801
              ],
              [
                1859.1271872748086,
                711.0000500810654
              ],
              [
                1859.1326285681037,
                711.0143617670029
              ],
              [
                1859.1392045415962,
                711.0276372257268
              ],
              [
                1859.1397724206984,
                711.0291006493514
              ],
              [
                1859.1461821518822,
                711.0417235016897
              ],
              [
                1859.1620093031534,
                711.0736750741303
              ],
              [
                1859.2014895025534,
                711.157148942402
              ],
              [
                1859.212254696049,
                711.1751095826784
              ],
              [
                1859.218350249272,
                711.1874151774771
              ],
              [
                1859.2282127765113,
                711.2032685699953
              ],
              [
                1859.2300131543236,
                711.2068141014109
              ],
              [
                1859.2442474411596,
                711.2290432853798
              ],
              [
                1859.2533847975337,
                711.243731011321
              ],
              [
                1859.302392806645,
                711.3254959347892
              ],
              [
                1859.3139239063892,
                711.3410438229449
              ],
              [
                1859.320362929314,
                711.3513941475
              ],
              [
                1859.3340417155978,
                711.3692718383697
              ],
              [
                1859.337494035186,
                711.3746632041704
              ],
              [
                1859.3580357365645,
                711.4006311768856
              ],
              [
                1859.3606804514575,
                711.4040877259035
              ],
              [
                1859.4193111245245,
                711.4831420370773
              ],
              [
                1859.4312250593807,
                711.4962870385332
              ],
              [
                1859.4377154499193,
                711.5047697498837
              ],
              [
                1859.4556559444902,
                711.5240386225084
              ],
              [
                1859.461147631399,
                711.5309809868813
              ],
              [
                1859.4851804837003,
                711.5558176755385
              ],
              [
                1859.551118468877,
                711.6285690311231
              ],
              [
                1859.5630417980383,
                711.6393757067539
              ],
              [
                1859.5693136252958,
                711.6461119224178
              ],
              [
                1859.5918660553948,
                711.66607160192
              ],
              [
                1859.5997458939328,
                711.674215000547
              ],
              [
                1859.6257913468523,
                711.6962485826787
              ],
              [
                1859.6965454629228,
                711.7603763754755
              ],
              [
                1859.708121948701,
                711.7689620824768
              ],
              [
                1859.7139304442715,
                711.7741028016572
              ],
              [
                1859.741340566382,
                711.7939993580875
              ],
              [
                1859.7519123528173,
                711.8029427358593
              ],
              [
                1859.77980067228,
                711.8221226469753
              ],
              [
                1859.8541915652108,
                711.8772946933551
              ],
              [
                1859.8650894381572,
                711.8838266270253
              ],
              [
                1859.870217510852,
                711.887549010579
              ],
              [
                1859.9026192714139,
                711.9065899028068
              ],
              [
                1859.9161357873686,
                711.91588575066
              ],
              [
                1859.9456968776817,
                711.9321408669596
              ],
              [
                1860.022538557598,
                711.9781979974467
              ],
              [
                1860.032457320942,
                711.9828892231288
              ],
              [
                1860.0367176165603,
                711.9853927855378
              ],
              [
                1860.0735676280885,
                712.0025026530187
              ],
              [
                1860.0739565980625,
                712.0027215694998
              ],
              [
                1860.074078668375,
                712.0027826046561
              ],
              [
                1860.0745096521096,
                712.0029727140605
              ],
              [
                1860.090785234674,
                712.0119223666148
              ],
              [
                1860.1218402785998,
                712.025164213666
              ],
              [
                1860.1999651665199,
                712.0621145337726
              ],
              [
                1860.20864179533,
                712.0652190812026
              ],
              [
                1860.2118783273356,
                712.0667218387708
              ],
              [
                1860.2471247356639,
                712.0791142203527
              ],
              [
                1860.250464908047,
                712.0805875896046
              ],
              [
                1860.25647780339,
                712.0825735515787
              ],
              [
                1860.274126187279,
                712.0900988090126
              ],
              [
                1860.30648042666,
                712.1002263032581
              ],
              [
                1860.384762676741,
                712.1282361402144
              ],
              [
                1860.3919770792027,
                712.1300432539566
              ],
              [
                1860.3940664583074,
                712.1307778644989
              ],
              [
                1860.4269426607113,
                712.1388753338722
              ],
              [
                1860.433522775176,
                712.141048639138
              ],
              [
                1860.4456994043617,
                712.1438044995782
              ],
              [
                1860.4643378192163,
                712.1496386790487
              ],
              [
                1860.4977747225614,
                712.156544184037
              ],
              [
                1860.5751513872178,
                712.1759260295564
              ],
              [
                1860.5807310106957,
                712.1767536885151
              ],
              [
                1860.581583301485,
                712.1769636093106
              ],
              [
                1860.6114991368822,
                712.1813289176149
              ],
              [
                1860.6215514003472,
                712.1836039836282
              ],
              [
                1860.6403331991671,
                712.1859858539533
              ],
              [
                1860.6595310692915,
                712.1899506645262
              ],
              [
                1860.693808093797,
                712.193527089305
              ],
              [
                1860.7692977505908,
                712.2047249220944
              ],
              [
                1860.7999838747046,
                712.2062324347038
              ],
              [
                1860.8128037286942,
                712.2078582230579
              ],
              [
                1860.8384724429707,
                712.2086211988566
              ],
              [
                1860.8577674020419,
                712.2106344123931
              ],
              [
                1860.8926135063186,
                712.2107830367003
              ],
              [
                1860.96533203125,
                712.21435546875
              ],
              [
                1860.9902431562268,
                712.2131324252434
              ],
              [
                1861.005502752537,
                712.2135860008514
              ],
              [
                1861.0381634332082,
                712.2114038308317
              ],
              [
                1861.0570780600385,
                712.2114845047942
              ],
              [
                1861.0909031556778,
                712.2082466599513
              ],
              [
                1861.152348609152,
                712.2054222459197
              ],
              [
                1861.1551207088835,
                712.2050375511521
              ],
              [
                1861.1614883822217,
                712.2047249220944
              ],
              [
                1861.1689989390386,
                712.2036108362321
              ],
              [
                1861.1729376795665,
                712.2034063403676
              ],
              [
                1861.1841084727303,
                712.2016527514537
              ],
              [
                1861.1978580223256,
                712.2007340977608
              ],
              [
                1861.237424777356,
                712.194221148178
              ],
              [
                1861.255483616336,
                712.1924924991512
              ],
              [
                1861.2789703661822,
                712.1878504656404
              ],
              [
                1861.334396738776,
                712.1801587382174
              ],
              [
                1861.3455059292505,
                712.1775596828204
              ],
              [
                1861.3656886597564,
                712.174562621077
              ],
              [
                1861.3825710344797,
                712.1703291142209
              ],
              [
                1861.3880822824763,
                712.1694219263478
              ],
              [
                1861.4157433407743,
                712.1620761329721
              ],
              [
                1861.4184237966192,
                712.1616095576238
              ],
              [
                1861.4280733416176,
                712.1589187331342
              ],
              [
                1861.4381955400122,
                712.1563804411578
              ],
              [
                1861.4510136328852,
                712.1538470120095
              ],
              [
                1861.4512577735102,
                712.1537859768532
              ],
              [
                1861.4650827276848,
                712.1496380784736
              ],
              [
                1861.4682973777528,
                712.1488319570999
              ],
              [
                1861.5133570030516,
                712.1382900132395
              ],
              [
                1861.5225303402397,
                712.1352322341768
              ],
              [
                1861.5562675688277,
                712.1267721217296
              ],
              [
                1861.5699524643294,
                712.1218699355298
              ],
              [
                1861.5704724396226,
                712.1217362637758
              ],
              [
                1861.576073676045,
                712.119677202703
              ],
              [
                1861.6016409392691,
                712.1105185295567
              ],
              [
                1861.6102387351586,
                712.1081209906323
              ],
              [
                1861.6106049460961,
                712.1079989203198
              ],
              [
                1861.61054391094,
                712.107815814851
              ],
              [
                1861.6107270164086,
                712.1077547796948
              ],
              [
                1861.6194966392345,
                712.1041222829834
              ],
              [
                1861.6682058229346,
                712.0866737399451
              ],
              [
                1861.6877180930023,
                712.0801696499226
              ],
              [
                1861.6937280969755,
                712.0775311827679
              ],
              [
                1861.7412375703993,
                712.0605123984486
              ],
              [
                1861.755877222533,
                712.0535799242813
              ],
              [
                1861.759330713781,
                712.0523103921892
              ],
              [
                1861.78720159062,
                712.038746554568
              ],
              [
                1861.852406202727,
                712.0078695033309
              ],
              [
                1861.8560075394098,
                712.0062884713394
              ],
              [
                1861.856956014404,
                712.0057633892756
              ],
              [
                1861.872698675375,
                711.9992425655936
              ],
              [
                1861.8834940428558,
                711.993148139282
              ],
              [
                1861.918813507314,
                711.9764229280046
              ],
              [
                1861.9340353340588,
                711.967287408707
              ],
              [
                1861.940257276578,
                711.9642593942491
              ],
              [
                1861.9797621571618,
                711.9398440353268
              ],
              [
                1861.9841567109736,
                711.9372066034452
              ],
              [
                1861.987021979159,
                711.9357086010256
              ],
              [
                1861.9914610981577,
                711.9328228083069
              ],
              [
                1862.0090499720768,
                711.9222666838807
              ],
              [
                1862.0480382628114,
                711.9002561997241
              ],
              [
                1862.0611810304263,
                711.8909797498253
              ],
              [
                1862.0872815829991,
                711.8753152631832
              ],
              [
                1862.1026972587697,
                711.8638659641226
              ],
              [
                1862.1114208165122,
                711.8584745089349
              ],
              [
                1862.142543319567,
                711.8346069293052
              ],
              [
                1862.145760010452,
                711.8325158154746
              ],
              [
                1862.1580714066092,
                711.8227393091332
              ],
              [
                1862.162053810919,
                711.8197815576472
              ],
              [
                1862.2124289968165,
                711.784225660912
              ],
              [
                1862.22717120659,
                711.7714185440378
              ],
              [
                1862.2425566351765,
                711.7599917097112
              ],
              [
                1862.2470580527022,
                711.7566532309443
              ],
              [
                1862.2628175330965,
                711.7423696705038
              ],
              [
                1862.2710888419344,
                711.7360264749714
              ],
              [
                1862.291782738714,
                711.7165588508375
              ],
              [
                1862.2940288797295,
                711.7147751853944
              ],
              [
                1862.3065815348903,
                711.702704291373
              ],
              [
                1862.3138274136415,
                711.6961370096798
              ],
              [
                1862.3643290093778,
                711.6522643576918
              ],
              [
                1862.3764541859084,
                711.6393754119309
              ],
              [
                1862.392485046748,
                711.6248458865919
              ],
              [
                1862.411071677542,
                711.6043386996893
              ],
              [
                1862.4176452170668,
                711.5981546929715
              ],
              [
                1862.429528335371,
                711.5844760934456
              ],
              [
                1862.4304998564828,
                711.5835418585582
              ],
              [
                1862.441239037378,
                711.5710541472935
              ],
              [
                1862.4547346523116,
                711.5561640307963
              ],
              [
                1862.5022007913776,
                711.5057079825596
              ],
              [
                1862.5117442895944,
                711.4932635890763
              ],
              [
                1862.5242923911005,
                711.479418892546
              ],
              [
                1862.524294007415,
                711.4794167131982
              ],
              [
                1862.5252463356153,
                711.4783697106704
              ],
              [
                1862.546362925876,
                711.4499883661175
              ],
              [
                1862.5496065202872,
                711.4462546804101
              ],
              [
                1862.5582077163913,
                711.434068604612
              ],
              [
                1862.5929443908412,
                711.3873814494412
              ],
              [
                1862.6246488253412,
                711.3460399571374
              ],
              [
                1862.6292846792069,
                711.3385389880156
              ],
              [
                1862.6426876736039,
                711.3205249527324
              ],
              [
                1862.7234623685351,
                711.1861562857006
              ],
              [
                1862.7304337106552,
                711.1748764172031
              ],
              [
                1862.7312437317007,
                711.1732119917342
              ],
              [
                1862.744052222459,
                711.1519050733812
              ],
              [
                1862.8283590917474,
                710.9741417833918
              ],
              [
                1862.894792455793,
                710.7889552730337
              ],
              [
                1862.942709448308,
                710.598137566032
              ],
              [
                1862.9716463833183,
                710.4035351784072
              ],
              [
                1862.9813232421875,
                710.2069702148438
              ],
              [
                1862.9712013923465,
                710.0060101503544
              ],
              [
                1862.9667842823048,
                709.976975517501
              ],
              [
                1862.9667682178613,
                709.9767286646505
              ],
              [
                1862.96651989329,
                709.9752376305349
              ],
              [
                1862.940938294668,
                709.8070841734619
              ],
              [
                1862.934056115508,
                709.7803128996601
              ],
              [
                1862.9339106185007,
                709.7794392809101
              ],
              [
                1862.9324187087125,
                709.7739434831386
              ],
              [
                1862.890840267682,
                709.6122057830337
              ],
              [
                1862.8819411630786,
                709.5879976672613
              ],
              [
                1862.8815123876157,
                709.5864181728092
              ],
              [
                1862.8775505012431,
                709.5760538083264
              ],
              [
                1862.8549081500519,
                709.5144601218357
              ],
              [
                1862.8545297954342,
                709.5132608248426
              ],
              [
                1862.854076162412,
                709.5121968769354
              ],
              [
                1862.8342763871378,
                709.4583358118666
              ],
              [
                1862.8279836743975,
                709.4407488579261
              ],
              [
                1862.827209748887,
                709.4391125299162
              ],
              [
                1862.8214143960954,
                709.423347508875
              ],
              [
                1862.8109849548573,
                709.4019171673771
              ],
              [
                1862.8100975431826,
                709.3995956828168
              ],
              [
                1862.8021111979967,
                709.3836834350467
              ],
              [
                1862.7792786327543,
                709.336767242774
              ],
              [
                1862.7781341369018,
                709.3340829497282
              ],
              [
                1862.7766644575659,
                709.3313956542346
              ],
              [
                1862.762422168364,
                709.3021306999251
              ],
              [
                1862.7440671380716,
                709.2633222490042
              ],
              [
                1862.741239282338,
                709.2586042567447
              ],
              [
                1862.7333633981552,
                709.2424209460781
              ],
              [
                1862.7219125036586,
                709.2238930095809
              ],
              [
                1862.7203802822569,
                709.2208401630015
              ],
              [
                1862.706498753891,
                709.1989530385631
              ],
              [
                1862.686802310329,
                709.1670835234221
              ],
              [
                1862.6846709592076,
                709.1631863669993
              ],
              [
                1862.681674576243,
                709.1587866753856
              ],
              [
                1862.672940909297,
                709.1446553054208
              ],
              [
                1862.64316383398,
                709.0949752566171
              ],
              [
                1862.6376028994384,
                709.0874772043747
              ],
              [
                1862.6275785128412,
                709.0712574061439
              ],
              [
                1862.6156206826943,
                709.0556648068502
              ],
              [
                1862.6132578385182,
                709.0519392902394
              ],
              [
                1862.5913141614606,
                709.0239699390385
              ],
              [
                1862.5783101686977,
                709.0070131796701
              ],
              [
                1862.5750267841345,
                709.0021920737909
              ],
              [
                1862.5699057607542,
                708.9960541207313
              ],
              [
                1862.566659608243,
                708.9918212494887
              ],
              [
                1862.5262455161005,
                708.937329154329
              ],
              [
                1862.5173063822126,
                708.9274663399534
              ],
              [
                1862.5051304788776,
                708.9115893807217
              ],
              [
                1862.4931692896103,
                708.8988747518406
              ],
              [
                1862.489801509321,
                708.8945821882276
              ],
              [
                1862.457359107482,
                708.8608088734615
              ],
              [
                1862.4547840563741,
                708.8580716189581
              ],
              [
                1862.4502416143018,
                708.8526271415274
              ],
              [
                1862.4430794830573,
                708.8455695771096
              ],
              [
                1862.394438171748,
                708.7919021602831
              ],
              [
                1862.3815275238896,
                708.7802006311465
              ],
              [
                1862.3672586968778,
                708.7650330055894
              ],
              [
                1862.35577087825,
                708.7550531017584
              ],
              [
                1862.3512459419935,
                708.7503425350981
              ],
              [
                1862.3158501148453,
                708.7201977525316
              ],
              [
                1862.3114990684783,
                708.7159102312656
              ],
              [
                1862.3030134235398,
                708.7090395985664
              ],
              [
                1862.2490111777022,
                708.6600948159307
              ],
              [
                1862.2316051701505,
                708.6471856409216
              ],
              [
                1862.2153586843165,
                708.6330717023692
              ],
              [
                1862.2047794357502,
                708.6256046397102
              ],
              [
                1862.1989767865225,
                708.6206628255651
              ],
              [
                1862.1637597461718,
                708.5962890797592
              ],
              [
                1862.160115154659,
                708.5933381373376
              ],
              [
                1862.1500216224767,
                708.5866791582225
              ],
              [
                1862.0913650754142,
                708.5431764980511
              ],
              [
                1862.069294302053,
                708.52994778559
              ],
              [
                1862.057015911156,
                708.5211856559185
              ],
              [
                1862.056077729526,
                708.5206477563439
              ],
              [
                1862.0509679503114,
                708.5170411635571
              ],
              [
                1862.0416779795169,
                708.5117961775063
              ],
              [
                1862.0345168381114,
                708.5068399449962
              ],
              [
                1862.0003437972598,
                708.4879326050724
              ],
              [
                1861.9975257873994,
                708.4860734869294
              ],
              [
                1861.985687376623,
                708.4798234664023
              ],
              [
                1861.985421475849,
                708.4796763482005
              ],
              [
                1861.9634408780507,
                708.4665016848917
              ],
              [
                1861.9561266656626,
                708.4618993011368
              ],
              [
                1861.9541784764328,
                708.4609281011867
              ],
              [
                1861.9488975717347,
                708.457645182755
              ],
              [
                1861.9475694049015,
                708.4569886899825
              ],
              [
                1861.923018083027,
                708.4422731939595
              ],
              [
                1861.9022387358584,
                708.4324452946828
              ],
              [
                1861.8849310441317,
                708.4225220562399
              ],
              [
                1861.878254127154,
                708.4195293830282
              ],
              [
                1861.8757504331875,
                708.4181158328439
              ],
              [
                1861.87538422225,
                708.4179327273752
              ],
              [
                1861.8678917418083,
                708.4146492222179
              ],
              [
                1861.859510808191,
                708.4100121996753
              ],
              [
                1861.8271753587685,
                708.3961379629923
              ],
              [
                1861.8252731678028,
                708.3951337122692
              ],
              [
                1861.815859073876,
                708.391282461746
              ],
              [
                1861.8088352386849,
                708.3882687305746
              ],
              [
                1861.8019985015144,
                708.3850351947109
              ],
              [
                1861.7951341212909,
                708.3816422354143
              ],
              [
                1861.7786698261684,
                708.3734345508855
              ],
              [
                1861.778059754529,
                708.3732026342341
              ],
              [
                1861.774822516696,
                708.3716025165478
              ],
              [
                1861.7732936100426,
                708.3710236474574
              ],
              [
                1861.770338603302,
                708.3695717328413
              ],
              [
                1861.7652807800657,
                708.3676690058147
              ],
              [
                1861.7455914741051,
                708.3583566576336
              ],
              [
                1861.7266574203593,
                708.3515819448758
              ],
              [
                1861.7039190277721,
                708.3413903282062
              ],
              [
                1861.6905229771962,
                708.3369191223042
              ],
              [
                1861.6900243523964,
                708.3367006049367
              ],
              [
                1861.6854781138968,
                708.3352352959829
              ],
              [
                1861.6843832361428,
                708.3348698581364
              ],
              [
                1861.6757088761863,
                708.3311479329657
              ],
              [
                1861.6459146077143,
                708.3217591789622
              ],
              [
                1861.6449911553555,
                708.3213814000269
              ],
              [
                1861.6394764893575,
                708.3197304025365
              ],
              [
                1861.6313852145568,
                708.317180684333
              ],
              [
                1861.6288404734587,
                708.3163313249378
              ],
              [
                1861.593223921018,
                708.3028463150641
              ],
              [
                1861.592311803723,
                708.3025989686308
              ],
              [
                1861.5890609252574,
                708.3013760049115
              ],
              [
                1861.5780817878342,
                708.2984207335103
              ],
              [
                1861.560793963884,
                708.2922350511918
              ],
              [
                1861.5594736573496,
                708.2919043316215
              ],
              [
                1861.5574980654465,
                708.2911974535356
              ],
              [
                1861.541625972396,
                708.2872217011956
              ],
              [
                1861.5157604640392,
                708.2785885586906
              ],
              [
                1861.4913737597906,
                708.2730603493193
              ],
              [
                1861.4849491865293,
                708.2710358412169
              ],
              [
                1861.4542970127848,
                708.2646554407197
              ],
              [
                1861.4437995605701,
                708.2622757787074
              ],
              [
                1861.4189388624177,
                708.2555839861344
              ],
              [
                1861.4058135995829,
                708.2520246994442
              ],
              [
                1861.4055499419076,
                708.2519800696925
              ],
              [
                1861.4020369085415,
                708.2510344610679
              ],
              [
                1861.3872931023527,
                708.2485633297208
              ],
              [
                1861.3671093549697,
                708.2435075641936
              ],
              [
                1861.3494540930853,
                708.2408886534868
              ],
              [
                1861.322306254959,
                708.234734524105
              ],
              [
                1861.2931200427174,
                708.2311056628636
              ],
              [
                1861.289139465966,
                708.2302770862642
              ],
              [
                1861.2713597814031,
                708.2284001055876
              ],
              [
                1861.2544368606486,
                708.22629599798
              ],
              [
                1861.2110204762528,
                708.2190192075037
              ],
              [
                1861.2065964107965,
                708.2187126483751
              ],
              [
                1861.2063199032784,
                708.218666631958
              ],
              [
                1861.198587224929,
                708.2181576635847
              ],
              [
                1861.1941338709419,
                708.2178490749503
              ],
              [
                1861.1729629915967,
                708.2147086716556
              ],
              [
                1861.1535861670754,
                708.2137567493083
              ],
              [
                1861.125459395433,
                708.2102596133793
              ],
              [
                1861.0916932888617,
                708.209432922366
              ],
              [
                1861.090237944988,
                708.2092792834013
              ],
              [
                1861.0841389252248,
                708.2092479699044
              ],
              [
                1861.062287732364,
                708.2087129901095
              ],
              [
                1861.0178029926162,
                708.2056304852987
              ],
              [
                1861.0110893550889,
                708.2058164693071
              ],
              [
                1861.0084630291342,
                708.2056436033494
              ],
              [
                1860.9965533324614,
                708.2060422208334
              ],
              [
                1860.9769287109375,
                708.205078125
              ],
              [
                1860.9769287109375,
                708.204833984375
              ],
              [
                1860.9591377370973,
                708.2059410655726
              ],
              [
                1860.955791144534,
                708.2061056485755
              ],
              [
                1860.9271562536169,
                708.20540458442
              ],
              [
                1860.869144979239,
                708.209748672064
              ],
              [
                1860.8241964634565,
                708.2109938547394
              ],
              [
                1860.8152904002636,
                708.2121090902052
              ],
              [
                1860.8102889976037,
                708.2122764871256
              ],
              [
                1860.7985986348897,
                708.2138362625622
              ],
              [
                1860.7804420942996,
                708.2147291881026
              ],
              [
                1860.7578663177724,
                708.2180816084374
              ],
              [
                1860.729347523009,
                708.2202171957914
              ],
              [
                1860.7289802507967,
                708.220263104818
              ],
              [
                1860.7287371714465,
                708.2202782309477
              ],
              [
                1860.7282488901965,
                708.2203392661039
              ],
              [
                1860.6751279478935,
                708.2296605194379
              ],
              [
                1860.6320165430911,
                708.2350590178067
              ],
              [
                1860.621077855167,
                708.2375218023922
              ],
              [
                1860.6137457079087,
                708.2385000871101
              ],
              [
                1860.6025216922878,
                708.2411497177771
              ],
              [
                1860.586093566806,
                708.2435892343917
              ],
              [
                1860.5635900055074,
                708.2492323374864
              ],
              [
                1860.5339027666018,
                708.254441625248
              ],
              [
                1860.4920955311493,
                708.2661202875316
              ],
              [
                1860.4895381249273,
                708.2666241793968
              ],
              [
                1860.4892939843023,
                708.266685214553
              ],
              [
                1860.482729682972,
                708.2686701218482
              ],
              [
                1860.4430655070105,
                708.2776002898744
              ],
              [
                1860.4303134313168,
                708.2818025736533
              ],
              [
                1860.4207650303258,
                708.2840566453636
              ],
              [
                1860.4100940226017,
                708.2877237408985
              ],
              [
                1860.3955146577348,
                708.2913797337392
              ],
              [
                1860.3737077229662,
                708.2991913867158
              ],
              [
                1860.3438628273414,
                708.3075284234302
              ],
              [
                1860.3434966164039,
                708.3076504937427
              ],
              [
                1860.3155911616677,
                708.3192093115586
              ],
              [
                1860.3030611986862,
                708.3229981100428
              ],
              [
                1860.2951830856812,
                708.3262452605738
              ],
              [
                1860.2913872229994,
                708.327399449773
              ],
              [
                1860.2892923968511,
                708.3282742555865
              ],
              [
                1860.2591153500227,
                708.3382187161927
              ],
              [
                1860.2448244099614,
                708.3445187010577
              ],
              [
                1860.233243817378,
                708.3484983757475
              ],
              [
                1860.2232091143214,
                708.353102810613
              ],
              [
                1860.2105446561632,
                708.3576394570201
              ],
              [
                1860.1775954673599,
                708.3732422458111
              ],
              [
                1860.1594336595235,
                708.3802714585877
              ],
              [
                1860.137714273481,
                708.3911497544341
              ],
              [
                1860.1231812640108,
                708.3971398778798
              ],
              [
                1860.1187532664367,
                708.3994919186057
              ],
              [
                1860.1061604802876,
                708.4047507046583
              ],
              [
                1860.0972223726885,
                708.4095872407679
              ],
              [
                1860.0944660453133,
                708.410802333734
              ],
              [
                1860.0815249574375,
                708.4161627078439
              ],
              [
                1860.0637871848521,
                708.4262537435529
              ],
              [
                1860.0530252592248,
                708.4311918653187
              ],
              [
                1860.0437055426107,
                708.4366446023778
              ],
              [
                1860.0346623659098,
                708.440926916486
              ],
              [
                1860.031815901348,
                708.4422731939595
              ],
              [
                1860.0304061421214,
                708.4431181711219
              ],
              [
                1860.025224104473,
                708.445569092397
              ],
              [
                1860.0057144927282,
                708.457262703662
              ],
              [
                1859.9895169334043,
                708.465375356661
              ],
              [
                1859.9766335284871,
                708.4734416085797
              ],
              [
                1859.9756035165808,
                708.4739635408268
              ],
              [
                1859.9753874051041,
                708.4741012054939
              ],
              [
                1859.9730831654322,
                708.475271820778
              ],
              [
                1859.962161113232,
                708.4822557825192
              ],
              [
                1859.949191955706,
                708.4890884735734
              ],
              [
                1859.9439860428447,
                708.4925055805146
              ],
              [
                1859.9296201776872,
                708.500279152807
              ],
              [
                1859.9275254950392,
                708.5017011657376
              ],
              [
                1859.9263896515279,
                708.5023169643999
              ],
              [
                1859.9135932273564,
                708.5110250437473
              ],
              [
                1859.908173930609,
                708.5140671403864
              ],
              [
                1859.9077807584554,
                708.5143403835157
              ],
              [
                1859.8991052918761,
                708.5192384291821
              ],
              [
                1859.8989573021581,
                708.5193428835288
              ],
              [
                1859.8983035602278,
                708.5197115278698
              ],
              [
                1859.8886270429002,
                708.5265187857813
              ],
              [
                1859.8872181102568,
                708.527327204969
              ],
              [
                1859.8789395332158,
                708.533248690162
              ],
              [
                1859.8568771120858,
                708.5464723964886
              ],
              [
                1859.840016988715,
                708.558976716197
              ],
              [
                1859.8284446093096,
                708.566222139917
              ],
              [
                1859.8170589212777,
                708.574957663233
              ],
              [
                1859.8100657939824,
                708.5794123389204
              ],
              [
                1859.809385923013,
                708.579945856137
              ],
              [
                1859.806565777402,
                708.5817491609272
              ],
              [
                1859.7993248678645,
                708.5874596679748
              ],
              [
                1859.7888021914273,
                708.5943666431108
              ],
              [
                1859.7770183411308,
                708.6038339355472
              ],
              [
                1859.765576171875,
                708.6115478515625
              ],
              [
                1859.76533203125,
                708.6117309570312
              ],
              [
                1859.7648276111208,
                708.6121515458586
              ],
              [
                1859.7635446128534,
                708.6130225322718
              ],
              [
                1859.7628287641778,
                708.6136215887298
              ],
              [
                1859.7599111808775,
                708.6156070298608
              ],
              [
                1859.7491539100145,
                708.6246356552213
              ],
              [
                1859.7354342450917,
                708.634287195587
              ],
              [
                1859.7246370174428,
                708.6436179067438
              ],
              [
                1859.724634389522,
                708.643619786438
              ],
              [
                1859.7246073582944,
                708.6436435374848
              ],
              [
                1859.7170432986002,
                708.6501802206476
              ],
              [
                1859.6992310097978,
                708.6633907143682
              ],
              [
                1859.6850774252287,
                708.676218775674
              ],
              [
                1859.677670943507,
                708.6819013039135
              ],
              [
                1859.6680381699925,
                708.6908661088837
              ],
              [
                1859.6556609704048,
                708.7005789064148
              ],
              [
                1859.6545896998516,
                708.7016043334606
              ],
              [
                1859.6513712857716,
                708.7041425196085
              ],
              [
                1859.6473789979605,
                708.7079878022519
              ],
              [
                1859.6392378401044,
                708.7145285101066
              ],
              [
                1859.6226700930506,
                708.7306834211423
              ],
              [
                1859.6071348878752,
                708.7436367775834
              ],
              [
                1859.6060825592826,
                708.7447160772928
              ],
              [
                1859.6056686669851,
                708.745063458942
              ],
              [
                1859.5973184111556,
                708.753643663239
              ],
              [
                1859.5847659918813,
                708.7644911698743
              ],
              [
                1859.567005638676,
                708.7832328051571
              ],
              [
                1859.553804015752,
                708.7951980587206
              ],
              [
                1859.5423324778053,
                708.8078549504048
              ],
              [
                1859.5385572098833,
                708.8113684286965
              ],
              [
                1859.5308334790252,
                708.8200645819429
              ],
              [
                1859.513876048705,
                708.8362963430287
              ],
              [
                1859.512499990359,
                708.8379002563195
              ],
              [
                1859.5090153767665,
                708.84125655847
              ],
              [
                1859.50776462312,
                708.8427256703515
              ],
              [
                1859.501875206713,
                708.8484683339616
              ],
              [
                1859.4819249466416,
                708.8720558418697
              ],
              [
                1859.4633432865023,
                708.8911137488096
              ],
              [
                1859.4560790382147,
                708.9002882412157
              ],
              [
                1859.4477924502282,
                708.9090326737156
              ],
              [
                1859.4311418649377,
                708.9305348866019
              ],
              [
                1859.4219966713995,
                708.9406250527664
              ],
              [
                1859.413100217073,
                708.9526205328093
              ],
              [
                1859.412359409555,
                708.953454608442
              ],
              [
                1859.407786056328,
                708.9597114240684
              ],
              [
                1859.3933306263857,
                708.9768023074383
              ],
              [
                1859.386076495187,
                708.9852576156568
              ],
              [
                1859.3855825296184,
                708.9859630047484
              ],
              [
                1859.3779783148932,
                708.9949535880452
              ],
              [
                1859.3558823222618,
                709.0268332013015
              ],
              [
                1859.335482334118,
                709.052597675325
              ],
              [
                1859.3302367904182,
                709.0608415608573
              ],
              [
                1859.3258715072504,
                709.0664787950051
              ],
              [
                1859.3107956411843,
                709.0905622850308
              ],
              [
                1859.30507835352,
                709.0982711550546
              ],
              [
                1859.2968304680353,
                709.1120319206452
              ],
              [
                1859.2686872752877,
                709.152636301519
              ],
              [
                1859.2457975156417,
                709.1935461488854
              ],
              [
                1859.2249081713455,
                709.2263757987888
              ],
              [
                1859.2214535168616,
                709.2332851077564
              ],
              [
                1859.220211826138,
                709.2352686917196
              ],
              [
                1859.207143090518,
                709.2616662700456
              ],
              [
                1859.2041750494284,
                709.2666181474417
              ],
              [
                1859.2034098658548,
                709.268235992179
              ],
              [
                1859.2014895025534,
                709.2714399247855
              ],
              [
                1859.19752712884,
                709.2798176601165
              ],
              [
                1859.1750077941376,
                709.320065463489
              ],
              [
                1859.1527767969349,
                709.3706385476103
              ],
              [
                1859.1327935887134,
                709.410604964053
              ],
              [
                1859.121480611063,
                709.4406045128666
              ],
              [
                1859.1175729662275,
                709.4488665337074
              ],
              [
                1859.114001521695,
                709.458848052503
              ],
              [
                1859.0978019186812,
                709.4957003753418
              ],
              [
                1859.0937788886101,
                709.5079141756826
              ],
              [
                1859.093627248915,
                709.5082643208598
              ],
              [
                1859.0923703660224,
                709.5121904086111
              ],
              [
                1859.0777730458242,
                709.556507441113
              ],
              [
                1859.0601155876059,
                709.6033311683494
              ],
              [
                1859.0540049585431,
                709.6265272135051
              ],
              [
                1859.0514513597857,
                709.6336640439285
              ],
              [
                1859.0485700546378,
                709.6451668588683
              ],
              [
                1859.037780104516,
                709.6779248283959
              ],
              [
                1859.0341027433365,
                709.6941992505489
              ],
              [
                1859.0333651115347,
                709.6965033690938
              ],
              [
                1859.0294310488607,
                709.7148741650736
              ],
              [
                1859.0215905873995,
                709.7495726821518
              ],
              [
                1859.007645017824,
                709.8025102861661
              ],
              [
                1859.0051565747785,
                709.818483185698
              ],
              [
                1859.0037614704436,
                709.8240527544052
              ],
              [
                1859.0018512058753,
                709.8369307120736
              ],
              [
                1858.9954946779196,
                709.8650619764027
              ],
              [
                1858.9929124997518,
                709.8854039381746
              ],
              [
                1858.991977231342,
                709.8897713381285
              ],
              [
                1858.9889937127382,
                709.9162754777955
              ],
              [
                1858.9849125447943,
                709.9484262268544
              ],
              [
                1858.9802667605256,
                709.978246738724
              ],
              [
                1858.9785107040211,
                709.9890680464911
              ],
              [
                1858.9784651162856,
                709.9898111916422
              ],
              [
                1858.9759384016668,
                710.0060297500002
              ],
              [
                1858.9754965265554,
                710.0145995283692
              ],
              [
                1858.9749625779057,
                710.0181991177784
              ],
              [
                1858.9742724423472,
                710.0322471497939
              ],
              [
                1858.9713347532938,
                710.0553897660409
              ],
              [
                1858.9709045638695,
                710.0695836256588
              ],
              [
                1858.9706676707524,
                710.0715537384505
              ],
              [
                1858.9704493632125,
                710.0810145309592
              ],
              [
                1858.9698678175273,
                710.0861807022189
              ],
              [
                1858.9694542627617,
                710.1174355001206
              ],
              [
                1858.9684345637902,
                710.151079897762
              ],
              [
                1858.9679350834717,
                710.1612470532149
              ],
              [
                1858.96786436788,
                710.1626185197956
              ],
              [
                1858.9663179379877,
                710.1878275340688
              ],
              [
                1858.966423134831,
                710.190569964647
              ],
              [
                1858.96533203125,
                710.2117309570312
              ],
              [
                1858.9653930808665,
                710.2129907049465
              ],
              [
                1858.96533203125,
                710.2142333984375
              ],
              [
                1858.9660668687236,
                710.2292006731465
              ],
              [
                1858.965522652496,
                710.2471567834106
              ],
              [
                1858.9663317318814,
                710.2594602944807
              ],
              [
                1858.9662125964876,
                710.2646232643016
              ],
              [
                1858.9673096489748,
                710.2795167431663
              ],
              [
                1858.967252798721,
                710.2838132556061
              ],
              [
                1858.969883102494,
                710.3144537001897
              ],
              [
                1858.9704891553192,
                710.3226814149522
              ],
              [
                1858.9711492506615,
                710.3327193549869
              ],
              [
                1858.9749625779057,
                710.4103897494091
              ],
              [
                1858.9772875703745,
                710.426063575481
              ],
              [
                1858.9781118590151,
                710.4385983707049
              ],
              [
                1858.979782157894,
                710.4488423225254
              ],
              [
                1858.9803994329984,
                710.4572223898679
              ],
              [
                1858.9838765240738,
                710.4774632593341
              ],
              [
                1858.9841577141538,
                710.4807388464161
              ],
              [
                1858.9876987788907,
                710.4997133986413
              ]
            ]
          ]
        ]
      }
    }
  ]
}