{
  "type": "FeatureCollection",
  "features": [
    {
      "type": "Feature",
      "properties": {
        "image_id": "0038_top_20250703_t1",
        "zone_type": "parking_spot",
        "generated_at": "2025-11-03T11:20:42",
        "source": "merged_t1_polygons"
      },
      "geometry": {
        "type": "MultiPolygon",
        "coordinates": [
          [
            [
              [
                724.101183537457,
                699.3668666112965
              ],
              [
                724.0901634298417,
                699.3330750550379
              ],
              [
                724.0873711819224,
                699.3265674111628
              ],
              [
                724.0793350925437,
                699.3027727852293
              ],
              [
                724.0715475316357,
                699.2855799404887
              ],
              [
                724.0705012119863,
                699.2826556729684
              ],
              [
                724.0700393620418,
                699.2813389506208
              ],
              [
                724.0699993699864,
                699.2812531185373
              ],
              [
                724.0665090650226,
                699.2714983696449
              ],
              [
                724.0626725521266,
                699.263386744654
              ],
              [
                724.0587190835954,
                699.2526321768438
              ],
              [
                724.0549045537684,
                699.2447941081515
              ],
              [
                724.0537255759868,
                699.2416565714227
              ],
              [
                724.0322559612359,
                699.1981152684154
              ],
              [
                724.0191568756017,
                699.1675863945981
              ],
              [
                724.0126328240831,
                699.1555120756138
              ],
              [
                723.9971726023957,
                699.1213800547841
              ],
              [
                723.9886606201426,
                699.1066815871286
              ],
              [
                723.9867237748009,
                699.102524674734
              ],
              [
                723.9860618605289,
                699.1014070465814
              ],
              [
                723.9825925286967,
                699.094071760723
              ],
              [
                723.9770641930556,
                699.0848482899311
              ],
              [
                723.9706680856553,
                699.0717056140469
              ],
              [
                723.9669930662515,
                699.0657593077422
              ],
              [
                723.9664972380114,
                699.0647537467252
              ],
              [
                723.9487736448499,
                699.0362796646592
              ],
              [
                723.944279920021,
                699.0290086651498
              ],
              [
                723.9335527459564,
                699.0091554618012
              ],
              [
                723.9333696404876,
                699.00885028602
              ],
              [
                723.9265821987796,
                698.9987124424664
              ],
              [
                723.9252078089893,
                698.9962002893301
              ],
              [
                723.9215931413709,
                698.9908696483652
              ],
              [
                723.8973791158425,
                698.9490569353624
              ],
              [
                723.8887056034541,
                698.937023079746
              ],
              [
                723.8861974616157,
                698.9327881356635
              ],
              [
                723.8847028857653,
                698.9307527582214
              ],
              [
                723.8816892246051,
                698.9257247683358
              ],
              [
                723.8809846978842,
                698.9247748240198
              ],
              [
                723.8807126621051,
                698.9243209597421
              ],
              [
                723.8739132961052,
                698.9151530759805
              ],
              [
                723.8648832003412,
                698.9005420741126
              ],
              [
                723.8331638260363,
                698.8591811008168
              ],
              [
                723.823142661637,
                698.844213311586
              ],
              [
                723.812503793027,
                698.8312987153442
              ],
              [
                723.7809439355493,
                698.7875117520983
              ],
              [
                723.7725609038173,
                698.778033001433
              ],
              [
                723.7694384437998,
                698.7737807015702
              ],
              [
                723.7672971039256,
                698.7713977821759
              ],
              [
                723.7637943442255,
                698.766674857454
              ],
              [
                723.7535727072442,
                698.7553970189714
              ],
              [
                723.7424351663776,
                698.7408740486904
              ],
              [
                723.7068666659674,
                698.7030650756476
              ],
              [
                723.6971668519329,
                698.6912904042547
              ],
              [
                723.6862023287997,
                698.6803867767055
              ],
              [
                723.6490213416016,
                698.6383459830633
              ],
              [
                723.641348525504,
                698.6312400641848
              ],
              [
                723.6375826707815,
                698.6270493570661
              ],
              [
                723.6356239766858,
                698.6252606489466
              ],
              [
                723.6319869998731,
                698.6212478634081
              ],
              [
                723.6178056861991,
                698.6083941127335
              ],
              [
                723.6045633843778,
                698.5943176735581
              ],
              [
                723.5657149120732,
                698.5605685319551
              ],
              [
                723.5566785165626,
                698.5515823234499
              ],
              [
                723.5455398269886,
                698.5425100814973
              ],
              [
                723.5029191485504,
                698.5030383830132
              ],
              [
                723.4963324938308,
                698.498057627865
              ],
              [
                723.4919129684426,
                698.4940216525879
              ],
              [
                723.4902533231055,
                698.4927823781056
              ],
              [
                723.486498970671,
                698.4893794838995
              ],
              [
                723.4678412994526,
                698.4755420118481
              ],
              [
                723.4610257879126,
                698.4696211184278
              ],
              [
                723.4584801212183,
                698.4673971358758
              ],
              [
                723.4584000817403,
                698.4673400678702
              ],
              [
                723.4526633718164,
                698.4623563703378
              ],
              [
                723.411178562579,
                698.4330754939098
              ],
              [
                723.4030563841739,
                698.426460140534
              ],
              [
                723.3918312211945,
                698.4190349260796
              ],
              [
                723.3440857403931,
                698.3829303237549
              ],
              [
                723.3389074649707,
                698.3797708473955
              ],
              [
                723.3338465584948,
                698.375991815748
              ],
              [
                723.332598213714,
                698.3752389034307
              ],
              [
                723.3288528683829,
                698.3724611660199
              ],
              [
                723.3067446108522,
                698.3592099864121
              ],
              [
                723.2978820585794,
                698.3528910023782
              ],
              [
                723.2962388440033,
                698.3519485523095
              ],
              [
                723.2882726378112,
                698.3463258315257
              ],
              [
                723.2448515853238,
                698.3218109197306
              ],
              [
                723.2378080762667,
                698.317151783346
              ],
              [
                723.2275429401543,
                698.3117383318867
              ],
              [
                723.219693297726,
                698.3070334372775
              ],
              [
                723.17409571202,
                698.2792124964569
              ],
              [
                723.1705862217453,
                698.2775248534499
              ],
              [
                723.1649212703184,
                698.2741081597833
              ],
              [
                723.1641433704308,
                698.273738092189
              ],
              [
                723.1605058759958,
                698.2715578619283
              ],
              [
                723.1352280062847,
                698.2596023199453
              ],
              [
                723.1267861470028,
                698.2547605719619
              ],
              [
                723.1233904342721,
                698.2532356726103
              ],
              [
                723.1130551206874,
                698.2474005008127
              ],
              [
                723.0676588642423,
                698.227421409578
              ],
              [
                723.0625553116517,
                698.2247299855271
              ],
              [
                723.0550092913196,
                698.2216616933996
              ],
              [
                723.0190589580606,
                698.2046584520865
              ],
              [
                722.9946342594689,
                698.1929131077341
              ],
              [
                722.9929861302606,
                698.1923140566213
              ],
              [
                722.9867805794077,
                698.1893619116062
              ],
              [
                722.9865154760813,
                698.1892665314255
              ],
              [
                722.9830792670739,
                698.1876413256024
              ],
              [
                722.9547497288461,
                698.1775048547422
              ],
              [
                722.9468564393319,
                698.1739602462857
              ],
              [
                722.9440400795407,
                698.173016241151
              ],
              [
                722.9332877479887,
                698.1682840929545
              ],
              [
                722.8842605208039,
                698.1522334272006
              ],
              [
                722.8790179911774,
                698.1501017588942
              ],
              [
                722.8741293506534,
                698.1486584221705
              ],
              [
                722.8229339447308,
                698.1303404130263
              ],
              [
                722.8208608368644,
                698.1295718850396
              ],
              [
                722.8205767762357,
                698.1294970046526
              ],
              [
                722.7982817568527,
                698.1215197191606
              ],
              [
                722.767108735364,
                698.1137112837679
              ],
              [
                722.7598429045693,
                698.111275877042
              ],
              [
                722.7575609072873,
                698.1107541662981
              ],
              [
                722.7467587052757,
                698.1072177122938
              ],
              [
                722.6981893534406,
                698.0964478772917
              ],
              [
                722.692257223929,
                698.0949619562028
              ],
              [
                722.6889973189154,
                698.0939994921806
              ],
              [
                722.6865761166151,
                698.0935389129013
              ],
              [
                722.6382097178923,
                698.0814237607099
              ],
              [
                722.6328343422232,
                698.0800067737376
              ],
              [
                722.6320384727624,
                698.0798779442766
              ],
              [
                722.607893046376,
                698.0738298298186
              ],
              [
                722.5741724110806,
                698.0688278460816
              ],
              [
                722.5675644079433,
                698.0673171228833
              ],
              [
                722.5658186211155,
                698.0670958087053
              ],
              [
                722.5551422988843,
                698.0647284263023
              ],
              [
                722.5090903735925,
                698.0591738377798
              ],
              [
                722.494710266051,
                698.0570407503267
              ],
              [
                722.4943581254502,
                698.0569737634978
              ],
              [
                722.4941090466283,
                698.0569515678499
              ],
              [
                722.449830530686,
                698.0503834704608
              ],
              [
                722.4408832616995,
                698.048935152743
              ],
              [
                722.4394589438315,
                698.0488449908825
              ],
              [
                722.4137466830028,
                698.0450309372806
              ],
              [
                722.3778564899617,
                698.0432677651588
              ],
              [
                722.371891020902,
                698.0425115199745
              ],
              [
                722.3706684063311,
                698.0424779653328
              ],
              [
                722.3602838995563,
                698.041225430031
              ],
              [
                722.3170354434201,
                698.0402798187425
              ],
              [
                722.2595010426488,
                698.0374533348793
              ],
              [
                722.2468220446954,
                698.0366507317027
              ],
              [
                722.2446615305554,
                698.036724316398
              ],
              [
                722.2177124023438,
                698.035400390625
              ],
              [
                722.180104592799,
                698.0372479438347
              ],
              [
                722.1747258330814,
                698.037100323841
              ],
              [
                722.1739968250233,
                698.0371523329471
              ],
              [
                722.1640601001975,
                698.036935070182
              ],
              [
                722.1237792074971,
                698.0400150325765
              ],
              [
                722.0689343506182,
                698.0427093876211
              ],
              [
                722.0524850870273,
                698.0432696311428
              ],
              [
                722.049496768126,
                698.043664294816
              ],
              [
                722.0216781216847,
                698.0450309372806
              ],
              [
                721.9828676559471,
                698.0507879260426
              ],
              [
                721.9779864431457,
                698.0511361629543
              ],
              [
                721.9777077795577,
                698.0511839634223
              ],
              [
                721.9683606432627,
                698.0518986652662
              ],
              [
                721.9311028244198,
                698.058466513447
              ],
              [
                721.8798384978696,
                698.0660708579513
              ],
              [
                721.8597093909966,
                698.0687292848191
              ],
              [
                721.8558251943218,
                698.0696328950471
              ],
              [
                721.8275317583115,
                698.0738298298186
              ],
              [
                721.7885280887771,
                698.0835997404365
              ],
              [
                721.7750702215023,
                698.085972107683
              ],
              [
                721.7407998877729,
                698.0955550324214
              ],
              [
                721.6939032284487,
                698.1073020340588
              ],
              [
                721.6703172008198,
                698.1127890311359
              ],
              [
                721.6659291420542,
                698.1142716597624
              ],
              [
                721.6421615319748,
                698.1201693242847
              ],
              [
                721.6412626689769,
                698.1204878077835
              ],
              [
                721.6371430478348,
                698.1215197191606
              ],
              [
                721.6237480438876,
                698.12631252821
              ],
              [
                721.6217115982536,
                698.1268372735182
              ],
              [
                721.602659808913,
                698.1338580193362
              ],
              [
                721.5985056404254,
                698.1353444045884
              ],
              [
                721.5860503273412,
                698.1388272515552
              ],
              [
                721.5546615349149,
                698.151032076386
              ],
              [
                721.5144936284919,
                698.1654043831173
              ],
              [
                721.5124249866784,
                698.1661373405137
              ],
              [
                721.4860987775638,
                698.1750323880385
              ],
              [
                721.4815892337996,
                698.1770630082624
              ],
              [
                721.4588253611794,
                698.1851286621122
              ],
              [
                721.4570651785203,
                698.1859526110834
              ],
              [
                721.4523455376136,
                698.1876413256024
              ],
              [
                721.4369441070361,
                698.194925659764
              ],
              [
                721.4324838947853,
                698.1965692857744
              ],
              [
                721.4126171347434,
                698.206262841518
              ],
              [
                721.4031213256891,
                698.209955072954
              ],
              [
                721.3744607954028,
                698.2244780652475
              ],
              [
                721.3452442322978,
                698.2382964704688
              ],
              [
                721.3361559228362,
                698.2425507466896
              ],
              [
                721.3087954764061,
                698.2548709898801
              ],
              [
                721.3041517884559,
                698.2575320177873
              ],
              [
                721.2826661415354,
                698.2675895402748
              ],
              [
                721.2801276474808,
                698.2690943214135
              ],
              [
                721.2749189286917,
                698.2715578619283
              ],
              [
                721.2579439227047,
                698.2817322889659
              ],
              [
                721.2512405593878,
                698.2850030500687
              ],
              [
                721.2343098017998,
                698.2954960045417
              ],
              [
                721.2280449228307,
                698.298670572077
              ],
              [
                721.2019362683662,
                698.3153019850861
              ],
              [
                721.1802414723134,
                698.3283053454212
              ],
              [
                721.1684662314524,
                698.3352855312992
              ],
              [
                721.1400832861865,
                698.3515501490446
              ],
              [
                721.1353160050323,
                698.3549364874913
              ],
              [
                721.1153499810891,
                698.3667720465269
              ],
              [
                721.1121434058454,
                698.3691217556905
              ],
              [
                721.1065719363046,
                698.3724611660199
              ],
              [
                721.0885130169489,
                698.385854573425
              ],
              [
                721.0798243690521,
                698.391239423237
              ],
              [
                721.0658422614032,
                698.4019949106424
              ],
              [
                721.0625072002324,
                698.4041193701705
              ],
              [
                721.0387752571107,
                698.4227426101794
              ],
              [
                721.0227991257342,
                698.4345913167421
              ],
              [
                721.0108084707381,
                698.4433778100503
              ],
              [
                720.9815569868447,
                698.4641559897565
              ],
              [
                720.9767029635176,
                698.4683695899872
              ],
              [
                720.9584593505267,
                698.4817381160196
              ],
              [
                720.954720807626,
                698.4850816385563
              ],
              [
                720.9489258340164,
                698.4893794838995
              ],
              [
                720.9303187686971,
                698.5062439448753
              ],
              [
                720.9199781840637,
                698.514198255526
              ],
              [
                720.9088716556307,
                698.5246822590309
              ],
              [
                720.9081023766547,
                698.5252859376649
              ],
              [
                720.8988631787497,
                698.5341297571698
              ],
              [
                720.8822719121528,
                698.5497910772847
              ],
              [
                720.875244396046,
                698.5561604466133
              ],
              [
                720.8645263090946,
                698.565746043522
              ],
              [
                720.834715074499,
                698.5916240866438
              ],
              [
                720.8298393678143,
                698.5967679076492
              ],
              [
                720.8134781162189,
                698.6114004034879
              ],
              [
                720.8093676911261,
                698.6158676116218
              ],
              [
                720.8034988399706,
                698.6211868282519
              ],
              [
                720.7870995369116,
                698.6392798865819
              ],
              [
                720.7845466491182,
                698.6416585723824
              ],
              [
                720.7825101118777,
                698.6439611926413
              ],
              [
                720.7733272276128,
                698.6526293729283
              ],
              [
                720.7383325646277,
                698.6930685550088
              ],
              [
                720.7308474254254,
                698.7012034009124
              ],
              [
                720.7009455966626,
                698.7327495263946
              ],
              [
                720.6961420941873,
                698.7389211392234
              ],
              [
                720.6817775058627,
                698.7545325673251
              ],
              [
                720.6775039746329,
                698.7601947141139
              ],
              [
                720.671630460462,
                698.766674857454
              ],
              [
                720.6594437036347,
                698.7831067968472
              ],
              [
                720.6566622451717,
                698.7862516657349
              ],
              [
                720.6539128573058,
                698.7900415995537
              ],
              [
                720.6521588921852,
                698.7920389727491
              ],
              [
                720.6495266259685,
                698.795691047039
              ],
              [
                720.6413625614678,
                698.805125288226
              ],
              [
                720.6113213703379,
                698.8478822961735
              ],
              [
                720.6108778025847,
                698.8484699941671
              ],
              [
                720.5815130314954,
                698.8861982973999
              ],
              [
                720.5791534941446,
                698.8899275969902
              ],
              [
                720.5787926700825,
                698.8903917229876
              ],
              [
                720.5765642206835,
                698.8939332251892
              ],
              [
                720.5646031394547,
                698.9097808682814
              ],
              [
                720.5603866714508,
                698.9166697432804
              ],
              [
                720.5547121425824,
                698.9243209597421
              ],
              [
                720.5527174732152,
                698.9276488645297
              ],
              [
                720.5525148769574,
                698.9279220339608
              ],
              [
                720.547961959679,
                698.935518117531
              ],
              [
                720.5470348778754,
                698.9367778910013
              ],
              [
                720.5451495597856,
                698.9399679539374
              ],
              [
                720.5433128185883,
                698.94249983664
              ],
              [
                720.5415521286785,
                698.9454976596849
              ],
              [
                720.5398436576215,
                698.947868036656
              ],
              [
                720.5338102705202,
                698.9582022464242
              ],
              [
                720.5254259257252,
                698.9701355115029
              ],
              [
                720.5019444560739,
                699.0119581441841
              ],
              [
                720.4775463351141,
                699.0505198997198
              ],
              [
                720.4755840386904,
                699.054413214999
              ],
              [
                720.473190805043,
                699.0582165960561
              ],
              [
                720.470734993398,
                699.0631428584566
              ],
              [
                720.4630632482591,
                699.0756769730847
              ],
              [
                720.4605089656357,
                699.080938436116
              ],
              [
                720.4535463963748,
                699.0924919401059
              ],
              [
                720.4522849815603,
                699.0951455118169
              ],
              [
                720.4516115728658,
                699.096269026348
              ],
              [
                720.4469453348287,
                699.1061349577553
              ],
              [
                720.4446597011026,
                699.1100023769856
              ],
              [
                720.434710075001,
                699.131519407731
              ],
              [
                720.4269048953439,
                699.1453677308751
              ],
              [
                720.4077771901768,
                699.1887742014281
              ],
              [
                720.4074367016403,
                699.1894904691761
              ],
              [
                720.389154291704,
                699.2255700561578
              ],
              [
                720.3869974345155,
                699.2311171363923
              ],
              [
                720.3847260547917,
                699.2356734355502
              ],
              [
                720.3823305245787,
                699.241975031555
              ],
              [
                720.3781181931931,
                699.250651841888
              ],
              [
                720.3772560531022,
                699.2529799052143
              ],
              [
                720.3689088959688,
                699.2705393787372
              ],
              [
                720.3680248457348,
                699.2729983123153
              ],
              [
                720.3676950365399,
                699.2736956352699
              ],
              [
                720.3633448006235,
                699.2858537301722
              ],
              [
                720.3602082393506,
                699.292636847915
              ],
              [
                720.3536903040432,
                699.311513485088
              ],
              [
                720.3484603735346,
                699.3233817579744
              ],
              [
                720.3338380015322,
                699.3678344125974
              ],
              [
                720.3180264703052,
                699.4084990578101
              ],
              [
                720.3152908555807,
                699.4183271844196
              ],
              [
                720.3142679601906,
                699.4210179764071
              ],
              [
                720.3126294951821,
                699.4270772122469
              ],
              [
                720.3022114259464,
                699.4560544572907
              ],
              [
                720.3016553780042,
                699.4582641164366
              ],
              [
                720.3015734300981,
                699.458493145491
              ],
              [
                720.297963983147,
                699.4729028654551
              ],
              [
                720.2945352976338,
                699.4828327050992
              ],
              [
                720.2907864951131,
                699.4987128874109
              ],
              [
                720.2877173922361,
                699.5080430952713
              ],
              [
                720.2769443294477,
                699.5560931170568
              ],
              [
                720.2640187127864,
                699.6025304299982
              ],
              [
                720.2611159900721,
                699.6193621486242
              ],
              [
                720.2541020255441,
                699.6472346928568
              ],
              [
                720.251324003721,
                699.6658786835093
              ],
              [
                720.2483056076071,
                699.6786648146312
              ],
              [
                720.2466506105162,
                699.6912091823024
              ],
              [
                720.2451887783077,
                699.6977292472873
              ],
              [
                720.2390241010838,
                699.7474641052909
              ],
              [
                720.2298228908259,
                699.8008182135961
              ],
              [
                720.2285791442694,
                699.8185250534924
              ],
              [
                720.2250481304695,
                699.8422225592976
              ],
              [
                720.224908609809,
                699.8450500061567
              ],
              [
                720.224867397066,
                699.8453283413626
              ],
              [
                720.2240095416341,
                699.8628215036103
              ],
              [
                720.2235302505816,
                699.8664543820108
              ],
              [
                720.2233430203646,
                699.8678165572127
              ],
              [
                720.2233398604543,
                699.8678974804737
              ],
              [
                720.221987099251,
                699.8781509933045
              ],
              [
                720.2217131156731,
                699.8871241994124
              ],
              [
                720.221276315718,
                699.8906481768981
              ],
              [
                720.2210488223358,
                699.8993671302122
              ],
              [
                720.2210350003435,
                699.8994817254437
              ],
              [
                720.22097897327,
                699.9020441783864
              ],
              [
                720.2199543692282,
                699.9413133418219
              ],
              [
                720.2157240942427,
                700.001538474902
              ],
              [
                720.2162831622866,
                700.0198484510888
              ],
              [
                720.21533203125,
                700.0391235351562
              ],
              [
                720.2153496720683,
                700.0394112852285
              ],
              [
                720.2152709960938,
                700.041015625
              ],
              [
                720.2160002871055,
                700.055859212082
              ],
              [
                720.2157323499857,
                700.0627209086156
              ],
              [
                720.2161394327613,
                700.0696672771185
              ],
              [
                720.2158461645552,
                700.079272071973
              ],
              [
                720.2162170171423,
                700.0845517870005
              ],
              [
                720.2162059145838,
                700.084977305702
              ],
              [
                720.2163568851935,
                700.0870955868664
              ],
              [
                720.2163494559899,
                700.087385031117
              ],
              [
                720.2167918354658,
                700.093547016685
              ],
              [
                720.2167446404945,
                700.0957055248025
              ],
              [
                720.2198323616149,
                700.1360878890024
              ],
              [
                720.2218650289385,
                700.2026595535705
              ],
              [
                720.2236813015417,
                700.2164263398984
              ],
              [
                720.2240535652779,
                700.2244516858116
              ],
              [
                720.2244077884993,
                700.2269808590748
              ],
              [
                720.2249094311132,
                700.2371910162054
              ],
              [
                720.2266405938293,
                700.2488567168557
              ],
              [
                720.2271435889132,
                700.257439711317
              ],
              [
                720.22934201978,
                700.2714084412908
              ],
              [
                720.2299449611385,
                700.2799923332789
              ],
              [
                720.2301835652693,
                700.2813759024268
              ],
              [
                720.2303169178842,
                700.2835510977039
              ],
              [
                720.2316605772946,
                700.2907816889883
              ],
              [
                720.2317082355787,
                700.2914049817373
              ],
              [
                720.2389920631549,
                700.332724379027
              ],
              [
                720.2391937269597,
                700.3340057416918
              ],
              [
                720.2481835372946,
                700.4021457322438
              ],
              [
                720.2514276447068,
                700.4158879917682
              ],
              [
                720.2537318367423,
                700.4314151367773
              ],
              [
                720.2558621715569,
                700.439916282336
              ],
              [
                720.2574682002078,
                700.45012091551
              ],
              [
                720.2621232938856,
                700.4680768012163
              ],
              [
                720.2630112233622,
                700.4732807377433
              ],
              [
                720.2637381102514,
                700.475945179394
              ],
              [
                720.2641407830989,
                700.4782801168768
              ],
              [
                720.2655320841809,
                700.4832795179788
              ],
              [
                720.2657816779955,
                700.4846954034977
              ],
              [
                720.2714872014332,
                700.505099423945
              ],
              [
                720.2750470309593,
                700.5242558203852
              ],
              [
                720.2751080661155,
                700.5244999610102
              ],
              [
                720.2841963815715,
                700.5546985886637
              ],
              [
                720.2944132273213,
                700.5979778417758
              ],
              [
                720.2982716999031,
                700.6091523906986
              ],
              [
                720.3014604100971,
                700.6218770053068
              ],
              [
                720.303403560698,
                700.627305337553
              ],
              [
                720.3064177541454,
                700.6389318518158
              ],
              [
                720.3134036954963,
                700.6579969620158
              ],
              [
                720.3142240646359,
                700.6610040677119
              ],
              [
                720.3170800178514,
                700.6685081501807
              ],
              [
                720.3180875054614,
                700.6721283835961
              ],
              [
                720.3184715387316,
                700.673124214207
              ],
              [
                720.3186368218677,
                700.6737152976588
              ],
              [
                720.3247331546332,
                700.6893940580175
              ],
              [
                720.3296703500529,
                700.705799356321
              ],
              [
                720.3419921638792,
                700.7360304110399
              ],
              [
                720.3516265265247,
                700.7646578284623
              ],
              [
                720.3531629387898,
                700.7681232843271
              ],
              [
                720.3600861690381,
                700.78817369896
              ],
              [
                720.36408217216,
                700.7968154429968
              ],
              [
                720.3676351224246,
                700.8067408674501
              ],
              [
                720.3688412309839,
                700.8092897757139
              ],
              [
                720.3735266715902,
                700.8220766625498
              ],
              [
                720.383061531592,
                700.8418760883691
              ],
              [
                720.3834368472842,
                700.8428622389441
              ],
              [
                720.3867104972855,
                700.8494532762409
              ],
              [
                720.3880505532561,
                700.8522359430842
              ],
              [
                720.3897646432665,
                700.8566442993109
              ],
              [
                720.3968607159519,
                700.8706481080303
              ],
              [
                720.4011317802247,
                700.8811269855364
              ],
              [
                720.4116777674834,
                700.9012985696274
              ],
              [
                720.4183368862972,
                700.9151264316988
              ],
              [
                720.4267217898752,
                700.9340390074061
              ],
              [
                720.431243441119,
                700.9420581962755
              ],
              [
                720.4445376307901,
                700.9708081698894
              ],
              [
                720.4478540982498,
                700.9764198170591
              ],
              [
                720.4504108391646,
                700.9817289670702
              ],
              [
                720.452405029897,
                700.9859453291208
              ],
              [
                720.4525896875834,
                700.9862534118581
              ],
              [
                720.4581566523065,
                700.9978133828541
              ],
              [
                720.4770010733627,
                701.0288018200422
              ],
              [
                720.4784801423895,
                701.0317207021693
              ],
              [
                720.4850039463226,
                701.041962029385
              ],
              [
                720.4865342678454,
                701.0444785446042
              ],
              [
                720.4888519458494,
                701.0489116275966
              ],
              [
                720.4947087546018,
                701.0579209617864
              ],
              [
                720.5203257087015,
                701.1000463935363
              ],
              [
                720.5245943403698,
                701.1076168499284
              ],
              [
                720.5270657557304,
                701.1111299669385
              ],
              [
                720.5413376212979,
                701.1345991310149
              ],
              [
                720.5469128075629,
                701.1440326558737
              ],
              [
                720.5478424705244,
                701.1452959367736
              ],
              [
                720.5529693125507,
                701.1537266984102
              ],
              [
                720.5533083339886,
                701.1542923215079
              ],
              [
                720.5533357720078,
                701.1543293173941
              ],
              [
                720.5595027460927,
                701.1644705092353
              ],
              [
                720.5828831527475,
                701.1956167055333
              ],
              [
                720.583928940483,
                701.1972584247676
              ],
              [
                720.5882272352034,
                701.2027358221363
              ],
              [
                720.6766010089905,
                701.3204628979141
              ],
              [
                720.7046182434054,
                701.3510550611732
              ],
              [
                720.7050955079774,
                701.3516632483453
              ],
              [
                720.7069400506573,
                701.3535902545278
              ],
              [
                720.8083376717476,
                701.4643068417734
              ],
              [
                720.9534597333316,
                701.5946341825006
              ],
              [
                721.1105868787315,
                701.7102053236987
              ],
              [
                721.2782246076976,
                701.8099210211917
              ],
              [
                721.4547784495397,
                701.8928328383842
              ],
              [
                721.6385691287888,
                701.9581521672271
              ],
              [
                721.687534267908,
                701.9703380167135
              ],
              [
                721.689459556443,
                701.9709683228624
              ],
              [
                721.6950321071262,
                701.9722039879296
              ],
              [
                721.827848537469,
                702.0052577289911
              ],
              [
                721.8763130334926,
                702.0124014703387
              ],
              [
                721.8810759628344,
                702.013457608854
              ],
              [
                721.8942947511273,
                702.0150520032092
              ],
              [
                722.0208163620637,
                702.0337014835002
              ],
              [
                722.0489782828702,
                702.0350759545081
              ],
              [
                722.0505233726037,
                702.0352821066244
              ],
              [
                722.0590485625823,
                702.0355674446874
              ],
              [
                722.0680102037702,
                702.0360048266431
              ],
              [
                722.0759343621625,
                702.0369606051253
              ],
              [
                722.0970554706278,
                702.0374224102478
              ],
              [
                722.1276503626207,
                702.0389156248735
              ],
              [
                722.1282576931412,
                702.0389721350151
              ],
              [
                722.128769198798,
                702.038970230804
              ],
              [
                722.2156982421875,
                702.043212890625
              ],
              [
                722.238730519783,
                702.0421442387144
              ],
              [
                722.2392964893688,
                702.0421659487312
              ],
              [
                722.2425059693643,
                702.0419690653564
              ],
              [
                722.2457776453806,
                702.0418172660907
              ],
              [
                722.2486974041343,
                702.0419149904006
              ],
              [
                722.2490677442438,
                702.0418906144478
              ],
              [
                722.2497960369468,
                702.0419149904006
              ],
              [
                722.2629449666763,
                702.0410495219211
              ],
              [
                722.2721581615212,
                702.0412509649742
              ],
              [
                722.2940348277862,
                702.0395782287239
              ],
              [
                722.4008916136049,
                702.0346202862081
              ],
              [
                722.4088095947061,
                702.0335117822456
              ],
              [
                722.4123428744091,
                702.0333382033444
              ],
              [
                722.4129569940297,
                702.0332471073041
              ],
              [
                722.4172686582393,
                702.0330300056278
              ],
              [
                722.4368927969277,
                702.0300445371873
              ],
              [
                722.4380559769464,
                702.0299731826976
              ],
              [
                722.4427165552264,
                702.0292168749594
              ],
              [
                722.4476529110909,
                702.028891961792
              ],
              [
                722.4594328198522,
                702.02693154784
              ],
              [
                722.467857618456,
                702.02628736989
              ],
              [
                722.4965823091229,
                702.0212237506767
              ],
              [
                722.5120004332615,
                702.0190652393738
              ],
              [
                722.5131478819884,
                702.0189498495748
              ],
              [
                722.5139108795751,
                702.0187977801211
              ],
              [
                722.5844936916412,
                702.008916305808
              ],
              [
                722.597194462977,
                702.0059180604061
              ],
              [
                722.6064892377823,
                702.0045393108064
              ],
              [
                722.608919571187,
                702.0039305439797
              ],
              [
                722.6091913782996,
                702.0038900296058
              ],
              [
                722.6097733402528,
                702.003743795318
              ],
              [
                722.6161946351318,
                702.0027669079492
              ],
              [
                722.6341453579009,
                701.9981522567725
              ],
              [
                722.6346177770545,
                701.9980755936976
              ],
              [
                722.6375977336164,
                701.9972813196598
              ],
              [
                722.6432478460415,
                701.9963410272132
              ],
              [
                722.653570458082,
                701.9935497117618
              ],
              [
                722.6611480402164,
                701.9922139274732
              ],
              [
                722.693133273891,
                701.9832699793499
              ],
              [
                722.6983605886596,
                701.9820359777246
              ],
              [
                722.7023564063227,
                701.9812395901345
              ],
              [
                722.7026005469477,
                701.9811785549782
              ],
              [
                722.704812142839,
                701.9805129723778
              ],
              [
                722.7649268562695,
                701.9663218135603
              ],
              [
                722.7820162076065,
                701.9605720937036
              ],
              [
                722.796877948259,
                701.9568494214644
              ],
              [
                722.798013002221,
                701.9564432926628
              ],
              [
                722.7996224842981,
                701.9560388650812
              ],
              [
                722.8038181722975,
                701.9545339098859
              ],
              [
                722.8110730255601,
                701.9526688809633
              ],
              [
                722.8286562949924,
                701.9462051249477
              ],
              [
                722.8346582931241,
                701.9445821374657
              ],
              [
                722.8434768396276,
                701.9412297971112
              ],
              [
                722.8501679343775,
                701.939358783601
              ],
              [
                722.8796505685037,
                701.9278951254847
              ],
              [
                722.8838999422585,
                701.9266162710409
              ],
              [
                722.8884405166634,
                701.9247655875962
              ],
              [
                722.9406407166827,
                701.9072028070872
              ],
              [
                722.961261440209,
                701.8980604390173
              ],
              [
                722.9844437112178,
                701.8897451688641
              ],
              [
                722.9920475741484,
                701.8861411324349
              ],
              [
                722.9999312997187,
                701.8832430093767
              ],
              [
                723.0139083433824,
                701.8764408426642
              ],
              [
                723.020002833981,
                701.8741240428645
              ],
              [
                723.0273121433656,
                701.870480248514
              ],
              [
                723.0330969360297,
                701.8682309622022
              ],
              [
                723.057564094598,
                701.8558328540103
              ],
              [
                723.0592275714739,
                701.8551548408691
              ],
              [
                723.0658790097935,
                701.8516773755667
              ],
              [
                723.1102475034999,
                701.8320062374686
              ],
              [
                723.1301360278404,
                701.820690739377
              ],
              [
                723.1618736716725,
                701.8056479084379
              ],
              [
                723.1725590453907,
                701.7992307723475
              ],
              [
                723.1808578625156,
                701.7951920114366
              ],
              [
                723.1913706024475,
                701.7886947808438
              ],
              [
                723.1974596734751,
                701.7856592926132
              ],
              [
                723.203295358417,
                701.7819872551948
              ],
              [
                723.2081733388881,
                701.7795154630793
              ],
              [
                723.2540654975573,
                701.750281806257
              ],
              [
                723.2572373619419,
                701.7483769327399
              ],
              [
                723.2965956817542,
                701.725984170708
              ],
              [
                723.3069446325269,
                701.7185250690206
              ],
              [
                723.3302022185183,
                701.7045576497824
              ],
              [
                723.3435242324869,
                701.6946586659677
              ],
              [
                723.3520214024499,
                701.6894071261224
              ],
              [
                723.3593152404463,
                701.6838135445624
              ],
              [
                723.3652845465436,
                701.6800574275737
              ],
              [
                723.3697213156664,
                701.6766081636532
              ],
              [
                723.3737110614863,
                701.6740666649857
              ],
              [
                723.417821666625,
                701.6394516154626
              ],
              [
                723.4439043836694,
                701.6200707324766
              ],
              [
                723.4525944241251,
                701.6138971514675
              ],
              [
                723.4548770363282,
                701.6119174523999
              ],
              [
                723.4555959010111,
                701.6113832966876
              ],
              [
                723.4705240428019,
                701.6006237008536
              ],
              [
                723.4726699391992,
                701.5986963540022
              ],
              [
                723.487806927994,
                701.5874487447868
              ],
              [
                723.5032083957568,
                701.5734631226669
              ],
              [
                723.511689427872,
                701.5669590921589
              ],
              [
                723.5161027672337,
                701.5628072771196
              ],
              [
                723.5218278629895,
                701.5583564333446
              ],
              [
                723.524977006218,
                701.5553632794487
              ],
              [
                723.528115885064,
                701.5529000974914
              ],
              [
                723.5699334971695,
                701.5128720109204
              ],
              [
                723.588142986106,
                701.4963365069551
              ],
              [
                723.5987394499514,
                701.4871462425878
              ],
              [
                723.6017204799161,
                701.4840071821992
              ],
              [
                723.6331687373488,
                701.4554499400222
              ],
              [
                723.6499890252575,
                701.4368548102799
              ],
              [
                723.6582458030044,
                701.429087310159
              ],
              [
                723.6601971897211,
                701.4268410784265
              ],
              [
                723.6655509216929,
                701.4217525376563
              ],
              [
                723.6675570377171,
                701.4194261316445
              ],
              [
                723.6699008067637,
                701.4171826608775
              ],
              [
                723.7088684551156,
                701.3717625453136
              ],
              [
                723.7199809022218,
                701.3594775358764
              ],
              [
                723.731954965259,
                701.3468687035554
              ],
              [
                723.7355373832643,
                701.3422795672752
              ],
              [
                723.764886586229,
                701.3098334973909
              ],
              [
                723.7819875226817,
                701.2867260460326
              ],
              [
                723.7950410348657,
                701.271588452367
              ],
              [
                723.7960780863484,
                701.2701122867934
              ],
              [
                723.7977003602819,
                701.2682213882493
              ],
              [
                723.8332221525643,
                701.2174958187207
              ],
              [
                723.8382354252716,
                701.2107216893887
              ],
              [
                723.8509946003088,
                701.1943769766885
              ],
              [
                723.8550208284555,
                701.1880405988722
              ],
              [
                723.8816909207069,
                701.1520029315129
              ],
              [
                723.8818129910194,
                701.1518198260442
              ],
              [
                723.9056995215674,
                701.1140743354488
              ],
              [
                723.9090254136931,
                701.1093401756317
              ],
              [
                723.9092922104461,
                701.1088668120692
              ],
              [
                723.9102837660558,
                701.107450858093
              ],
              [
                723.9134475306629,
                701.1018309330901
              ],
              [
                723.9326982537689,
                701.0714109444488
              ],
              [
                723.9328813592376,
                701.0711057686675
              ],
              [
                723.9531010778995,
                701.0336843393303
              ],
              [
                723.9547446154698,
                701.0310977807396
              ],
              [
                723.9584952278808,
                701.0237011736032
              ],
              [
                723.9588433010659,
                701.0230569808564
              ],
              [
                723.9640879854633,
                701.0145709032413
              ],
              [
                723.9652463802893,
                701.0122377884529
              ],
              [
                723.9816582323934,
                700.9848443556307
              ],
              [
                723.9933613959246,
                700.9600900469893
              ],
              [
                723.9974790006453,
                700.9529127716166
              ],
              [
                723.9983007069768,
                700.9511027512027
              ],
              [
                724.0065667843436,
                700.9364193784999
              ],
              [
                724.010565576727,
                700.9273325290885
              ],
              [
                724.0184854888829,
                700.9126748358707
              ],
              [
                724.031349757187,
                700.8826932299195
              ],
              [
                724.0371025838315,
                700.8706356737587
              ],
              [
                724.0374077596127,
                700.8699642870399
              ],
              [
                724.0408028300945,
                700.8613818157978
              ],
              [
                724.042234321412,
                700.8585587624575
              ],
              [
                724.0447700256009,
                700.8520697794652
              ],
              [
                724.0465329973357,
                700.8485189906205
              ],
              [
                724.0484089050475,
                700.843654603945
              ],
              [
                724.0566972746445,
                700.8261232024062
              ],
              [
                724.0570328081847,
                700.8254321069963
              ],
              [
                724.057065579491,
                700.8253441710084
              ],
              [
                724.0655171593431,
                700.807467550246
              ],
              [
                724.0697766077776,
                700.7955586078119
              ],
              [
                724.072985751344,
                700.7865896523837
              ],
              [
                724.0757437069964,
                700.7805145427734
              ],
              [
                724.0762871715734,
                700.7789353958258
              ],
              [
                724.0815802484934,
                700.7669956971514
              ],
              [
                724.0830617909154,
                700.7625922480095
              ],
              [
                724.0856221570455,
                700.7567740761137
              ],
              [
                724.086407745041,
                700.7543744746442
              ],
              [
                724.089492043123,
                700.7471861754309
              ],
              [
                724.1022007965888,
                700.7082166324183
              ],
              [
                724.1041065054159,
                700.7035410555397
              ],
              [
                724.1068565628678,
                700.6944031727911
              ],
              [
                724.1108517295718,
                700.6843037054816
              ],
              [
                724.1122466449883,
                700.6793940243441
              ],
              [
                724.1126451609147,
                700.6783742038622
              ],
              [
                724.1134591069458,
                700.6754977622658
              ],
              [
                724.113919330476,
                700.6743866843774
              ],
              [
                724.1139803656323,
                700.6742035789086
              ],
              [
                724.1140935253236,
                700.6737977778104
              ],
              [
                724.1158059622251,
                700.6693799822
              ],
              [
                724.1158114203198,
                700.6693818015649
              ],
              [
                724.115849262882,
                700.6692682738783
              ],
              [
                724.1159945257886,
                700.6688935203149
              ],
              [
                724.1178509955155,
                700.6622372886711
              ],
              [
                724.1235391975504,
                700.6469740074318
              ],
              [
                724.1253135546549,
                700.6403432393342
              ],
              [
                724.1316541089644,
                700.6226225771652
              ],
              [
                724.1358575166714,
                700.6058416329445
              ],
              [
                724.1373557863311,
                700.601488105484
              ],
              [
                724.1375850546325,
                700.6005378813751
              ],
              [
                724.1406992549665,
                700.5912818367383
              ],
              [
                724.1416525860958,
                700.5872434612697
              ],
              [
                724.145325364234,
                700.5759814216041
              ],
              [
                724.1465247179203,
                700.5707454257197
              ],
              [
                724.1466885377062,
                700.5702450334007
              ],
              [
                724.1481793563947,
                700.5635218015784
              ],
              [
                724.154341003684,
                700.5366220136203
              ],
              [
                724.1586687893532,
                700.5222416602289
              ],
              [
                724.1587298245095,
                700.5219975196039
              ],
              [
                724.1577471529426,
                700.5217518517122
              ],
              [
                724.159597687821,
                700.5136730063159
              ],
              [
                724.1638856509471,
                700.498598980186
              ],
              [
                724.1644369386967,
                700.4956999468862
              ],
              [
                724.1654183946785,
                700.4922455181345
              ],
              [
                724.1656962190957,
                700.4906918621116
              ],
              [
                724.1695441279363,
                700.4768954763067
              ],
              [
                724.1704613668369,
                700.4716259772187
              ],
              [
                724.1727698495655,
                700.4629991829889
              ],
              [
                724.1750655715017,
                700.4493143039357
              ],
              [
                724.1793439983064,
                700.4322338666885
              ],
              [
                724.1794553477315,
                700.4314832098391
              ],
              [
                724.1794660686189,
                700.4314404096573
              ],
              [
                724.1795108155551,
                700.4311387503168
              ],
              [
                724.1795881389314,
                700.4308300580948
              ],
              [
                724.1795900379543,
                700.4308172559221
              ],
              [
                724.1802595256502,
                700.4281445112198
              ],
              [
                724.181714458034,
                700.418336153801
              ],
              [
                724.1822965625254,
                700.4159347688724
              ],
              [
                724.1826129331613,
                700.4137326467185
              ],
              [
                724.1832937472143,
                700.41084867211
              ],
              [
                724.1835188277532,
                700.4092409345524
              ],
              [
                724.1855328055151,
                700.4004485496262
              ],
              [
                724.1868665469946,
                700.39063679033
              ],
              [
                724.1880366853183,
                700.3854395115964
              ],
              [
                724.1885155689804,
                700.3816152356588
              ],
              [
                724.1891778236977,
                700.3786286270093
              ],
              [
                724.1934759582723,
                700.3429936971634
              ],
              [
                724.1972102477807,
                700.3233563487078
              ],
              [
                724.1984508303868,
                700.3108276807606
              ],
              [
                724.2036928935144,
                700.2807122475251
              ],
              [
                724.2039564721254,
                700.2770946310992
              ],
              [
                724.2042783604544,
                700.2751758434696
              ],
              [
                724.2054998657339,
                700.257987959849
              ],
              [
                724.2090584181882,
                700.2339981478466
              ],
              [
                724.2091044099141,
                700.2330619647606
              ],
              [
                724.2091194533444,
                700.2329605501903
              ],
              [
                724.2095832440276,
                700.2235198739547
              ],
              [
                724.2097884009427,
                700.2220106232494
              ],
              [
                724.2101153182406,
                700.2147563419575
              ],
              [
                724.211365263665,
                700.2054742688244
              ],
              [
                724.2116754697182,
                700.1966645720372
              ],
              [
                724.2121018483856,
                700.193259591231
              ],
              [
                724.2122704824858,
                700.1871722494595
              ],
              [
                724.212680819969,
                700.1837702276813
              ],
              [
                724.2131480733646,
                700.162399937132
              ],
              [
                724.21478768754,
                700.1458414415787
              ],
              [
                724.2149772992302,
                700.1258337794754
              ],
              [
                724.2181633239131,
                700.0821055908144
              ],
              [
                724.2175858243313,
                700.0606236096658
              ],
              [
                724.21875,
                700.0369262695312
              ],
              [
                724.21875,
                700.036865234375
              ],
              [
                724.2179067262443,
                700.0197000027426
              ],
              [
                724.2183061346905,
                700.0083570026063
              ],
              [
                724.216378144874,
                699.9780177546417
              ],
              [
                724.2164781394569,
                699.9674664124578
              ],
              [
                724.2143734737382,
                699.9411297484553
              ],
              [
                724.2133484761597,
                699.9030016192805
              ],
              [
                724.2131494207052,
                699.8948154992667
              ],
              [
                724.2131223521608,
                699.894590199368
              ],
              [
                724.21281196653,
                699.8830443931394
              ],
              [
                724.2108988367235,
                699.8679996985592
              ],
              [
                724.2104597876614,
                699.8582506072194
              ],
              [
                724.2097009943603,
                699.8526684930392
              ],
              [
                724.2091194533444,
                699.8408309537159
              ],
              [
                724.2086128824388,
                699.8374159300661
              ],
              [
                724.2085060798465,
                699.8352948183232
              ],
              [
                724.2064492741058,
                699.8217749831892
              ],
              [
                724.2057972520419,
                699.8115146286448
              ],
              [
                724.2023130478793,
                699.7902120132776
              ],
              [
                724.2022681557711,
                699.7896502573841
              ],
              [
                724.2022071206148,
                699.7891619761341
              ],
              [
                724.201173900311,
                699.7832472025593
              ],
              [
                724.1974476022098,
                699.7604644115717
              ],
              [
                724.196927576925,
                699.7547290104185
              ],
              [
                724.1956948118191,
                699.7484365041013
              ],
              [
                724.1933028155393,
                699.7296260431785
              ],
              [
                724.1904315308566,
                699.7057274493866
              ],
              [
                724.1900294964574,
                699.7038849326259
              ],
              [
                724.187691872043,
                699.6855020475557
              ],
              [
                724.1831490764073,
                699.6657528936444
              ],
              [
                724.1803205608064,
                699.6466845903427
              ],
              [
                724.1790262419869,
                699.6415173799676
              ],
              [
                724.178242982168,
                699.6363688414307
              ],
              [
                724.1752406758568,
                699.6246900457438
              ],
              [
                724.1739602752116,
                699.6168616059654
              ],
              [
                724.1590545613767,
                699.5610054376913
              ],
              [
                724.1585193582488,
                699.5586787186851
              ],
              [
                724.1573260159157,
                699.5525874413336
              ],
              [
                724.1572649807595,
                699.5523433007086
              ],
              [
                724.1564131806316,
                699.5495224129071
              ],
              [
                724.1551420114636,
                699.5439961868648
              ],
              [
                724.1498313508507,
                699.5196575203005
              ],
              [
                724.1488111336361,
                699.5164736015155
              ],
              [
                724.143052068493,
                699.4914368899805
              ],
              [
                724.1367844125289,
                699.472878543735
              ],
              [
                724.1326306714644,
                699.456295879866
              ],
              [
                724.1302165763573,
                699.4495489360265
              ],
              [
                724.128144955182,
                699.4414904510024
              ],
              [
                724.1245544954962,
                699.4317233713215
              ],
              [
                724.1231048457997,
                699.4262911002957
              ],
              [
                724.103866053258,
                699.3750921556167
              ],
              [
                724.1021903561127,
                699.3699538741829
              ],
              [
                724.1014649847891,
                699.3675516778798
              ],
              [
                724.101183537457,
                699.3668666112965
              ]
            ]
          ]
        ]
      }
    }
  ]
}