{
  "type": "FeatureCollection",
  "features": [
    {
      "type": "Feature",
      "properties": {
        "image_id": "0040_top_20250704_t1",
        "zone_type": "parking_spot",
        "generated_at": "2025-11-03T11:20:42",
        "source": "merged_t1_polygons"
      },
      "geometry": {
        "type": "MultiPolygon",
        "coordinates": [
          [
            [
              [
                784.8988508241201,
                1387.2091682712364
              ],
              [
                784.892126766743,
                1387.2060359023114
              ],
              [
                784.8588290187355,
                1387.1942919418666
              ],
              [
                784.8460315862286,
                1387.1887120372555
              ],
              [
                784.8124519418035,
                1387.1778365912737
              ],
              [
                784.7765206124384,
                1387.1637042312432
              ],
              [
                784.7710486733614,
                1387.1621646743674
              ],
              [
                784.7606736731232,
                1387.158220633278
              ],
              [
                784.7489615261991,
                1387.1549858574938
              ],
              [
                784.7328869904038,
                1387.1490767245054
              ],
              [
                784.72643265143,
                1387.1474174864165
              ],
              [
                784.7194689910528,
                1387.1449168622667
              ],
              [
                784.718834303566,
                1387.144757330251
              ],
              [
                784.7156401552902,
                1387.1436144457232
              ],
              [
                784.7139235470702,
                1387.1431844577482
              ],
              [
                784.7094735523024,
                1387.1416149653453
              ],
              [
                784.7038488181399,
                1387.1402254020115
              ],
              [
                784.7017907269733,
                1387.1395039412437
              ],
              [
                784.6712952670335,
                1387.1321201515163
              ],
              [
                784.6597257769008,
                1387.128373138493
              ],
              [
                784.6262134605021,
                1387.1210459629024
              ],
              [
                784.6249052255987,
                1387.1207227698055
              ],
              [
                784.5799009995268,
                1387.1082930605785
              ],
              [
                784.5618095528583,
                1387.1050818857354
              ],
              [
                784.5594712509782,
                1387.1044961716057
              ],
              [
                784.5380085999756,
                1387.0989786975194
              ],
              [
                784.5365713513022,
                1387.098760045347
              ],
              [
                784.5252514448135,
                1387.095924556381
              ],
              [
                784.5234357116349,
                1387.095655217807
              ],
              [
                784.5214455726258,
                1387.0951635636031
              ],
              [
                784.5144100167331,
                1387.0941339167837
              ],
              [
                784.5082500461643,
                1387.0926424184593
              ],
              [
                784.4755245702377,
                1387.0880991517845
              ],
              [
                784.4684119914026,
                1387.0865440484783
              ],
              [
                784.4413680665834,
                1387.0833572160177
              ],
              [
                784.4324021978653,
                1387.0821124875176
              ],
              [
                784.3952465042622,
                1387.075517468846
              ],
              [
                784.3867573800516,
                1387.074820970987
              ],
              [
                784.3853571795979,
                1387.0745751381621
              ],
              [
                784.3773693650545,
                1387.0739883220408
              ],
              [
                784.3311050814403,
                1387.0671256638432
              ],
              [
                784.3208068587574,
                1387.0666197446046
              ],
              [
                784.3110086430005,
                1387.0652594616488
              ],
              [
                784.2765810024698,
                1387.0639388524282
              ],
              [
                784.273924481133,
                1387.063625810276
              ],
              [
                784.2628200742374,
                1387.063410997239
              ],
              [
                784.2344036609436,
                1387.062320972572
              ],
              [
                784.2083338322416,
                1387.0601820499426
              ],
              [
                784.196125448462,
                1387.060327851891
              ],
              [
                784.1879296458961,
                1387.0597011834634
              ],
              [
                784.1824258545377,
                1387.0598215217992
              ],
              [
                784.1350708007812,
                1387.0574951171875
              ],
              [
                784.123460628343,
                1387.0580653108552
              ],
              [
                784.1120218700063,
                1387.0576265317377
              ],
              [
                784.0370090401467,
                1387.062228142937
              ],
              [
                784.0208064842556,
                1387.0624216463739
              ],
              [
                784.0097286297289,
                1387.0635974819106
              ],
              [
                783.9917058465373,
                1387.063991543312
              ],
              [
                783.9840916060829,
                1387.0649099408029
              ],
              [
                783.9389754849659,
                1387.0671256638432
              ],
              [
                783.9261434386126,
                1387.069029118111
              ],
              [
                783.9132623824286,
                1387.0698192977711
              ],
              [
                783.8416954900274,
                1387.0814330056155
              ],
              [
                783.8343133658672,
                1387.0822165656364
              ],
              [
                783.8335199088359,
                1387.0823386359489
              ],
              [
                783.8260067636171,
                1387.0838829906852
              ],
              [
                783.8225985852881,
                1387.0843885461834
              ],
              [
                783.7968474472093,
                1387.0874945395835
              ],
              [
                783.7871229965518,
                1387.089650852672
              ],
              [
                783.7448291215927,
                1387.095924556381
              ],
              [
                783.730911123687,
                1387.0994108333684
              ],
              [
                783.7167005823206,
                1387.101716886771
              ],
              [
                783.6407083712149,
                1387.1219717593196
              ],
              [
                783.6373821175031,
                1387.1226554830498
              ],
              [
                783.6351883467835,
                1387.1233410512707
              ],
              [
                783.6052310408179,
                1387.1299838255752
              ],
              [
                783.5934198563294,
                1387.1338506029817
              ],
              [
                783.554440411116,
                1387.1436144457232
              ],
              [
                783.5418087141904,
                1387.1481341391532
              ],
              [
                783.5414660369399,
                1387.148222232318
              ],
              [
                783.5395599025026,
                1387.1489229431832
              ],
              [
                783.5364454849723,
                1387.149725457112
              ],
              [
                783.5360884523141,
                1387.1498570266722
              ],
              [
                783.5242850849622,
                1387.1530030820095
              ],
              [
                783.4534222455442,
                1387.1796833980654
              ],
              [
                783.4187019981049,
                1387.1910502062358
              ],
              [
                783.404937733888,
                1387.1971073589873
              ],
              [
                783.3696429008949,
                1387.209736052165
              ],
              [
                783.3556890211366,
                1387.2163357457775
              ],
              [
                783.347217781504,
                1387.219457469368
              ],
              [
                783.3453097695094,
                1387.2203884425408
              ],
              [
                783.3379234012637,
                1387.2231694578222
              ],
              [
                783.2755983701361,
                1387.254024915253
              ],
              [
                783.2390566957188,
                1387.2701055789378
              ],
              [
                783.2235755780914,
                1387.2788207507597
              ],
              [
                783.192216291973,
                1387.2936525884909
              ],
              [
                783.1809591019294,
                1387.300399888541
              ],
              [
                783.1734316666262,
                1387.3040509818882
              ],
              [
                783.171801441537,
                1387.3050480773097
              ],
              [
                783.1659744461066,
                1387.3078912336625
              ],
              [
                783.1627217588472,
                1387.3099071091572
              ],
              [
                783.1594630276571,
                1387.311520419888
              ],
              [
                783.105633269587,
                1387.3452169573156
              ],
              [
                783.0680252161256,
                1387.3663885972255
              ],
              [
                783.051163881243,
                1387.3781961499226
              ],
              [
                783.0238692995858,
                1387.3945558925825
              ],
              [
                783.0163935444934,
                1387.4001002904306
              ],
              [
                783.0074513616312,
                1387.4055696023984
              ],
              [
                783.0032340749083,
                1387.4087507077315
              ],
              [
                782.9945582557708,
                1387.4141276068308
              ],
              [
                782.94078684574,
                1387.4554903067813
              ],
              [
                782.9072546859693,
                1387.4789720029994
              ],
              [
                782.8894438271726,
                1387.4942526176305
              ],
              [
                782.8662231972977,
                1387.511474210462
              ],
              [
                782.8621191970992,
                1387.5151938594236
              ],
              [
                782.8521207538876,
                1387.5227356992634
              ],
              [
                782.8457426336872,
                1387.5286013749667
              ],
              [
                782.8347120707824,
                1387.5370864391198
              ],
              [
                782.7867808369668,
                1387.5823311099773
              ],
              [
                782.7582934133412,
                1387.6067715565175
              ],
              [
                782.7402766854556,
                1387.6255937536964
              ],
              [
                782.7378931911081,
                1387.6277857482721
              ],
              [
                782.7207962032519,
                1387.6432815548144
              ],
              [
                782.7195573854035,
                1387.644648379681
              ],
              [
                782.7089098725385,
                1387.6544404274239
              ],
              [
                782.7008667383828,
                1387.6634296923216
              ],
              [
                782.6880611143315,
                1387.6755175565222
              ],
              [
                782.6463369152474,
                1387.7237332654333
              ],
              [
                782.6225759767274,
                1387.7485564782173
              ],
              [
                782.6074280180601,
                1387.7678598053144
              ],
              [
                782.5791740471756,
                1387.79943735006
              ],
              [
                782.5700235715434,
                1387.8119195469396
              ],
              [
                782.5560964481865,
                1387.8280134718198
              ],
              [
                782.5207910683528,
                1387.8782628910128
              ],
              [
                782.5014094092329,
                1387.902961301795
              ],
              [
                782.488990244285,
                1387.922457401506
              ],
              [
                782.4641410811723,
                1387.9563542347125
              ],
              [
                782.454494222348,
                1387.9726218250264
              ],
              [
                782.440159812444,
                1387.9930236950968
              ],
              [
                782.4113331570728,
                1388.0443665895966
              ],
              [
                782.3959606111393,
                1388.0684990243933
              ],
              [
                782.3861100299047,
                1388.0879387428831
              ],
              [
                782.3648996319085,
                1388.1237060399153
              ],
              [
                782.3554113494874,
                1388.143968414024
              ],
              [
                782.3414299834943,
                1388.1688704982203
              ],
              [
                782.3189957330567,
                1388.22038605805
              ],
              [
                782.3072451120165,
                1388.2435754272517
              ],
              [
                782.2997901735176,
                1388.2627482970256
              ],
              [
                782.2823889078552,
                1388.299908969439
              ],
              [
                782.2737482849749,
                1388.3242873506424
              ],
              [
                782.2609107889084,
                1388.3537659730066
              ],
              [
                782.2446445400868,
                1388.4045737525307
              ],
              [
                782.2361172906177,
                1388.4265044289039
              ],
              [
                782.2308791807652,
                1388.4452368908248
              ],
              [
                782.2173897800251,
                1388.4832954611388
              ],
              [
                782.21030969103,
                1388.511818972987
              ],
              [
                782.1994209011009,
                1388.5458302096324
              ],
              [
                782.1889707193786,
                1388.5951093981232
              ],
              [
                782.1832621467454,
                1388.6155243230648
              ],
              [
                782.1800621948444,
                1388.6336768785065
              ],
              [
                782.1705173919083,
                1388.672129968549
              ],
              [
                782.1657238717823,
                1388.7047329257282
              ],
              [
                782.1575855135454,
                1388.743110410467
              ],
              [
                782.1524847366454,
                1388.7901171483559
              ],
              [
                782.1491887043287,
                1388.8088147448252
              ],
              [
                782.1478534071825,
                1388.8262782570955
              ],
              [
                782.1422153378329,
                1388.8646253858753
              ],
              [
                782.140436832294,
                1388.9011458588946
              ],
              [
                782.1401687035282,
                1388.9036168273105
              ],
              [
                782.1399200972546,
                1388.9055771661942
              ],
              [
                782.1399065583819,
                1388.9060326530598
              ],
              [
                782.13582998417,
                1388.943600744984
              ],
              [
                782.1355120423369,
                1388.9876832125572
              ],
              [
                782.1342251092445,
                1389.0045142017602
              ],
              [
                782.134590060075,
                1389.0212055845448
              ],
              [
                782.1327514648438,
                1389.0589599609375
              ],
              [
                782.134363605743,
                1389.092513623731
              ],
              [
                782.1341923194611,
                1389.098276190037
              ],
              [
                782.1346635311198,
                1389.1053288455937
              ],
              [
                782.1343755105639,
                1389.1452627438825
              ],
              [
                782.1381904684241,
                1389.1858737779796
              ],
              [
                782.1385154690935,
                1389.200738001119
              ],
              [
                782.140257254921,
                1389.2151787811115
              ],
              [
                782.1419758171121,
                1389.2509474017534
              ],
              [
                782.1464548499576,
                1389.2818102818624
              ],
              [
                782.1470442225517,
                1389.2906314598256
              ],
              [
                782.1493434161873,
                1389.304599268142
              ],
              [
                782.1532368809707,
                1389.346046025058
              ],
              [
                782.160469356058,
                1389.382753060967
              ],
              [
                782.1620184653648,
                1389.395596400447
              ],
              [
                782.1647674406112,
                1389.407993614137
              ],
              [
                782.1695637852422,
                1389.4410429384914
              ],
              [
                782.1763916653867,
                1389.468919816994
              ],
              [
                782.1783563939647,
                1389.4808557199763
              ],
              [
                782.1833189791001,
                1389.4995426540781
              ],
              [
                782.1833663808545,
                1389.4998153915478
              ],
              [
                782.1839028004434,
                1389.501741070966
              ],
              [
                782.183945611271,
                1389.501902277896
              ],
              [
                782.192222323928,
                1389.5439091406977
              ],
              [
                782.1922833590843,
                1389.5441532813227
              ],
              [
                782.2024517859514,
                1389.5779408999713
              ],
              [
                782.2045077513563,
                1389.5872128068384
              ],
              [
                782.2079120981676,
                1389.5976114835719
              ],
              [
                782.2152608880978,
                1389.6276151332681
              ],
              [
                782.2238738883399,
                1389.6522547780605
              ],
              [
                782.2278378988414,
                1389.6671815150332
              ],
              [
                782.2355531877132,
                1389.6879301396123
              ],
              [
                782.2468456430216,
                1389.7254526766335
              ],
              [
                782.2616817323293,
                1389.7618524010568
              ],
              [
                782.265574132017,
                1389.7737418495512
              ],
              [
                782.2691202821575,
                1389.7818001154542
              ],
              [
                782.269676235724,
                1389.7834871890398
              ],
              [
                782.2699842380232,
                1389.7841858641145
              ],
              [
                782.2701105027342,
                1389.7845675287358
              ],
              [
                782.270171107893,
                1389.7847048618146
              ],
              [
                782.2759069486214,
                1389.8013658682405
              ],
              [
                782.2762978044927,
                1389.8022265226705
              ],
              [
                782.2786455995043,
                1389.8089429784357
              ],
              [
                782.2884568212738,
                1389.830203183417
              ],
              [
                782.295028983228,
                1389.8478776118573
              ],
              [
                782.3056556636002,
                1389.8697406017054
              ],
              [
                782.3183070731934,
                1389.900780305849
              ],
              [
                782.3379271071144,
                1389.9383080549724
              ],
              [
                782.3478033328439,
                1389.9607113706875
              ],
              [
                782.3501987933123,
                1389.9649545717239
              ],
              [
                782.3542193785242,
                1389.97380779545
              ],
              [
                782.3568150889988,
                1389.9783305846865
              ],
              [
                782.3591332365555,
                1389.983353842074
              ],
              [
                782.3695538047109,
                1390.0012025786814
              ],
              [
                782.3793053458465,
                1390.0212650852577
              ],
              [
                782.3930411089997,
                1390.043726039685
              ],
              [
                782.4060272388182,
                1390.068564947909
              ],
              [
                782.4211811035119,
                1390.091875634166
              ],
              [
                782.4374034771912,
                1390.12090612563
              ],
              [
                782.4421143504527,
                1390.127769275814
              ],
              [
                782.4467896987134,
                1390.1360509581239
              ],
              [
                782.4554229692783,
                1390.1482824766497
              ],
              [
                782.455981352934,
                1390.1492388969377
              ],
              [
                782.4616112569493,
                1390.157049971508
              ],
              [
                782.4670906463035,
                1390.164813107378
              ],
              [
                782.4798839387472,
                1390.1857329176098
              ],
              [
                782.4968290817911,
                1390.2082424041803
              ],
              [
                782.5092200243691,
                1390.227302979202
              ],
              [
                782.5181737533646,
                1390.2385782651681
              ],
              [
                782.5414142440233,
                1390.2724367387216
              ],
              [
                782.5522843643237,
                1390.2855145880515
              ],
              [
                782.5628202375254,
                1390.300441692129
              ],
              [
                782.5884203386165,
                1390.3299098436432
              ],
              [
                782.5889802704423,
                1390.3306536424934
              ],
              [
                782.5897212807745,
                1390.3316527792647
              ],
              [
                782.5897870365925,
                1390.3317253296298
              ],
              [
                782.5958302429437,
                1390.3397529675112
              ],
              [
                782.60966753412,
                1390.3548550781811
              ],
              [
                782.6102515389608,
                1390.3556160031978
              ],
              [
                782.6129885506023,
                1390.3585478369853
              ],
              [
                782.6231487688863,
                1390.3707716027031
              ],
              [
                782.6269606544494,
                1390.3755718484795
              ],
              [
                782.6282730139872,
                1390.3769365855649
              ],
              [
                782.6588962333344,
                1390.413779402162
              ],
              [
                782.6770642573287,
                1390.431947426156
              ],
              [
                782.6947815407457,
                1390.4523417046903
              ],
              [
                782.7238351055296,
                1390.4796736221629
              ],
              [
                782.724566706387,
                1390.4804825181384
              ],
              [
                782.7257991617312,
                1390.481601900961
              ],
              [
                782.7260669514313,
                1390.4818941684025
              ],
              [
                782.7290136805082,
                1390.4845453267196
              ],
              [
                782.7399570250353,
                1390.4948401938627
              ],
              [
                782.7888573165881,
                1390.5437404854156
              ],
              [
                782.8153068083335,
                1390.5657249226047
              ],
              [
                782.841337915878,
                1390.5902134866901
              ],
              [
                782.8673208304958,
                1390.610139560199
              ],
              [
                782.8698557479115,
                1390.6124419097532
              ],
              [
                782.8850280769921,
                1390.6237190950787
              ],
              [
                782.8856946465064,
                1390.6242302815
              ],
              [
                782.9301999800284,
                1390.6612224747266
              ],
              [
                782.9657500216629,
                1390.6856240594352
              ],
              [
                783.0010059413001,
                1390.7126615206537
              ],
              [
                783.0228776026736,
                1390.726178950773
              ],
              [
                783.0273794651952,
                1390.7295250644577
              ],
              [
                783.0460531388368,
                1390.7407442006786
              ],
              [
                783.08173059312,
                1390.765233241559
              ],
              [
                783.1270319480644,
                1390.7905498763005
              ],
              [
                783.1721694812344,
                1390.8184464059677
              ],
              [
                783.1890932511069,
                1390.8266826472534
              ],
              [
                783.1956208187294,
                1390.830604407468
              ],
              [
                783.2159943578099,
                1390.840266465043
              ],
              [
                783.2421694886876,
                1390.8548944210622
              ],
              [
                783.2424136293126,
                1390.8550164913747
              ],
              [
                783.2974215840109,
                1390.879402478272
              ],
              [
                783.3530960440313,
                1390.906497403908
              ],
              [
                783.3550406971372,
                1390.9072122745558
              ],
              [
                783.3563309073126,
                1390.9078401773454
              ],
              [
                783.3658936818748,
                1390.9113555327713
              ],
              [
                783.3729595523097,
                1390.9147064894553
              ],
              [
                783.3945020802029,
                1390.922439957507
              ],
              [
                783.4118983458173,
                1390.9301520258373
              ],
              [
                783.4723901654029,
                1390.9505045254366
              ],
              [
                783.5451891814712,
                1390.977266048932
              ],
              [
                783.5523670494784,
                1390.9791112870025
              ],
              [
                783.5576877969881,
                1390.981021361395
              ],
              [
                783.579118283988,
                1390.986413248395
              ],
              [
                783.5876122062305,
                1390.9892710323104
              ],
              [
                783.6340178405006,
                1391.0002259165371
              ],
              [
                783.6567405856573,
                1391.0059429342705
              ],
              [
                783.7400675718994,
                1391.027364075918
              ],
              [
                783.7446536752625,
                1391.028061771092
              ],
              [
                783.7480265187861,
                1391.0289103748194
              ],
              [
                783.7547995480094,
                1391.0299223005304
              ],
              [
                783.7574438149801,
                1391.0305787918273
              ],
              [
                783.7729688096101,
                1391.0328618383107
              ],
              [
                783.78201963369,
                1391.034998448046
              ],
              [
                783.8411174603438,
                1391.0428835189052
              ],
              [
                783.8687352818068,
                1391.0469448903696
              ],
              [
                783.8710377954794,
                1391.04728889786
              ],
              [
                783.9389935487919,
                1391.0576271735965
              ],
              [
                783.9408648920662,
                1391.057721428421
              ],
              [
                783.9421426517628,
                1391.05791233235
              ],
              [
                783.9439225122748,
                1391.0580016376477
              ],
              [
                783.9499758646851,
                1391.0588918205601
              ],
              [
                783.9674866494561,
                1391.0597442068015
              ],
              [
                783.9785629233849,
                1391.0612220480307
              ],
              [
                784.0402860680732,
                1391.0632879213535
              ],
              [
                784.1444702148438,
                1391.068359375
              ],
              [
                784.1636526766167,
                1391.0674170010823
              ],
              [
                784.1767369549154,
                1391.067854931807
              ],
              [
                784.2414755401139,
                1391.0635938089586
              ],
              [
                784.3405044955028,
                1391.0587288283443
              ],
              [
                784.3605389025034,
                1391.0557570047972
              ],
              [
                784.3745938290597,
                1391.0548319031982
              ],
              [
                784.4387245883023,
                1391.0441592538828
              ],
              [
                784.534650858876,
                1391.0299299358064
              ],
              [
                784.5552861603944,
                1391.0247610618565
              ],
              [
                784.5701887640103,
                1391.0222809686195
              ],
              [
                784.6330782184075,
                1391.0052751657176
              ],
              [
                784.7250395693527,
                1390.9822400464643
              ],
              [
                784.7460006437926,
                1390.9747400541048
              ],
              [
                784.7615992110929,
                1390.970522078872
              ],
              [
                784.822621081002,
                1390.9473248233016
              ],
              [
                784.9098370795739,
                1390.9161184400225
              ],
              [
                784.9308295264063,
                1390.906189752111
              ],
              [
                784.9469437519497,
                1390.9000639842707
              ],
              [
                785.0054849772422,
                1390.8708803535374
              ],
              [
                785.0872636884958,
                1390.8322019036966
              ],
              [
                785.107025226159,
                1390.8203572938473
              ],
              [
                785.1094467297031,
                1390.8191788278427
              ],
              [
                785.1104915920235,
                1390.818533067415
              ],
              [
                785.1244005914439,
                1390.8115992340195
              ],
              [
                785.1798677233529,
                1390.7766971812373
              ],
              [
                785.2556106808829,
                1390.731298599605
              ],
              [
                785.2754628881486,
                1390.7165751992418
              ],
              [
                785.2806102696374,
                1390.7133939425287
              ],
              [
                785.2812484412286,
                1390.71290453423
              ],
              [
                785.2922254645123,
                1390.70599736898
              ],
              [
                785.3440513349427,
                1390.665706540209
              ],
              [
                785.413256783171,
                1390.6143802817255
              ],
              [
                785.4324618600955,
                1390.5969738146243
              ],
              [
                785.4356462528064,
                1390.5944981818875
              ],
              [
                785.4402782950596,
                1390.5909459085651
              ],
              [
                785.4405771107856,
                1390.5906647999705
              ],
              [
                785.4487687809583,
                1390.584296374751
              ],
              [
                785.4964193345785,
                1390.5390061386888
              ],
              [
                785.5586837772169,
                1390.482572937373
              ],
              [
                785.576654281827,
                1390.4627455409575
              ],
              [
                785.5863513533974,
                1390.45352880312
              ],
              [
                785.5868346701918,
                1390.4530741265653
              ],
              [
                785.5868580948987,
                1390.4530471624994
              ],
              [
                785.5924918396616,
                1390.4476924790627
              ],
              [
                785.635472996372,
                1390.397849090066
              ],
              [
                785.6904911215693,
                1390.3371459433272
              ],
              [
                785.7069151023186,
                1390.3150007688487
              ],
              [
                785.7219819528344,
                1390.2975283937733
              ],
              [
                785.7598463544942,
                1390.2436312371444
              ],
              [
                785.8074094394489,
                1390.1794998410392
              ],
              [
                785.8219869826366,
                1390.1551786795653
              ],
              [
                785.8359663316619,
                1390.135280117038
              ],
              [
                785.8682720908366,
                1390.0779571243454
              ],
              [
                785.8732508777596,
                1390.0703072185033
              ],
              [
                785.8757541246947,
                1390.065473622469
              ],
              [
                785.9083127435405,
                1390.011152848652
              ],
              [
                785.9207958744739,
                1389.9847594858272
              ],
              [
                785.9333856319998,
                1389.9624203550625
              ],
              [
                785.9342778628205,
                1389.9603794185646
              ],
              [
                785.9586509891022,
                1389.9054055327301
              ],
              [
                785.9643654609707,
                1389.8943712843013
              ],
              [
                785.9687118027924,
                1389.8834497673008
              ],
              [
                785.9922292798664,
                1389.8337262397301
              ],
              [
                785.9997519032642,
                1389.8127019157755
              ],
              [
                786.0089484125559,
                1389.7919590760578
              ],
              [
                786.0124315203609,
                1389.7816065624556
              ],
              [
                786.0158913822962,
                1389.773692289223
              ],
              [
                786.030107465331,
                1389.7291743329945
              ],
              [
                786.0376252924176,
                1389.710283486461
              ],
              [
                786.0414532141167,
                1389.6969535442024
              ],
              [
                786.041897846101,
                1389.6958100242211
              ],
              [
                786.0430472664692,
                1389.6916994817002
              ],
              [
                786.0583508863082,
                1389.648928729509
              ],
              [
                786.062080211045,
                1389.634040430597
              ],
              [
                786.068067419029,
                1389.6162452156445
              ],
              [
                786.0734481367621,
                1389.5934521295596
              ],
              [
                786.0785487938462,
                1389.5774793170592
              ],
              [
                786.0860035196965,
                1389.5418163581107
              ],
              [
                786.0923114125645,
                1389.5198504313457
              ],
              [
                786.0945866767403,
                1389.507384897332
              ],
              [
                786.0947529899734,
                1389.5067901300602
              ],
              [
                786.0963836702513,
                1389.4975396740945
              ],
              [
                786.0966839262338,
                1389.4958946558136
              ],
              [
                786.1060407756502,
                1389.4585400190322
              ],
              [
                786.106130442161,
                1389.4579355365174
              ],
              [
                786.1063459514314,
                1389.4570751752822
              ],
              [
                786.1075355592775,
                1389.449055490607
              ],
              [
                786.1106619112768,
                1389.4358120510162
              ],
              [
                786.1124121384045,
                1389.4233102776461
              ],
              [
                786.1143886493868,
                1389.4147176790068
              ],
              [
                786.1172114198237,
                1389.3925196457376
              ],
              [
                786.1206932989332,
                1389.3758625460346
              ],
              [
                786.1234382827862,
                1389.3493150431334
              ],
              [
                786.127887141122,
                1389.324940996595
              ],
              [
                786.1288161113032,
                1389.3135582573364
              ],
              [
                786.12882643239,
                1389.3134997082998
              ],
              [
                786.1289087249993,
                1389.312423454976
              ],
              [
                786.1302611664419,
                1389.2958518915248
              ],
              [
                786.1351448439694,
                1389.2629288119092
              ],
              [
                786.1352959857343,
                1389.2598522506078
              ],
              [
                786.1363658916769,
                1389.25220997298
              ],
              [
                786.1371197607269,
                1389.235962099318
              ],
              [
                786.1395087438738,
                1389.2171753334233
              ],
              [
                786.140354539125,
                1389.185713219486
              ],
              [
                786.1418778973257,
                1389.1709803983047
              ],
              [
                786.1418778973257,
                1389.1535112423232
              ],
              [
                786.144003343936,
                1389.1274679902772
              ],
              [
                786.1434930889396,
                1389.0986000049415
              ],
              [
                786.1449584960938,
                1389.0670166015625
              ],
              [
                786.1440640439749,
                1389.047726083639
              ],
              [
                786.1448601012569,
                1389.018114135748
              ],
              [
                786.1418778973257,
                1388.9771833868979
              ],
              [
                786.1418778973257,
                1388.9650059298203
              ],
              [
                786.1409779029252,
                1388.9563018334627
              ],
              [
                786.140501859331,
                1388.929369378917
              ],
              [
                786.137317563309,
                1388.9022257226234
              ],
              [
                786.1363658916769,
                1388.8817011598326
              ],
              [
                786.1354883623387,
                1388.875433017408
              ],
              [
                786.1350838088132,
                1388.8671981412158
              ],
              [
                786.1326872645143,
                1388.8510419518875
              ],
              [
                786.1303896708581,
                1388.8195074790374
              ],
              [
                786.1218754373725,
                1388.7705935640683
              ],
              [
                786.1210358878809,
                1388.763437055162
              ],
              [
                786.1206932989332,
                1388.7601237820904
              ],
              [
                786.1205882353639,
                1388.7596211643101
              ],
              [
                786.1174170502818,
                1388.7325892686201
              ],
              [
                786.1120894112462,
                1388.7082956333306
              ],
              [
                786.1106619112768,
                1388.6980990817963
              ],
              [
                786.1088817455351,
                1388.690558178703
              ],
              [
                786.1062849162752,
                1388.6730517778428
              ],
              [
                786.1017349426241,
                1388.6548872648177
              ],
              [
                786.0962409052801,
                1388.6233242502558
              ],
              [
                786.0831961801258,
                1388.5765446617481
              ],
              [
                786.0749754671813,
                1388.5390588259472
              ],
              [
                786.0682319684275,
                1388.5183629596056
              ],
              [
                786.068067419029,
                1388.517665917168
              ],
              [
                786.0660836361615,
                1388.5117697060057
              ],
              [
                786.0652284004631,
                1388.5091449789388
              ],
              [
                786.0585950269332,
                1388.482663067366
              ],
              [
                786.0514425757902,
                1388.462673305557
              ],
              [
                786.0427523382886,
                1388.4315093117164
              ],
              [
                786.042630267976,
                1388.4311431007789
              ],
              [
                786.0294231450573,
                1388.3992582855085
              ],
              [
                786.0135936245131,
                1388.3506773257727
              ],
              [
                786.0016307225433,
                1388.323458501881
              ],
              [
                785.9924734204914,
                1388.2978655571449
              ],
              [
                785.9808769684417,
                1388.273346919308
              ],
              [
                785.9790000445024,
                1388.2683576857605
              ],
              [
                785.9660904858774,
                1388.242083528633
              ],
              [
                785.9629132719111,
                1388.2353658741094
              ],
              [
                785.9389945136775,
                1388.1809442572044
              ],
              [
                785.9341180538748,
                1388.1691714418125
              ],
              [
                785.9338739132498,
                1388.1686831605625
              ],
              [
                785.9190593711638,
                1388.1426445912934
              ],
              [
                785.9085568841655,
                1388.120438948223
              ],
              [
                785.8961555560991,
                1388.0997485823289
              ],
              [
                785.8935896763511,
                1388.0945263799572
              ],
              [
                785.8752397909404,
                1388.064835641673
              ],
              [
                785.8400588361761,
                1388.002168071234
              ],
              [
                785.8363429774926,
                1387.9968212866117
              ],
              [
                785.8355130815052,
                1387.9953494586653
              ],
              [
                785.8341708129692,
                1387.9934414239005
              ],
              [
                785.8278518464892,
                1387.9823349823082
              ],
              [
                785.8155526531596,
                1387.965270763097
              ],
              [
                785.8076535800739,
                1387.9520919558358
              ],
              [
                785.7950950924063,
                1387.9351587954268
              ],
              [
                785.7917656518314,
                1387.929771647413
              ],
              [
                785.7684562021733,
                1387.899138355895
              ],
              [
                785.7307607469559,
                1387.8448980046185
              ],
              [
                785.7243668546233,
                1387.8373550937808
              ],
              [
                785.720937413788,
                1387.8324801435292
              ],
              [
                785.7143404346567,
                1387.8248463110936
              ],
              [
                785.7024913766348,
                1387.8084066212607
              ],
              [
                785.6944432512605,
                1387.7994454980364
              ],
              [
                785.6907352621943,
                1387.7944458535478
              ],
              [
                785.6786349468505,
                1387.781095212913
              ],
              [
                785.6744828831077,
                1387.7756385684663
              ],
              [
                785.6459495910709,
                1387.7448458057988
              ],
              [
                785.60692087244,
                1387.69880340636
              ],
              [
                785.5974579112294,
                1387.6895932534812
              ],
              [
                785.5907334395007,
                1387.6818118903188
              ],
              [
                785.5777134920614,
                1387.6694736465238
              ],
              [
                785.5592330936231,
                1387.6488967891894
              ],
              [
                785.5455773756237,
                1387.6365253987221
              ],
              [
                785.5428412554286,
                1387.6335726129137
              ],
              [
                785.5152180037112,
                1387.6090213418659
              ],
              [
                785.5073604298569,
                1387.6019027770067
              ],
              [
                785.5069863617433,
                1387.601538702333
              ],
              [
                785.5065256631447,
                1387.6010615041587
              ],
              [
                785.5062902243632,
                1387.6008611626546
              ],
              [
                785.469674822611,
                1387.5652239619578
              ],
              [
                785.4568354239036,
                1387.554924560872
              ],
              [
                785.4461919356594,
                1387.5448383486657
              ],
              [
                785.4348633080359,
                1387.5360658431814
              ],
              [
                785.4335033927158,
                1387.5347865133099
              ],
              [
                785.4320254481355,
                1387.5336530903362
              ],
              [
                785.4128752721485,
                1387.5163039985741
              ],
              [
                785.4010378231608,
                1387.5075391344249
              ],
              [
                785.3980753123332,
                1387.5049060843025
              ],
              [
                785.366405295619,
                1387.4818291288007
              ],
              [
                785.3573809951621,
                1387.4741500968482
              ],
              [
                785.3481338472853,
                1387.4677272425415
              ],
              [
                785.3202811418982,
                1387.4453845931196
              ],
              [
                785.3140807128394,
                1387.4413199009234
              ],
              [
                785.3105031107522,
                1387.4384496624507
              ],
              [
                785.3000080167521,
                1387.4316384737156
              ],
              [
                785.2887458143699,
                1387.422917405688
              ],
              [
                785.2826725787846,
                1387.419115660751
              ],
              [
                785.2738353672936,
                1387.4123384793463
              ],
              [
                785.2678053586221,
                1387.4086117290349
              ],
              [
                785.2640597360383,
                1387.4057955417609
              ],
              [
                785.2615207399049,
                1387.404235772144
              ],
              [
                785.2542978533879,
                1387.3988876925744
              ],
              [
                785.2541147479192,
                1387.3987656222619
              ],
              [
                785.245750003087,
                1387.3939113723322
              ],
              [
                785.2415426780236,
                1387.3908456255047
              ],
              [
                785.2413725132809,
                1387.3907452749963
              ],
              [
                785.2405050803674,
                1387.3901132036297
              ],
              [
                785.2372502046255,
                1387.3881937200158
              ],
              [
                785.2345236350549,
                1387.3862069536297
              ],
              [
                785.2096381510298,
                1387.3715313461416
              ],
              [
                785.1965394704513,
                1387.362433306607
              ],
              [
                785.1777154716897,
                1387.3519256467048
              ],
              [
                785.1601097683432,
                1387.3403842252444
              ],
              [
                785.1563440763138,
                1387.3384023185413
              ],
              [
                785.1420255238339,
                1387.3291097516187
              ],
              [
                785.1249670702315,
                1387.3203328119146
              ],
              [
                785.1026718273594,
                1387.3065535940323
              ],
              [
                785.0905588636437,
                1387.3006586136232
              ],
              [
                785.0826976771443,
                1387.2959275770859
              ],
              [
                785.0762283232161,
                1387.292856152761
              ],
              [
                785.0676922825103,
                1387.2878222308661
              ],
              [
                785.0435981658768,
                1387.2765981056123
              ],
              [
                785.0391415464686,
                1387.2740118289378
              ],
              [
                785.0388974058436,
                1387.2738897586253
              ],
              [
                785.0342378813453,
                1387.2718356646544
              ],
              [
                785.0255431827561,
                1387.2669822359603
              ],
              [
                784.9975846188231,
                1387.254791812629
              ],
              [
                784.9929655514019,
                1387.2524152035185
              ],
              [
                784.9906294712854,
                1387.2511857102922
              ],
              [
                784.9903673212026,
                1387.2510783584369
              ],
              [
                784.9634309837058,
                1387.2372190359235
              ],
              [
                784.9518017701799,
                1387.232645082348
              ],
              [
                784.935975012533,
                1387.2248611797638
              ],
              [
                784.9306560702282,
                1387.2228391916653
              ],
              [
                784.9217452645624,
                1387.218502596092
              ],
              [
                784.9123163696084,
                1387.2150364559232
              ],
              [
                784.904805039404,
                1387.211470337489
              ],
              [
                784.9018952922763,
                1387.2104254582812
              ],
              [
                784.9004376655114,
                1387.209736052165
              ],
              [
                784.8988508241201,
                1387.2091682712364
              ]
            ],
            [
              [
                783.9480086880909,
                1391.0582405470943
              ],
              [
                783.9609980887456,
                1391.05887847681
              ],
              [
                783.9621995484282,
                1391.0590387804161
              ],
              [
                783.9484359341847,
                1391.0583626174068
              ],
              [
                783.9470655587285,
                1391.0581593414104
              ],
              [
                783.9476635010515,
                1391.058189343434
              ],
              [
                783.9480086880909,
                1391.0582405470943
              ]
            ],
            [
              [
                783.9609648747575,
                1391.0588740452654
              ],
              [
                783.9480697232472,
                1391.0582405470943
              ],
              [
                783.9477557347556,
                1391.0581939713013
              ],
              [
                783.9607570700132,
                1391.0588463191166
              ],
              [
                783.9609648747575,
                1391.0588740452654
              ]
            ],
            [
              [
                784.0666640485081,
                1391.0641707922177
              ],
              [
                784.0672951631864,
                1391.0641919156226
              ],
              [
                784.0767184819075,
                1391.064664734857
              ],
              [
                784.0666640485081,
                1391.0641707922177
              ]
            ],
            [
              [
                784.1399536132812,
                1391.0677490234375
              ],
              [
                784.140791828482,
                1391.0677084276515
              ],
              [
                784.1441040039062,
                1391.06787109375
              ],
              [
                784.1407923476188,
                1391.067708402509
              ],
              [
                784.1536924798338,
                1391.0670836333493
              ],
              [
                784.1592189607762,
                1391.0672686046369
              ],
              [
                784.1444702148438,
                1391.0679931640625
              ],
              [
                784.1388296224895,
                1391.0677160595294
              ],
              [
                784.1390698425533,
                1391.0677045101427
              ],
              [
                784.1399536132812,
                1391.0677490234375
              ]
            ],
            [
              [
                784.3416325374646,
                1391.0572294947997
              ],
              [
                784.3458575254268,
                1391.057016822034
              ],
              [
                784.3492577752139,
                1391.0564995336786
              ],
              [
                784.3561008178584,
                1391.0560491215283
              ],
              [
                784.3405044955028,
                1391.0583626174068
              ],
              [
                784.2634127447595,
                1391.0621498922642
              ],
              [
                784.2852737115404,
                1391.0607109935802
              ],
              [
                784.3335903457274,
                1391.0583709599712
              ],
              [
                784.3337803979433,
                1391.0583431460127
              ],
              [
                784.334210998589,
                1391.05832244344
              ],
              [
                784.3416325374646,
                1391.0572294947997
              ]
            ],
            [
              [
                784.5312297053714,
                1391.0290178407909
              ],
              [
                784.5349560346573,
                1391.0284650920564
              ],
              [
                784.5371551296688,
                1391.027914247432
              ],
              [
                784.5447835023193,
                1391.0267537243556
              ],
              [
                784.5474840016891,
                1391.0260594981255
              ],
              [
                784.5509299721288,
                1391.0254860192756
              ],
              [
                784.534650858876,
                1391.029563724869
              ],
              [
                784.4589749778529,
                1391.0407891814134
              ],
              [
                784.49724600542,
                1391.0344201120154
              ],
              [
                784.5252297523133,
                1391.0303247176469
              ],
              [
                784.5265632674264,
                1391.0299952791966
              ],
              [
                784.5283873799323,
                1391.0297266474051
              ],
              [
                784.5312297053714,
                1391.0290178407909
              ]
            ],
            [
              [
                784.725344745134,
                1390.9807752027143
              ],
              [
                784.729702320945,
                1390.979216037158
              ],
              [
                784.7395247689763,
                1390.976690948227
              ],
              [
                784.7250395693527,
                1390.9818738355268
              ],
              [
                784.651461469438,
                1391.0003041901111
              ],
              [
                784.7013018807539,
                1390.9868269510491
              ],
              [
                784.7132577319899,
                1390.9838733159047
              ],
              [
                784.7139472450468,
                1390.983630127865
              ],
              [
                784.725344745134,
                1390.9807752027143
              ]
            ],
            [
              [
                784.7410709907199,
                1390.976137701241
              ],
              [
                784.7417359072684,
                1390.97589327239
              ],
              [
                784.7418104846731,
                1390.9758731060735
              ],
              [
                784.7410709907199,
                1390.976137701241
              ]
            ],
            [
              [
                784.9255394393571,
                1390.9083255660091
              ],
              [
                784.9098370795739,
                1390.915752229085
              ],
              [
                784.8390130572498,
                1390.941093469479
              ],
              [
                784.8833013669199,
                1390.9242574197199
              ],
              [
                784.9101422553551,
                1390.9146535962725
              ],
              [
                784.9164816616695,
                1390.9116552803857
              ],
              [
                784.9255394393571,
                1390.9083255660091
              ]
            ],
            [
              [
                785.0989056230063,
                1390.8243088372217
              ],
              [
                785.1037760793228,
                1390.8219385465775
              ],
              [
                785.0872636884958,
                1390.8318356927591
              ],
              [
                785.0198184224511,
                1390.8637349278988
              ],
              [
                785.0571694124894,
                1390.8451149298487
              ],
              [
                785.087568864277,
                1390.8307370599466
              ],
              [
                785.095269305982,
                1390.8261215928094
              ],
              [
                785.0989056230063,
                1390.8243088372217
              ]
            ],
            [
              [
                785.2724735436215,
                1390.7184260373058
              ],
              [
                785.2556106808829,
                1390.7309323886675
              ],
              [
                785.19213136009,
                1390.7689804293166
              ],
              [
                785.2227968194819,
                1390.749684542808
              ],
              [
                785.2559158566642,
                1390.729833755855
              ],
              [
                785.2647137103743,
                1390.7233088228447
              ],
              [
                785.2724735436215,
                1390.7184260373058
              ]
            ],
            [
              [
                785.429621258662,
                1390.5991821747543
              ],
              [
                785.413256783171,
                1390.614014070788
              ],
              [
                785.3542874353348,
                1390.657748719824
              ],
              [
                785.378669395304,
                1390.638793526866
              ],
              [
                785.4135619589523,
                1390.6129154379755
              ],
              [
                785.4232449302511,
                1390.604139304351
              ],
              [
                785.429621258662,
                1390.5991821747543
              ]
            ],
            [
              [
                785.5742586147946,
                1390.4650225412688
              ],
              [
                785.5586837772169,
                1390.4822067264356
              ],
              [
                785.5047198734758,
                1390.5311167578207
              ],
              [
                785.5233521818943,
                1390.513407380226
              ],
              [
                785.5589889529981,
                1390.481108093623
              ],
              [
                785.5692742897378,
                1390.4697599732876
              ],
              [
                785.5742586147946,
                1390.4650225412688
              ]
            ],
            [
              [
                785.7049742656815,
                1390.3172514731777
              ],
              [
                785.6904911215693,
                1390.3367797323897
              ],
              [
                785.6419745379114,
                1390.3903095334595
              ],
              [
                785.6555013744731,
                1390.3746230459788
              ],
              [
                785.6907962973505,
                1390.3356810995772
              ],
              [
                785.7013325184932,
                1390.3214746499284
              ],
              [
                785.7049742656815,
                1390.3172514731777
              ]
            ],
            [
              [
                785.8077146152301,
                1390.1780349972892
              ],
              [
                785.818085792921,
                1390.1607317326686
              ],
              [
                785.8204920833932,
                1390.157306557338
              ],
              [
                785.8074094394489,
                1390.1791336301017
              ],
              [
                785.7666929925554,
                1390.2340334034493
              ],
              [
                785.768000501851,
                1390.2320244154862
              ],
              [
                785.7738759087192,
                1390.2236612112533
              ],
              [
                785.8077146152301,
                1390.1780349972892
              ]
            ],
            [
              [
                785.9183848005844,
                1389.9890376694848
              ],
              [
                785.9197185714418,
                1389.9866710407764
              ],
              [
                785.9083127435405,
                1390.0107866377145
              ],
              [
                785.8771490473035,
                1390.0627801237592
              ],
              [
                785.8793944086532,
                1390.058444486886
              ],
              [
                785.9086179193217,
                1390.009688004902
              ],
              [
                785.9183848005844,
                1389.9890376694848
              ]
            ],
            [
              [
                785.9696308123157,
                1389.8811404739813
              ],
              [
                785.9699149687798,
                1389.8804264437047
              ],
              [
                785.9707188111539,
                1389.8788400937126
              ],
              [
                785.9696308123157,
                1389.8811404739813
              ]
            ],
            [
              [
                785.9986172212145,
                1389.8152612050817
              ],
              [
                785.9990728552225,
                1389.8142335169778
              ],
              [
                785.9922292798664,
                1389.8333600287926
              ],
              [
                785.9707857928239,
                1389.8786984728704
              ],
              [
                785.9717767886049,
                1389.876149795499
              ],
              [
                785.9925344556476,
                1389.8322613959801
              ],
              [
                785.9986172212145,
                1389.8152612050817
              ]
            ],
            [
              [
                786.0583508863082,
                1389.6485625185715
              ],
              [
                786.0435159417658,
                1389.6900234110574
              ],
              [
                786.0438304179011,
                1389.688898785497
              ],
              [
                786.0585560987531,
                1389.6477432645681
              ],
              [
                786.0583508863082,
                1389.6485625185715
              ]
            ]
          ]
        ]
      }
    }
  ]
}