{
  "type": "FeatureCollection",
  "features": [
    {
      "type": "Feature",
      "properties": {
        "image_id": "0043_top_20250623_t1",
        "zone_type": "parking_spot",
        "generated_at": "2025-11-03T11:20:42",
        "source": "merged_t1_polygons"
      },
      "geometry": {
        "type": "MultiPolygon",
        "coordinates": [
          [
            [
              [
                940.5210388929713,
                577.9839570180603
              ],
              [
                940.5210533425943,
                577.9843887367713
              ],
              [
                940.5216977066483,
                577.9892181816612
              ],
              [
                940.5220813223989,
                577.99228166576
              ],
              [
                940.5231193161868,
                578.0134170931591
              ],
              [
                940.5264706504413,
                578.0360099535304
              ],
              [
                940.526638052677,
                578.0387444544758
              ],
              [
                940.5281042781646,
                578.0477877513639
              ],
              [
                940.5287925667541,
                578.0574451857342
              ],
              [
                940.5342928300412,
                578.0898004965967
              ],
              [
                940.5359162573667,
                578.1027648855465
              ],
              [
                940.5360159876918,
                578.1037975861492
              ],
              [
                940.5360986978587,
                578.104221821414
              ],
              [
                940.543225521713,
                578.1611353123776
              ],
              [
                940.5466867794421,
                578.1765088120939
              ],
              [
                940.5472769425788,
                578.1809320264663
              ],
              [
                940.5491359166772,
                578.1888067671152
              ],
              [
                940.5519182087248,
                578.2075634565323
              ],
              [
                940.5578467268482,
                578.2312314275871
              ],
              [
                940.5585034065372,
                578.2352816568578
              ],
              [
                940.5599422507314,
                578.2406832701223
              ],
              [
                940.561371533887,
                578.2490910314233
              ],
              [
                940.570980407947,
                578.284411233744
              ],
              [
                940.5728345357973,
                578.2926465158898
              ],
              [
                940.5728476760274,
                578.2927139144846
              ],
              [
                940.5728560724336,
                578.2927421728733
              ],
              [
                940.5857667937806,
                578.3500863484583
              ],
              [
                940.5908509780079,
                578.3655146025975
              ],
              [
                940.5928335008324,
                578.3739127040492
              ],
              [
                940.5956111733307,
                578.3819955490155
              ],
              [
                940.5996080980668,
                578.397952167009
              ],
              [
                940.608320521229,
                578.4223017585417
              ],
              [
                940.6097522446199,
                578.4276766393598
              ],
              [
                940.6104869850539,
                578.4296291112712
              ],
              [
                940.6124021199499,
                578.4366687447992
              ],
              [
                940.6267673414351,
                578.4745049062418
              ],
              [
                940.646385220099,
                578.5340365054459
              ],
              [
                940.6530730348339,
                578.5492058008688
              ],
              [
                940.6572752312162,
                578.561433916997
              ],
              [
                940.6610332692495,
                578.5696240199829
              ],
              [
                940.6657297045086,
                578.5827496772301
              ],
              [
                940.6661206311928,
                578.5835762222588
              ],
              [
                940.6662179857586,
                578.5838483100426
              ],
              [
                940.6766798016614,
                578.6059679613063
              ],
              [
                940.6814022196139,
                578.6184062079589
              ],
              [
                940.701155010304,
                578.6582652947867
              ],
              [
                940.7157860861288,
                578.6914514879358
              ],
              [
                940.7193136326256,
                578.6995998240296
              ],
              [
                940.7196337234496,
                578.7001786954787
              ],
              [
                940.7245733523752,
                578.7113827574061
              ],
              [
                940.7329901849288,
                578.7264437606916
              ],
              [
                940.7399687207875,
                578.7416524751501
              ],
              [
                940.7445876984334,
                578.7495471457055
              ],
              [
                940.7501345220845,
                578.7612749189645
              ],
              [
                940.7620775041743,
                578.7812005807954
              ],
              [
                940.76771996273,
                578.7925864780603
              ],
              [
                940.7893445997022,
                578.8272838357013
              ],
              [
                940.8142345318787,
                578.8718216529737
              ],
              [
                940.8270579410662,
                578.8905037482538
              ],
              [
                940.8401011557646,
                578.9127969678625
              ],
              [
                940.8449585582307,
                578.919479265541
              ],
              [
                940.8510378261761,
                578.9296219113517
              ],
              [
                940.8641123691544,
                578.947250891798
              ],
              [
                940.8705398727941,
                578.9575640079355
              ],
              [
                940.8946739628666,
                578.9890117926641
              ],
              [
                940.9182452987108,
                579.0233522660653
              ],
              [
                940.9359337264583,
                579.0446332258496
              ],
              [
                940.9566883108652,
                579.0731851756144
              ],
              [
                940.9616039216603,
                579.0787030332358
              ],
              [
                940.9679561440557,
                579.0872680136398
              ],
              [
                940.9818074595728,
                579.1025505852532
              ],
              [
                940.9888905710629,
                579.1117801921984
              ],
              [
                941.0146089631043,
                579.139287458039
              ],
              [
                941.0357272880219,
                579.1646949295057
              ],
              [
                941.0435627717945,
                579.1725304132783
              ],
              [
                941.0460739819739,
                579.1755226327822
              ],
              [
                941.0602528242746,
                579.1894381222845
              ],
              [
                941.0885842234875,
                579.2212406049433
              ],
              [
                941.093390109119,
                579.2256630672692
              ],
              [
                941.0997634884081,
                579.2326950076856
              ],
              [
                941.1144955210215,
                579.2461217460515
              ],
              [
                941.1216539535384,
                579.253778091982
              ],
              [
                941.1479985999564,
                579.2769662414402
              ],
              [
                941.1656883712756,
                579.2946560127593
              ],
              [
                941.1772742172578,
                579.3042860013326
              ],
              [
                941.1838420715435,
                579.3107318666174
              ],
              [
                941.1974298467788,
                579.3217078869945
              ],
              [
                941.2320748197009,
                579.3532832302838
              ],
              [
                941.2344924576477,
                579.3555079841705
              ],
              [
                941.2346261227441,
                579.3556084816155
              ],
              [
                941.236912936332,
                579.3576926779069
              ],
              [
                941.243617752548,
                579.3627507146089
              ],
              [
                941.2456177285477,
                579.3645633871943
              ],
              [
                941.2577035870924,
                579.373526870786
              ],
              [
                941.2675757541203,
                579.3822161991941
              ],
              [
                941.283155015227,
                579.3934450952784
              ],
              [
                941.2831960150047,
                579.3934805437466
              ],
              [
                941.2835451583239,
                579.3937262945126
              ],
              [
                941.2935918063147,
                579.4009675086826
              ],
              [
                941.3070310347159,
                579.4121380020705
              ],
              [
                941.3226487547887,
                579.4228580210013
              ],
              [
                941.3340031692512,
                579.4320299628646
              ],
              [
                941.3455087237306,
                579.4396160984215
              ],
              [
                941.3849146695958,
                579.4693434934819
              ],
              [
                941.390437201156,
                579.47275660569
              ],
              [
                941.3929788469536,
                579.4746675676081
              ],
              [
                941.3990194326852,
                579.4783338448669
              ],
              [
                941.4032638308358,
                579.4814817050739
              ],
              [
                941.4153502198735,
                579.4887260078746
              ],
              [
                941.4252773941352,
                579.4958811102528
              ],
              [
                941.4449669868555,
                579.5073459338819
              ],
              [
                941.4460116960244,
                579.5080812711042
              ],
              [
                941.4504884419981,
                579.5106073122299
              ],
              [
                941.4585616478075,
                579.5161487689026
              ],
              [
                941.4783718436663,
                579.527218798505
              ],
              [
                941.4951584650299,
                579.5382869817408
              ],
              [
                941.5042178157137,
                579.5430768927475
              ],
              [
                941.542619038165,
                579.566810153432
              ],
              [
                941.5545700894173,
                579.5727438674545
              ],
              [
                941.5624855913645,
                579.5775481076508
              ],
              [
                941.5677198947503,
                579.5800528763883
              ],
              [
                941.571610823223,
                579.5823850091655
              ],
              [
                941.5834767853394,
                579.5879971912786
              ],
              [
                941.5932690062916,
                579.5936989895712
              ],
              [
                941.6159925319787,
                579.6041218793423
              ],
              [
                941.6191226136876,
                579.6058709835623
              ],
              [
                941.6393673537885,
                579.614845830374
              ],
              [
                941.6490467627057,
                579.6196516707313
              ],
              [
                941.6658067335054,
                579.6285130970529
              ],
              [
                941.6721109357145,
                579.6311030655844
              ],
              [
                941.7086709507857,
                579.6492551653045
              ],
              [
                941.7275548215193,
                579.6565386087253
              ],
              [
                941.7413465691741,
                579.6631383672443
              ],
              [
                941.7456131603507,
                579.6646819855496
              ],
              [
                941.7490374321449,
                579.6663015454914
              ],
              [
                941.7604797018132,
                579.6703956550435
              ],
              [
                941.7699635100237,
                579.6747457144907
              ],
              [
                941.7981524188766,
                579.6844898667704
              ],
              [
                941.801687849756,
                579.6860438711287
              ],
              [
                941.816804527226,
                579.6909619105479
              ],
              [
                941.8332782132991,
                579.6973157541078
              ],
              [
                941.8443583185048,
                579.7018678168204
              ],
              [
                941.8476843494927,
                579.7028721508528
              ],
              [
                941.8816435890601,
                579.715970111726
              ],
              [
                941.8949005591593,
                579.7196130331231
              ],
              [
                941.8949791187916,
                579.7196429511453
              ],
              [
                941.9040547634157,
                579.7221285435534
              ],
              [
                941.9054761909445,
                579.7225191417609
              ],
              [
                941.9278037137132,
                579.7305970595721
              ],
              [
                941.9309757539497,
                579.7314001179595
              ],
              [
                941.933834942366,
                579.7324231519332
              ],
              [
                941.944671203364,
                579.7351374940104
              ],
              [
                941.953691605243,
                579.7382556058178
              ],
              [
                941.9860357674025,
                579.7460193735251
              ],
              [
                941.9910233696987,
                579.7476420333159
              ],
              [
                942.0088009338059,
                579.7515231915105
              ],
              [
                942.0291499413336,
                579.7576678127907
              ],
              [
                942.0293940819586,
                579.757728847947
              ],
              [
                942.044285292604,
                579.7606628987998
              ],
              [
                942.088563677396,
                579.7728302850259
              ],
              [
                942.1054410034598,
                579.7755690980093
              ],
              [
                942.1200242938013,
                579.7792611172623
              ],
              [
                942.1220118800862,
                579.7795590210408
              ],
              [
                942.1242236528427,
                579.7801130412752
              ],
              [
                942.1342954106393,
                579.7816070454141
              ],
              [
                942.1427175428508,
                579.7836286614872
              ],
              [
                942.1789960778104,
                579.7886798162232
              ],
              [
                942.1855452871081,
                579.7901096250081
              ],
              [
                942.1859114980456,
                579.7901706601643
              ],
              [
                942.189426190406,
                579.7905835092816
              ],
              [
                942.1895125722643,
                579.7905979062581
              ],
              [
                942.206108682864,
                579.7925473484596
              ],
              [
                942.2272571975982,
                579.7967142909043
              ],
              [
                942.2385638648643,
                579.7977764273438
              ],
              [
                942.2713805429211,
                579.803435523522
              ],
              [
                942.2820499314727,
                579.8042287816121
              ],
              [
                942.3001928392603,
                579.8071729702365
              ],
              [
                942.309628850408,
                579.8076794627978
              ],
              [
                942.3161189280925,
                579.8086522098324
              ],
              [
                942.3168706059425,
                579.8086895173095
              ],
              [
                942.3183700162159,
                579.8089119338132
              ],
              [
                942.327545033514,
                579.8093626735097
              ],
              [
                942.3352555230193,
                579.8104362250085
              ],
              [
                942.370872957319,
                579.8119011860952
              ],
              [
                942.3810040600783,
                579.8130912239145
              ],
              [
                942.4073366373908,
                579.8136307642117
              ],
              [
                942.4280404787737,
                579.8155756613111
              ],
              [
                942.4340804962388,
                579.8155320980912
              ],
              [
                942.4638818215484,
                579.8177477960464
              ],
              [
                942.4845759466917,
                579.8172853840439
              ],
              [
                942.4947820612163,
                579.817915078007
              ],
              [
                942.4980225160671,
                579.8177917855538
              ],
              [
                942.5142822265625,
                579.8186645507812
              ],
              [
                942.5145874023438,
                579.8186645507812
              ],
              [
                942.5240306823129,
                579.8182006321849
              ],
              [
                942.5294865663205,
                579.8184250351471
              ],
              [
                942.5593714190313,
                579.8167458748328
              ],
              [
                942.5737716379684,
                579.8170409275468
              ],
              [
                942.6062672067079,
                579.8145679758479
              ],
              [
                942.6185820101924,
                579.8145623324295
              ],
              [
                942.6221236986519,
                579.81421186772
              ],
              [
                942.6245038880851,
                579.8141586821829
              ],
              [
                942.6297024776723,
                579.814121187705
              ],
              [
                942.6306154592708,
                579.8140221186001
              ],
              [
                942.6568662454991,
                579.8134355425286
              ],
              [
                942.677593555314,
                579.8109594873209
              ],
              [
                942.693853871293,
                579.8103408166901
              ],
              [
                942.697191051609,
                579.8098784328148
              ],
              [
                942.6995976682924,
                579.8097667705831
              ],
              [
                942.7017016440085,
                579.8094722175413
              ],
              [
                942.7106216830028,
                579.8090340041257
              ],
              [
                942.7119145714604,
                579.8088422222396
              ],
              [
                942.7142227572216,
                579.8087288283444
              ],
              [
                942.7216422067679,
                579.807628256969
              ],
              [
                942.723575698316,
                579.8075196185792
              ],
              [
                942.7436929437237,
                579.8044099264717
              ],
              [
                942.7585877187977,
                579.8034965586783
              ],
              [
                942.7633299296899,
                579.8026153145254
              ],
              [
                942.7660237751857,
                579.8024103096569
              ],
              [
                942.798456035101,
                579.7967630543147
              ],
              [
                942.813898773926,
                579.7952349314892
              ],
              [
                942.820883284208,
                579.7938422983273
              ],
              [
                942.8485360884703,
                579.790538933317
              ],
              [
                942.8688392795826,
                579.7860956685281
              ],
              [
                942.8911845919404,
                579.7829996080387
              ],
              [
                942.8967493821436,
                579.7816535611845
              ],
              [
                942.9083691205948,
                579.7799299358064
              ],
              [
                942.9087435282478,
                579.7798361515715
              ],
              [
                942.9093456830948,
                579.7797468303377
              ],
              [
                942.9164689899507,
                579.7779625348568
              ],
              [
                942.9196003968506,
                579.7774861462304
              ],
              [
                942.9410246680474,
                579.7719785385669
              ],
              [
                942.9455549749478,
                579.7712433709634
              ],
              [
                942.946487879306,
                579.7709870638296
              ],
              [
                942.9559737313498,
                579.7693353433276
              ],
              [
                942.9840632368773,
                579.761596485813
              ],
              [
                942.9992924414789,
                579.7587664456032
              ],
              [
                942.9995365821039,
                579.758705410447
              ],
              [
                943.0042756862471,
                579.7572759063528
              ],
              [
                943.0063806174863,
                579.7568562066274
              ],
              [
                943.0165081951696,
                579.753778970656
              ],
              [
                943.0371058700013,
                579.7492712593901
              ],
              [
                943.0486728925868,
                579.7455404643595
              ],
              [
                943.0521166755103,
                579.7447516337653
              ],
              [
                943.0583877222072,
                579.7427065190351
              ],
              [
                943.063632910957,
                579.7414682979353
              ],
              [
                943.0640315215722,
                579.7413341852166
              ],
              [
                943.0676001961133,
                579.7404917354353
              ],
              [
                943.0693414066974,
                579.73990590436
              ],
              [
                943.0848163593006,
                579.7361627243821
              ],
              [
                943.0885119223457,
                579.7348680236988
              ],
              [
                943.0997343935715,
                579.7320569409957
              ],
              [
                943.1084548424064,
                579.72893671451
              ],
              [
                943.1144787872788,
                579.7273881192446
              ],
              [
                943.1261565716371,
                579.7230952686353
              ],
              [
                943.1266493004006,
                579.7229654670816
              ],
              [
                943.1320543467943,
                579.7209271974585
              ],
              [
                943.1331760419257,
                579.7205148530035
              ],
              [
                943.1418561619407,
                579.7181234185248
              ],
              [
                943.1493959816779,
                579.7152398763781
              ],
              [
                943.1522919578149,
                579.7144442328198
              ],
              [
                943.1732637144381,
                579.7063023318393
              ],
              [
                943.1832172904245,
                579.7032999336657
              ],
              [
                943.1848694777029,
                579.7026228688704
              ],
              [
                943.1941738354989,
                579.6997957659446
              ],
              [
                943.2070219495606,
                579.6944670035356
              ],
              [
                943.2208189879309,
                579.6900169454666
              ],
              [
                943.2272977150811,
                579.6872121996879
              ],
              [
                943.232164459254,
                579.6851240159225
              ],
              [
                943.2433140565264,
                579.6813727289622
              ],
              [
                943.2470404792209,
                579.6797207407088
              ],
              [
                943.2480812086661,
                579.6793738562908
              ],
              [
                943.2520945746516,
                579.6775586045069
              ],
              [
                943.2728280095643,
                579.6702948690438
              ],
              [
                943.2744063178708,
                579.6695583271284
              ],
              [
                943.2845319037926,
                579.6659353345539
              ],
              [
                943.2849451763069,
                579.6657398712117
              ],
              [
                943.2850812201989,
                579.6656911939289
              ],
              [
                943.2947431549455,
                579.6611214391268
              ],
              [
                943.3033370614374,
                579.6579622476579
              ],
              [
                943.3181834842138,
                579.6507369827709
              ],
              [
                943.319375504697,
                579.6502874659742
              ],
              [
                943.3198421877186,
                579.6500541244634
              ],
              [
                943.3219435249426,
                579.6492504852968
              ],
              [
                943.3280733846236,
                579.6462003085277
              ],
              [
                943.3336891671914,
                579.6440200836464
              ],
              [
                943.3568405539584,
                579.632329654547
              ],
              [
                943.375469876616,
                579.6246031326771
              ],
              [
                943.3845944280374,
                579.6197205809231
              ],
              [
                943.3888100897769,
                579.6179117584142
              ],
              [
                943.3945906258245,
                579.6147883926136
              ],
              [
                943.3979640818421,
                579.6133279689369
              ],
              [
                943.4026548930212,
                579.6107341536461
              ],
              [
                943.4127987730311,
                579.6062371944998
              ],
              [
                943.4132870542811,
                579.6059930538748
              ],
              [
                943.4236418097523,
                579.6001569157434
              ],
              [
                943.4299264758156,
                579.5971844900672
              ],
              [
                943.4378160365451,
                579.5935757993169
              ],
              [
                943.4389578816016,
                579.5929129532536
              ],
              [
                943.4625078291208,
                579.581774657603
              ],
              [
                943.4738251966564,
                579.5749912885522
              ],
              [
                943.4842636242344,
                579.5699112497178
              ],
              [
                943.5012839401613,
                579.5593921159757
              ],
              [
                943.5072162250027,
                579.5563965738065
              ],
              [
                943.5304482813935,
                579.5416741154422
              ],
              [
                943.548522760855,
                579.5320024529876
              ],
              [
                943.5651505206713,
                579.5208811138243
              ],
              [
                943.5668909750613,
                579.5199187179749
              ],
              [
                943.5709553523045,
                579.5171281870244
              ],
              [
                943.5860247459442,
                579.5086347886931
              ],
              [
                943.5946848547471,
                579.5025507972799
              ],
              [
                943.5967002123708,
                579.5013428384071
              ],
              [
                943.6054774674168,
                579.4962476033572
              ],
              [
                943.6068698733086,
                579.4952473782176
              ],
              [
                943.6308548215079,
                579.4808713535114
              ],
              [
                943.6434619203583,
                579.4715212917621
              ],
              [
                943.6554271641686,
                579.4641263644037
              ],
              [
                943.667839123692,
                579.4546077395114
              ],
              [
                943.6714168606937,
                579.4523404807221
              ],
              [
                943.6943357417578,
                579.4344766507785
              ],
              [
                943.7116658943406,
                579.4228855220423
              ],
              [
                943.7328362777841,
                579.4054951954832
              ],
              [
                943.7482730226795,
                579.3946504098657
              ],
              [
                943.7550725689796,
                579.3887869970648
              ],
              [
                943.7629281278226,
                579.3831440107156
              ],
              [
                943.7645910520408,
                579.3816858050803
              ],
              [
                943.788500923796,
                579.3639530356318
              ],
              [
                943.8019804062727,
                579.3517359448492
              ],
              [
                943.8150951895908,
                579.3416783304401
              ],
              [
                943.8233162175555,
                579.3339444616518
              ],
              [
                943.8247398084928,
                579.332834861827
              ],
              [
                943.8368879579818,
                579.3213045271439
              ],
              [
                943.8388667199404,
                579.3197377681852
              ],
              [
                943.8475982538736,
                579.3112244305688
              ],
              [
                943.8633281195141,
                579.2983031955355
              ],
              [
                943.8840187375223,
                579.2775936053451
              ],
              [
                943.8984371079688,
                579.2651602966929
              ],
              [
                943.9032485948519,
                579.2600980573749
              ],
              [
                943.9086886454799,
                579.2553277182368
              ],
              [
                943.9106202826124,
                579.2532705004861
              ],
              [
                943.9339279178419,
                579.2321456912794
              ],
              [
                943.947817872556,
                579.2168204878817
              ],
              [
                943.9616515647232,
                579.2038065484403
              ],
              [
                943.9831486090749,
                579.1790614055282
              ],
              [
                943.9863436911666,
                579.1759461668122
              ],
              [
                943.9902314633086,
                579.1712834882102
              ],
              [
                944.0020488462401,
                579.159455269375
              ],
              [
                944.0217857622846,
                579.1353832812141
              ],
              [
                944.035041003657,
                579.1214372379895
              ],
              [
                944.0380975769285,
                579.117505584679
              ],
              [
                944.0413894861533,
                579.1139996601052
              ],
              [
                944.0435600484909,
                579.1111852752308
              ],
              [
                944.0657352621943,
                579.0867186972336
              ],
              [
                944.0795370468809,
                579.068109144856
              ],
              [
                944.0936128679434,
                579.0519065358789
              ],
              [
                944.1145449482949,
                579.0222502049813
              ],
              [
                944.117409975469,
                579.0187558951277
              ],
              [
                944.1182495117188,
                579.0177490234375
              ],
              [
                944.1183995917871,
                579.0175489166797
              ],
              [
                944.1264921180878,
                579.007678924992
              ],
              [
                944.144786759627,
                578.9802718784606
              ],
              [
                944.1567419978862,
                578.9648939215436
              ],
              [
                944.1583213227213,
                578.9623840227848
              ],
              [
                944.1597838215026,
                578.9604877241264
              ],
              [
                944.162129821281,
                578.9567456801956
              ],
              [
                944.1826535800739,
                578.9290725949454
              ],
              [
                944.1830006333424,
                578.9284935715478
              ],
              [
                944.1833860019489,
                578.9279739621329
              ],
              [
                944.1955672361471,
                578.9076508006735
              ],
              [
                944.205552358594,
                578.893575512141
              ],
              [
                944.2063494455294,
                578.8921826482857
              ],
              [
                944.2096434067555,
                578.8875158018737
              ],
              [
                944.2254761310248,
                578.8594727251835
              ],
              [
                944.226373605722,
                578.858147751276
              ],
              [
                944.22667218872,
                578.8576000151941
              ],
              [
                944.2354594783216,
                578.8444358515521
              ],
              [
                944.2438544257752,
                578.8287126821941
              ],
              [
                944.244015915178,
                578.8284662902954
              ],
              [
                944.245201639301,
                578.826189442288
              ],
              [
                944.2517953865564,
                578.8138397991993
              ],
              [
                944.2518821979361,
                578.8136949631623
              ],
              [
                944.2623438629257,
                578.7970690484751
              ],
              [
                944.2625290742624,
                578.7966975217558
              ],
              [
                944.2625742619874,
                578.796625737723
              ],
              [
                944.2648609668785,
                578.7920411953695
              ],
              [
                944.2792076351891,
                578.7681052253573
              ],
              [
                944.2830536873028,
                578.7617073194749
              ],
              [
                944.2830965030921,
                578.7616170412373
              ],
              [
                944.2842893060405,
                578.7596269697458
              ],
              [
                944.2942101987599,
                578.7386510044624
              ],
              [
                944.3021057582687,
                578.7248539655602
              ],
              [
                944.3045532025525,
                578.7194106396225
              ],
              [
                944.3085687374686,
                578.7122982847499
              ],
              [
                944.3206900117474,
                578.6848048212311
              ],
              [
                944.3279015116948,
                578.6712981690903
              ],
              [
                944.3357675896942,
                578.6522831349877
              ],
              [
                944.3363977176045,
                578.6510731524551
              ],
              [
                944.3400520032525,
                578.641926223967
              ],
              [
                944.3407106036568,
                578.6403341587536
              ],
              [
                944.342950775648,
                578.635597713028
              ],
              [
                944.3445800391711,
                578.6323340356064
              ],
              [
                944.3447934622022,
                578.6319128539984
              ],
              [
                944.3448046094062,
                578.6318841852321
              ],
              [
                944.3493482189248,
                578.6227826030832
              ],
              [
                944.3495588950224,
                578.6222329965253
              ],
              [
                944.3510477761981,
                578.6192479857194
              ],
              [
                944.3525449754947,
                578.6153124817895
              ],
              [
                944.3682058423664,
                578.5822003608239
              ],
              [
                944.3758428556346,
                578.5608563385982
              ],
              [
                944.3818231124894,
                578.5475557345895
              ],
              [
                944.3838513675407,
                578.5415422902998
              ],
              [
                944.3867568697448,
                578.5349520327896
              ],
              [
                944.3963607668438,
                578.5058084458251
              ],
              [
                944.4029279508923,
                578.4899332881355
              ],
              [
                944.4096742847072,
                578.4676568616359
              ],
              [
                944.4105998523368,
                578.4653401021556
              ],
              [
                944.4129787038322,
                578.4570685957381
              ],
              [
                944.4145032196908,
                578.4528078593446
              ],
              [
                944.4187371750014,
                578.4417624221495
              ],
              [
                944.4191794344056,
                578.4401586625717
              ],
              [
                944.4215286245175,
                578.4339836350124
              ],
              [
                944.4224300113259,
                578.4306539608383
              ],
              [
                944.4343274488082,
                578.3974028506027
              ],
              [
                944.439694343801,
                578.3759770047676
              ],
              [
                944.443951301133,
                578.3633558229577
              ],
              [
                944.4454928548502,
                578.356714253666
              ],
              [
                944.4473752960631,
                578.351001875802
              ],
              [
                944.4542496481297,
                578.3204687985752
              ],
              [
                944.4598162502907,
                578.3020878516352
              ],
              [
                944.4648588737294,
                578.2766760159373
              ],
              [
                944.4658802475186,
                578.273124596327
              ],
              [
                944.4670027477755,
                578.2669557449238
              ],
              [
                944.4675988818801,
                578.2645758441729
              ],
              [
                944.4702741486473,
                578.2548745587711
              ],
              [
                944.4707376225339,
                578.2522082547838
              ],
              [
                944.4733245012428,
                578.2426524645855
              ],
              [
                944.4737906492692,
                578.2398569231384
              ],
              [
                944.4820173381502,
                578.207014140126
              ],
              [
                944.485165814123,
                578.185788839206
              ],
              [
                944.4879033756039,
                578.1739944371923
              ],
              [
                944.4888538869392,
                578.1667708375592
              ],
              [
                944.4899165681308,
                578.1620508397214
              ],
              [
                944.4938707963704,
                578.130473107791
              ],
              [
                944.4980185444687,
                578.1095709138298
              ],
              [
                944.500795459956,
                578.0812433420289
              ],
              [
                944.5016860615691,
                578.0763489208674
              ],
              [
                944.5020104904236,
                578.0722995808554
              ],
              [
                944.5034749096269,
                578.0638749708106
              ],
              [
                944.503706627932,
                578.0607968253545
              ],
              [
                944.5041759640479,
                578.0576328182668
              ],
              [
                944.5059266358119,
                578.0471338454103
              ],
              [
                944.5060823160374,
                578.0447812370624
              ],
              [
                944.5108162306882,
                578.0128677767528
              ],
              [
                944.5118357012873,
                577.9921159759789
              ],
              [
                944.5132641039608,
                577.9812605462272
              ],
              [
                944.5135240641071,
                577.9735257636999
              ],
              [
                944.5139817311981,
                577.969870919356
              ],
              [
                944.5148753519411,
                577.937613061243
              ],
              [
                944.5171669244497,
                577.9142365180708
              ],
              [
                944.5171530130027,
                577.8838796095021
              ],
              [
                944.5172267427353,
                577.8823788063193
              ],
              [
                944.5176592119751,
                577.8769809664753
              ],
              [
                944.5176349364112,
                577.8757732061273
              ],
              [
                944.5180275107854,
                577.8705582490036
              ],
              [
                944.5179597946244,
                577.8674571923226
              ],
              [
                944.5183728699203,
                577.8590488515088
              ],
              [
                944.5190147902562,
                577.8493482801232
              ],
              [
                944.5189482431787,
                577.8473368597769
              ],
              [
                944.5204467773438,
                577.8168334960938
              ],
              [
                944.5194633649365,
                577.7968094441395
              ],
              [
                944.5197938937704,
                577.7869749803343
              ],
              [
                944.519274276904,
                577.7788209803452
              ],
              [
                944.5193451006388,
                577.7762643901962
              ],
              [
                944.5170887750434,
                577.7437025409672
              ],
              [
                944.517076980867,
                577.7179658413701
              ],
              [
                944.5141272752072,
                577.6881570240736
              ],
              [
                944.5139782482984,
                577.6851225671745
              ],
              [
                944.5137952190358,
                577.676740755373
              ],
              [
                944.5134067884243,
                577.6734866124867
              ],
              [
                944.5127623186847,
                577.660364045137
              ],
              [
                944.5124604047728,
                577.6512385386827
              ],
              [
                944.5122285262462,
                577.6494950674385
              ],
              [
                944.5108162306882,
                577.6207381802784
              ],
              [
                944.5104203226801,
                577.618069185285
              ],
              [
                944.5104112076698,
                577.6178862623814
              ],
              [
                944.5091768312097,
                577.6096862467213
              ],
              [
                944.5079833985624,
                577.6016407773295
              ],
              [
                944.5074310556284,
                577.5929732290474
              ],
              [
                944.5060578349216,
                577.5845110617638
              ],
              [
                944.5059563784338,
                577.5830469065596
              ],
              [
                944.5016729110637,
                577.5574899434324
              ],
              [
                944.5004538886004,
                577.5499779885396
              ],
              [
                944.4977495799267,
                577.5226490776365
              ],
              [
                944.4919557386025,
                577.4935910705406
              ],
              [
                944.4918422094225,
                577.4928257189772
              ],
              [
                944.4908178000746,
                577.4842435570854
              ],
              [
                944.4902111605147,
                577.4814758499434
              ],
              [
                944.490020108854,
                577.4798918808032
              ],
              [
                944.4897287454967,
                577.4785779025099
              ],
              [
                944.4874860402284,
                577.4634588116846
              ],
              [
                944.4863278605173,
                577.4547505753021
              ],
              [
                944.4859672307515,
                577.453219829883
              ],
              [
                944.4820173381502,
                577.4265918169052
              ],
              [
                944.4810090630244,
                577.4225665569676
              ],
              [
                944.4807689870552,
                577.4209717220276
              ],
              [
                944.4773147882684,
                577.407388427487
              ],
              [
                944.4762923859622,
                577.4010881005962
              ],
              [
                944.4740105923092,
                577.3924449461564
              ],
              [
                944.4739411248695,
                577.392030474271
              ],
              [
                944.4718615784733,
                577.3843047453744
              ],
              [
                944.4649305005005,
                577.3580506722789
              ],
              [
                944.4593708550649,
                577.3301672340762
              ],
              [
                944.4510292620688,
                577.302713983219
              ],
              [
                944.4493111447505,
                577.2948753160983
              ],
              [
                944.4483028139235,
                577.2917569674387
              ],
              [
                944.4475308228624,
                577.2882754744118
              ],
              [
                944.446849944513,
                577.2861957116135
              ],
              [
                944.4429472831991,
                577.2706154142962
              ],
              [
                944.4408738472125,
                577.2618144141059
              ],
              [
                944.4403881964568,
                577.2603989673387
              ],
              [
                944.4343274488082,
                577.2362031064285
              ],
              [
                944.4324446346039,
                577.2309409932421
              ],
              [
                944.4316919033223,
                577.2279809520463
              ],
              [
                944.427673175141,
                577.2169244943344
              ],
              [
                944.4266720636112,
                577.2131324066705
              ],
              [
                944.4108800869489,
                577.170577905998
              ],
              [
                944.4023104143821,
                577.1423740160636
              ],
              [
                944.3918223979498,
                577.1170864875422
              ],
              [
                944.3896652406016,
                577.110415295365
              ],
              [
                944.3881915815373,
                577.1070220292274
              ],
              [
                944.3864644422017,
                577.1017464316988
              ],
              [
                944.3851464605925,
                577.0987514523996
              ],
              [
                944.3797718346234,
                577.0837303790937
              ],
              [
                944.376544841786,
                577.0743251912596
              ],
              [
                944.3759140404142,
                577.0729485665642
              ],
              [
                944.3682058423664,
                577.0514055962074
              ],
              [
                944.3652063511328,
                577.0450637048309
              ],
              [
                944.3636664821097,
                577.0408271663124
              ],
              [
                944.3595624850298,
                577.0322928152802
              ],
              [
                944.3590388706074,
                577.0308818360996
              ],
              [
                944.3450003043504,
                577.0020104443885
              ],
              [
                944.3384137917324,
                576.9883136483952
              ],
              [
                944.3271177811146,
                576.9610779749465
              ],
              [
                944.314866318929,
                576.9381823452981
              ],
              [
                944.3124405076173,
                576.9325966412642
              ],
              [
                944.3104476126663,
                576.9290059099403
              ],
              [
                944.3074090694998,
                576.9221011293126
              ],
              [
                944.3051589722875,
                576.9181041892259
              ],
              [
                944.2987994055499,
                576.9046580150882
              ],
              [
                944.2939727228027,
                576.8941245397921
              ],
              [
                944.2931579983887,
                576.8927302617994
              ],
              [
                944.2842893060405,
                576.8739789872855
              ],
              [
                944.2799557607943,
                576.8667489038394
              ],
              [
                944.2773670933868,
                576.8613657137613
              ],
              [
                944.2480521993992,
                576.8133195890928
              ],
              [
                944.2345171014251,
                576.7880250907075
              ],
              [
                944.220912518287,
                576.767684577978
              ],
              [
                944.2183625326526,
                576.7630900993337
              ],
              [
                944.2158045282613,
                576.7593802206405
              ],
              [
                944.2111260512121,
                576.7510696497195
              ],
              [
                944.207615782473,
                576.7460569414764
              ],
              [
                944.2010799154577,
                576.7351525061401
              ],
              [
                944.1939685637703,
                576.7229824999571
              ],
              [
                944.1929190022099,
                576.7215368449607
              ],
              [
                944.1833860019489,
                576.7056319948983
              ],
              [
                944.1775300435231,
                576.6977361489975
              ],
              [
                944.1736492660889,
                576.6913756853882
              ],
              [
                944.1409652959273,
                576.6481537200602
              ],
              [
                944.1254001704798,
                576.6248819572219
              ],
              [
                944.1108698145425,
                576.6071932033205
              ],
              [
                944.1083152519718,
                576.6034883163064
              ],
              [
                944.1051526025387,
                576.5997382220673
              ],
              [
                944.0985426454381,
                576.5902991195632
              ],
              [
                944.093427419217,
                576.5843368874059
              ],
              [
                944.087873960371,
                576.5768489149721
              ],
              [
                944.0775146662818,
                576.5625801328223
              ],
              [
                944.0761739536532,
                576.5610732821264
              ],
              [
                944.0664676840693,
                576.5479858926102
              ],
              [
                944.058933696502,
                576.5396734182904
              ],
              [
                944.0535412068306,
                576.5325422772308
              ],
              [
                944.0182104991642,
                576.4943929502884
              ],
              [
                944.000817843973,
                576.4732197320484
              ],
              [
                943.9857952777901,
                576.4582109281304
              ],
              [
                943.9833326459753,
                576.4552908759472
              ],
              [
                943.9795306088554,
                576.4515804469279
              ],
              [
                943.97074309192,
                576.441337846935
              ],
              [
                943.9647369992074,
                576.4355887764608
              ],
              [
                943.9642685957507,
                576.4350467536001
              ],
              [
                943.9631135874068,
                576.4339522196476
              ],
              [
                943.9606600833736,
                576.4312451951021
              ],
              [
                943.9457549112532,
                576.4144930078672
              ],
              [
                943.944067971973,
                576.4129386212333
              ],
              [
                943.9346603397169,
                576.4025588985644
              ],
              [
                943.9253285982746,
                576.3941011011262
              ],
              [
                943.9182336067804,
                576.3864400841796
              ],
              [
                943.880990683789,
                576.3535023462589
              ],
              [
                943.8619699178125,
                576.3344990053224
              ],
              [
                943.8468839283006,
                576.322129818928
              ],
              [
                943.844589024143,
                576.3198902092887
              ],
              [
                943.8401163994087,
                576.3163011388812
              ],
              [
                943.8289581702203,
                576.3056204103211
              ],
              [
                943.8215886649895,
                576.2998373160352
              ],
              [
                943.8197270919094,
                576.2980732119471
              ],
              [
                943.8177230091854,
                576.2965213181723
              ],
              [
                943.7999835230298,
                576.2801757267821
              ],
              [
                943.7979027254767,
                576.2786090220559
              ],
              [
                943.789233345671,
                576.270751554212
              ],
              [
                943.7798572624179,
                576.2637977769454
              ],
              [
                943.7786185535895,
                576.2626908631903
              ],
              [
                943.7768224868576,
                576.2613757220679
              ],
              [
                943.7690678377454,
                576.2545174902319
              ],
              [
                943.7306426668017,
                576.226822193992
              ],
              [
                943.7101935734295,
                576.2100557334747
              ],
              [
                943.6954573097906,
                576.2002190420023
              ],
              [
                943.6933879914776,
                576.1985585116512
              ],
              [
                943.6882162949298,
                576.1951756098509
              ],
              [
                943.6745533466426,
                576.1844538428268
              ],
              [
                943.6658044249666,
                576.1788807126612
              ],
              [
                943.66228097062,
                576.1761522689692
              ],
              [
                943.6595836770031,
                576.1744638078173
              ],
              [
                943.6416323567292,
                576.1609476354867
              ],
              [
                943.6391229861125,
                576.1594221240443
              ],
              [
                943.6315872433829,
                576.1538332363324
              ],
              [
                943.6225828078278,
                576.1484361853599
              ],
              [
                943.6217750551922,
                576.1478447214187
              ],
              [
                943.6178013800654,
                576.1454907961738
              ],
              [
                943.6075226544814,
                576.1380823099388
              ],
              [
                943.5686246175954,
                576.115556193107
              ],
              [
                943.5469504999896,
                576.1010883732409
              ],
              [
                943.5329510437072,
                576.093613754276
              ],
              [
                943.531150200114,
                576.0924357893709
              ],
              [
                943.5252533668124,
                576.0893486113341
              ],
              [
                943.5090156240443,
                576.0790050447332
              ],
              [
                943.4989060737889,
                576.0738822881414
              ],
              [
                943.4934910739054,
                576.0704925878567
              ],
              [
                943.4899809931743,
                576.068754840685
              ],
              [
                943.4722568336904,
                576.0579798647136
              ],
              [
                943.4693766216733,
                576.0565989312488
              ],
              [
                943.4670720146522,
                576.0552079460027
              ],
              [
                943.4669207348334,
                576.0551359293578
              ],
              [
                943.4632402509958,
                576.0529299322408
              ],
              [
                943.4548496977338,
                576.0489614960976
              ],
              [
                943.4545228538944,
                576.0487678803792
              ],
              [
                943.4481329343545,
                576.0457786425865
              ],
              [
                943.4351995350596,
                576.0382888233855
              ],
              [
                943.396502493881,
                576.0207608593001
              ],
              [
                943.3738128175279,
                576.0086463398677
              ],
              [
                943.3609014742426,
                576.0033052170062
              ],
              [
                943.3594000011801,
                576.002519148548
              ],
              [
                943.3527547000766,
                575.999823809359
              ],
              [
                943.3339392211859,
                575.9902895456103
              ],
              [
                943.3233800921369,
                575.9861838661479
              ],
              [
                943.3038866968401,
                575.9767196332216
              ],
              [
                943.2988836158414,
                575.9748551235482
              ],
              [
                943.2935206631801,
                575.9722838264506
              ],
              [
                943.2908291664969,
                575.9713076696049
              ],
              [
                943.2888481580179,
                575.9703646119962
              ],
              [
                943.2881044301206,
                575.97009685797
              ],
              [
                943.2858136420739,
                575.9690133959149
              ],
              [
                943.2831280237959,
                575.9680524663297
              ],
              [
                943.2825787787926,
                575.9677926927899
              ],
              [
                943.2682220769921,
                575.9626557827464
              ],
              [
                943.2538068046144,
                575.9561263332375
              ],
              [
                943.2259962906452,
                575.9467339697455
              ],
              [
                943.2210189493792,
                575.9445578364538
              ],
              [
                943.2116782687517,
                575.9415750424837
              ],
              [
                943.192447936573,
                575.9336199006702
              ],
              [
                943.1809315163832,
                575.9301321951824
              ],
              [
                943.179751122324,
                575.9296534264529
              ],
              [
                943.172337731526,
                575.9274544467987
              ],
              [
                943.1510102195338,
                575.9191617242114
              ],
              [
                943.1447220552982,
                575.9174033811183
              ],
              [
                943.1254285972756,
                575.9102132438559
              ],
              [
                943.1137903376031,
                575.9070989095238
              ],
              [
                943.1071795004303,
                575.9047012792378
              ],
              [
                943.1047290379033,
                575.9040787621841
              ],
              [
                943.1031289606473,
                575.9035027085911
              ],
              [
                943.1023559172485,
                575.9033079218177
              ],
              [
                943.0977812685715,
                575.9016710863481
              ],
              [
                943.0775933164367,
                575.8966142675854
              ],
              [
                943.0651426998633,
                575.8924093572882
              ],
              [
                943.038583835965,
                575.8863001593171
              ],
              [
                943.0248059772155,
                575.8819004249038
              ],
              [
                943.0146824424971,
                575.879784274753
              ],
              [
                943.0046025000727,
                575.8767316012718
              ],
              [
                943.0041142188227,
                575.8766095309593
              ],
              [
                942.9944793943297,
                575.8746976347707
              ],
              [
                942.9938915054782,
                575.8745232536193
              ],
              [
                942.9872365162352,
                575.8732338023832
              ],
              [
                942.9762412538367,
                575.8702915305881
              ],
              [
                942.9619903253727,
                575.8663065803393
              ],
              [
                942.9601123968201,
                575.8659755370842
              ],
              [
                942.9414537728327,
                575.8609825918408
              ],
              [
                942.9229540824119,
                575.8578791559282
              ],
              [
                942.916937396823,
                575.8563720546446
              ],
              [
                942.9150637015265,
                575.8558960599038
              ],
              [
                942.9149969375184,
                575.855885994892
              ],
              [
                942.9073925580948,
                575.8539811970061
              ],
              [
                942.8811746324174,
                575.8500921351094
              ],
              [
                942.871077542288,
                575.8477695537382
              ],
              [
                942.8466900433848,
                575.8446683640924
              ],
              [
                942.8231892061908,
                575.8397559198168
              ],
              [
                942.8131765613687,
                575.8387206228826
              ],
              [
                942.8115972810173,
                575.8384072367813
              ],
              [
                942.800251143899,
                575.8372949895296
              ],
              [
                942.7536304333133,
                575.8294740809519
              ],
              [
                942.7316464869616,
                575.8279117299885
              ],
              [
                942.7132461947216,
                575.8251823044681
              ],
              [
                942.6809928728215,
                575.8235978003685
              ],
              [
                942.6735351967044,
                575.8226494592512
              ],
              [
                942.652201173249,
                575.8220759372125
              ],
              [
                942.618307058461,
                575.8185713214243
              ],
              [
                942.6002169646653,
                575.8185713214243
              ],
              [
                942.5636616853083,
                575.8159734177083
              ],
              [
                942.5383322543647,
                575.8165893335976
              ],
              [
                942.5172119140625,
                575.8155517578125
              ],
              [
                942.4790543496977,
                575.8174212353248
              ],
              [
                942.4744739990293,
                575.8172981018681
              ],
              [
                942.4599118710516,
                575.8183590948018
              ],
              [
                942.455580152187,
                575.8185713214243
              ],
              [
                942.4123325899765,
                575.8185713214243
              ],
              [
                942.3986526490434,
                575.8199858129157
              ],
              [
                942.3732700891104,
                575.820603020701
              ],
              [
                942.364343388685,
                575.8216755146905
              ],
              [
                942.3621703697019,
                575.8217339319075
              ],
              [
                942.3440830800597,
                575.8240339674948
              ],
              [
                942.3213415249563,
                575.8251481587847
              ],
              [
                942.3173044697803,
                575.8257459204543
              ],
              [
                942.3172785960612,
                575.8257472042301
              ],
              [
                942.3158739161706,
                575.8259577407235
              ],
              [
                942.3017784680892,
                575.8280448359482
              ],
              [
                942.300909898058,
                575.8280957373507
              ],
              [
                942.2925665094655,
                575.8294088390463
              ],
              [
                942.2773689101126,
                575.83165912842
              ],
              [
                942.2758673423186,
                575.8317685322669
              ],
              [
                942.2715233143882,
                575.8325246784083
              ],
              [
                942.2606847720001,
                575.8341295277136
              ],
              [
                942.253398155383,
                575.8350049746484
              ],
              [
                942.2074504422467,
                575.8397559198168
              ],
              [
                942.19879440316,
                575.8415653153421
              ],
              [
                942.1841820392303,
                575.8433209105497
              ],
              [
                942.1726857780619,
                575.8458293775283
              ],
              [
                942.1646280241182,
                575.8468540263945
              ],
              [
                942.1463438066756,
                575.851059850278
              ],
              [
                942.1275321349578,
                575.8538452707899
              ],
              [
                942.1266159670337,
                575.8540743345969
              ],
              [
                942.1264209184677,
                575.8541032673186
              ],
              [
                942.1239349235026,
                575.8547259766405
              ],
              [
                942.12118396177,
                575.8551382968002
              ],
              [
                942.0660298356461,
                575.8691015445145
              ],
              [
                942.0424735448022,
                575.8742414919161
              ],
              [
                942.005833671222,
                575.8819004249038
              ],
              [
                942.0025130406099,
                575.8829608141156
              ],
              [
                941.9981121101442,
                575.8839210905555
              ],
              [
                941.984443039462,
                575.8883010456235
              ],
              [
                941.970562866543,
                575.8914938299445
              ],
              [
                941.9523480631983,
                575.8976454621702
              ],
              [
                941.9374605112168,
                575.9013677048343
              ],
              [
                941.9368257920734,
                575.9015943741962
              ],
              [
                941.936032207991,
                575.9017931566606
              ],
              [
                941.9339335546821,
                575.9025440668215
              ],
              [
                941.9289633816819,
                575.9038023544904
              ],
              [
                941.8739409706434,
                575.9237090194055
              ],
              [
                941.8167475092213,
                575.942035414596
              ],
              [
                941.8145013120537,
                575.9429992923183
              ],
              [
                941.8096206990583,
                575.9445578364538
              ],
              [
                941.7966428533305,
                575.9502313270089
              ],
              [
                941.7818987617918,
                575.9552108058938
              ],
              [
                941.7684672556132,
                575.9612946549619
              ],
              [
                941.7575924715383,
                575.9651301405927
              ],
              [
                941.753254998615,
                575.9671507309349
              ],
              [
                941.7529506572484,
                575.967259416586
              ],
              [
                941.752588427709,
                575.967430390785
              ],
              [
                941.7512346977699,
                575.9679147631024
              ],
              [
                941.7495400661599,
                575.968716264162
              ],
              [
                941.7425062371428,
                575.9712610468182
              ],
              [
                941.7161079419686,
                575.9838934105928
              ],
              [
                941.714071760928,
                575.9846612644945
              ],
              [
                941.7044530217374,
                575.9894706340898
              ],
              [
                941.6892332811935,
                575.9967537293745
              ],
              [
                941.6417327778053,
                576.0171369253264
              ],
              [
                941.6343095267036,
                576.0211981588463
              ],
              [
                941.6208926332189,
                576.0270635867502
              ],
              [
                941.6207705629064,
                576.0271246219064
              ],
              [
                941.6109335185917,
                576.0326501281621
              ],
              [
                941.6005060313466,
                576.0373732960418
              ],
              [
                941.5922526953706,
                576.042152858851
              ],
              [
                941.582026955771,
                576.0469164691474
              ],
              [
                941.5717869130417,
                576.0529552846915
              ],
              [
                941.5636452593333,
                576.0568513064117
              ],
              [
                941.5353753001444,
                576.0740094948864
              ],
              [
                941.5298425956638,
                576.0767758471267
              ],
              [
                941.5121765641466,
                576.0880166558406
              ],
              [
                941.4746548791738,
                576.108544632417
              ],
              [
                941.4690380019816,
                576.1123533946723
              ],
              [
                941.4529585319747,
                576.1213852958481
              ],
              [
                941.4406964219977,
                576.1299201240887
              ],
              [
                941.4281829119249,
                576.137166782595
              ],
              [
                941.4245543720375,
                576.1397820861743
              ],
              [
                941.4151956032264,
                576.1453011919109
              ],
              [
                941.4045144604152,
                576.1530842082442
              ],
              [
                941.4023483034921,
                576.1543825527386
              ],
              [
                941.3996280943063,
                576.1563999973672
              ],
              [
                941.3941385149224,
                576.1597318464544
              ],
              [
                941.3647884643979,
                576.1817989766963
              ],
              [
                941.3560644722,
                576.1873500098993
              ],
              [
                941.3419047708438,
                576.1985614842544
              ],
              [
                941.3170288085937,
                576.2154296875
              ],
              [
                941.3167846679687,
                576.2156127929687
              ],
              [
                941.3126856404016,
                576.2190198007291
              ],
              [
                941.2949844169503,
                576.2313404292418
              ],
              [
                941.2821394399541,
                576.242255076931
              ],
              [
                941.2586629689168,
                576.2593616507089
              ],
              [
                941.2478894583555,
                576.2689370396107
              ],
              [
                941.244702201204,
                576.2713008706182
              ],
              [
                941.2396133043187,
                576.2759131779036
              ],
              [
                941.2356521256164,
                576.278891429892
              ],
              [
                941.2063142337959,
                576.3058886851837
              ],
              [
                941.2059875447121,
                576.3061790431881
              ],
              [
                941.1945805456846,
                576.3152109622836
              ],
              [
                941.183049227998,
                576.3264541185697
              ],
              [
                941.1660011827557,
                576.3409402019363
              ],
              [
                941.1631585925556,
                576.3433028908212
              ],
              [
                941.1628417371634,
                576.3436248494482
              ],
              [
                941.1483112932186,
                576.3559716739285
              ],
              [
                941.1379701789643,
                576.3666322005324
              ],
              [
                941.1138970258215,
                576.3880281793198
              ],
              [
                941.1033231326537,
                576.3994393891574
              ],
              [
                941.0992752071581,
                576.4031082149706
              ],
              [
                941.0922865547559,
                576.410819004656
              ],
              [
                941.0897438914562,
                576.4131588091192
              ],
              [
                941.0681624826151,
                576.4373843115474
              ],
              [
                941.0577417702137,
                576.4486302106671
              ],
              [
                941.0471035744584,
                576.4590025636566
              ],
              [
                941.0393681111002,
                576.4682798510486
              ],
              [
                941.014297572169,
                576.4941247591194
              ],
              [
                941.0062602513505,
                576.5041884052865
              ],
              [
                940.9822553981423,
                576.5300941348725
              ],
              [
                940.9721755509859,
                576.5433410755309
              ],
              [
                940.9674678628057,
                576.5485352090164
              ],
              [
                940.9591404856147,
                576.5597633773672
              ],
              [
                940.9578479788339,
                576.5612142384481
              ],
              [
                940.9471757488026,
                576.5758959574244
              ],
              [
                940.9426599974419,
                576.5819847432865
              ],
              [
                940.9406278547128,
                576.5843239328711
              ],
              [
                940.935976798252,
                576.5909134962164
              ],
              [
                940.9240905636402,
                576.6065343922589
              ],
              [
                940.9151977539062,
                576.6171997070312
              ],
              [
                940.9150146484375,
                576.6174438476562
              ],
              [
                940.9105792829868,
                576.6239919358768
              ],
              [
                940.8941844202833,
                576.6445201816608
              ],
              [
                940.8881986401177,
                576.653703577827
              ],
              [
                940.8649726294186,
                576.6842272138192
              ],
              [
                940.8556774438473,
                576.6992671400052
              ],
              [
                940.8505495449261,
                576.7061813113046
              ],
              [
                940.8415210174994,
                576.721244499291
              ],
              [
                940.8412608237334,
                576.7216024462
              ],
              [
                940.8393933368384,
                576.7247943200155
              ],
              [
                940.8276390097785,
                576.7444052299444
              ],
              [
                940.8245973159007,
                576.7487146668763
              ],
              [
                940.8191057411601,
                576.7584413979795
              ],
              [
                940.8148982778605,
                576.7652492166048
              ],
              [
                940.807073659903,
                576.7768009791928
              ],
              [
                940.8025284116894,
                576.7851390174051
              ],
              [
                940.7890842640877,
                576.8057650561376
              ],
              [
                940.7848596268109,
                576.8138527749792
              ],
              [
                940.7631486048989,
                576.8489819463633
              ],
              [
                940.7549189977636,
                576.8657312402198
              ],
              [
                940.7496462408345,
                576.8745283036917
              ],
              [
                940.7294183490409,
                576.9172965875571
              ],
              [
                940.7256719851877,
                576.9239321840001
              ],
              [
                940.7256109500314,
                576.9240542543126
              ],
              [
                940.7205860161254,
                576.9354583824453
              ],
              [
                940.7149507464997,
                576.945796012266
              ],
              [
                940.7108401643645,
                576.9554426105595
              ],
              [
                940.7098941605967,
                576.9573679631112
              ],
              [
                940.6999704874275,
                576.9763660150643
              ],
              [
                940.6971939222375,
                576.9832161015255
              ],
              [
                940.6777382367476,
                577.0228132521668
              ],
              [
                940.6708400434941,
                577.041150008642
              ],
              [
                940.6657297045086,
                577.0519549126136
              ],
              [
                940.6504998525073,
                577.09451949751
              ],
              [
                940.6472274633784,
                577.1019462110994
              ],
              [
                940.6432162061798,
                577.1141406095749
              ],
              [
                940.6394991034932,
                577.1228638013893
              ],
              [
                940.6363133172387,
                577.1329288481099
              ],
              [
                940.6337684965945,
                577.1396934826614
              ],
              [
                940.6276684164843,
                577.1547430396911
              ],
              [
                940.6260204639041,
                577.1602892797614
              ],
              [
                940.6095425088178,
                577.2040909302114
              ],
              [
                940.6042217145407,
                577.2238582285861
              ],
              [
                940.5996080980668,
                577.2367524228348
              ],
              [
                940.5891491956329,
                577.2785067018838
              ],
              [
                940.5864844820799,
                577.2866075483963
              ],
              [
                940.5836028486887,
                577.2994602115571
              ],
              [
                940.581417525377,
                577.3063644353415
              ],
              [
                940.5791363278072,
                577.317053022182
              ],
              [
                940.5762001385519,
                577.3279612674688
              ],
              [
                940.5728476760274,
                577.3392440933279
              ],
              [
                940.5720189247659,
                577.34349490703
              ],
              [
                940.5592009649743,
                577.3911149469272
              ],
              [
                940.5556796353954,
                577.4121246762962
              ],
              [
                940.5519182087248,
                577.4271411333115
              ],
              [
                940.5459395040759,
                577.4674462861477
              ],
              [
                940.5439558681514,
                577.4762937004123
              ],
              [
                940.542300757219,
                577.4896466634654
              ],
              [
                940.5412439339951,
                577.4945984251862
              ],
              [
                940.5399231603795,
                577.5061344156518
              ],
              [
                940.5375517775722,
                577.5202830802109
              ],
              [
                940.5360159876918,
                577.5281604216633
              ],
              [
                940.5357229896485,
                577.5311943960895
              ],
              [
                940.52718571141,
                577.5821313792159
              ],
              [
                940.5256586831695,
                577.6041684750312
              ],
              [
                940.5231193161868,
                577.6212874966847
              ],
              [
                940.5221603656967,
                577.6408073823409
              ],
              [
                940.5221257815351,
                577.6410563194377
              ],
              [
                940.5220450867853,
                577.6431539384888
              ],
              [
                940.5212386172559,
                577.6595700028859
              ],
              [
                940.5200434055618,
                577.6692126300231
              ],
              [
                940.5196866565141,
                577.6828854598065
              ],
              [
                940.5193503965862,
                577.6858224440674
              ],
              [
                940.5191269430196,
                577.698430375174
              ],
              [
                940.5179948414312,
                577.7147681418986
              ],
              [
                940.5175144677205,
                577.7197423783714
              ],
              [
                940.5175144677205,
                577.7217005883384
              ],
              [
                940.5137969892049,
                577.7753488628524
              ],
              [
                940.5144293507819,
                577.7981758061475
              ],
              [
                940.5134887695312,
                577.8173217773438
              ],
              [
                940.514529605113,
                577.8385150687964
              ],
              [
                940.5144719868013,
                577.8400128275568
              ],
              [
                940.5151352703897,
                577.8508475072302
              ],
              [
                940.515245603295,
                577.8530940843667
              ],
              [
                940.5149730044276,
                577.863541758827
              ],
              [
                940.5159561474874,
                577.8773363207623
              ],
              [
                940.515939679886,
                577.8782654730109
              ],
              [
                940.5168140417313,
                577.8893735061606
              ],
              [
                940.5170458508218,
                577.8926260387631
              ],
              [
                940.5175144677205,
                577.9095421382899
              ],
              [
                940.5175144677205,
                577.9122156294411
              ],
              [
                940.5176183208583,
                577.9132910214839
              ],
              [
                940.5191603586456,
                577.9689553920123
              ],
              [
                940.5210388929713,
                577.9839570180603
              ]
            ]
          ]
        ]
      }
    }
  ]
}