{
  "type": "FeatureCollection",
  "features": [
    {
      "type": "Feature",
      "properties": {
        "image_id": "0045_top_20250623_t1",
        "zone_type": "parking_spot",
        "generated_at": "2025-11-03T11:20:42",
        "source": "merged_t1_polygons"
      },
      "geometry": {
        "type": "MultiPolygon",
        "coordinates": [
          [
            [
              [
                931.5733698781308,
                440.3668673180106
              ],
              [
                931.5759639061773,
                440.36765316435316
              ],
              [
                931.5760859764898,
                440.3676836819313
              ],
              [
                931.5928106383526,
                440.3710058939487
              ],
              [
                931.6246737016362,
                440.37973239123636
              ],
              [
                931.6273188646567,
                440.38018853831846
              ],
              [
                931.632997271146,
                440.3817170037758
              ],
              [
                931.6476411638469,
                440.3841713891518
              ],
              [
                931.667928251929,
                440.3892504775093
              ],
              [
                931.6821838232969,
                440.39136405270614
              ],
              [
                931.7010727522937,
                440.39567199280873
              ],
              [
                931.7141994845658,
                440.3974487836297
              ],
              [
                931.7214079940843,
                440.39904720846334
              ],
              [
                931.7318486000388,
                440.400306510211
              ],
              [
                931.7394444540893,
                440.4019300105551
              ],
              [
                931.7429470526105,
                440.4023144986008
              ],
              [
                931.7499309109967,
                440.40377435362075
              ],
              [
                931.7662875916311,
                440.4054656171794
              ],
              [
                931.7678206553106,
                440.4057701472573
              ],
              [
                931.7861450582462,
                440.40757743805983
              ],
              [
                931.8148986093273,
                440.41253586531894
              ],
              [
                931.8184516420077,
                440.41280002965266
              ],
              [
                931.8240137034346,
                440.41373225734003
              ],
              [
                931.8409831141286,
                440.41490812777107
              ],
              [
                931.861982717583,
                440.41802159406853
              ],
              [
                931.8685837543098,
                440.4183457249021
              ],
              [
                931.8787774505168,
                440.41972550971656
              ],
              [
                931.9011840699401,
                440.42073103864504
              ],
              [
                931.9034910128076,
                440.42100929234005
              ],
              [
                931.9067627754504,
                440.4214230154619
              ],
              [
                931.9069718175889,
                440.421429132296
              ],
              [
                931.9162663934123,
                440.42255020473465
              ],
              [
                931.9300314806233,
                440.4228511732088
              ],
              [
                931.9406142493007,
                440.4240128673118
              ],
              [
                931.946092483858,
                440.4240572537521
              ],
              [
                931.9548130587265,
                440.4249589520132
              ],
              [
                931.9663198458054,
                440.4249589520132
              ],
              [
                931.9821027345495,
                440.4249673204472
              ],
              [
                932.0073998879546,
                440.42684813784336
              ],
              [
                932.0118565652461,
                440.42674855300675
              ],
              [
                932.0172311870712,
                440.42712097954507
              ],
              [
                932.0335191484994,
                440.42666976359203
              ],
              [
                932.0579223632812,
                440.4277648925781
              ],
              [
                932.0733880256182,
                440.42704778925815
              ],
              [
                932.0743287997964,
                440.4270849593903
              ],
              [
                932.083661778809,
                440.42659930126945
              ],
              [
                932.0996695697569,
                440.4270677092283
              ],
              [
                932.1053557087968,
                440.4266845717647
              ],
              [
                932.1124901927711,
                440.4268405645836
              ],
              [
                932.1294607105956,
                440.42554296283714
              ],
              [
                932.1429858147845,
                440.4256525476356
              ],
              [
                932.1493726957673,
                440.4250560106519
              ],
              [
                932.1578384652364,
                440.4250604993887
              ],
              [
                932.1588793693887,
                440.4249589520132
              ],
              [
                932.160787527211,
                440.4249589520132
              ],
              [
                932.1797659460972,
                440.42299660347925
              ],
              [
                932.2003843119054,
                440.4225358843255
              ],
              [
                932.2057102711502,
                440.42189965274304
              ],
              [
                932.210837716231,
                440.4217576101044
              ],
              [
                932.2245720131613,
                440.4200377733253
              ],
              [
                932.2432378050112,
                440.41917228816123
              ],
              [
                932.2500947399545,
                440.4182123288663
              ],
              [
                932.2540601947222,
                440.4180217414817
              ],
              [
                932.2549433472761,
                440.4178935723257
              ],
              [
                932.2574966830028,
                440.417768134985
              ],
              [
                932.258490699519,
                440.41762068656345
              ],
              [
                932.2585953158153,
                440.4176155470944
              ],
              [
                932.2741151161765,
                440.4153134021814
              ],
              [
                932.2922223135256,
                440.4140933219801
              ],
              [
                932.3034285633861,
                440.41224101224617
              ],
              [
                932.3081896497059,
                440.41187696949936
              ],
              [
                932.3270436365848,
                440.4085533685139
              ],
              [
                932.3523956815242,
                440.4060801017666
              ],
              [
                932.3623088556642,
                440.404121858796
              ],
              [
                932.3656696749408,
                440.40377435362075
              ],
              [
                932.3754707332469,
                440.4017256115963
              ],
              [
                932.3755081320212,
                440.40172158669964
              ],
              [
                932.3766648510313,
                440.4014776596543
              ],
              [
                932.3920541548765,
                440.3996392751138
              ],
              [
                932.3981846445689,
                440.398297644193
              ],
              [
                932.4030176365964,
                440.397692447037
              ],
              [
                932.4134592764336,
                440.3953415700566
              ],
              [
                932.4268398830475,
                440.39346830776117
              ],
              [
                932.4314956890313,
                440.39236922105897
              ],
              [
                932.4379929980469,
                440.39143060735813
              ],
              [
                932.4388972180377,
                440.39121416454
              ],
              [
                932.4411007290993,
                440.3908992198729
              ],
              [
                932.4413257757569,
                440.3908444759335
              ],
              [
                932.44415573146,
                440.39043377335156
              ],
              [
                932.4477119998455,
                440.3895627370088
              ],
              [
                932.4527416791885,
                440.3888166545565
              ],
              [
                932.4674843096356,
                440.3851238178706
              ],
              [
                932.4826281051306,
                440.3826206611363
              ],
              [
                932.4992069085766,
                440.3782042426697
              ],
              [
                932.5014800714664,
                440.3778035270827
              ],
              [
                932.5157753923609,
                440.3738061634933
              ],
              [
                932.5441706410865,
                440.3681969816682
              ],
              [
                932.5629413291006,
                440.3625381201961
              ],
              [
                932.5672864459655,
                440.3616298485336
              ],
              [
                932.5694969768189,
                440.3609239515692
              ],
              [
                932.5713758014342,
                440.3605312157211
              ],
              [
                932.571597850083,
                440.3604603081077
              ],
              [
                932.5727185748717,
                440.36022603993985
              ],
              [
                932.5739563824992,
                440.3598307662682
              ],
              [
                932.5806239364075,
                440.358371601187
              ],
              [
                932.587464506749,
                440.35616526281007
              ],
              [
                932.591968672677,
                440.35515117496936
              ],
              [
                932.5983753003139,
                440.353039952605
              ],
              [
                932.6158633812904,
                440.34885383687043
              ],
              [
                932.6207611301126,
                440.3471957576007
              ],
              [
                932.6288587385144,
                440.34522596614255
              ],
              [
                932.6291628511842,
                440.3451200041205
              ],
              [
                932.6307279262368,
                440.344736670496
              ],
              [
                932.6358075818837,
                440.3429610330757
              ],
              [
                932.6431303896652,
                440.3411267652144
              ],
              [
                932.6569377871823,
                440.33618639938635
              ],
              [
                932.6691140336974,
                440.33294277567506
              ],
              [
                932.7029237644597,
                440.3203371518768
              ],
              [
                932.7313312810145,
                440.3117730437936
              ],
              [
                932.753865673338,
                440.30249469712913
              ],
              [
                932.7643370543371,
                440.2991172872635
              ],
              [
                932.7650544412093,
                440.29880671888264
              ],
              [
                932.7689315470354,
                440.29756862838997
              ],
              [
                932.7743493029812,
                440.2952001623262
              ],
              [
                932.789100558116,
                440.290206286317
              ],
              [
                932.7976057882383,
                440.2864294069019
              ],
              [
                932.81133276299,
                440.2816465150795
              ],
              [
                932.8117081854609,
                440.2814734607523
              ],
              [
                932.8120557714043,
                440.2813519590894
              ],
              [
                932.8184955851304,
                440.27838009495747
              ],
              [
                932.8279278998864,
                440.27500515877256
              ],
              [
                932.8283411724007,
                440.27480969543046
              ],
              [
                932.8284772162926,
                440.27476101814756
              ],
              [
                932.8408141295205,
                440.26892609274756
              ],
              [
                932.8499436870721,
                440.2655222274891
              ],
              [
                932.8841958734854,
                440.24883233248863
              ],
              [
                932.885833151051,
                440.24815819721033
              ],
              [
                932.9051405856213,
                440.2403242537989
              ],
              [
                932.9061675331783,
                440.2397856862557
              ],
              [
                932.9120896198782,
                440.2373473168251
              ],
              [
                932.9322237922024,
                440.22665019331595
              ],
              [
                932.9562558042811,
                440.21597840543734
              ],
              [
                932.9672573584908,
                440.2097716858883
              ],
              [
                932.9868194478252,
                440.2007543668116
              ],
              [
                932.9947765074712,
                440.1961073111645
              ],
              [
                933.0059038252145,
                440.1908444818217
              ],
              [
                933.0176437675045,
                440.18380783121034
              ],
              [
                933.0234333199433,
                440.18098678436866
              ],
              [
                933.0539050871137,
                440.1623068988286
              ],
              [
                933.0778585328691,
                440.1497448664787
              ],
              [
                933.0816222749178,
                440.14727598334406
              ],
              [
                933.0847188386555,
                440.1456308039832
              ],
              [
                933.1060277343727,
                440.13148194714825
              ],
              [
                933.1096148311137,
                440.12945822367766
              ],
              [
                933.1104090414675,
                440.1290190597717
              ],
              [
                933.1104817757633,
                440.12896912166514
              ],
              [
                933.1305194697438,
                440.11766450555587
              ],
              [
                933.1349635900243,
                440.11453374210004
              ],
              [
                933.1374782911581,
                440.1127670876095
              ],
              [
                933.1536806635904,
                440.10330463166997
              ],
              [
                933.1621249932036,
                440.0972091171762
              ],
              [
                933.1742508176017,
                440.0899411777301
              ],
              [
                933.1852044794485,
                440.0818173884377
              ],
              [
                933.1879675315704,
                440.08012357471534
              ],
              [
                933.2143777157108,
                440.06019305774214
              ],
              [
                933.2409330144113,
                440.04277371065353
              ],
              [
                933.2470599994955,
                440.0378381772029
              ],
              [
                933.247569777365,
                440.0374996906765
              ],
              [
                933.2550598118323,
                440.0313940059107
              ],
              [
                933.2670153284067,
                440.0217633554095
              ],
              [
                933.292828686742,
                440.00362868135005
              ],
              [
                933.2982932151747,
                439.998916486661
              ],
              [
                933.3103587977043,
                439.9902069814008
              ],
              [
                933.3190807650061,
                439.9825279681211
              ],
              [
                933.3318969198898,
                439.97302285985046
              ],
              [
                933.3418906120752,
                439.96396510523016
              ],
              [
                933.3420143071414,
                439.9638717584135
              ],
              [
                933.3421974126102,
                439.9637191705229
              ],
              [
                933.3449221120185,
                439.9612175138387
              ],
              [
                933.3668572546544,
                439.9413366594086
              ],
              [
                933.3928133503263,
                439.92042797811183
              ],
              [
                933.4183088888808,
                439.8954240760706
              ],
              [
                933.4184156508921,
                439.89533201261276
              ],
              [
                933.4207224853363,
                439.89339555608404
              ],
              [
                933.4210570116129,
                439.89305430354534
              ],
              [
                933.4241715258503,
                439.89036858278655
              ],
              [
                933.4307717668148,
                439.8847496343314
              ],
              [
                933.431195689255,
                439.8843114772379
              ],
              [
                933.4429927720313,
                439.87413856817733
              ],
              [
                933.4471017099872,
                439.8698154913861
              ],
              [
                933.4553912944027,
                439.8625171575805
              ],
              [
                933.4641621950577,
                439.85314460214255
              ],
              [
                933.4773239139356,
                439.8412155154981
              ],
              [
                933.507242906211,
                439.80820499447697
              ],
              [
                933.5320553061443,
                439.78387105793286
              ],
              [
                933.5554500791751,
                439.75595901774517
              ],
              [
                933.5565008710431,
                439.7548870977862
              ],
              [
                933.556927666336,
                439.7543576167763
              ],
              [
                933.5651224199692,
                439.7458876961174
              ],
              [
                933.5663147703108,
                439.74438959792406
              ],
              [
                933.5795966677196,
                439.73041550947397
              ],
              [
                933.5824621223751,
                439.72672969098295
              ],
              [
                933.5874243073736,
                439.7214271165016
              ],
              [
                933.5959987982731,
                439.7102779582419
              ],
              [
                933.609131258288,
                439.6957885214523
              ],
              [
                933.6340135921487,
                439.66223857803794
              ],
              [
                933.639093981501,
                439.6563310106021
              ],
              [
                933.6398481624971,
                439.65526461518147
              ],
              [
                933.6573348261146,
                439.6344014737867
              ],
              [
                933.6781874364917,
                439.60392309550815
              ],
              [
                933.6782240246719,
                439.6038777043173
              ],
              [
                933.6783587254986,
                439.6036727378287
              ],
              [
                933.6786409649561,
                439.6032602138905
              ],
              [
                933.6854465430282,
                439.5947095187981
              ],
              [
                933.687205286957,
                439.5919991371156
              ],
              [
                933.7012976619487,
                439.57387219302797
              ],
              [
                933.7030669845705,
                439.5710603454882
              ],
              [
                933.7052253376135,
                439.56825390252396
              ],
              [
                933.7133440032727,
                439.5552739010444
              ],
              [
                933.7260495761676,
                439.5381424191642
              ],
              [
                933.72630127848,
                439.5377224792262
              ],
              [
                933.7267819980426,
                439.53707430392984
              ],
              [
                933.7405727327987,
                439.51406585301845
              ],
              [
                933.7407694378206,
                439.5137930848317
              ],
              [
                933.7417045602764,
                439.51217751295377
              ],
              [
                933.7453819863072,
                439.5060420982853
              ],
              [
                933.748416855086,
                439.50175086026064
              ],
              [
                933.7501072024531,
                439.49880446560843
              ],
              [
                933.7674606236889,
                439.4734405362353
              ],
              [
                933.7858402569848,
                439.43999382716925
              ],
              [
                933.7906211288154,
                439.4326260761149
              ],
              [
                933.7927271811748,
                439.42857033256286
              ],
              [
                933.8068995269882,
                439.4060473199595
              ],
              [
                933.8147233911367,
                439.39035295355393
              ],
              [
                933.8276853021342,
                439.3687273115426
              ],
              [
                933.8408624263394,
                439.34086662322756
              ],
              [
                933.8409461575061,
                439.3407219643998
              ],
              [
                933.8412794059772,
                439.33998499385683
              ],
              [
                933.8415490553115,
                439.3394148682405
              ],
              [
                933.842632809239,
                439.337525808726
              ],
              [
                933.8449341239643,
                439.3324565686925
              ],
              [
                933.8613855095001,
                439.3025188274498
              ],
              [
                933.8765252572573,
                439.26719566150035
              ],
              [
                933.8796645635722,
                439.26115012265717
              ],
              [
                933.8818817766996,
                439.2556358508246
              ],
              [
                933.8953642772395,
                439.22859048046536
              ],
              [
                933.9010948068349,
                439.2135159544976
              ],
              [
                933.9116018384601,
                439.1913007026208
              ],
              [
                933.9233137162844,
                439.15856819688753
              ],
              [
                933.923339040441,
                439.1585121931575
              ],
              [
                933.9234227329914,
                439.1582635156023
              ],
              [
                933.9244760282127,
                439.1553197526648
              ],
              [
                933.9382163491155,
                439.1232616468605
              ],
              [
                933.9498726697385,
                439.08654057454686
              ],
              [
                933.9517457885406,
                439.08188207504526
              ],
              [
                933.9537155421173,
                439.0751751560782
              ],
              [
                933.9629645819036,
                439.0510165613872
              ],
              [
                933.9632183350926,
                439.0500960254386
              ],
              [
                933.9658223718407,
                439.0432459396085
              ],
              [
                933.9696765273275,
                439.02899282041585
              ],
              [
                933.9777234449019,
                439.0065031923996
              ],
              [
                933.9868708762565,
                438.9699845993854
              ],
              [
                933.9972225558778,
                438.93737355613837
              ],
              [
                934.0052301854137,
                438.89977020070603
              ],
              [
                934.0061920563871,
                438.89649507494784
              ],
              [
                934.0076259815428,
                438.8889991930536
              ],
              [
                934.0143156146735,
                438.8647313294463
              ],
              [
                934.0147156864808,
                438.86243272548677
              ],
              [
                934.0175812615882,
                438.85183549252594
              ],
              [
                934.0197896723057,
                438.83856539886443
              ],
              [
                934.0254133342439,
                438.8161144819229
              ],
              [
                934.0308511704504,
                438.77945556794805
              ],
              [
                934.0378430380749,
                438.74662217046875
              ],
              [
                934.0421210465782,
                438.7086753229874
              ],
              [
                934.0424952100774,
                438.7067193733428
              ],
              [
                934.0432030480896,
                438.6990777389034
              ],
              [
                934.0433049884142,
                438.69817350649055
              ],
              [
                934.0474497286797,
                438.67435999049303
              ],
              [
                934.0477283404919,
                438.6706850581865
              ],
              [
                934.050132196167,
                438.65624055757536
              ],
              [
                934.0509329051124,
                438.6440755095072
              ],
              [
                934.0542122267819,
                438.6219681185498
              ],
              [
                934.0560009674576,
                438.58555746563684
              ],
              [
                934.0596915343767,
                438.55282135024817
              ],
              [
                934.060246774873,
                438.5150781128272
              ],
              [
                934.0603164255991,
                438.5143261817667
              ],
              [
                934.0603032202548,
                438.51124116026403
              ],
              [
                934.0604204154903,
                438.5032746527303
              ],
              [
                934.0620576242889,
                438.4816796189143
              ],
              [
                934.0619522718407,
                438.476659962675
              ],
              [
                934.0631552247756,
                438.4583836834311
              ],
              [
                934.0627878471488,
                438.44740735580825
              ],
              [
                934.0638427734375,
                438.4259338378906
              ],
              [
                934.062084645548,
                438.39014632255527
              ],
              [
                934.0625602868053,
                438.3578139530338
              ],
              [
                934.058408501173,
                438.30781233887376
              ],
              [
                934.0580029400232,
                438.28848884340647
              ],
              [
                934.0572578299682,
                438.28218422872146
              ],
              [
                934.0565223409994,
                438.26020965190054
              ],
              [
                934.0552227590154,
                438.25046941339264
              ],
              [
                934.0542122267819,
                438.2298995572315
              ],
              [
                934.0490489594666,
                438.19509163636894
              ],
              [
                934.0464220163115,
                438.1634543097581
              ],
              [
                934.0373412136338,
                438.1136633626343
              ],
              [
                934.0371642767623,
                438.1121662431272
              ],
              [
                934.0371015598375,
                438.1115949062277
              ],
              [
                934.0370905425535,
                438.11154235438494
              ],
              [
                934.0353235254644,
                438.09659105717355
              ],
              [
                934.0336906014071,
                438.08908802056135
              ],
              [
                934.0302987410149,
                438.0636663622056
              ],
              [
                934.0282944302894,
                438.0551759657243
              ],
              [
                934.0254133342439,
                438.03575319385834
              ],
              [
                934.0170233567817,
                438.0022585262884
              ],
              [
                934.0114301821723,
                437.9715905918425
              ],
              [
                933.9975572948538,
                437.92297092206
              ],
              [
                933.9971805845637,
                437.9211740345513
              ],
              [
                933.9970696868086,
                437.920820511869
              ],
              [
                933.9942310879363,
                437.90777758365056
              ],
              [
                933.9914707701205,
                437.89918843806856
              ],
              [
                933.9847421827614,
                437.8706856846227
              ],
              [
                933.9822482368685,
                437.86342846548723
              ],
              [
                933.9777234449019,
                437.8453644833817
              ],
              [
                933.9663185597558,
                437.81348996470643
              ],
              [
                933.9579175227419,
                437.78404723688294
              ],
              [
                933.9395434758587,
                437.73743699460414
              ],
              [
                933.938946239049,
                437.7355331079234
              ],
              [
                933.938800844422,
                437.73519045076483
              ],
              [
                933.937720713403,
                437.73176668421763
              ],
              [
                933.937498414438,
                437.73124530568714
              ],
              [
                933.935109216264,
                437.7238109548947
              ],
              [
                933.9309909923188,
                437.71427324241887
              ],
              [
                933.9203004523775,
                437.6831644716749
              ],
              [
                933.9175163430356,
                437.67709690609087
              ],
              [
                933.9116018384601,
                437.6605669731604
              ],
              [
                933.9024195570604,
                437.64115267030377
              ],
              [
                933.9020635267256,
                437.640186531504
              ],
              [
                933.8987727799579,
                437.63344220794306
              ],
              [
                933.8974234327505,
                437.6305892529744
              ],
              [
                933.8863928914335,
                437.60260760001984
              ],
              [
                933.8639822471322,
                437.55882097035885
              ],
              [
                933.8613250548706,
                437.5525888091032
              ],
              [
                933.8606281828861,
                437.5513145849254
              ],
              [
                933.8585098000566,
                437.54640845873837
              ],
              [
                933.8528128107857,
                437.5360848705614
              ],
              [
                933.8376069628063,
                437.5029459135218
              ],
              [
                933.8347140446742,
                437.4980013917365
              ],
              [
                933.8276853021342,
                437.48314036423864
              ],
              [
                933.8155897524395,
                437.46296015873685
              ],
              [
                933.8136297624313,
                437.45894319610665
              ],
              [
                933.8092292170678,
                437.451842758666
              ],
              [
                933.7975364180174,
                437.4289969959633
              ],
              [
                933.7718192654423,
                437.38892827535
              ],
              [
                933.7678618771762,
                437.38169222637435
              ],
              [
                933.7665472085915,
                437.37976185351647
              ],
              [
                933.76514787794,
                437.3772261082862
              ],
              [
                933.7576616418378,
                437.3663048600508
              ],
              [
                933.7374745278291,
                437.3318014208093
              ],
              [
                933.7346342701067,
                437.3278940963251
              ],
              [
                933.7267819980426,
                437.3147933718514
              ],
              [
                933.711631277147,
                437.294364989547
              ],
              [
                933.707393389263,
                437.2875270057708
              ],
              [
                933.7034320316136,
                437.28237725039463
              ],
              [
                933.6921930412475,
                437.26486629292606
              ],
              [
                933.6637882321385,
                437.22887733298563
              ],
              [
                933.6582177021032,
                437.22069793316587
              ],
              [
                933.6561668493463,
                437.2182398233273
              ],
              [
                933.6558949628288,
                437.2178431833992
              ],
              [
                933.6470680823531,
                437.2073115988112
              ],
              [
                933.6427444573028,
                437.2014818652905
              ],
              [
                933.6208873727286,
                437.1714132130575
              ],
              [
                933.6182402755474,
                437.1684418009655
              ],
              [
                933.609863680163,
                437.1571472695633
              ],
              [
                933.5916026662396,
                437.13699934551437
              ],
              [
                933.584434556974,
                437.1276808207824
              ],
              [
                933.5812787571593,
                437.12433763415027
              ],
              [
                933.5713644743142,
                437.11177621447007
              ],
              [
                933.5409301401942,
                437.0801194792051
              ],
              [
                933.5334325322707,
                437.07113300090236
              ],
              [
                933.5191402144878,
                437.0570493503815
              ],
              [
                933.5177352305423,
                437.055499189479
              ],
              [
                933.491549457399,
                437.0260369183996
              ],
              [
                933.4905680011374,
                437.0251274781381
              ],
              [
                933.4889914601063,
                437.0233577837285
              ],
              [
                933.4866565929085,
                437.0212091969727
              ],
              [
                933.4780563358106,
                437.0117202755175
              ],
              [
                933.4564407790749,
                436.992086957922
              ],
              [
                933.4460034395717,
                436.98102986433156
              ],
              [
                933.4440002110257,
                436.97929633995636
              ],
              [
                933.4361996795258,
                436.9711824985415
              ],
              [
                933.4189358083385,
                436.9564176967713
              ],
              [
                933.4186723137373,
                436.95614965367076
              ],
              [
                933.4163236079331,
                436.9541836311466
              ],
              [
                933.4044131591606,
                436.9439973054255
              ],
              [
                933.394689986447,
                436.93441609064064
              ],
              [
                933.3787118421684,
                436.9214789525267
              ],
              [
                933.3494835018463,
                436.89439529072047
              ],
              [
                933.3458126544176,
                436.8916020736321
              ],
              [
                933.3430832259461,
                436.88909040450136
              ],
              [
                933.3428634968643,
                436.88892519898457
              ],
              [
                933.3358033940555,
                436.8825125378444
              ],
              [
                933.3125453987079,
                436.865149714341
              ],
              [
                933.3105717439954,
                436.86340420898193
              ],
              [
                933.3080740378934,
                436.86160396427994
              ],
              [
                933.3014957182696,
                436.85597790369525
              ],
              [
                933.293507524274,
                436.8490651981865
              ],
              [
                933.2929777813329,
                436.8486929993422
              ],
              [
                933.2879839427918,
                436.844422054817
              ],
              [
                933.271102074919,
                436.8326235769236
              ],
              [
                933.2699417630861,
                436.83165231896766
              ],
              [
                933.2591565693621,
                436.824275046755
              ],
              [
                933.2555215333374,
                436.821734575967
              ],
              [
                933.2433060726278,
                436.81184399671264
              ],
              [
                933.2259243398098,
                436.8003767923952
              ],
              [
                933.1953504228995,
                436.7771125219968
              ],
              [
                933.1910899115724,
                436.7744793811871
              ],
              [
                933.181877911611,
                436.7676023340877
              ],
              [
                933.1552276300104,
                436.7514385065458
              ],
              [
                933.1490265607314,
                436.7469690286888
              ],
              [
                933.1462059363719,
                436.7453355860025
              ],
              [
                933.1281266518034,
                436.73270025199116
              ],
              [
                933.1120909427868,
                436.7236794350188
              ],
              [
                933.1098510947759,
                436.72214733750496
              ],
              [
                933.0947782159847,
                436.71385610926814
              ],
              [
                933.0807167053681,
                436.7045793463044
              ],
              [
                933.0620060127001,
                436.6947011442837
              ],
              [
                933.0305956903554,
                436.6752884974771
              ],
              [
                933.0257446778784,
                436.67290499837344
              ],
              [
                933.0176387161937,
                436.66798860129
              ],
              [
                932.9878588825876,
                436.653635733797
              ],
              [
                932.9767034413096,
                436.6471755421356
              ],
              [
                932.9735804522104,
                436.64576097298243
              ],
              [
                932.9581478941249,
                436.6370794558908
              ],
              [
                932.9548346817561,
                436.6356250515012
              ],
              [
                932.9526504978735,
                436.6343987334943
              ],
              [
                932.9415123202982,
                436.6295482249107
              ],
              [
                932.939905976072,
                436.6286646135721
              ],
              [
                932.9238718612515,
                436.62177401763086
              ],
              [
                932.9084640857715,
                436.61363957164417
              ],
              [
                932.8885152904629,
                436.60547863667085
              ],
              [
                932.856764384552,
                436.5898781293257
              ],
              [
                932.8513327272158,
                436.58783476783793
              ],
              [
                932.8446008079986,
                436.58459021161326
              ],
              [
                932.8366420547834,
                436.5816576255856
              ],
              [
                932.8362291144197,
                436.5814600214276
              ],
              [
                932.8304897257829,
                436.5793835568697
              ],
              [
                932.8265406186885,
                436.57751312530394
              ],
              [
                932.8091224077996,
                436.5712691098272
              ],
              [
                932.7953107108644,
                436.56501305198753
              ],
              [
                932.789526755318,
                436.5630596536083
              ],
              [
                932.7749556672876,
                436.5566633674565
              ],
              [
                932.7727889166634,
                436.5559607177412
              ],
              [
                932.7696752313027,
                436.5545961127492
              ],
              [
                932.769055207474,
                436.55439627139293
              ],
              [
                932.7676969984383,
                436.5538018253459
              ],
              [
                932.7422428908187,
                436.54563945723993
              ],
              [
                932.7281820733242,
                436.53988725940184
              ],
              [
                932.7071063101795,
                436.53357753328714
              ],
              [
                932.6754867065074,
                436.52168240139594
              ],
              [
                932.6695067123864,
                436.5200727571293
              ],
              [
                932.6643603496467,
                436.5181764611825
              ],
              [
                932.6532237835052,
                436.51525016745256
              ],
              [
                932.6497719698806,
                436.5140013290997
              ],
              [
                932.6484004925335,
                436.5136541152233
              ],
              [
                932.6418718461689,
                436.5113137503487
              ],
              [
                932.6201656366709,
                436.5058618186634
              ],
              [
                932.6066466061133,
                436.5012960760383
              ],
              [
                932.59847765642,
                436.49941701482976
              ],
              [
                932.5899838960389,
                436.4966793707008
              ],
              [
                932.5847117159556,
                436.4949696696427
              ],
              [
                932.5846129843998,
                436.4949482593842
              ],
              [
                932.5770550546823,
                436.4925122450643
              ],
              [
                932.5755921783568,
                436.4921995771007
              ],
              [
                932.573097122204,
                436.49139948750144
              ],
              [
                932.549774966231,
                436.4864751966953
              ],
              [
                932.5415806883261,
                436.4840219688367
              ],
              [
                932.5195125649955,
                436.4796986004848
              ],
              [
                932.4884626897915,
                436.4713408575523
              ],
              [
                932.4819898798564,
                436.4702559841262
              ],
              [
                932.4785799426187,
                436.4693599738272
              ],
              [
                932.4680066478704,
                436.46764416429517
              ],
              [
                932.4516059028128,
                436.46352480196936
              ],
              [
                932.4255753383525,
                436.45964518969475
              ],
              [
                932.412581448538,
                436.4566562724882
              ],
              [
                932.404470324866,
                436.45562483696267
              ],
              [
                932.3791468545045,
                436.4502123234293
              ],
              [
                932.3768179380775,
                436.4499566730828
              ],
              [
                932.3731451787578,
                436.449181198681
              ],
              [
                932.3525928408519,
                436.44699733985397
              ],
              [
                932.3504298919177,
                436.44657359630185
              ],
              [
                932.3309079660974,
                436.4446931394578
              ],
              [
                932.3269826359056,
                436.44427604009775
              ],
              [
                932.3016871122601,
                436.4400363912159
              ],
              [
                932.301136601331,
                436.43994260602875
              ],
              [
                932.3011208050684,
                436.43994147546385
              ],
              [
                932.2974462575029,
                436.4393256039881
              ],
              [
                932.2905588535466,
                436.43884835143024
              ],
              [
                932.2889732908336,
                436.43859105002315
              ],
              [
                932.2811402860287,
                436.43808280031095
              ],
              [
                932.2810749683321,
                436.43807217341845
              ],
              [
                932.2806558826435,
                436.4380462996645
              ],
              [
                932.2575733806796,
                436.4346060685437
              ],
              [
                932.2273149555969,
                436.43309721331946
              ],
              [
                932.2150391029544,
                436.4315361780013
              ],
              [
                932.2110088034367,
                436.43142783155645
              ],
              [
                932.1988500758131,
                436.4299905023324
              ],
              [
                932.1939162080565,
                436.4298791425551
              ],
              [
                932.1779770592931,
                436.4281294666726
              ],
              [
                932.1747833990362,
                436.42810359059723
              ],
              [
                932.1699288245312,
                436.42758775121035
              ],
              [
                932.1262975898219,
                436.4274290858293
              ],
              [
                932.1071287127024,
                436.4260571372638
              ],
              [
                932.1062805771369,
                436.42607905848206
              ],
              [
                932.1042287738663,
                436.42593688178306
              ],
              [
                932.1040731695044,
                436.4259411924005
              ],
              [
                932.1031301410538,
                436.4258758466268
              ],
              [
                932.0898667728546,
                436.42624327402706
              ],
              [
                932.0878472637271,
                436.42614256994585
              ],
              [
                932.0822918097658,
                436.425799584125
              ],
              [
                932.0815409506397,
                436.42582810171353
              ],
              [
                932.0616411109421,
                436.4248357838051
              ],
              [
                932.0326209694867,
                436.42623863114875
              ],
              [
                932.0088606576153,
                436.42570234943855
              ],
              [
                931.9957670916439,
                436.4266531421799
              ],
              [
                931.9756054938092,
                436.4264897863488
              ],
              [
                931.9715729409347,
                436.4268664282394
              ],
              [
                931.965569798986,
                436.4268445977592
              ],
              [
                931.92627026244,
                436.430731670111
              ],
              [
                931.9126894908964,
                436.43108268363886
              ],
              [
                931.9119729209059,
                436.4311713642798
              ],
              [
                931.909523611894,
                436.43123921606747
              ],
              [
                931.8971669518705,
                436.43278654233274
              ],
              [
                931.8929129438152,
                436.4329921830912
              ],
              [
                931.8832736531781,
                436.43335828282216
              ],
              [
                931.8821654600479,
                436.43351172153234
              ],
              [
                931.8656942026787,
                436.4343079498926
              ],
              [
                931.8417799730365,
                436.4378349573514
              ],
              [
                931.8193219123932,
                436.43946575533954
              ],
              [
                931.7979166548324,
                436.44308598789473
              ],
              [
                931.774104288022,
                436.44531007152966
              ],
              [
                931.7692832948652,
                436.44625907208274
              ],
              [
                931.7622017719765,
                436.44695949743755
              ],
              [
                931.7277765093701,
                436.45396698236647
              ],
              [
                931.719657935612,
                436.4549717137033
              ],
              [
                931.7192241936685,
                436.45506889880704
              ],
              [
                931.7173436915286,
                436.4553043791349
              ],
              [
                931.7132306547736,
                436.4562304064235
              ],
              [
                931.7128270899661,
                436.4562809416349
              ],
              [
                931.7054521923277,
                436.45794135871125
              ],
              [
                931.7012638711764,
                436.4585590762862
              ],
              [
                931.6859940303045,
                436.4606733148826
              ],
              [
                931.6845318163442,
                436.46102681549735
              ],
              [
                931.6716179058085,
                436.46293143293485
              ],
              [
                931.6527773731467,
                436.46763313249716
              ],
              [
                931.6319451081115,
                436.47115645586126
              ],
              [
                931.6022427435768,
                436.479140590558
              ],
              [
                931.5755366600836,
                436.48439761689684
              ],
              [
                931.5702179201071,
                436.4860390525873
              ],
              [
                931.5619480665482,
                436.4877224347837
              ],
              [
                931.5589427848622,
                436.48866208910863
              ],
              [
                931.5562491283993,
                436.48921274665577
              ],
              [
                931.5308211870791,
                436.49725855569426
              ],
              [
                931.5238760538855,
                436.4988222137025
              ],
              [
                931.5119795813281,
                436.5027425443887
              ],
              [
                931.4924092329893,
                436.5074738151574
              ],
              [
                931.4906246183946,
                436.508098736614
              ],
              [
                931.4812794726711,
                436.51043083986957
              ],
              [
                931.4775703327227,
                436.5117541134384
              ],
              [
                931.4763764462723,
                436.5120531664262
              ],
              [
                931.4660296642697,
                436.5157553042239
              ],
              [
                931.4484219934527,
                436.5204883286043
              ],
              [
                931.4164096567852,
                436.5324521278619
              ],
              [
                931.400445370465,
                436.53716386219014
              ],
              [
                931.3967378162241,
                436.53866070755066
              ],
              [
                931.3894621919476,
                436.5408493835049
              ],
              [
                931.3812810188758,
                436.5442111737616
              ],
              [
                931.3668994897666,
                436.5487078124924
              ],
              [
                931.3631852500439,
                436.5503012586166
              ],
              [
                931.3565068057148,
                436.5524144256666
              ],
              [
                931.3418491729254,
                436.5588068489544
              ],
              [
                931.3399258968979,
                436.55944064002085
              ],
              [
                931.3241700691726,
                436.5663864025655
              ],
              [
                931.3044389139292,
                436.5732956939669
              ],
              [
                931.3023893109377,
                436.57425173259526
              ],
              [
                931.2965101927664,
                436.5763491680635
              ],
              [
                931.2959734320431,
                436.57660239705984
              ],
              [
                931.2915789360511,
                436.57817477286807
              ],
              [
                931.2822110301462,
                436.582605462385
              ],
              [
                931.2704095237088,
                436.5870159762259
              ],
              [
                931.23838959757,
                436.60259039840207
              ],
              [
                931.221137977793,
                436.60955536920125
              ],
              [
                931.2169525874901,
                436.6117366636493
              ],
              [
                931.2088517316779,
                436.6150654501083
              ],
              [
                931.1945645200369,
                436.62264124438764
              ],
              [
                931.179092503037,
                436.6292788949871
              ],
              [
                931.1748516157845,
                436.631637099829
              ],
              [
                931.1644717347814,
                436.63616392854703
              ],
              [
                931.1404844439547,
                436.6496371454608
              ],
              [
                931.1141523271292,
                436.6620913091939
              ],
              [
                931.1059399567824,
                436.6670136145506
              ],
              [
                931.0995149008081,
                436.67013874775097
              ],
              [
                931.0679738175993,
                436.689379736368
              ],
              [
                931.0496596234246,
                436.69892452124657
              ],
              [
                931.0450881458343,
                436.70190109501686
              ],
              [
                931.036339301564,
                436.70654016987896
              ],
              [
                931.0205602280067,
                436.7169963560675
              ],
              [
                930.9965986686934,
                436.73045512006684
              ],
              [
                930.9898418710396,
                436.735158071479
              ],
              [
                930.98742316297,
                436.736523585432
              ],
              [
                930.979941910857,
                436.7418040151285
              ],
              [
                930.9789706572168,
                436.7423561840125
              ],
              [
                930.978543411123,
                436.74263084221565
              ],
              [
                930.9724611821798,
                436.7470177131835
              ],
              [
                930.9458053347421,
                436.7629946132855
              ],
              [
                930.9388802192659,
                436.76813062896144
              ],
              [
                930.9372810625451,
                436.76910616160427
              ],
              [
                930.9083675362235,
                436.79076037700804
              ],
              [
                930.9065776676416,
                436.7920878340196
              ],
              [
                930.8876132729275,
                436.80443590283534
              ],
              [
                930.8827631242835,
                436.8083092058071
              ],
              [
                930.8735692971153,
                436.8144016020626
              ],
              [
                930.8592119790173,
                436.82608073434864
              ],
              [
                930.8386245536691,
                436.84041025346045
              ],
              [
                930.8307120022793,
                436.84713371515045
              ],
              [
                930.8230324289649,
                436.8525541242441
              ],
              [
                930.8112682272217,
                436.8627741325718
              ],
              [
                930.788159232454,
                436.87991293116517
              ],
              [
                930.7515341741706,
                436.9131079490554
              ],
              [
                930.7365137222724,
                436.92510320224153
              ],
              [
                930.7315074587274,
                436.9299635051994
              ],
              [
                930.7220932486432,
                436.937621607095
              ],
              [
                930.7092415400535,
                436.9503497271552
              ],
              [
                930.6919514299374,
                436.9650414981472
              ],
              [
                930.6833935191388,
                436.97386374239477
              ],
              [
                930.6711324164035,
                436.9845154274643
              ],
              [
                930.6617836083149,
                436.9944531203367
              ],
              [
                930.6427322384081,
                437.0117202755175
              ],
              [
                930.6092934591273,
                437.04861428305003
              ],
              [
                930.597773437644,
                437.05979843146446
              ],
              [
                930.5927480547927,
                437.0657229521455
              ],
              [
                930.5833550320106,
                437.07502564687
              ],
              [
                930.5720819301433,
                437.0886134808303
              ],
              [
                930.5579377088877,
                437.1031945833381
              ],
              [
                930.5552101121968,
                437.1066098467826
              ],
              [
                930.5549337323746,
                437.1068955070076
              ],
              [
                930.5490505861874,
                437.11428723607133
              ],
              [
                930.5332606344036,
                437.1310718025967
              ],
              [
                930.5261244389379,
                437.14037715607736
              ],
              [
                930.5109248940557,
                437.1571472695633
              ],
              [
                930.4811855163128,
                437.1972461785338
              ],
              [
                930.472689351824,
                437.20726247056814
              ],
              [
                930.4677953739231,
                437.2143134369643
              ],
              [
                930.4586771055483,
                437.2253039804847
              ],
              [
                930.4490364995665,
                437.23955136970176
              ],
              [
                930.437824557002,
                437.25359000587963
              ],
              [
                930.4362249338452,
                437.25604415099673
              ],
              [
                930.4346096093155,
                437.2580736843269
              ],
              [
                930.4277116837247,
                437.26870400455834
              ],
              [
                930.4108126004401,
                437.2907398280189
              ],
              [
                930.4056465100492,
                437.2990987378603
              ],
              [
                930.3940065761761,
                437.3147933718514
              ],
              [
                930.3748688708386,
                437.34672270423334
              ],
              [
                930.373967516815,
                437.34798496129036
              ],
              [
                930.3708303039045,
                437.3534606460978
              ],
              [
                930.3683942744323,
                437.3575249157341
              ],
              [
                930.3624307405696,
                437.3661168378308
              ],
              [
                930.3578310622757,
                437.3743395112619
              ],
              [
                930.3492479043292,
                437.3870241487429
              ],
              [
                930.3415345318547,
                437.4012372660552
              ],
              [
                930.3378139113206,
                437.4068679180477
              ],
              [
                930.3373644625784,
                437.40771608810076
              ],
              [
                930.3327244008065,
                437.41483488035635
              ],
              [
                930.332046653203,
                437.4161323721181
              ],
              [
                930.3294350235284,
                437.4201571270101
              ],
              [
                930.3221089816525,
                437.43426529814224
              ],
              [
                930.3050277151259,
                437.46190336795314
              ],
              [
                930.3015538874976,
                437.46904136419687
              ],
              [
                930.2931032720845,
                437.48314036423864
              ],
              [
                930.2768807655633,
                437.5174399724718
              ],
              [
                930.2747500861526,
                437.52115885582833
              ],
              [
                930.2709600691635,
                437.5296355474987
              ],
              [
                930.2680282923197,
                437.5348765756791
              ],
              [
                930.2638967382666,
                437.5442972663057
              ],
              [
                930.2561105119559,
                437.55864462841475
              ],
              [
                930.2511040191023,
                437.5705011135229
              ],
              [
                930.2473573580387,
                437.577571565423
              ],
              [
                930.2460695385903,
                437.58069873296085
              ],
              [
                930.2403915887716,
                437.59163308046783
              ],
              [
                930.2332562667794,
                437.6093788283123
              ],
              [
                930.2169767171858,
                437.64282993075005
              ],
              [
                930.2148866428134,
                437.64851553223866
              ],
              [
                930.2091867357586,
                437.6605669731604
              ],
              [
                930.1962353617323,
                437.69676363871076
              ],
              [
                930.1932864160588,
                437.7033592036643
              ],
              [
                930.1906300327367,
                437.7113586086329
              ],
              [
                930.1903644734045,
                437.71196413194906
              ],
              [
                930.1868840457165,
                437.722588249241
              ],
              [
                930.1801527178452,
                437.7385295260987
              ],
              [
                930.1773016458415,
                437.7476854344842
              ],
              [
                930.1737926288589,
                437.75620625936466
              ],
              [
                930.1724924758367,
                437.76050009702783
              ],
              [
                930.1683103638031,
                437.77090112807974
              ],
              [
                930.162007682066,
                437.79236146514285
              ],
              [
                930.1475508455992,
                437.83168820490874
              ],
              [
                930.1465102908555,
                437.8357359019101
              ],
              [
                930.1430651293168,
                437.8453644833817
              ],
              [
                930.1336541831415,
                437.88293508653055
              ],
              [
                930.1303877481605,
                437.89277159468804
              ],
              [
                930.1259084778619,
                437.9127290170545
              ],
              [
                930.1220985547842,
                437.9249641716242
              ],
              [
                930.1208110595668,
                437.9311812459988
              ],
              [
                930.1178061217539,
                437.9411052433561
              ],
              [
                930.1167025668371,
                437.946623267348
              ],
              [
                930.1138640959566,
                437.95628812817716
              ],
              [
                930.1092875540605,
                437.98021212267827
              ],
              [
                930.106178073578,
                437.9926258646156
              ],
              [
                930.1042306357599,
                438.00020128365486
              ],
              [
                930.104061804818,
                438.00082564028656
              ],
              [
                930.1040465208858,
                438.00091747973016
              ],
              [
                930.0974528186133,
                438.0265665953369
              ],
              [
                930.0971070451811,
                438.02883943992464
              ],
              [
                930.0953752399748,
                438.03575319385834
              ],
              [
                930.0896809237137,
                438.07414115591456
              ],
              [
                930.0866804477766,
                438.08750979892613
              ],
              [
                930.0841848629091,
                438.1080423213602
              ],
              [
                930.0825013974195,
                438.1161714623574
              ],
              [
                930.0821646075293,
                438.11932086960957
              ],
              [
                930.0799202205535,
                438.13054331172975
              ],
              [
                930.0792867464899,
                438.13680931873523
              ],
              [
                930.0787405970668,
                438.13961061697574
              ],
              [
                930.0786847138259,
                438.14018928406165
              ],
              [
                930.0775609422664,
                438.1460638297822
              ],
              [
                930.07514779165,
                438.17211557402294
              ],
              [
                930.0718018091779,
                438.1946723556073
              ],
              [
                930.0715108702392,
                438.19642057523714
              ],
              [
                930.0714856517513,
                438.1968037158515
              ],
              [
                930.068806267888,
                438.2148666546416
              ],
              [
                930.0671897209347,
                438.2254925722294
              ],
              [
                930.0671689808764,
                438.22590434710446
              ],
              [
                930.0665763474368,
                438.2298995572315
              ],
              [
                930.0646789497158,
                438.26852798764764
              ],
              [
                930.0625997663687,
                438.28563455023107
              ],
              [
                930.0621663615975,
                438.3061555601002
              ],
              [
                930.0618443709977,
                438.309340529257
              ],
              [
                930.0617386874676,
                438.3103288026162
              ],
              [
                930.0617381328818,
                438.31039138329584
              ],
              [
                930.0604884208261,
                438.3227529067511
              ],
              [
                930.0604631964067,
                438.3288718337532
              ],
              [
                930.0602390770955,
                438.3311925736839
              ],
              [
                930.0602390770955,
                438.3330661652967
              ],
              [
                930.0597397267446,
                438.3384570213583
              ],
              [
                930.0598603152805,
                438.36662881433074
              ],
              [
                930.0585445719728,
                438.3934155540023
              ],
              [
                930.0584878416306,
                438.3942774493814
              ],
              [
                930.05849367522,
                438.39445174248965
              ],
              [
                930.0569458007812,
                438.42596435546875
              ],
              [
                930.0587944854318,
                438.46580840350316
              ],
              [
                930.0583855071662,
                438.48517285812227
              ],
              [
                930.059747677753,
                438.5024419896631
              ],
              [
                930.0596920315779,
                438.5159406108708
              ],
              [
                930.0602390770955,
                438.52183710304035
              ],
              [
                930.0602390770955,
                438.5236658247536
              ],
              [
                930.0605461168333,
                438.52684519995256
              ],
              [
                930.0605667780744,
                438.53167206185367
              ],
              [
                930.06293583145,
                438.5550653731129
              ],
              [
                930.0655384051981,
                438.61115772688623
              ],
              [
                930.0666515286531,
                438.619108704761
              ],
              [
                930.0668204880618,
                438.62254795253415
              ],
              [
                930.0670039841636,
                438.6237849827709
              ],
              [
                930.0671897209347,
                438.6274737363643
              ],
              [
                930.0722162404302,
                438.66051415118295
              ],
              [
                930.074079637128,
                438.6841376554645
              ],
              [
                930.0765837709395,
                438.69801322763436
              ],
              [
                930.0775384835434,
                438.70830388026275
              ],
              [
                930.0786111384376,
                438.7139072463313
              ],
              [
                930.0787405970668,
                438.71524778146176
              ],
              [
                930.079608313068,
                438.71969845229387
              ],
              [
                930.0800343772336,
                438.7239056397492
              ],
              [
                930.084320215175,
                438.745315133147
              ],
              [
                930.0912423855982,
                438.7947598049225
              ],
              [
                930.0942649925933,
                438.8075637736229
              ],
              [
                930.0956193805998,
                438.8166943159073
              ],
              [
                930.0965284068826,
                438.8203233522537
              ],
              [
                930.0974528186133,
                438.8263997132569
              ],
              [
                930.1051746457634,
                438.85643716855645
              ],
              [
                930.1095258690218,
                438.8805475863266
              ],
              [
                930.112509820774,
                438.8909881764536
              ],
              [
                930.1138612598527,
                438.8980478635141
              ],
              [
                930.1154026140534,
                438.9032938350492
              ],
              [
                930.1155722854024,
                438.9041641097971
              ],
              [
                930.1172486454094,
                438.9098059560213
              ],
              [
                930.1179608295375,
                438.9133636036968
              ],
              [
                930.1237550259577,
                438.93248555961304
              ],
              [
                930.133836877846,
                438.97519296955085
              ],
              [
                930.1396464350424,
                438.99246016978253
              ],
              [
                930.1433092699418,
                439.00708302638395
              ],
              [
                930.145413500845,
                439.0129639577885
              ],
              [
                930.1475508455992,
                439.021278103685
              ],
              [
                930.1571142996974,
                439.0472934405428
              ],
              [
                930.1606778374927,
                439.0600373191431
              ],
              [
                930.1612316215604,
                439.06146156024374
              ],
              [
                930.1643712177832,
                439.0724467369655
              ],
              [
                930.1671781816792,
                439.07951105614717
              ],
              [
                930.1683214497218,
                439.0834021485423
              ],
              [
                930.1702650971525,
                439.0882346150505
              ],
              [
                930.1703930258593,
                439.0886651634339
              ],
              [
                930.1731121879441,
                439.09537363022923
              ],
              [
                930.1739921604296,
                439.098277707664
              ],
              [
                930.1808401732884,
                439.1148964420386
              ],
              [
                930.1929558843191,
                439.1509068299639
              ],
              [
                930.2023584562739,
                439.1721144465502
              ],
              [
                930.2094308763836,
                439.1918805366052
              ],
              [
                930.2131786366473,
                439.19980450992125
              ],
              [
                930.2169767171858,
                439.2101363778437
              ],
              [
                930.2272421226985,
                439.2312296599027
              ],
              [
                930.2318056588915,
                439.2429663207953
              ],
              [
                930.233290289361,
                439.24589617820175
              ],
              [
                930.2380695156553,
                439.2579241134497
              ],
              [
                930.240061717633,
                439.26176908715746
              ],
              [
                930.2404109106714,
                439.2626372814792
              ],
              [
                930.24268202531,
                439.26700993927557
              ],
              [
                930.2426950968025,
                439.26704218806066
              ],
              [
                930.2433437159776,
                439.26828391585394
              ],
              [
                930.2467419629492,
                439.2748266816225
              ],
              [
                930.2476054191904,
                439.2769221142995
              ],
              [
                930.2550566753489,
                439.29097592724855
              ],
              [
                930.2681524539377,
                439.32051361678117
              ],
              [
                930.2819299300779,
                439.34516690673206
              ],
              [
                930.2825725119686,
                439.34652553199015
              ],
              [
                930.2840361036,
                439.3497152192907
              ],
              [
                930.2842710410557,
                439.3501167700139
              ],
              [
                930.2933474127095,
                439.369307145527
              ],
              [
                930.2945585306317,
                439.37132777370607
              ],
              [
                930.2945731657453,
                439.37135867332967
              ],
              [
                930.2980078893548,
                439.3770826810598
              ],
              [
                930.2991570499265,
                439.37899993964464
              ],
              [
                930.3050277151259,
                439.3910629406406
              ],
              [
                930.3151448744273,
                439.40743284826004
              ],
              [
                930.3205211580145,
                439.41804272365357
              ],
              [
                930.323258603498,
                439.4223400745885
              ],
              [
                930.3298868511042,
                439.4351326719557
              ],
              [
                930.3461069134244,
                439.46000461448915
              ],
              [
                930.3578136334412,
                439.4809525123488
              ],
              [
                930.375623545101,
                439.5068993149262
              ],
              [
                930.3762887440921,
                439.50805518131654
              ],
              [
                930.377670034775,
                439.5099909411937
              ],
              [
                930.383514521635,
                439.5197418784281
              ],
              [
                930.3841685385771,
                439.5208597120032
              ],
              [
                930.3842596616429,
                439.52098506942514
              ],
              [
                930.3942507168011,
                439.5376541379142
              ],
              [
                930.3948216124174,
                439.53842390154364
              ],
              [
                930.3955116330043,
                439.5395738290552
              ],
              [
                930.4032796317482,
                439.5500378811951
              ],
              [
                930.4108126004401,
                439.56222648057485
              ],
              [
                930.4199923356493,
                439.5741965396058
              ],
              [
                930.4259699561079,
                439.583580446252
              ],
              [
                930.4289307168417,
                439.58735339904086
              ],
              [
                930.4346288996293,
                439.59613335428907
              ],
              [
                930.4360310229164,
                439.5978947926838
              ],
              [
                930.4389088773479,
                439.60230771222916
              ],
              [
                930.4538747908524,
                439.6209015437824
              ],
              [
                930.4618244002733,
                439.6324831254404
              ],
              [
                930.4848036740535,
                439.6601295057841
              ],
              [
                930.4895833413984,
                439.6668277977418
              ],
              [
                930.4921289384754,
                439.66974583861503
              ],
              [
                930.5012439749277,
                439.6822549998331
              ],
              [
                930.5023798936545,
                439.68353305052386
              ],
              [
                930.5124445332566,
                439.697090842825
              ],
              [
                930.5240547208406,
                439.709890311293
              ],
              [
                930.5332606344036,
                439.72189450599706
              ],
              [
                930.5407917648326,
                439.7299000250403
              ],
              [
                930.5471365236024,
                439.7379852698296
              ],
              [
                930.5495591502855,
                439.74051620427065
              ],
              [
                930.5549452707069,
                439.74728259877816
              ],
              [
                930.5588214916752,
                439.7512885914277
              ],
              [
                930.5640499177177,
                439.75778445104197
              ],
              [
                930.5764048815993,
                439.77033498259607
              ],
              [
                930.5793063895844,
                439.77382578888074
              ],
              [
                930.607654966496,
                439.80217436579244
              ],
              [
                930.6178050209116,
                439.8138094646534
              ],
              [
                930.6200450759242,
                439.8159211025268
              ],
              [
                930.6299105035386,
                439.8270209429285
              ],
              [
                930.632365362209,
                439.8292956722249
              ],
              [
                930.644246828385,
                439.84239420750464
              ],
              [
                930.6602834930924,
                439.8569185802373
              ],
              [
                930.6711324164035,
                439.86845088112943
              ],
              [
                930.676396221362,
                439.87302374817864
              ],
              [
                930.6828539602162,
                439.8797701915293
              ],
              [
                930.6845439308657,
                439.88122008176356
              ],
              [
                930.6892835073894,
                439.8861183341777
              ],
              [
                930.6960769979722,
                439.89190139809455
              ],
              [
                930.7040637771788,
                439.900014600643
              ],
              [
                930.7479035020042,
                439.93644970268264
              ],
              [
                930.7597342531113,
                439.94760222436975
              ],
              [
                930.7615853921036,
                439.9490339655963
              ],
              [
                930.7719764590912,
                439.95866257060766
              ],
              [
                930.776009581291,
                439.96173144940656
              ],
              [
                930.7896504184313,
                439.9740859262648
              ],
              [
                930.8106117565393,
                439.9896218750369
              ],
              [
                930.8230324289649,
                440.00041218434967
              ],
              [
                930.8255143529651,
                440.00216398003806
              ],
              [
                930.8318152328443,
                440.0075697450475
              ],
              [
                930.8326038556139,
                440.0081219969881
              ],
              [
                930.8363901626199,
                440.0113451493804
              ],
              [
                930.8464773280094,
                440.0183741997738
              ],
              [
                930.8575561523437,
                440.0275817871094
              ],
              [
                930.9030174309552,
                440.0584228778424
              ],
              [
                930.9140211345397,
                440.06693356025613
              ],
              [
                930.9154245992364,
                440.0678149677404
              ],
              [
                930.926109538038,
                440.0759453393313
              ],
              [
                930.931954926979,
                440.07955798837435
              ],
              [
                930.9472563422751,
                440.09089896302754
              ],
              [
                930.9707592987329,
                440.10497774016045
              ],
              [
                930.9948926532185,
                440.1217946117282
              ],
              [
                931.0038504685779,
                440.1268283639439
              ],
              [
                931.0147072795754,
                440.1341936625733
              ],
              [
                931.0644101236595,
                440.16141980190946
              ],
              [
                931.0682709890061,
                440.1638059479197
              ],
              [
                931.0791982268722,
                440.1706684997601
              ],
              [
                931.0801186383055,
                440.1711281978735
              ],
              [
                931.0806443761661,
                440.1714531217405
              ],
              [
                931.085172689745,
                440.1742731398859
              ],
              [
                931.0853477491727,
                440.1743599661204
              ],
              [
                931.0908642705821,
                440.17776936385104
              ],
              [
                931.0987222838489,
                440.181630324355
              ],
              [
                931.1155482373575,
                440.19170943290976
              ],
              [
                931.1392341844402,
                440.202905850736
              ],
              [
                931.1633120668126,
                440.2164361691092
              ],
              [
                931.1633731019689,
                440.21646668668734
              ],
              [
                931.1709411867679,
                440.21977520633897
              ],
              [
                931.1811243014826,
                440.2253532955853
              ],
              [
                931.2340015578567,
                440.2480985162773
              ],
              [
                931.2359437760382,
                440.2490528068129
              ],
              [
                931.2581033679618,
                440.26004355407105
              ],
              [
                931.2590339868507,
                440.26039796352717
              ],
              [
                931.2646955763855,
                440.2631797320024
              ],
              [
                931.2747248562395,
                440.266952695379
              ],
              [
                931.2929069289527,
                440.2755474153762
              ],
              [
                931.3197797943062,
                440.28515763615405
              ],
              [
                931.3432625449799,
                440.29549154181103
              ],
              [
                931.3467517593833,
                440.29663385022513
              ],
              [
                931.3521011678083,
                440.2989724369837
              ],
              [
                931.3527618902212,
                440.29918342790694
              ],
              [
                931.3554313394794,
                440.3003316949818
              ],
              [
                931.3556754801044,
                440.3004232477162
              ],
              [
                931.4130191674687,
                440.3190404484003
              ],
              [
                931.4384971851979,
                440.3287432929421
              ],
              [
                931.4402592261766,
                440.3292258719611
              ],
              [
                931.4459732544301,
                440.3313754599322
              ],
              [
                931.4582831749653,
                440.33468894028204
              ],
              [
                931.4776260086157,
                440.34160628606577
              ],
              [
                931.4990337556496,
                440.34696594331575
              ],
              [
                931.5262369047174,
                440.3557977172862
              ],
              [
                931.5378958023482,
                440.3584567263102
              ],
              [
                931.5415362539114,
                440.3596300889201
              ],
              [
                931.543095438287,
                440.35996334129084
              ],
              [
                931.548314139972,
                440.3616298485336
              ],
              [
                931.5733698781308,
                440.3668673180106
              ]
            ]
          ]
        ]
      }
    }
  ]
}