{
  "type": "FeatureCollection",
  "features": [
    {
      "type": "Feature",
      "properties": {
        "image_id": "0048_top_20250704_t1",
        "zone_type": "parking_spot",
        "generated_at": "2025-11-03T11:20:42",
        "source": "merged_t1_polygons"
      },
      "geometry": {
        "type": "MultiPolygon",
        "coordinates": [
          [
            [
              [
                1414.1415283203125,
                1128.0744384765626
              ],
              [
                1414.1410400390625,
                1128.074072265625
              ],
              [
                1414.1380149853876,
                1128.0720232372516
              ],
              [
                1414.1315346169608,
                1128.0670938329936
              ],
              [
                1414.1223875240505,
                1128.0596778780332
              ],
              [
                1414.118039219423,
                1128.0568283255866
              ],
              [
                1414.0885105918856,
                1128.0343668646433
              ],
              [
                1414.0748811995313,
                1128.0258176817733
              ],
              [
                1414.0613357785392,
                1128.015771712895
              ],
              [
                1414.0601204213033,
                1128.0150432558016
              ],
              [
                1414.0601150754142,
                1128.01503929102
              ],
              [
                1414.05591863553,
                1128.0125240417499
              ],
              [
                1414.0548660519767,
                1128.0117433925825
              ],
              [
                1414.054471981776,
                1128.011507195994
              ],
              [
                1414.0519508364423,
                1128.0096611276688
              ],
              [
                1414.0491063484908,
                1128.0079761102018
              ],
              [
                1414.0461691428675,
                1128.0058358598797
              ],
              [
                1414.041504895413,
                1128.003085233659
              ],
              [
                1414.0313368926918,
                1127.9957565519483
              ],
              [
                1413.9943651033354,
                1127.97472159708
              ],
              [
                1413.981682907526,
                1127.9661312770907
              ],
              [
                1413.9695293518787,
                1127.9595061063144
              ],
              [
                1413.95325753985,
                1127.948842782157
              ],
              [
                1413.9469928664066,
                1127.9455895957815
              ],
              [
                1413.942391205438,
                1127.9426095883848
              ],
              [
                1413.9414962830792,
                1127.942150559043
              ],
              [
                1413.9359591534046,
                1127.9386773349306
              ],
              [
                1413.923457533315,
                1127.9323245246303
              ],
              [
                1413.9032316812231,
                1127.9199861598604
              ],
              [
                1413.8955215081835,
                1127.916235948525
              ],
              [
                1413.8865190595895,
                1127.9108400884909
              ],
              [
                1413.8712935049136,
                1127.9036389374357
              ],
              [
                1413.861445858492,
                1127.8978978855719
              ],
              [
                1413.85115785545,
                1127.8932443938245
              ],
              [
                1413.8449887144375,
                1127.8897344851878
              ],
              [
                1413.8447445738125,
                1127.8896124148753
              ],
              [
                1413.8263685645632,
                1127.881466009083
              ],
              [
                1413.8126878744529,
                1127.8740083636872
              ],
              [
                1413.7929622320946,
                1127.8656029268054
              ],
              [
                1413.7738002871763,
                1127.8556523078782
              ],
              [
                1413.7696421931478,
                1127.854002052086
              ],
              [
                1413.7631824376986,
                1127.8506886727046
              ],
              [
                1413.7507660622375,
                1127.8458272156101
              ],
              [
                1413.7323370583224,
                1127.8368633883354
              ],
              [
                1413.7217159063377,
                1127.832894002047
              ],
              [
                1413.7090924506676,
                1127.826923552165
              ],
              [
                1413.7089923093245,
                1127.8268877210194
              ],
              [
                1413.7072613959801,
                1127.8260690599775
              ],
              [
                1413.6851723638251,
                1127.8181654778941
              ],
              [
                1413.6737767450957,
                1127.8130109870276
              ],
              [
                1413.6543235356241,
                1127.8065265838704
              ],
              [
                1413.6356200853295,
                1127.7985567206806
              ],
              [
                1413.607559300895,
                1127.789674927697
              ],
              [
                1413.5858502395317,
                1127.7810590801435
              ],
              [
                1413.5840130391448,
                1127.780537415889
              ],
              [
                1413.5756373075642,
                1127.777258016048
              ],
              [
                1413.564583044389,
                1127.774169578502
              ],
              [
                1413.5543245885785,
                1127.7703357407138
              ],
              [
                1413.5429578157841,
                1127.767280298951
              ],
              [
                1413.522463885759,
                1127.7599474535357
              ],
              [
                1413.4907677038568,
                1127.7520079732815
              ],
              [
                1413.4783722070194,
                1127.7478761410023
              ],
              [
                1413.4687323865132,
                1127.7457334649423
              ],
              [
                1413.4521194513773,
                1127.7404751425645
              ],
              [
                1413.4176563171063,
                1127.73311989352
              ],
              [
                1413.3816577682057,
                1127.7230623014161
              ],
              [
                1413.372645509925,
                1127.7214995534853
              ],
              [
                1413.3708014739198,
                1127.7210038679707
              ],
              [
                1413.3590740462087,
                1127.7190204293006
              ],
              [
                1413.3320751752822,
                1127.7122575641936
              ],
              [
                1413.3314718566012,
                1127.7121680703212
              ],
              [
                1413.3308544721572,
                1127.7120134235686
              ],
              [
                1413.2912018083043,
                1127.7061315065175
              ],
              [
                1413.2638854615327,
                1127.7003015511827
              ],
              [
                1413.22418585199,
                1127.6957562807102
              ],
              [
                1413.1832110261284,
                1127.6886511443133
              ],
              [
                1413.164297121765,
                1127.6873069745163
              ],
              [
                1413.1367081087842,
                1127.6832145310307
              ],
              [
                1413.0980590333297,
                1127.681315823707
              ],
              [
                1413.0726614426515,
                1127.6784080137736
              ],
              [
                1413.027921854604,
                1127.6776150826868
              ],
              [
                1412.9823095911224,
                1127.6743735189268
              ],
              [
                1412.9663988014602,
                1127.6748477712754
              ],
              [
                1412.940673828125,
                1127.673583984375
              ],
              [
                1412.9035044113843,
                1127.6754100007272
              ],
              [
                1412.880218413708,
                1127.6749972970736
              ],
              [
                1412.830752490846,
                1127.678890976091
              ],
              [
                1412.7809908667773,
                1127.6803742190716
              ],
              [
                1412.7681570459833,
                1127.682059190414
              ],
              [
                1412.7446395474658,
                1127.6832145310307
              ],
              [
                1412.7093807961166,
                1127.6884446727313
              ],
              [
                1412.6883386835236,
                1127.6901009893943
              ],
              [
                1412.6365603338684,
                1127.699246567912
              ],
              [
                1412.6312712533431,
                1127.7000311288948
              ],
              [
                1412.6156248007417,
                1127.7020853748336
              ],
              [
                1412.6151717519517,
                1127.7021389101483
              ],
              [
                1412.6150036642962,
                1127.7021669247576
              ],
              [
                1412.5812964885433,
                1127.7065923897917
              ],
              [
                1412.5715248413048,
                1127.7088936719265
              ],
              [
                1412.5504931840928,
                1127.7120134235686
              ],
              [
                1412.5175225222174,
                1127.7202721444373
              ],
              [
                1412.498799343935,
                1127.7235792080694
              ],
              [
                1412.4484329916506,
                1127.73757817093
              ],
              [
                1412.4281152915394,
                1127.7426674898688
              ],
              [
                1412.3852516188742,
                1127.7527621445088
              ],
              [
                1412.3784433238354,
                1127.7551096700658
              ],
              [
                1412.360104473616,
                1127.7597033129107
              ],
              [
                1412.3297383336421,
                1127.7705684915277
              ],
              [
                1412.313355811279,
                1127.775121894975
              ],
              [
                1412.2649684692801,
                1127.793743519565
              ],
              [
                1412.2270739400108,
                1127.807302398944
              ],
              [
                1412.194844409429,
                1127.81841526146
              ],
              [
                1412.1908224573108,
                1127.8202733868604
              ],
              [
                1412.1753069633949,
                1127.8258249193525
              ],
              [
                1412.1741109760164,
                1127.8263905792548
              ],
              [
                1412.1726214165199,
                1127.826923552165
              ],
              [
                1412.145848040509,
                1127.8395864159497
              ],
              [
                1412.1337255686258,
                1127.8442516881303
              ],
              [
                1412.0942130418282,
                1127.864007951529
              ],
              [
                1412.0218788427037,
                1127.8982194798073
              ],
              [
                1412.010497864503,
                1127.9035010414902
              ],
              [
                1412.0096125737962,
                1127.9040209929321
              ],
              [
                1411.995194807598,
                1127.9108400884909
              ],
              [
                1411.9682571666988,
                1127.9269858890937
              ],
              [
                1411.9615722593287,
                1127.9303283427787
              ],
              [
                1411.9373825299997,
                1127.9454914341668
              ],
              [
                1411.8584125555692,
                1127.992824215294
              ],
              [
                1411.8440501296088,
                1128.001259595932
              ],
              [
                1411.842676852113,
                1128.0022558329808
              ],
              [
                1411.8268478152108,
                1128.0117433925825
              ],
              [
                1411.8004074702792,
                1128.0313528888446
              ],
              [
                1411.7984902792127,
                1128.0325546610081
              ],
              [
                1411.7907331692627,
                1128.0385278394783
              ],
              [
                1411.7037102577426,
                1128.1030684293453
              ],
              [
                1411.6878019587036,
                1128.1146090225154
              ],
              [
                1411.685996507415,
                1128.1162058419523
              ],
              [
                1411.6692017129228,
                1128.128661710462
              ],
              [
                1411.5597148992038,
                1128.227894774121
              ],
              [
                1411.5432088653513,
                1128.242493426462
              ],
              [
                1411.5410424660533,
                1128.2448184810457
              ],
              [
                1411.523774718877,
                1128.2604690548144
              ],
              [
                1411.428020316082,
                1128.3661177577264
              ],
              [
                1411.4116177914539,
                1128.3837215139251
              ],
              [
                1411.4091800329338,
                1128.3869048068752
              ],
              [
                1411.3919673745245,
                1128.4058960488603
              ],
              [
                1411.3099859829745,
                1128.5164351591761
              ],
              [
                1411.2942545599558,
                1128.5369776893644
              ],
              [
                1411.2916564305945,
                1128.5411496995646
              ],
              [
                1411.275049056645,
                1128.5635421511483
              ],
              [
                1411.2067811652669,
                1128.6774402468905
              ],
              [
                1411.1922124558173,
                1128.700834310839
              ],
              [
                1411.1895892644714,
                1128.70612320052
              ],
              [
                1411.1741457525534,
                1128.7318891435355
              ],
              [
                1411.1194021862848,
                1128.8476346896289
              ],
              [
                1411.1064420416321,
                1128.8737649890554
              ],
              [
                1411.1039560087388,
                1128.880292888153
              ],
              [
                1411.0902292162275,
                1128.9093157524574
              ],
              [
                1411.0486785621483,
                1129.025442051183
              ],
              [
                1411.037742302761,
                1129.0541588062915
              ],
              [
                1411.0355846040497,
                1129.0620372125193
              ],
              [
                1411.0241076097857,
                1129.0941132626785
              ],
              [
                1410.9952744314353,
                1129.209221763051
              ],
              [
                1410.9867532044668,
                1129.24033532273
              ],
              [
                1410.9851452550179,
                1129.249659702054
              ],
              [
                1410.9764177204436,
                1129.2845019731553
              ],
              [
                1410.9596881652967,
                1129.3972834729411
              ],
              [
                1410.9539497303842,
                1129.4305602304212
              ],
              [
                1410.9531435111617,
                1129.4414039473033
              ],
              [
                1410.9476188279057,
                1129.4786483365283
              ],
              [
                1410.9422515557912,
                1129.5879016702881
              ],
              [
                1410.9396374578598,
                1129.6230615090485
              ],
              [
                1410.9399147100692,
                1129.6354692577293
              ],
              [
                1410.93798828125,
                1129.6746826171875
              ],
              [
                1410.9431319740813,
                1129.77945008807
              ],
              [
                1410.9439497113776,
                1129.816045932999
              ],
              [
                1410.9456117924085,
                1129.829959382247
              ],
              [
                1410.9476188279057,
                1129.8708389681592
              ],
              [
                1410.9623940858103,
                1129.9704456661004
              ],
              [
                1410.9668463205892,
                1130.0077157759704
              ],
              [
                1410.9699998039448,
                1130.0221254000382
              ],
              [
                1410.9750447422734,
                1130.0568876650539
              ],
              [
                1410.9754803769242,
                1130.058666274809
              ],
              [
                1410.9764177204436,
                1130.0649853315322
              ],
              [
                1410.9998646032636,
                1130.1585905347818
              ],
              [
                1411.0081139945162,
                1130.1962855575014
              ],
              [
                1411.012575289289,
                1130.2101174343468
              ],
              [
                1411.020741845129,
                1130.2434598598306
              ],
              [
                1411.0220876157837,
                1130.2473097739107
              ],
              [
                1411.0241076097857,
                1130.255374042009
              ],
              [
                1411.030231925795,
                1130.2724903586145
              ],
              [
                1411.0305656911498,
                1130.273783960971
              ],
              [
                1411.034817905834,
                1130.2853073142016
              ],
              [
                1411.049838163044,
                1130.3272861208977
              ],
              [
                1411.051052240735,
                1130.331435434035
              ],
              [
                1411.0535612437977,
                1130.3376914345422
              ],
              [
                1411.055198735487,
                1130.34226791723
              ],
              [
                1411.0673683084397,
                1130.379998675431
              ],
              [
                1411.0730907842615,
                1130.3932171138915
              ],
              [
                1411.0841265565357,
                1130.4247877049982
              ],
              [
                1411.0867893736884,
                1130.4305578363665
              ],
              [
                1411.0902292162275,
                1130.4401715522301
              ],
              [
                1411.0981224092084,
                1130.456860306622
              ],
              [
                1411.1004679361592,
                1130.4632166027113
              ],
              [
                1411.1196387725474,
                1130.5024505213316
              ],
              [
                1411.1230623135393,
                1130.5109868497643
              ],
              [
                1411.1292108150806,
                1130.5228496710022
              ],
              [
                1411.1440572849694,
                1130.557143769342
              ],
              [
                1411.151004998419,
                1130.5697084311494
              ],
              [
                1411.1646141935869,
                1130.5991985686364
              ],
              [
                1411.1689809693034,
                1130.606678144455
              ],
              [
                1411.1741457525534,
                1130.617598161152
              ],
              [
                1411.183657573912,
                1130.6334676763502
              ],
              [
                1411.1891145202621,
                1130.6446355453304
              ],
              [
                1411.2086177539077,
                1130.6760561578221
              ],
              [
                1411.212082601428,
                1130.6827411796073
              ],
              [
                1411.2217983844112,
                1130.697735437393
              ],
              [
                1411.2374665359314,
                1130.7260706625614
              ],
              [
                1411.2456112861767,
                1130.737933400562
              ],
              [
                1411.2614623099653,
                1130.7650836235002
              ],
              [
                1411.2677890451578,
                1130.7738614996847
              ],
              [
                1411.2741543111927,
                1130.7845422739022
              ],
              [
                1411.2744390404168,
                1130.7849274029486
              ],
              [
                1411.275049056645,
                1130.7859451535392
              ],
              [
                1411.2758336705942,
                1130.7870030829822
              ],
              [
                1411.2790773769575,
                1130.7924148801017
              ],
              [
                1411.2886867736686,
                1130.8053716516692
              ],
              [
                1411.2956392605963,
                1130.8166210118247
              ],
              [
                1411.316229783602,
                1130.8434703457365
              ],
              [
                1411.3172802269942,
                1130.8450914831208
              ],
              [
                1411.3227256014027,
                1130.851940668764
              ],
              [
                1411.3338132692174,
                1130.8663986063004
              ],
              [
                1411.3467259171766,
                1130.8852057342076
              ],
              [
                1411.3560436883201,
                1130.8963082762318
              ],
              [
                1411.3737775445288,
                1130.9209126874073
              ],
              [
                1411.377639835876,
                1130.9253109716828
              ],
              [
                1411.395995694837,
                1130.9500609823897
              ],
              [
                1411.4088480052947,
                1130.964241321775
              ],
              [
                1411.4180872945599,
                1130.976289037247
              ],
              [
                1411.4640404009751,
                1131.025136746362
              ],
              [
                1411.4656903001314,
                1131.0269571295582
              ],
              [
                1411.4708176343177,
                1131.0330665780946
              ],
              [
                1411.4745280001505,
                1131.0367080289057
              ],
              [
                1411.5278030391894,
                1131.0954879764356
              ],
              [
                1411.54422354452,
                1131.110370654956
              ],
              [
                1411.5559590765597,
                1131.1228454123793
              ],
              [
                1411.6048377954253,
                1131.1653082096661
              ],
              [
                1411.6732300332353,
                1131.227295320788
              ],
              [
                1411.6934694898287,
                1131.2423059248267
              ],
              [
                1411.707859089121,
                1131.2548067155997
              ],
              [
                1411.7588999162688,
                1131.2908324363386
              ],
              [
                1411.8308761355233,
                1131.3442136386675
              ],
              [
                1411.8551030653628,
                1131.358734701587
              ],
              [
                1411.8722498231261,
                1131.3708372544118
              ],
              [
                1411.9247110144006,
                1131.4004561006413
              ],
              [
                1411.930019862143,
                1131.4036381015226
              ],
              [
                1411.9314557811997,
                1131.4045824844807
              ],
              [
                1411.9325735729667,
                1131.4051687368856
              ],
              [
                1411.9992231279105,
                1131.4451169427591
              ],
              [
                1412.0275174616802,
                1131.4584991659895
              ],
              [
                1412.04746734025,
                1131.4697625851247
              ],
              [
                1412.047711480875,
                1131.4698846554372
              ],
              [
                1412.1010544023616,
                1131.4935325040358
              ],
              [
                1412.1062438133756,
                1131.4962542137291
              ],
              [
                1412.1138336823717,
                1131.4993236979647
              ],
              [
                1412.1766497368324,
                1131.529033479085
              ],
              [
                1412.1999008502094,
                1131.5373528604782
              ],
              [
                1412.2171961973797,
                1131.5450201898998
              ],
              [
                1412.2744990242222,
                1131.5642997514726
              ],
              [
                1412.2892163106617,
                1131.5702516959316
              ],
              [
                1412.3038787730688,
                1131.5745567561678
              ],
              [
                1412.3614472470535,
                1131.5951550855268
              ],
              [
                1412.3621988258499,
                1131.5953433462148
              ],
              [
                1412.364743145491,
                1131.5962537183393
              ],
              [
                1412.3832544022791,
                1131.6008905467816
              ],
              [
                1412.392910057793,
                1131.604139196373
              ],
              [
                1412.4504754083416,
                1131.617728532251
              ],
              [
                1412.4534758587722,
                1131.6184801059587
              ],
              [
                1412.4785913696792,
                1131.625854296208
              ],
              [
                1412.4962251545162,
                1131.6291882470998
              ],
              [
                1412.5022106928761,
                1131.6306875464088
              ],
              [
                1412.5055389715026,
                1131.6316182243484
              ],
              [
                1412.5068459775084,
                1131.6318486247658
              ],
              [
                1412.5551318559678,
                1131.6439436076814
              ],
              [
                1412.5590371337194,
                1131.6445229009132
              ],
              [
                1412.5596484575303,
                1131.6446760295564
              ],
              [
                1412.5730442141582,
                1131.6466631023447
              ],
              [
                1412.5733432224213,
                1131.6467336886205
              ],
              [
                1412.5764894925578,
                1131.6471741611183
              ],
              [
                1412.645496150929,
                1131.6574103319347
              ],
              [
                1412.6725247348022,
                1131.6625205208218
              ],
              [
                1412.689198166772,
                1131.6639938638516
              ],
              [
                1412.698829393263,
                1131.665691666765
              ],
              [
                1412.703978631305,
                1131.6660853884148
              ],
              [
                1412.7537948209033,
                1131.6734749220943
              ],
              [
                1412.8498769135201,
                1131.6781921951836
              ],
              [
                1412.8691277587004,
                1131.6798932905917
              ],
              [
                1412.8817933191337,
                1131.6797591718928
              ],
              [
                1412.8846324692327,
                1131.6798985635942
              ],
              [
                1412.8945288501977,
                1131.680655261849
              ],
              [
                1412.8983453572753,
                1131.6805718153519
              ],
              [
                1412.949951171875,
                1131.68310546875
              ],
              [
                1413.0555113580751,
                1131.677919629341
              ],
              [
                1413.066485795196,
                1131.6778034183578
              ],
              [
                1413.0734620351593,
                1131.6770377691246
              ],
              [
                1413.0842760580356,
                1131.6765065102472
              ],
              [
                1413.0907526495564,
                1131.6763649020004
              ],
              [
                1413.093222490844,
                1131.6760670001868
              ],
              [
                1413.1459854525342,
                1131.6734749220943
              ],
              [
                1413.2599330969954,
                1131.6565723857254
              ],
              [
                1413.2626768453154,
                1131.6562712566347
              ],
              [
                1413.2643638076067,
                1131.6559151518916
              ],
              [
                1413.28205824985,
                1131.6532904293274
              ],
              [
                1413.2856110488844,
                1131.652861905729
              ],
              [
                1413.2869526990594,
                1131.6525644063704
              ],
              [
                1413.3401318159072,
                1131.6446760295564
              ],
              [
                1413.475931251166,
                1131.6106600418227
              ],
              [
                1413.4772274552759,
                1131.6103726197373
              ],
              [
                1413.4777120093547,
                1131.6102139851173
              ],
              [
                1413.530520526384,
                1131.5969861402143
              ],
              [
                1413.7153180366051,
                1131.5308645337725
              ],
              [
                1413.892744645527,
                1131.4469479974466
              ],
              [
                1414.0610916379142,
                1131.346044693355
              ],
              [
                1414.2187377402022,
                1131.2291263754755
              ],
              [
                1414.3239112712008,
                1131.1338026433993
              ],
              [
                1414.3241650827526,
                1131.1335848887948
              ],
              [
                1414.3242538859797,
                1131.1334921154644
              ],
              [
                1414.364164734248,
                1131.097319031123
              ],
              [
                1414.4583602984703,
                1130.9933902415355
              ],
              [
                1414.4598825193664,
                1130.9917999670952
              ],
              [
                1414.4604044105076,
                1130.9911349114511
              ],
              [
                1414.4959720786005,
                1130.9518920370772
              ],
              [
                1414.5781288288126,
                1130.8411164829765
              ],
              [
                1414.581049086861,
                1130.8373951435176
              ],
              [
                1414.5820250538934,
                1130.8358630316034
              ],
              [
                1414.61289039648,
                1130.7942459347892
              ],
              [
                1414.6279349329448,
                1130.7691456421028
              ],
              [
                1414.6297399556863,
                1130.7666413068252
              ],
              [
                1414.6384245464887,
                1130.7516447791995
              ],
              [
                1414.6822551490795,
                1130.6785178366567
              ],
              [
                1414.6864978849544,
                1130.6718574209192
              ],
              [
                1414.687868637155,
                1130.6691522976112
              ],
              [
                1414.7137937005716,
                1130.625898942402
              ],
              [
                1414.7251514480552,
                1130.6018850029661
              ],
              [
                1414.7295334422395,
                1130.5943181874034
              ],
              [
                1414.7477129247736,
                1130.554182768321
              ],
              [
                1414.7699381594891,
                1130.5071914576602
              ],
              [
                1414.7752133840772,
                1130.4967810180608
              ],
              [
                1414.7768375711505,
                1130.4926038773303
              ],
              [
                1414.7977102368975,
                1130.4484723334801
              ],
              [
                1414.7978075914632,
                1130.4482002456964
              ],
              [
                1414.7981985181475,
                1130.4473737006676
              ],
              [
                1414.806118335165,
                1130.4252392949115
              ],
              [
                1414.8116959323875,
                1130.4129254569582
              ],
              [
                1414.8314030883237,
                1130.3545731438346
              ],
              [
                1414.8417303783394,
                1130.3257103017932
              ],
              [
                1414.8463412054762,
                1130.3138520164086
              ],
              [
                1414.847656980633,
                1130.3091465580053
              ],
              [
                1414.8643201245893,
                1130.2625761904465
              ],
              [
                1414.8696237984736,
                1130.2414027374243
              ],
              [
                1414.8754129083368,
                1130.224261352207
              ],
              [
                1414.892223610421,
                1130.1511792306592
              ],
              [
                1414.895615832197,
                1130.1376367222047
              ],
              [
                1414.8991963493484,
                1130.1248321222474
              ],
              [
                1414.9000827490486,
                1130.1198037905106
              ],
              [
                1414.9120100139314,
                1130.0721874799697
              ],
              [
                1414.9149450709986,
                1130.0524009324436
              ],
              [
                1414.920052711887,
                1130.0301961946318
              ],
              [
                1414.9308584969847,
                1129.945220394273
              ],
              [
                1414.933269791765,
                1129.931541700487
              ],
              [
                1414.933692079134,
                1129.9260188693556
              ],
              [
                1414.9408089064693,
                1129.8780411165967
              ],
              [
                1414.9408766561328,
                1129.8766620405152
              ],
              [
                1414.9409819358443,
                1129.8759541664813
              ],
              [
                1414.941819445275,
                1129.859024403401
              ],
              [
                1414.9451728063736,
                1129.832653849048
              ],
              [
                1414.9475270540163,
                1129.7450799268115
              ],
              [
                1414.948233386849,
                1129.7358422435523
              ],
              [
                1414.948135253755,
                1129.7313540306159
              ],
              [
                1414.9506834901613,
                1129.6798429227392
              ],
              [
                1414.949778894269,
                1129.661315381555
              ],
              [
                1414.9505241637569,
                1129.633592651373
              ],
              [
                1414.944161906402,
                1129.5462706694034
              ],
              [
                1414.944028922181,
                1129.543546944196
              ],
              [
                1414.9439430270004,
                1129.5396184441936
              ],
              [
                1414.9437650865698,
                1129.5381431775052
              ],
              [
                1414.9411081754376,
                1129.483725474698
              ],
              [
                1414.938198547371,
                1129.4640749523528
              ],
              [
                1414.9376068368783,
                1129.4547896352974
              ],
              [
                1414.9374068156344,
                1129.453557048854
              ],
              [
                1414.9360537333582,
                1129.4349859946624
              ],
              [
                1414.9215754436402,
                1129.3518088262915
              ],
              [
                1414.912348282722,
                1129.2894920876372
              ],
              [
                1414.9078949236462,
                1129.271696576145
              ],
              [
                1414.9064681672123,
                1129.262904506846
              ],
              [
                1414.9053881664572,
                1129.258813596474
              ],
              [
                1414.9019049677802,
                1129.2388027658808
              ],
              [
                1414.8800496985634,
                1129.1604277531
              ],
              [
                1414.8646810123716,
                1129.099014867436
              ],
              [
                1414.8590277590683,
                1129.0832060605178
              ],
              [
                1414.8568478448612,
                1129.0749488129204
              ],
              [
                1414.8542957376853,
                1129.068071672151
              ],
              [
                1414.8484164007884,
                1129.0469878273414
              ],
              [
                1414.848294330476,
                1129.0466216164039
              ],
              [
                1414.8133980062887,
                1128.9556066212697
              ],
              [
                1414.7985658022742,
                1128.9141297164044
              ],
              [
                1414.79290275567,
                1128.902151846912
              ],
              [
                1414.7847695537646,
                1128.8809392020537
              ],
              [
                1414.7278502094282,
                1128.7645596702082
              ],
              [
                1414.7146398995862,
                1128.7366186380566
              ],
              [
                1414.712163674933,
                1128.7324863643382
              ],
              [
                1414.7068096638106,
                1128.7215393424572
              ],
              [
                1414.6150283230506,
                1128.569676755987
              ],
              [
                1414.6147841824256,
                1128.5693105450496
              ],
              [
                1414.6053529053308,
                1128.5565730673663
              ],
              [
                1414.6026296177076,
                1128.552129467846
              ],
              [
                1414.5743237637203,
                1128.5146664416975
              ],
              [
                1414.4973678764259,
                1128.410733126289
              ],
              [
                1414.4878888426745,
                1128.4002691262613
              ],
              [
                1414.4854405162475,
                1128.39702874648
              ],
              [
                1414.455769871166,
                1128.3648126728324
              ],
              [
                1414.364897156123,
                1128.264497375127
              ],
              [
                1414.3561194480046,
                1128.2566132938587
              ],
              [
                1414.353747370235,
                1128.2540377168223
              ],
              [
                1414.3165700913091,
                1128.220815993948
              ],
              [
                1414.231836555656,
                1128.1433902363967
              ],
              [
                1414.2253113409715,
                1128.1384267190579
              ],
              [
                1414.2189818808272,
                1128.1326900307745
              ],
              [
                1414.214208895453,
                1128.1291501435644
              ],
              [
                1414.2052652537395,
                1128.1211170218028
              ],
              [
                1414.153614177774,
                1128.0838890325747
              ],
              [
                1414.1450454392022,
                1128.0773710734682
              ],
              [
                1414.1415283203125,
                1128.0744384765626
              ]
            ]
          ]
        ]
      }
    }
  ]
}