{
  "type": "FeatureCollection",
  "features": [
    {
      "type": "Feature",
      "properties": {
        "method": "Homography",
        "mode": "tmpl2img",
        "inside_ratio": 1.0
      },
      "geometry": {
        "type": "Polygon",
        "coordinates": [
          [
            [
              271.69806002979783,
              325.7320221175695
            ],
            [
              271.3216342166861,
              325.77725307873834
            ],
            [
              271.25899647488495,
              325.7883292688314
            ],
            [
              271.1916205618385,
              325.79652739144785
            ],
            [
              270.895501876923,
              325.84943685489543
            ],
            [
              270.8521253304663,
              325.8548704634772
            ],
            [
              270.3433519025344,
              325.9480931044916
            ],
            [
              269.928984986008,
              326.02213075338443
            ],
            [
              268.58536869783416,
              326.22645047819276
            ],
            [
              267.989871255369,
              326.3522651976526
            ],
            [
              267.98987125536036,
              326.3522651976538
            ],
            [
              267.29299080601345,
              326.46868579494696
            ],
            [
              267.2920936466715,
              326.468890756137
            ],
            [
              267.27520785638205,
              326.47171169003985
            ],
            [
              266.86711797764497,
              326.5649422133493
            ],
            [
              266.5195726704063,
              326.62639841815377
            ],
            [
              266.4371477880313,
              326.6460401586629
            ],
            [
              266.3781386466633,
              326.65658370815015
            ],
            [
              266.0632061195825,
              326.7323449382209
            ],
            [
              266.0494928843854,
              326.7348576166207
            ],
            [
              265.89334054627835,
              326.77320837300266
            ],
            [
              265.1419802078824,
              326.95395814817545
            ],
            [
              263.9043157271046,
              327.2154477841142
            ],
            [
              263.897883345628,
              327.2170105017047
            ],
            [
              263.3581827745242,
              327.366579015167
            ],
            [
              262.5952567598249,
              327.54087393229895
            ],
            [
              262.23934272264887,
              327.6463715564492
            ],
            [
              261.93792207418653,
              327.7181996985134
            ],
            [
              261.83875971733846,
              327.7485920016019
            ],
            [
              261.78805869286685,
              327.7607888109167
            ],
            [
              260.5992128115336,
              328.12850113698676
            ],
            [
              260.5079992904922,
              328.1564571987968
            ],
            [
              259.35784935638463,
              328.4752010080801
            ],
            [
              258.90525340498937,
              328.63463969138394
            ],
            [
              258.1764566224991,
              328.8506646890228
            ],
            [
              257.8724499437035,
              328.96422757756244
            ],
            [
              257.61627202300053,
              329.04274363202177
            ],
            [
              257.50407380455755,
              329.0858336067661
            ],
            [
              257.4613365829572,
              329.09905231190885
            ],
            [
              256.56200329019765,
              329.4476378781181
            ],
            [
              256.16949145631787,
              329.5983829188471
            ],
            [
              255.11396674128756,
              329.9702189245423
            ],
            [
              254.7431754652773,
              330.13318034601616
            ],
            [
              254.0580557735322,
              330.3891094969769
            ],
            [
              253.8046431027187,
              330.5066081762934
            ],
            [
              253.59201350153774,
              330.58826904642075
            ],
            [
              253.4710445258369,
              330.6457071808895
            ],
            [
              253.43568770345126,
              330.65941164179475
            ],
            [
              252.76430465270724,
              330.9812793359217
            ],
            [
              252.15255117528835,
              331.27175032895815
            ],
            [
              251.20479798937347,
              331.68828441801725
            ],
            [
              250.9102045151956,
              331.84857584722477
            ],
            [
              250.90477265930343,
              331.85101307287204
            ],
            [
              250.90291750756566,
              331.85203784275393
            ],
            [
              250.27676347277367,
              332.1423637838372
            ],
            [
              250.07162857604564,
              332.2598078981302
            ],
            [
              249.90009831478451,
              332.3412533940114
            ],
            [
              249.77508260274354,
              332.4143420374432
            ],
            [
              249.74634234769889,
              332.4281204007934
            ],
            [
              249.25219810943116,
              332.7200389587776
            ],
            [
              248.51666935789805,
              333.1500552965547
            ],
            [
              248.48610425899426,
              333.1675544691806
            ],
            [
              247.66606821809148,
              333.61374476366785
            ],
            [
              247.43792302873638,
              333.76766063429415
            ],
            [
              246.86650291767384,
              334.0948108652086
            ],
            [
              246.7063819664263,
              334.20841386212373
            ],
            [
              246.5728092914016,
              334.2865052112658
            ],
            [
              246.44881167801367,
              334.3761556574131
            ],
            [
              246.4258120849485,
              334.38974279962986
            ],
            [
              246.0673685586564,
              334.6519395607819
            ],
            [
              245.33927624390722,
              335.17835131232954
            ],
            [
              245.19174365266937,
              335.28302308936117
            ],
            [
              244.53041373966522,
              335.72918270210556
            ],
            [
              244.36134376308337,
              335.8721771966799
            ],
            [
              243.85817493995813,
              336.22916662133514
            ],
            [
              243.73892469050773,
              336.3354077009924
            ],
            [
              243.6395402510798,
              336.40726278829004
            ],
            [
              243.52183769765804,
              336.51396216187277
            ],
            [
              243.50366607473737,
              336.52725446686895
            ],
            [
              243.24748758296693,
              336.76266522335663
            ],
            [
              242.57041340432346,
              337.37644452237623
            ],
            [
              242.3389044643929,
              337.5826978412737
            ],
            [
              241.82714134500188,
              338.0155322810657
            ],
            [
              241.70831462667812,
              338.14449578710014
            ],
            [
              241.27943163482584,
              338.5265913576427
            ],
            [
              241.1961100090945,
              338.622274006301
            ],
            [
              241.1265850907489,
              338.6852995314124
            ],
            [
              241.0205306488489,
              338.8090884531387
            ],
            [
              241.0063166840436,
              338.82215012816204
            ],
            [
              240.82633442288116,
              339.0357582746642
            ],
            [
              240.23543836637745,
              339.72546428206834
            ],
            [
              239.95699198095792,
              340.04521905680997
            ],
            [
              239.5819978773327,
              340.4522028987137
            ],
            [
              239.5044509287965,
              340.56489598483734
            ],
            [
              239.15445964785954,
              340.96680956338645
            ],
            [
              239.10141813424093,
              341.0491159768466
            ],
            [
              239.0569357862639,
              341.10103668656205
            ],
            [
              238.96781868235786,
              341.24149844043035
            ],
            [
              238.9568142230553,
              341.2545588506017
            ],
            [
              238.83376226993187,
              341.45279119997366
            ],
            [
              238.35630071937697,
              342.2053413150127
            ],
            [
              238.071318516606,
              342.6475583900657
            ],
            [
              237.81695025459263,
              343.0172124512501
            ],
            [
              237.77186048530817,
              343.11223812589867
            ],
            [
              237.5037734016703,
              343.52823844042115
            ],
            [
              237.4747605823462,
              343.59477912579507
            ],
            [
              237.45008961229013,
              343.63366422833735
            ],
            [
              237.382995086509,
              343.7899258805495
            ],
            [
              237.3746511397214,
              343.80336768405544
            ],
            [
              237.2955725567641,
              343.9935310000428
            ],
            [
              236.9513568645923,
              344.7952016602261
            ],
            [
              236.70999913221212,
              345.3487538246088
            ],
            [
              236.62959360571426,
              345.51426246194205
            ],
            [
              236.62565387452298,
              345.5278427788208
            ],
            [
              236.54997675346038,
              345.6873306094034
            ],
            [
              236.52890841387187,
              345.76408404045503
            ],
            [
              236.34401915850148,
              346.18812617273375
            ],
            [
              236.3322945347121,
              346.2369840018577
            ],
            [
              236.3218664390504,
              346.26127080377813
            ],
            [
              236.28153906040157,
              346.4320164278329
            ],
            [
              236.27557658807257,
              346.4463546148205
            ],
            [
              236.2333361867831,
              346.6361068004765
            ],
            [
              236.03523814929187,
              347.4748514490503
            ],
            [
              235.9128047953825,
              347.98504503752383
            ],
            [
              235.85316051245817,
              348.19063984153837
            ],
            [
              235.8473397131039,
              348.2470863699364
            ],
            [
              235.79487106945638,
              348.43823329944513
            ],
            [
              235.78998911032852,
              348.49683184298283
            ],
            [
              235.68779146815754,
              348.9227009393271
            ],
            [
              235.68624969565772,
              348.95246425938683
            ],
            [
              235.6842375534545,
              348.9609836446832
            ],
            [
              235.6749517397229,
              349.1444794965829
            ],
            [
              235.671422893264,
              349.16033176853404
            ],
            [
              235.6641876370014,
              349.35718763994737
            ],
            [
              235.63529196275798,
              349.92819159449556
            ],
            [
              235.63503055555844,
              349.92971275054225
            ],
            [
              235.6350742767685,
              349.9324932612399
            ],
            [
              235.6177760845031,
              350.27432076473104
            ],
            [
              235.59706955594288,
              350.6740522673868
            ],
            [
              235.5714958019507,
              350.92205078835815
            ],
            [
              235.57918067523624,
              351.0193901711644
            ],
            [
              235.5781134913526,
              351.03999174207826
            ],
            [
              235.5610613927571,
              351.2446694372133
            ],
            [
              235.5653541238834,
              351.28630638225656
            ],
            [
              235.54349944890504,
              351.7082024061861
            ],
            [
              235.57032404854073,
              351.9110154295173
            ],
            [
              235.5699460576574,
              351.9212997542784
            ],
            [
              235.58916362940448,
              352.0534560401864
            ],
            [
              235.67911907750212,
              352.7335831116864
            ],
            [
              235.6793152108612,
              352.74605648331345
            ],
            [
              235.68358562896788,
              352.76735341281335
            ],
            [
              235.7669309918753,
              353.3975035459534
            ],
            [
              235.78958706475416,
              353.68447355436155
            ],
            [
              235.82078536481472,
              353.8046808512936
            ],
            [
              235.83988250165788,
              353.94906876809176
            ],
            [
              235.85344746383797,
              354.08064085312225
            ],
            [
              235.86053455665729,
              354.1052129704176
            ],
            [
              235.91507469504887,
              354.51757514957484
            ],
            [
              235.92894934566817,
              354.5615042634314
            ],
            [
              235.93282295495473,
              354.5902941629742
            ],
            [
              236.17415621090842,
              355.3378640145904
            ],
            [
              236.24224979407364,
              355.55345796718854
            ],
            [
              236.24714747820835,
              355.57788312442716
            ],
            [
              236.2626261973007,
              355.6179725529524
            ],
            [
              236.4240484991248,
              356.12905848014856
            ],
            [
              236.5082182923326,
              356.45336535923315
            ],
            [
              236.5722010025722,
              356.5981303415568
            ],
            [
              236.65675500671634,
              356.86584032411656
            ],
            [
              236.6722592673263,
              356.9195961475663
            ],
            [
              236.6766356629601,
              356.92878530455346
            ],
            [
              236.80205165792864,
              357.32587015186874
            ],
            [
              236.84088151476354,
              357.4031564024847
            ],
            [
              236.8620648576655,
              357.4687753261931
            ],
            [
              237.32391873239843,
              358.3666890962392
            ],
            [
              237.3362739841539,
              358.39868883597177
            ],
            [
              237.37362681434246,
              358.46352309181134
            ],
            [
              237.56509975045182,
              358.84462738972417
            ],
            [
              237.72386505093817,
              359.203844056735
            ],
            [
              237.8312416539103,
              359.37435146103127
            ],
            [
              238.19932160691684,
              360.10697119787426
            ],
            [
              238.2750205705013,
              360.2157748869467
            ],
            [
              238.3272339021032,
              360.31728549883
            ],
            [
              238.92223418616163,
              361.15148023044645
            ],
            [
              238.93966923791865,
              361.1817426925063
            ],
            [
              238.99207957739338,
              361.24940397763413
            ],
            [
              239.07661737582714,
              361.3679265867255
            ],
            [
              239.18281694251058,
              361.5205694246887
            ],
            [
              239.42861543338267,
              361.9108822256084
            ],
            [
              239.57222085322525,
              362.08457956778557
            ],
            [
              239.57415870619496,
              362.0876015300056
            ],
            [
              239.592366500403,
              362.10922349134347
            ],
            [
              240.0970921749302,
              362.83467616277284
            ],
            [
              240.09806939771673,
              362.83576181499575
            ],
            [
              240.1023446885904,
              362.8419067775584
            ],
            [
              240.22570193321675,
              362.9789515049345
            ],
            [
              240.31745794009126,
              363.1075940948277
            ],
            [
              241.02140792614787,
              363.8692489433704
            ],
            [
              241.04547021624754,
              363.90031314725724
            ],
            [
              241.11939308557857,
              363.97526623613675
            ],
            [
              241.2388104414015,
              364.10447258582815
            ],
            [
              241.28015905297949,
              364.1504091598693
            ],
            [
              241.61012112842565,
              364.5495134247739
            ],
            [
              241.80752175592355,
              364.7397453848489
            ],
            [
              241.82502169796928,
              364.76052676374553
            ],
            [
              241.8540111773078,
              364.7879348128732
            ],
            [
              242.4861252398188,
              365.4901870367343
            ],
            [
              242.6766009628209,
              365.6601230489547
            ],
            [
              242.816643913772,
              365.8116457348098
            ],
            [
              243.60360255255094,
              366.4940966692534
            ],
            [
              243.6369490443212,
              366.52790789146053
            ],
            [
              243.74437150513072,
              366.61617157699413
            ],
            [
              243.8471216911931,
              366.70527659095137
            ],
            [
              244.2515831704355,
              367.09504992118895
            ],
            [
              244.5083291115258,
              367.29745474919036
            ],
            [
              244.54844452298963,
              367.3353817900807
            ],
            [
              244.59244000348298,
              367.369369988644
            ],
            [
              245.33664915671102,
              368.033328280883
            ],
            [
              245.6067303495457,
              368.23121012032027
            ],
            [
              245.80348055324487,
              368.4018319976959
            ],
            [
              246.64650757908237,
              369.00071223896833
            ],
            [
              246.69252917965633,
              369.0385258959124
            ],
            [
              246.850488421337,
              369.1456187393294
            ],
            [
              246.8726849883698,
              369.1613870184179
            ],
            [
              247.3317769999003,
              369.52331071324767
            ],
            [
              247.65204081507557,
              369.7330291359772
            ],
            [
              247.72179115003846,
              369.78691394887153
            ],
            [
              247.7875404392775,
              369.82903597221804
            ],
            [
              248.62999011353142,
              370.44627810383577
            ],
            [
              248.99073202517042,
              370.6660321621139
            ],
            [
              249.25149371845913,
              370.85127536429763
            ],
            [
              250.12341603789207,
              371.3645906781486
            ],
            [
              250.18585043259557,
              371.40691980549246
            ],
            [
              250.34848952949338,
              371.4987452255102
            ],
            [
              250.82512135368464,
              371.8108581450923
            ],
            [
              251.21158647234395,
              372.022637585468
            ],
            [
              251.31780473012594,
              372.0906858942159
            ],
            [
              251.41294050999915,
              372.1415750013746
            ],
            [
              252.33763214318907,
              372.70487173096086
            ],
            [
              252.7983515000816,
              372.93937011171334
            ],
            [
              253.12916020311786,
              373.1341227513024
            ],
            [
              254.00333831463274,
              373.5622590496878
            ],
            [
              254.08588784429122,
              373.60886620244514
            ],
            [
              254.23090359273394,
              373.6771964555916
            ],
            [
              254.70179519077757,
              373.93524085416044
            ],
            [
              255.1555765835333,
              374.14354953138394
            ],
            [
              255.30473956324312,
              374.2233383434224
            ],
            [
              255.43735877447688,
              374.2825802967936
            ],
            [
              256.4266170534067,
              374.7860960729033
            ],
            [
              256.9946018588348,
              375.02725626758314
            ],
            [
              257.4000852410725,
              375.2258452645404
            ],
            [
              258.2511577530274,
              375.5715078490199
            ],
            [
              258.35712886937824,
              375.62144058587495
            ],
            [
              258.4787200106736,
              375.669040930067
            ],
            [
              258.92790632955376,
              375.8752402352973
            ],
            [
              259.44850607813686,
              376.0743885824289
            ],
            [
              259.6465501396152,
              376.16285628590805
            ],
            [
              259.82475131020124,
              376.2289070620034
            ],
            [
              260.8597498829801,
              376.66835624254236
            ],
            [
              261.5399937532664,
              376.9072665955479
            ],
            [
              262.023248060176,
              377.10354003916336
            ],
            [
              262.8278323405362,
              377.37162585213383
            ],
            [
              262.95981246323606,
              377.4232932614528
            ],
            [
              263.05303536230525,
              377.4532521932566
            ],
            [
              263.4657147177277,
              377.61111706305786
            ],
            [
              264.051014258401,
              377.79538357163824
            ],
            [
              264.30314038455816,
              377.88883484500445
            ],
            [
              264.534537366916,
              377.95898863682544
            ],
            [
              265.59586523715154,
              378.331740567722
            ],
            [
              265.5985605286526,
              378.3325104344768
            ],
            [
              265.59929667272746,
              378.3327689776349
            ],
            [
              266.39184976619725,
              378.5591490642057
            ],
            [
              266.95331860984464,
              378.74622931804754
            ],
            [
              267.72651817682623,
              378.95516378719964
            ],
            [
              267.8502325522238,
              378.9949217283573
            ],
            [
              267.91103243028215,
              379.0106110272637
            ],
            [
              268.2739122777866,
              379.12485441528673
            ],
            [
              268.9202020991633,
              379.2886127636579
            ],
            [
              269.2306750991487,
              379.38274043111943
            ],
            [
              269.5208051881144,
              379.4528850235143
            ],
            [
              270.5936028727899,
              379.7593124852604
            ],
            [
              271.25199852566305,
              379.9078212855123
            ],
            [
              271.7281271567064,
              380.0364810611044
            ],
            [
              271.97316457169813,
              380.08901340019537
            ],
            [
              271.9886561352145,
              380.09317945654254
            ],
            [
              272.22181901779703,
              380.142321176396
            ],
            [
              272.2810181831684,
              380.15501258774293
            ],
            [
              272.3333291523565,
              380.1689330525221
            ],
            [
              272.65002040407035,
              380.23412111814696
            ],
            [
              272.6612704261306,
              380.2365329537993
            ],
            [
              272.6894695655152,
              380.24367811428107
            ],
            [
              272.98110698275934,
              380.31893462396573
            ],
            [
              273.00634810024485,
              380.3239695002281
            ],
            [
              273.3079600815448,
              380.40039261300643
            ],
            [
              274.01000655973894,
              380.53823677558984
            ],
            [
              274.3819542129249,
              380.62816235558864
            ],
            [
              274.7322066970473,
              380.6928227324589
            ],
            [
              275.7980276156621,
              380.93323104198964
            ],
            [
              276.3350330157687,
              381.02413243980897
            ],
            [
              276.6771122031557,
              381.0974690764565
            ],
            [
              277.0060972440924,
              381.150662031033
            ],
            [
              277.1699037450578,
              381.1851861074687
            ],
            [
              277.58443079518673,
              381.2498254252809
            ],
            [
              277.7432911080568,
              381.2825254018175
            ],
            [
              277.9815731681612,
              381.318038811903
            ],
            [
              278.52048223135085,
              381.4238515619564
            ],
            [
              278.52736047218986,
              381.42501418730865
            ],
            [
              279.16621974522064,
              381.51138924589554
            ],
            [
              279.71202753506935,
              381.6121512361483
            ],
            [
              280.13084566994723,
              381.6666672747777
            ],
            [
              281.1617165359849,
              381.84116757342974
            ],
            [
              281.56338575270723,
              381.887521190151
            ],
            [
              281.76044145296856,
              381.91938274496096
            ],
            [
              282.16919003679055,
              381.9647503249111
            ],
            [
              282.49344281613463,
              382.01531271510584
            ],
            [
              283.0346944716472,
              382.07115286916775
            ],
            [
              283.3015645970116,
              382.11092702672596
            ],
            [
              283.50995528065704,
              382.13058079426946
            ],
            [
              283.7598759364542,
              382.16658544500274
            ],
            [
              284.45487382636264,
              382.2295103476445
            ],
            [
              285.06739499839244,
              382.30924000855094
            ],
            [
              285.3091502046137,
              382.3419257986498
            ],
            [
              285.7888243731583,
              382.37514721210493
            ],
            [
              286.6315289434865,
              382.4723973946831
            ],
            [
              286.8880212125319,
              382.4885000309773
            ],
            [
              286.9330983606942,
              382.49350320702143
            ],
            [
              287.414868981888,
              382.52304916728855
            ],
            [
              287.9077510184057,
              382.5738990973975
            ],
            [
              288.5727251593908,
              382.60806136385094
            ],
            [
              288.9497346711539,
              382.64361793085396
            ],
            [
              289.09235972217687,
              382.6493869440093
            ],
            [
              289.29953984249147,
              382.6681449706008
            ],
            [
              289.98079850340883,
              382.69387421754215
            ],
            [
              290.6705711333146,
              382.7471991287042
            ],
            [
              291.23138749161006,
              382.76117744045996
            ],
            [
              292.15260167055015,
              382.81901145208957
            ],
            [
              292.1871764860745,
              382.8193602639208
            ],
            [
              292.18861894401135,
              382.8194130774641
            ],
            [
              292.1895010481638,
              382.8194234907464
            ],
            [
              292.19033738767985,
              382.81947599583174
            ],
            [
              292.1929107253917,
              382.81950265418953
            ],
            [
              292.19549272873223,
              382.8196647513028
            ],
            [
              292.1972080237565,
              382.81968250683053
            ],
            [
              292.19892963113773,
              382.81979058858826
            ],
            [
              292.2006480848531,
              382.81985350732396
            ],
            [
              292.404782164431,
              382.82196489454896
            ],
            [
              292.835326079214,
              382.8270474859131
            ],
            [
              293.35980638035676,
              382.85399204615163
            ],
            [
              294.1417941211298,
              382.8536305412396
            ],
            [
              294.62772314785457,
              382.873285790635
            ],
            [
              294.70371165347075,
              382.87224552595575
            ],
            [
              294.86435883777796,
              382.8783127237947
            ],
            [
              295.5248407462948,
              382.8681914874073
            ],
            [
              296.1940202832901,
              382.8848707444409
            ],
            [
              296.65024259279494,
              382.8720827565627
            ],
            [
              297.4001944201654,
              382.8809359735078
            ],
            [
              297.54981565046984,
              382.8751806927113
            ],
            [
              297.7171482683627,
              382.8769114372925
            ],
            [
              298.3038448084808,
              382.85170646789027
            ],
            [
              298.79566683659186,
              382.85147910361104
            ],
            [
              299.6740700068453,
              382.8046086252167
            ],
            [
              299.92258103614733,
              382.80080043783175
            ],
            [
              300.2745053633291,
              382.79598267698515
            ],
            [
              300.28516680009517,
              382.79524416720614
            ],
            [
              300.39685596993525,
              382.7935326404025
            ],
            [
              301.03000898761815,
              382.7493171696975
            ],
            [
              301.67196335428633,
              382.73132308109473
            ],
            [
              302.0047114309967,
              382.70382014394784
            ],
            [
              302.5599947304667,
              382.6824608000711
            ],
            [
              302.8465667244898,
              382.65654737104677
            ],
            [
              303.1724816774357,
              382.6425457946707
            ],
            [
              303.7205476161879,
              382.58869371530864
            ],
            [
              304.1610821654998,
              382.5651873508344
            ],
            [
              305.05578635411615,
              382.4681819050134
            ],
            [
              305.8394065724045,
              382.41345874040985
            ],
            [
              305.8462518448819,
              382.4127879916506
            ],
            [
              306.4531602968815,
              382.3361383506666
            ],
            [
              307.04803975293106,
              382.28696922412877
            ],
            [
              307.2558831556511,
              382.257832525296
            ],
            [
              307.6205891523048,
              382.2248537864226
            ],
            [
              308.03373942018123,
              382.1648864123827
            ],
            [
              308.5104141048814,
              382.1180491230438
            ],
            [
              308.51436162102516,
              382.1174299617533
            ],
            [
              308.51553353840086,
              382.1173148109797
            ],
            [
              309.01618811789405,
              382.0387879850743
            ],
            [
              309.40212856539745,
              381.9969436239464
            ],
            [
              309.9149653979433,
              381.91132944962106
            ],
            [
              309.9371623775724,
              381.908855413954
            ],
            [
              309.9422843030276,
              381.90812074046295
            ],
            [
              310.157472658813,
              381.87084472311244
            ],
            [
              310.2200440288758,
              381.86039891297696
            ],
            [
              311.02010022163523,
              381.7593556341426
            ],
            [
              311.65775259902375,
              381.6407528268787
            ],
            [
              312.2665947552935,
              381.55540178705166
            ],
            [
              312.3525886768555,
              381.538019945299
            ],
            [
              312.53520032289236,
              381.5115144780792
            ],
            [
              313.0593905661902,
              381.40461850424964
            ],
            [
              313.6807374186056,
              381.3071612990133
            ],
            [
              314.1395828534975,
              381.20606197982926
            ],
            [
              314.46585493907264,
              381.1515933585454
            ],
            [
              314.938234230931,
              381.04269697945125
            ],
            [
              314.943257757367,
              381.0418267787492
            ],
            [
              314.98853791292674,
              381.0311006014593
            ],
            [
              315.21021846262704,
              380.9799971564224
            ],
            [
              316.00173566620083,
              380.8327756205665
            ],
            [
              316.59627843108126,
              380.6833554180247
            ],
            [
              317.25822468177563,
              380.5483674246455
            ],
            [
              317.84211952423726,
              380.390266707172
            ],
            [
              318.61945540095354,
              380.21899306699294
            ],
            [
              319.0327464542664,
              380.09879964322437
            ],
            [
              319.30092908796894,
              380.03697619277165
            ],
            [
              319.9682603719184,
              379.8359105337857
            ],
            [
              320.74096346805896,
              379.6417151622342
            ],
            [
              321.4066404670894,
              379.42565747034666
            ],
            [
              322.0161968515074,
              379.260819413794
            ],
            [
              322.026126837393,
              379.25736655114406
            ],
            [
              322.05160737432675,
              379.2504672074997
            ],
            [
              322.5606067135002,
              379.0728263013506
            ],
            [
              323.2802100145974,
              378.86355106100564
            ],
            [
              323.64521851654195,
              378.7280499700861
            ],
            [
              323.8582715145656,
              378.66385750305216
            ],
            [
              324.4467770644526,
              378.4389253206534
            ],
            [
              325.1899998637407,
              378.1976987155488
            ],
            [
              325.85036280113087,
              377.92760015722405
            ],
            [
              326.44564335147686,
              377.7206087272213
            ],
            [
              326.48685009848424,
              377.7025663049298
            ],
            [
              326.52125412348784,
              377.69055929096004
            ],
            [
              326.95756045760254,
              377.498418484455
            ],
            [
              327.61444927057545,
              377.25456347752623
            ],
            [
              327.9295539534254,
              377.1077762659101
            ],
            [
              328.0916644350221,
              377.0458161630329
            ],
            [
              328.6011286914674,
              376.8024947656362
            ],
            [
              329.304061073763,
              376.51498465217196
            ],
            [
              329.94485398345756,
              376.1884752663318
            ],
            [
              330.5156607497407,
              375.9385468572422
            ],
            [
              330.58195866484925,
              375.90230414877755
            ],
            [
              330.6231352182224,
              375.8841707971495
            ],
            [
              330.9889280104898,
              375.68260865791166
            ],
            [
              331.57716436374335,
              375.40858678910155
            ],
            [
              331.8419168924981,
              375.25468625157424
            ],
            [
              331.95832393365623,
              375.19908995887283
            ],
            [
              332.38995547698875,
              374.9425991417812
            ],
            [
              333.04191273935993,
              374.61040107574473
            ],
            [
              333.6481699390328,
              374.2261156725988
            ],
            [
              334.1841573473429,
              373.93311044991606
            ],
            [
              334.26830640069545,
              373.87557872818735
            ],
            [
              334.31396220355276,
              373.8504210939013
            ],
            [
              334.6125267543684,
              373.64413186319024
            ],
            [
              335.1274567855657,
              373.3448032450178
            ],
            [
              335.3426200994782,
              373.1880207905915
            ],
            [
              335.41942394424115,
              373.1423812139606
            ],
            [
              335.77566486009874,
              372.87757046131406
            ],
            [
              336.3663690071994,
              372.5031435985421
            ],
            [
              336.922702879098,
              372.0607989597857
            ],
            [
              337.41352360371934,
              371.7252305817396
            ],
            [
              337.50742799026256,
              371.6439381117847
            ],
            [
              337.555131211857,
              371.61097820124763
            ],
            [
              337.79067366531154,
              371.4042043972074
            ],
            [
              338.2290435133282,
              371.08477865743737
            ],
            [
              338.23205164933245,
              371.0819874458829
            ],
            [
              338.2354573130818,
              371.0795058507232
            ],
            [
              338.4002759548953,
              370.9265726716944
            ],
            [
              338.4405618952996,
              370.8966262233075
            ],
            [
              338.7248697510416,
              370.62788449202895
            ],
            [
              339.2447317412946,
              370.2145388808802
            ],
            [
              339.73563968149153,
              369.7149884788492
            ],
            [
              340.1710864245424,
              369.3380248184967
            ],
            [
              340.26601290333036,
              369.23119777768704
            ],
            [
              340.3131982374931,
              369.18977555890575
            ],
            [
              340.48755710642064,
              368.98981030965643
            ],
            [
              340.857095011045,
              368.6469206589282
            ],
            [
              340.9830999205348,
              368.4932945637875
            ],
            [
              340.9921573613259,
              368.4847330264603
            ],
            [
              341.1061856733802,
              368.3432275255021
            ],
            [
              341.2198430737854,
              368.20465560255735
            ],
            [
              341.64916189675466,
              367.76777859762365
            ],
            [
              342.0593447658885,
              367.2130429013777
            ],
            [
              342.42948601283405,
              366.79649849147336
            ],
            [
              342.5163032550231,
              366.6631220731304
            ],
            [
              342.5602717745822,
              366.612696327502
            ],
            [
              342.678035664658,
              366.4268166706977
            ],
            [
              342.9729616787413,
              366.06724074558196
            ],
            [
              343.2327036203837,
              365.62617984570943
            ],
            [
              343.5569769022307,
              365.1876291935051
            ],
            [
              343.87166087725234,
              364.5809003776886
            ],
            [
              344.1669691139817,
              364.1272214317986
            ],
            [
              344.23640024278626,
              363.9670790314448
            ],
            [
              344.27431630397024,
              363.9072319557733
            ],
            [
              344.34447336073293,
              363.7383131460524
            ],
            [
              344.56289918803105,
              363.36741004378433
            ],
            [
              344.72589523358806,
              362.9338873722885
            ],
            [
              344.95086988578333,
              362.5001232941883
            ],
            [
              345.15612349263597,
              361.8457439555565
            ],
            [
              345.36759480156974,
              361.3579868990031
            ],
            [
              345.41047482920925,
              361.1716761244837
            ],
            [
              345.4393626346993,
              361.1021222699771
            ],
            [
              345.4709818885295,
              360.95217084628706
            ],
            [
              345.6126030938081,
              360.57549911142627
            ],
            [
              345.68635582791103,
              360.15528360165166
            ],
            [
              345.8190486535946,
              359.7322389358596
            ],
            [
              345.9020869529852,
              359.03565521715825
            ],
            [
              346.02135133082584,
              358.517459688112
            ],
            [
              346.02888109254116,
              358.3063848208537
            ],
            [
              346.04562368727386,
              358.22698459434685
            ],
            [
              346.04757832090553,
              358.0971728632318
            ],
            [
              346.1137148786388,
              357.7203514794268
            ],
            [
              346.106777095856,
              357.31857018595315
            ],
            [
              346.15529440273684,
              356.91157285703
            ],
            [
              346.1047627908684,
              356.179263139483
            ],
            [
              346.12418492367055,
              355.6348203990592
            ],
            [
              346.0881733720143,
              355.40116181872963
            ],
            [
              346.0895168342319,
              355.31193939185556
            ],
            [
              346.07024056154484,
              355.2026642149121
            ],
            [
              346.06382676539096,
              354.8312280665059
            ],
            [
              345.98559735897163,
              354.45230449825254
            ],
            [
              345.95894213002276,
              354.066013967141
            ],
            [
              345.76517296952943,
              353.3053949878844
            ],
            [
              345.6779435449918,
              352.7394126138293
            ],
            [
              345.5910308740876,
              352.4860745381003
            ],
            [
              345.57359627839514,
              352.3872396357247
            ],
            [
              345.5408791178084,
              352.29820119447686
            ],
            [
              345.4664027292141,
              351.9374563005881
            ],
            [
              345.3269154233299,
              351.5850644327267
            ],
            [
              345.2347865116464,
              351.22342278353756
            ],
            [
              344.89002278021184,
              350.44273563567276
            ],
            [
              344.69024069674504,
              349.86039927362754
            ],
            [
              344.54609567224014,
              349.59093791794123
            ],
            [
              344.5064010560436,
              349.4829106109125
            ],
            [
              344.46722862513803,
              349.4132063223011
            ],
            [
              344.3306212306678,
              349.06809007968053
            ],
            [
              344.14033085968094,
              348.7451242170473
            ],
            [
              343.99291860712003,
              348.4113221360311
            ],
            [
              343.4914998877935,
              347.6195010906869
            ],
            [
              343.1742459253729,
              347.02643391334755
            ],
            [
              342.9677319421905,
              346.7449688109221
            ],
            [
              342.9022260264727,
              346.6284061379114
            ],
            [
              342.8626642989628,
              346.5766346565859
            ],
            [
              342.67114676851384,
              346.2515860263767
            ],
            [
              342.5870172461507,
              346.1451816068173
            ],
            [
              342.5761512646579,
              346.1269614207083
            ],
            [
              342.4340292782174,
              345.9495844098317
            ],
            [
              342.2485000363629,
              345.6566038078635
            ],
            [
              341.5870074146992,
              344.8631312493061
            ],
            [
              341.1484100593264,
              344.2653516333613
            ],
            [
              340.87571576846796,
              343.97646334919
            ],
            [
              340.7808245979832,
              343.8522863536425
            ],
            [
              340.74594996446905,
              343.81665661373677
            ],
            [
              340.5078385695314,
              343.5155006811052
            ],
            [
              340.3889668795151,
              343.3972203145948
            ],
            [
              340.3558517388944,
              343.35589057522884
            ],
            [
              340.2166942731208,
              343.2194154482972
            ],
            [
              340.021482259447,
              342.9852550497069
            ],
            [
              339.19883997678596,
              342.2000060251253
            ],
            [
              338.63613413919916,
              341.603883812956
            ],
            [
              338.2948659034501,
              341.3125016224055
            ],
            [
              338.1670529153998,
              341.1819212245046
            ],
            [
              338.140925476305,
              341.1603617231042
            ],
            [
              337.86540557230813,
              340.88621238425617
            ],
            [
              337.7080427741736,
              340.75911962552686
            ],
            [
              337.64398375247526,
              340.6962953776938
            ],
            [
              337.52159726963106,
              340.599002493523
            ],
            [
              337.33627924001985,
              340.42210810691824
            ],
            [
              336.35381222268694,
              339.65518806602483
            ],
            [
              335.66539156614186,
              339.0673996406511
            ],
            [
              335.26459758786547,
              338.78569138700254
            ],
            [
              335.1950190865584,
              338.729496887512
            ],
            [
              335.0904657907113,
              338.6432229545715
            ],
            [
              335.0761421619599,
              338.6334869253396
            ],
            [
              335.0275538476772,
              338.5942449763044
            ],
            [
              335.00215867287125,
              338.57343655703926
            ],
            [
              334.9998541814258,
              338.5718735706
            ],
            [
              334.77301732042065,
              338.3886706612209
            ],
            [
              334.57439527866865,
              338.256082137676
            ],
            [
              334.4713016593492,
              338.17412639117504
            ],
            [
              334.37852647042945,
              338.11326736725266
            ],
            [
              334.2214020992213,
              337.99061507759114
            ],
            [
              333.0828496864753,
              337.2521943173965
            ],
            [
              332.2683131875906,
              336.67967659738895
            ],
            [
              331.84238894600907,
              336.4303705715287
            ],
            [
              331.57336703743977,
              336.2479105344229
            ],
            [
              331.5250774219287,
              336.2205348798109
            ],
            [
              331.26388047582316,
              336.046174989376
            ],
            [
              331.02221937756997,
              335.91158417978016
            ],
            [
              330.8728038007052,
              335.8135699771374
            ],
            [
              330.8212975508835,
              335.78543966605906
            ],
            [
              330.709064385006,
              335.7126496049802
            ],
            [
              329.42055167159907,
              335.0127977564205
            ],
            [
              328.48074489196273,
              334.4627011184907
            ],
            [
              328.0673040955535,
              334.2603037347961
            ],
            [
              327.77114213079363,
              334.0924078513793
            ],
            [
              327.66677910575123,
              334.04280419824374
            ],
            [
              327.37479042829176,
              333.8801839305366
            ],
            [
              327.0971911416228,
              333.75087139367474
            ],
            [
              326.83476632314256,
              333.60833613390736
            ],
            [
              325.4047354805561,
              332.95685974412737
            ],
            [
              324.3417868381102,
              332.4364998132772
            ],
            [
              323.9530863750957,
              332.277689340845
            ],
            [
              323.6335660796607,
              332.1258216281357
            ],
            [
              323.46424837957,
              332.0585578057312
            ],
            [
              323.14566695703013,
              331.91015478769657
            ],
            [
              322.88563316444186,
              331.80923716598477
            ],
            [
              322.6368659198709,
              331.6959067527097
            ],
            [
              322.5747436703935,
              331.67227745722954
            ],
            [
              322.5566550550611,
              331.66403716093697
            ],
            [
              322.0334878527634,
              331.4662103233293
            ],
            [
              321.96411425741337,
              331.43532539676295
            ],
            [
              321.5355516639361,
              331.2770024118531
            ],
            [
              321.07597064310266,
              331.1021926483686
            ],
            [
              319.89332275218555,
              330.6190008640832
            ],
            [
              319.53993194584604,
              330.49956826405423
            ],
            [
              319.2012833883835,
              330.36503539233075
            ],
            [
              318.9596292793205,
              330.28557760247384
            ],
            [
              318.61908214868697,
              330.1534132165969
            ],
            [
              318.38371435771995,
              330.0781453897706
            ],
            [
              318.15614409903725,
              329.9915850200152
            ],
            [
              318.02412577645066,
              329.9501378002536
            ],
            [
              317.9257931847827,
              329.91295499223764
            ],
            [
              317.41280393554064,
              329.75394431876305
            ],
            [
              317.31992895595016,
              329.71963370879445
            ],
            [
              316.5849236785832,
              329.4973272504551
            ],
            [
              316.4577117950311,
              329.45789553271845
            ],
            [
              315.1795468407968,
              329.02592457872106
            ],
            [
              314.8701831783614,
              328.9409352531975
            ],
            [
              314.5170584992175,
              328.8248250547925
            ],
            [
              314.2538741879706,
              328.75450375402403
            ],
            [
              314.1355987156444,
              328.71627196716634
            ],
            [
              314.0765552090761,
              328.7007670000384
            ],
            [
              313.83978784950534,
              328.62505160777863
            ],
            [
              313.6351560433991,
              328.57221851233385
            ],
            [
              313.4353702265226,
              328.50949565315
            ],
            [
              313.2293483912626,
              328.4572035302806
            ],
            [
              313.0416780808923,
              328.39903158518246
            ],
            [
              312.54959991336455,
              328.2768210008688
            ],
            [
              312.4303314034299,
              328.2407475727558
            ],
            [
              311.4683739509042,
              328.0063798838908
            ],
            [
              310.2464948525191,
              327.6707015446048
            ],
            [
              309.98791827547706,
              327.6146654127071
            ],
            [
              309.62533805303354,
              327.51778610879046
            ],
            [
              309.3553604910129,
              327.4609698884547
            ],
            [
              309.2698578263189,
              327.4385166826359
            ],
            [
              309.1410484389719,
              327.41190223248094
            ],
            [
              308.85424888581286,
              327.3378545638729
            ],
            [
              308.83966745867247,
              327.3349190235126
            ],
            [
              308.8218098820604,
              327.3303084383817
            ],
            [
              308.6659774826888,
              327.29893624296164
            ],
            [
              308.51887345104507,
              327.2615985399563
            ],
            [
              308.2367177109205,
              327.2056906626015
            ],
            [
              307.9530685965512,
              327.13524469223444
            ],
            [
              307.5415238236597,
              327.05650255118786
            ],
            [
              307.43998163116487,
              327.03189974295793
            ],
            [
              306.41137745217105,
              326.83959322483025
            ],
            [
              305.1415847261188,
              326.5644164339128
            ],
            [
              305.13649796932464,
              326.5634543663759
            ],
            [
              304.93571504588965,
              326.53086463251634
            ],
            [
              304.57182265128904,
              326.45428422962783
            ],
            [
              304.2987662827033,
              326.41139536158374
            ],
            [
              304.2483447028067,
              326.40097731168487
            ],
            [
              304.0671389405773,
              326.37309757249017
            ],
            [
              303.67788387465623,
              326.2947327007082
            ],
            [
              303.52635219971575,
              326.2723531477166
            ],
            [
              303.4521243188871,
              326.25764523053783
            ],
            [
              303.45038482157844,
              326.25739208698275
            ],
            [
              303.44196414054807,
              326.2557235670079
            ],
            [
              303.1259340640316,
              326.2097327577633
            ],
            [
              303.11344947897976,
              326.2072946276002
            ],
            [
              303.07314604242237,
              326.2015539363941
            ],
            [
              302.7099796069659,
              326.13206817307287
            ],
            [
              302.39691673257363,
              326.0890547972066
            ],
            [
              302.3119262309605,
              326.0731650820248
            ],
            [
              301.1691910191169,
              325.91950778249907
            ],
            [
              299.90810465192675,
              325.714816724225
            ],
            [
              299.75988710425077,
              325.69847520095675
            ],
            [
              299.4030519145659,
              325.64242722286554
            ],
            [
              299.1307909543844,
              325.6136068546917
            ],
            [
              299.1165025411271,
              325.61140848511377
            ],
            [
              298.89961124865926,
              325.589034664411
            ],
            [
              298.4239699869005,
              325.5187877089362
            ],
            [
              298.288798651933,
              325.5058004786901
            ],
            [
              298.27120945693633,
              325.50324078145957
            ],
            [
              297.9859168068046,
              325.4761896620625
            ],
            [
              297.8202231604191,
              325.4529199974951
            ],
            [
              297.659557604845,
              325.4381637927186
            ],
            [
              297.3632109515282,
              325.3974471475045
            ],
            [
              297.15381162457595,
              325.3795818679534
            ],
            [
              297.0883462128601,
              325.3707790952087
            ],
            [
              295.8876703884489,
              325.2703041326306
            ],
            [
              295.60456091758147,
              325.2403353880171
            ],
            [
              294.60507035044645,
              325.1301379207452
            ],
            [
              294.5103482395422,
              325.124506764552
            ],
            [
              294.1660056512595,
              325.0880561468606
            ],
            [
              293.6293546674357,
              325.0581221905638
            ],
            [
              293.1089980757781,
              325.00812645095465
            ],
            [
              292.8483191163112,
              324.99627928233474
            ],
            [
              292.7971605907814,
              324.99158066678
            ],
            [
              292.65975343209357,
              324.9855281514713
            ],
            [
              292.6342620290376,
              324.98319678818575
            ],
            [
              292.3888307225006,
              324.97304896684983
            ],
            [
              291.96389626667815,
              324.9367949207883
            ],
            [
              291.85997619765055,
              324.9332585997167
            ],
            [
              291.816815349013,
              324.9296468132836
            ],
            [
              290.58137910017655,
              324.88810858735843
            ],
            [
              289.8119041132722,
              324.84518789714434
            ],
            [
              289.27635743596295,
              324.8133500616127
            ],
            [
              289.23441344790155,
              324.81297593655916
            ],
            [
              288.90772302545156,
              324.79475340995833
            ],
            [
              288.3403585902263,
              324.79140441022935
            ],
            [
              287.7818876557516,
              324.76602338468405
            ],
            [
              287.4262940444081,
              324.76786350665026
            ],
            [
              287.35922489330915,
              324.76509040581004
            ],
            [
              287.01337145428374,
              324.76814391266157
            ],
            [
              286.5448039895709,
              324.7523895900656
            ],
            [
              285.2846092212055,
              324.77336714322746
            ],
            [
              283.67494077190497,
              324.7638657031232
            ],
            [
              283.08256343356254,
              324.7903413967548
            ],
            [
              282.4911652610381,
              324.793401757612
            ],
            [
              282.1850732132267,
              324.81077249486765
            ],
            [
              282.1234971364642,
              324.8113161441471
            ],
            [
              281.7957414142101,
              324.83098446375624
            ],
            [
              281.4191679898544,
              324.8368668111422
            ],
            [
              281.402315060028,
              324.83799289331284
            ],
            [
              281.31931925215974,
              324.83937446464955
            ],
            [
              281.2157221105037,
              324.84642621594367
            ],
            [
              281.21127895505845,
              324.84650383700375
            ],
            [
              281.10563670009185,
              324.8539196170449
            ],
            [
              280.0455951565768,
              324.92607555886156
            ],
            [
              278.5137507682899,
              324.9945397624853
            ],
            [
              278.0060057875625,
              325.0437825101404
            ],
            [
              277.8702362859814,
              325.0508964448997
            ],
            [
              277.767065233444,
              325.0614946432171
            ],
            [
              277.28460275034973,
              325.0888744104815
            ],
            [
              277.2763647005818,
              325.0897831794687
            ],
            [
              277.268284817763,
              325.0902417123379
            ],
            [
              277.0211651366618,
              325.11750239722795
            ],
            [
              276.97342819887075,
              325.12036704698386
            ],
            [
              276.68120016671025,
              325.15344921796714
            ],
            [
              276.3025711327793,
              325.1787485225058
            ],
            [
              276.26204810484427,
              325.1836177302995
            ],
            [
              276.18656493037906,
              325.188755792651
            ],
            [
              275.9832170026946,
              325.2134986298085
            ],
            [
              275.9581621271671,
              325.2152574094342
            ],
            [
              275.598747281904,
              325.2602798869452
            ],
            [
              274.91168800320673,
              325.34387943990833
            ],
            [
              273.46927665490534,
              325.4837691497741
            ],
            [
              273.0798795029,
              325.54298361423065
            ],
            [
              273.0560629787579,
              325.54543015558096
            ],
            [
              272.84738391227705,
              325.5779276221879
            ],
            [
              272.19259278152117,
              325.6501600506435
            ],
            [
              271.98035564260755,
              325.6856163107586
            ],
            [
              271.9542916223995,
              325.68856693245823
            ],
            [
              271.69806002979783,
              325.7320221175695
            ]
          ]
        ]
      }
    }
  ]
}