{
  "type": "FeatureCollection",
  "features": [
    {
      "type": "Feature",
      "properties": {
        "method": "Homography",
        "mode": "tmpl2img",
        "inside_ratio": 1.0
      },
      "geometry": {
        "type": "Polygon",
        "coordinates": [
          [
            [
              477.0492700922216,
              180.61983217032642
            ],
            [
              476.7137578098865,
              180.39234327088525
            ],
            [
              474.7701391547014,
              178.92449146909442
            ],
            [
              472.34235219312416,
              177.3203523961945
            ],
            [
              472.00752281911906,
              177.07181576393145
            ],
            [
              471.75112834677435,
              176.90548469902942
            ],
            [
              470.3468912845247,
              175.88386717637493
            ],
            [
              467.02535207333517,
              173.7683167449024
            ],
            [
              466.06168140057,
              173.08299631415196
            ],
            [
              466.02026818220116,
              173.05565110772474
            ],
            [
              464.57707790510153,
              172.16325569451615
            ],
            [
              461.6617571154715,
              170.1865676480738
            ],
            [
              460.4655042470442,
              169.47282864115337
            ],
            [
              458.61786770501277,
              168.2520189010632
            ],
            [
              456.7123868407709,
              167.1493855657322
            ],
            [
              455.55918442528906,
              166.40126730850872
            ],
            [
              454.7424156913978,
              165.9379399690333
            ],
            [
              454.47583983736763,
              165.76694700249897
            ],
            [
              454.36254976525055,
              165.7031411792328
            ],
            [
              453.9257637815182,
              165.42494401895487
            ],
            [
              451.4222309193392,
              164.02896786155839
            ],
            [
              449.52363197090887,
              162.85497090494607
            ],
            [
              447.89819623993156,
              161.97459965177188
            ],
            [
              445.39224984487555,
              160.4794377686828
            ],
            [
              443.4649311566306,
              159.46918913292905
            ],
            [
              441.3531588554225,
              158.24282234445482
            ],
            [
              439.72188003960383,
              157.4172602071134
            ],
            [
              438.19864062389644,
              156.55317416097182
            ],
            [
              437.1438582214327,
              156.03163580834624
            ],
            [
              436.89835429045064,
              155.89389154286758
            ],
            [
              434.4962363824658,
              154.7158074584534
            ],
            [
              432.1997697709958,
              153.47199132344102
            ],
            [
              430.41883691436624,
              152.63077730691208
            ],
            [
              428.3775818634843,
              151.56080629331933
            ],
            [
              425.96970673259705,
              150.45752194636512
            ],
            [
              423.2168271907136,
              149.06433698227497
            ],
            [
              423.205539807276,
              149.05901666104705
            ],
            [
              423.1666130570632,
              149.04205617437077
            ],
            [
              423.12652986735486,
              149.02177523460094
            ],
            [
              421.7104266860904,
              148.40055811914797
            ],
            [
              420.0833535599304,
              147.59604997052062
            ],
            [
              419.2660230566119,
              147.24636898427684
            ],
            [
              419.1659310179984,
              147.19728028747642
            ],
            [
              416.6361746903382,
              146.1206112414739
            ],
            [
              414.19809439266686,
              144.96899718022965
            ],
            [
              412.2935658490615,
              144.1911371285301
            ],
            [
              410.7550210621497,
              143.48617848732297
            ],
            [
              408.51893294379096,
              142.59861670947924
            ],
            [
              405.82369106383993,
              141.41151554389242
            ],
            [
              405.4770213520982,
              141.2792767260567
            ],
            [
              404.6808149811891,
              140.9299963688089
            ],
            [
              404.63146539479607,
              140.9114205997128
            ],
            [
              404.54161687862995,
              140.8720057287657
            ],
            [
              404.44359943303164,
              140.83511090328426
            ],
            [
              404.349648592126,
              140.79392923261045
            ],
            [
              403.527261357028,
              140.48513936687806
            ],
            [
              403.04073070243226,
              140.27315669050634
            ],
            [
              402.5137875120139,
              140.07920928182298
            ],
            [
              401.37097941425793,
              139.59027822995577
            ],
            [
              398.10795119792505,
              138.39735525905363
            ],
            [
              395.6679620807484,
              137.40079888438854
            ],
            [
              393.6757114331146,
              136.70695440655626
            ],
            [
              392.66164893088904,
              136.30444651345587
            ],
            [
              390.62967822712466,
              135.61568675417647
            ],
            [
              388.00846052012145,
              134.61581073631885
            ],
            [
              387.3636557318526,
              134.40603556905765
            ],
            [
              385.6506667398851,
              133.76124800599982
            ],
            [
              385.4515788974616,
              133.6980841677655
            ],
            [
              385.2588738992301,
              133.62572731689087
            ],
            [
              383.76994676277064,
              133.15555723778974
            ],
            [
              382.2186658045322,
              132.5884280048607
            ],
            [
              379.16199077801576,
              131.65223654695592
            ],
            [
              376.7580833693937,
              130.81502367783082
            ],
            [
              374.7167388904951,
              130.22181358137436
            ],
            [
              374.2338787930884,
              130.05814261708642
            ],
            [
              372.4228040251807,
              129.5453091556609
            ],
            [
              369.90538275705893,
              128.72631327163376
            ],
            [
              369.0509765009387,
              128.49472777893433
            ],
            [
              366.4536727897006,
              127.67069116536176
            ],
            [
              366.1528080996707,
              127.59245661589254
            ],
            [
              365.85889955694915,
              127.49964683399838
            ],
            [
              364.24025025010945,
              127.08203987968778
            ],
            [
              362.7825200953607,
              126.63556961151414
            ],
            [
              361.42387351802887,
              126.2976665710384
            ],
            [
              361.3207898654962,
              126.26633763279787
            ],
            [
              361.28277038730806,
              126.25597145119964
            ],
            [
              359.94272068381747,
              125.9285172483939
            ],
            [
              357.6160793903127,
              125.25240054175477
            ],
            [
              353.72551662595697,
              124.3407856110055
            ],
            [
              351.64128299739144,
              123.77585731338942
            ],
            [
              350.62216731795905,
              123.55398774698936
            ],
            [
              347.1009238590472,
              122.63835056958719
            ],
            [
              346.699881334909,
              122.55667418778866
            ],
            [
              346.30465332555326,
              122.45470647647274
            ],
            [
              344.85343129764317,
              122.16292474719606
            ],
            [
              344.06822384521445,
              121.96607674746643
            ],
            [
              343.7856787116842,
              121.91094838166009
            ],
            [
              343.2172192484933,
              121.76956931796292
            ],
            [
              340.6535579265973,
              121.2778372803701
            ],
            [
              338.38815730752793,
              120.74702126387432
            ],
            [
              334.73365231791587,
              120.09493201376506
            ],
            [
              333.3417462400151,
              119.79190302087879
            ],
            [
              333.28795020931955,
              119.78162152039103
            ],
            [
              332.2041463166776,
              119.604470577223
            ],
            [
              327.7411127501148,
              118.69552847855269
            ],
            [
              327.2437505254057,
              118.62233412166738
            ],
            [
              326.7493930504646,
              118.52293893873437
            ],
            [
              325.49849382808776,
              118.34287199984881
            ],
            [
              324.9752551561011,
              118.24078107882825
            ],
            [
              324.40761722894325,
              118.1617277327769
            ],
            [
              323.6757306788752,
              118.02134567003013
            ],
            [
              321.3849002998202,
              117.71305602289353
            ],
            [
              319.2188777530855,
              117.32656318124621
            ],
            [
              315.4693108803168,
              116.86911236216015
            ],
            [
              314.3846639691397,
              116.69182362512792
            ],
            [
              313.4267889118906,
              116.58895971309958
            ],
            [
              308.52113440599203,
              115.86701862297382
            ],
            [
              307.93351997837055,
              115.81439407259414
            ],
            [
              307.3444966165186,
              115.7296041616192
            ],
            [
              306.30406079304475,
              115.6404960757417
            ],
            [
              306.0391072038282,
              115.60359673063488
            ],
            [
              305.19348235543623,
              115.53408783290972
            ],
            [
              304.30911315173324,
              115.41507340381186
            ],
            [
              302.29978088073665,
              115.26241684508842
            ],
            [
              300.25098691171223,
              115.01246198067933
            ],
            [
              296.5250804251395,
              114.77392565233419
            ],
            [
              295.7142276456654,
              114.68685011118801
            ],
            [
              294.8836079672608,
              114.64569276146494
            ],
            [
              289.58593620217925,
              114.17125309225241
            ],
            [
              288.9162941026319,
              114.15132146991078
            ],
            [
              288.23930607071753,
              114.0933408560957
            ],
            [
              287.4146110233838,
              114.07269540670536
            ],
            [
              287.39879311491404,
              114.07139520202178
            ],
            [
              286.9820915307947,
              114.06186769611169
            ],
            [
              286.2815026567221,
              114.04432912571498
            ],
            [
              285.3994717677384,
              113.97670631127625
            ],
            [
              285.3702453494795,
              113.97621611452352
            ],
            [
              285.2663668443415,
              113.96832407231487
            ],
            [
              283.54088256485255,
              113.94266408010024
            ],
            [
              281.62528607052894,
              113.82002564136921
            ],
            [
              277.97015805300117,
              113.80762837280112
            ],
            [
              277.4119930925021,
              113.77997120179016
            ],
            [
              276.7051313910447,
              113.78786122182873
            ],
            [
              271.07839191873387,
              113.6203836299861
            ],
            [
              270.33704862442374,
              113.6451750144109
            ],
            [
              269.5809953877364,
              113.62624794690224
            ],
            [
              268.0589494799199,
              113.68586439704858
            ],
            [
              267.15777799670457,
              113.67074960205402
            ],
            [
              266.69895935392134,
              113.69220476059738
            ],
            [
              266.6943021367633,
              113.6921355022748
            ],
            [
              266.60719694029683,
              113.69649573082245
            ],
            [
              265.15979300544706,
              113.76417885874444
            ],
            [
              263.4805118912361,
              113.7584831624691
            ],
            [
              259.94259272743494,
              113.97496538326331
            ],
            [
              259.61131362516323,
              113.9786631345235
            ],
            [
              259.02028678423784,
              114.02362072945814
            ],
            [
              253.13917153723332,
              114.22029208264279
            ],
            [
              253.0758379896804,
              114.22672458034157
            ],
            [
              252.9515298272273,
              114.23087805811252
            ],
            [
              252.20271026055988,
              114.30693153439368
            ],
            [
              251.51443200048135,
              114.3338904496141
            ],
            [
              250.4078214925184,
              114.45400672983841
            ],
            [
              249.502835612131,
              114.49632544518104
            ],
            [
              247.33939536806773,
              114.74614415448991
            ],
            [
              245.95320129239073,
              114.83096417385049
            ],
            [
              242.5771563611886,
              115.27439911314097
            ],
            [
              242.44340972417638,
              115.28457280866674
            ],
            [
              242.1438753814429,
              115.32855195434271
            ],
            [
              235.71832538528744,
              115.98115965336731
            ],
            [
              234.72847817628747,
              116.15591031899785
            ],
            [
              234.18200305533242,
              116.21522708697741
            ],
            [
              233.4609220670553,
              116.34873165225875
            ],
            [
              232.56892492352148,
              116.45173314522856
            ],
            [
              230.2822941918916,
              116.88929807650099
            ],
            [
              229.17751561238606,
              117.03440794094182
            ],
            [
              226.0715424326467,
              117.6842323365108
            ],
            [
              219.3273552182024,
              118.87487185556084
            ],
            [
              218.1327083464176,
              119.18667432774348
            ],
            [
              217.72337837231183,
              119.26245974039918
            ],
            [
              217.3492217523031,
              119.3641440910817
            ],
            [
              216.48778021949704,
              119.5289877625633
            ],
            [
              214.12706731679162,
              120.18322729668199
            ],
            [
              213.28499967010794,
              120.35940270705179
            ],
            [
              210.7665536014923,
              121.10923848821508
            ],
            [
              203.91145866664348,
              122.89841619282139
            ],
            [
              202.55679930324013,
              123.38427307324804
            ],
            [
              202.27518333316488,
              123.46080769947895
            ],
            [
              202.20163484483191,
              123.48819901757646
            ],
            [
              201.3882832968921,
              123.71360835777702
            ],
            [
              199.00847134573314,
              124.61006024617096
            ],
            [
              198.40425249879712,
              124.78995884186392
            ],
            [
              196.4536400020234,
              125.57244022812618
            ],
            [
              196.41103617702106,
              125.58848867235173
            ],
            [
              189.60018286692014,
              128.03124294077136
            ],
            [
              188.35159809693909,
              128.62440017903504
            ],
            [
              187.39605216892747,
              128.98434498526382
            ],
            [
              185.05682414903137,
              130.14423307889714
            ],
            [
              184.6604879913184,
              130.30322194349225
            ],
            [
              183.41110327203776,
              130.96025102775488
            ],
            [
              182.87215194398118,
              131.2274858689551
            ],
            [
              176.5192473723372,
              134.2455199034364
            ],
            [
              175.44722575067166,
              134.90907800724148
            ],
            [
              174.63290477013166,
              135.31285275759296
            ],
            [
              172.39727521156314,
              136.75222627199733
            ],
            [
              172.17496558898628,
              136.86913492749648
            ],
            [
              171.49344674540794,
              137.33414144248638
            ],
            [
              170.59867341401366,
              137.91022661262863
            ],
            [
              164.78986137902896,
              141.50575511829027
            ],
            [
              163.89495570577742,
              142.22630558029866
            ],
            [
              163.21617979084456,
              142.66332434774517
            ],
            [
              161.14895117540053,
              144.39228499891715
            ],
            [
              161.06427362483396,
              144.45006126298276
            ],
            [
              160.8133815276204,
              144.67294419275578
            ],
            [
              159.7059153400358,
              145.59919175266415
            ],
            [
              154.52787719562005,
              149.76838844987202
            ],
            [
              153.8080394575051,
              150.53197724632918
            ],
            [
              153.2578998094353,
              150.99209558884505
            ],
            [
              150.30393522620102,
              154.24905762562037
            ],
            [
              145.8427676418503,
              158.98137076521007
            ],
            [
              145.29327993868216,
              159.7736716115932
            ],
            [
              144.8637658231019,
              160.24724234313211
            ],
            [
              142.49652761804438,
              163.80628092738857
            ],
            [
              138.8364202443217,
              169.08375329538995
            ],
            [
              138.44986052798515,
              169.89026701738095
            ],
            [
              138.13197729722657,
              170.36819048161772
            ],
            [
              137.36573363754582,
              172.04791915369486
            ],
            [
              137.33283688370562,
              172.10005222753912
            ],
            [
              137.21052582226224,
              172.3881595122494
            ],
            [
              136.38004613834605,
              174.20870382482673
            ],
            [
              133.60174760273216,
              180.0053137616005
            ],
            [
              133.36799870820983,
              180.81159360577934
            ],
            [
              133.15187811396746,
              181.28536451948796
            ],
            [
              132.6565519954229,
              183.11517813364358
            ],
            [
              132.6052983592243,
              183.23590757367805
            ],
            [
              132.45627369445918,
              183.85503809257855
            ],
            [
              132.04206001799827,
              185.38520942006048
            ],
            [
              130.22112125743772,
              191.66624969264532
            ],
            [
              130.12743179448552,
              192.45815118161264
            ],
            [
              130.0024364197264,
              192.91990401442806
            ],
            [
              129.8021917597464,
              194.88155593877866
            ],
            [
              129.75266128168582,
              195.08733281889604
            ],
            [
              129.68085745337228,
              196.0701802726258
            ],
            [
              129.55986417597234,
              197.25546379242024
            ],
            [
              128.76464585539432,
              203.9769728307152
            ],
            [
              128.79575119513115,
              204.7409253236908
            ],
            [
              128.7505753865242,
              205.18348000588443
            ],
            [
              128.86372076431178,
              207.25510916581342
            ],
            [
              128.8413001955505,
              207.56200086510867
            ],
            [
              128.9552728919587,
              208.931377883606
            ],
            [
              128.99887938565212,
              209.72978861586267
            ],
            [
              129.28830132749985,
              216.8380412797706
            ],
            [
              129.42661205585873,
              217.5613367509127
            ],
            [
              129.44938224245547,
              217.97824624719667
            ],
            [
              129.88773141524877,
              220.1348267169229
            ],
            [
              129.92293038665534,
              220.55774083614034
            ],
            [
              130.33295023470848,
              222.32520432066488
            ],
            [
              130.4110056351187,
              222.7092195362926
            ],
            [
              131.83199294394333,
              230.14026770595467
            ],
            [
              132.05785666829368,
              230.81136046625906
            ],
            [
              132.13623438131916,
              231.1969613882869
            ],
            [
              132.80783375838976,
              233.13198851125077
            ],
            [
              132.81410460405883,
              233.1608050411514
            ],
            [
              132.88534175198498,
              233.3553062732837
            ],
            [
              132.90462484735588,
              233.41086515824722
            ],
            [
              133.03264108487522,
              233.96270192005005
            ],
            [
              133.84333828779145,
              236.1164345413646
            ],
            [
              135.33932000281922,
              240.56133821698245
            ],
            [
              135.39592414464775,
              240.74736034830275
            ],
            [
              135.42034259637046,
              240.80207486523224
            ],
            [
              136.4175621067568,
              243.76504200754982
            ],
            [
              136.67842004016364,
              244.3088462765099
            ],
            [
              136.69208970823072,
              244.34886344329254
            ],
            [
              136.72332046518025,
              244.41337624880475
            ],
            [
              136.83089354070836,
              244.7233181963595
            ],
            [
              136.94558798598902,
              244.95790421820865
            ],
            [
              136.94702073304936,
              244.96201821607585
            ],
            [
              137.2212653115404,
              245.52175059246085
            ],
            [
              137.69997039214272,
              246.5008522414399
            ],
            [
              137.96304435536962,
              247.21913212029224
            ],
            [
              138.18635639445054,
              247.6542809008473
            ],
            [
              138.18690641750712,
              247.65574211549483
            ],
            [
              138.20354212982187,
              247.68776925115074
            ],
            [
              139.67005290759607,
              250.54543146786085
            ],
            [
              141.08656125628053,
              253.4983924033125
            ],
            [
              141.4905311872142,
              254.40356935231847
            ],
            [
              141.64886206657587,
              254.67272959107066
            ],
            [
              141.97523536076315,
              255.39360673105142
            ],
            [
              142.06777761732738,
              255.54790267781888
            ],
            [
              142.64736687362978,
              256.7903283715269
            ],
            [
              142.7321345386113,
              256.9288795047218
            ],
            [
              143.04682395460193,
              257.58490497263614
            ],
            [
              143.283329241749,
              257.96426683792004
            ],
            [
              143.35774219813587,
              258.11798032588035
            ],
            [
              143.4579579114914,
              258.27773805984594
            ],
            [
              143.53363135931997,
              258.43251393446246
            ],
            [
              143.59316744451885,
              258.526784064436
            ],
            [
              143.6588332221119,
              258.66080772292736
            ],
            [
              144.59170219789632,
              260.13582209717384
            ],
            [
              145.26750178808695,
              261.4526940794857
            ],
            [
              148.36365542372468,
              266.1334930861123
            ],
            [
              149.06147402846582,
              267.27406429908
            ],
            [
              149.57716458828912,
              268.15073090233614
            ],
            [
              149.70224196397797,
              268.3213872802024
            ],
            [
              151.24779600966679,
              270.84756591826607
            ],
            [
              151.62156301596588,
              271.3390541662363
            ],
            [
              151.69971045774972,
              271.4644051029668
            ],
            [
              151.86213610409231,
              271.6751626624764
            ],
            [
              152.02971060969358,
              271.9422996451301
            ],
            [
              152.18805388863123,
              272.14686354713757
            ],
            [
              152.35382484979218,
              272.40897382936714
            ],
            [
              153.42289272232063,
              273.7821034939647
            ],
            [
              154.69985395003377,
              275.71262747615486
            ],
            [
              158.44916715212892,
              280.3170729270534
            ],
            [
              161.88198169895233,
              284.83108293538004
            ],
            [
              162.83780385348328,
              285.87478170056715
            ],
            [
              162.98814811196118,
              286.0678865225074
            ],
            [
              164.1312069985217,
              287.29505559008675
            ],
            [
              166.20581466020312,
              289.8428336217609
            ],
            [
              170.56506011350987,
              294.3124683334285
            ],
            [
              174.4805883556525,
              298.5879833671785
            ],
            [
              177.06627824355252,
              300.9783169380806
            ],
            [
              179.7029738498943,
              303.68178163911483
            ],
            [
              184.51394471071967,
              307.86890359254886
            ],
            [
              187.9890803576062,
              311.1083749963447
            ],
            [
              188.25435770297892,
              311.32110477619017
            ],
            [
              188.94713267541474,
              311.961538604484
            ],
            [
              191.9228673828721,
              314.317095375298
            ],
            [
              192.63696646648054,
              314.9385956995395
            ],
            [
              193.4221318527366,
              315.6324103692421
            ],
            [
              193.51877777203063,
              315.70606064225854
            ],
            [
              195.07983391647127,
              317.0646912891752
            ],
            [
              199.87661200664206,
              320.6411603428232
            ],
            [
              203.52288923961316,
              323.5651633403963
            ],
            [
              204.19309839505894,
              324.03006665173814
            ],
            [
              205.1574409783854,
              324.7934289554539
            ],
            [
              207.86420892530447,
              326.63818202814934
            ],
            [
              209.49899969047794,
              327.8839954787572
            ],
            [
              210.29575968207098,
              328.40965797309656
            ],
            [
              212.19546185864334,
              329.826072474212
            ],
            [
              216.8464916323088,
              332.80733322293605
            ],
            [
              220.560312283605,
              335.38349546199817
            ],
            [
              221.70314281472042,
              336.06987928332956
            ],
            [
              222.95973287486703,
              336.9262875237322
            ],
            [
              223.36331493875818,
              337.163202768848
            ],
            [
              223.4572565732968,
              337.22705264526223
            ],
            [
              225.2877402860508,
              338.30061886779333
            ],
            [
              227.02681008399085,
              339.4479703631769
            ],
            [
              228.66827083695281,
              340.38496829253563
            ],
            [
              230.87986318932124,
              341.8025755307275
            ],
            [
              235.2639832522975,
              344.2145177285262
            ],
            [
              238.94278640920842,
              346.42400627474365
            ],
            [
              240.61566373444094,
              347.29086900926615
            ],
            [
              242.17541541069406,
              348.2064918373239
            ],
            [
              242.20766367214935,
              348.2240386221621
            ],
            [
              242.44966367108594,
              348.36596997228287
            ],
            [
              242.47405581014294,
              348.3792421816936
            ],
            [
              244.15756383686954,
              349.2267486653173
            ],
            [
              245.8390302495561,
              350.18658309578916
            ],
            [
              248.46036649908325,
              351.4745637933982
            ],
            [
              250.93516148996244,
              352.8360827261791
            ],
            [
              254.94442481552437,
              354.7158420337115
            ],
            [
              258.48946209766007,
              356.55283310652345
            ],
            [
              260.33773168130006,
              357.3721194842083
            ],
            [
              262.8595130930318,
              358.6416270023115
            ],
            [
              264.06339791319436,
              359.15611735213713
            ],
            [
              264.2987886188435,
              359.27385601388096
            ],
            [
              264.53421833173184,
              359.37237198185016
            ],
            [
              265.7474252534326,
              359.9684752469793
            ],
            [
              269.47075048374666,
              361.52656850928497
            ],
            [
              272.137636073113,
              362.77694859201296
            ],
            [
              275.6800185028706,
              364.17292749772486
            ],
            [
              278.9990945816189,
              365.6441813894147
            ],
            [
              280.9526576139085,
              366.3738851870865
            ],
            [
              284.22416204893517,
              367.7719902491976
            ],
            [
              285.3763513617535,
              368.1825569142674
            ],
            [
              286.5441767859755,
              368.67125473476665
            ],
            [
              288.43857891648037,
              369.33443768003355
            ],
            [
              288.5918405378979,
              369.39766219914463
            ],
            [
              290.0629267178246,
              369.90308133901726
            ],
            [
              291.47530170283585,
              370.39751860092423
            ],
            [
              294.24063062928366,
              371.48727695569306
            ],
            [
              294.296676673533,
              371.5073659829098
            ],
            [
              297.3857072309603,
              372.5120330300975
            ],
            [
              297.779577674599,
              372.6591533194077
            ],
            [
              297.91728800177356,
              372.71185643202244
            ],
            [
              297.9390827076873,
              372.71873236880987
            ],
            [
              300.2525804989205,
              373.5828806436664
            ],
            [
              301.8966738105036,
              374.0878103449571
            ],
            [
              305.99065419818993,
              375.5538494073649
            ],
            [
              307.25413769537636,
              375.9212956058267
            ],
            [
              308.0046385312495,
              376.1840272332628
            ],
            [
              309.9796631631161,
              376.7458482281467
            ],
            [
              310.3842312726488,
              376.884845160292
            ],
            [
              311.43198031062053,
              377.1753957878948
            ],
            [
              311.52683658243507,
              377.2078668356196
            ],
            [
              311.6143513005539,
              377.2346137646834
            ],
            [
              313.4375692680967,
              377.7326925654226
            ],
            [
              315.916997924462,
              378.5390945159882
            ],
            [
              318.6120998368113,
              379.24079142344164
            ],
            [
              319.78557496366676,
              379.61100705420796
            ],
            [
              320.29943644505926,
              379.7396193842926
            ],
            [
              322.01610365079625,
              380.26683779291665
            ],
            [
              323.1024514493271,
              380.53030130643265
            ],
            [
              328.32385213185916,
              382.0487887546636
            ],
            [
              329.7498129701321,
              382.36971997856625
            ],
            [
              329.8906802099895,
              382.4097914650528
            ],
            [
              331.6008974599231,
              382.78633086639474
            ],
            [
              331.9436079645205,
              382.8634623687102
            ],
            [
              332.58716509810574,
              383.04192679318453
            ],
            [
              335.2107956449989,
              383.59878588735637
            ],
            [
              336.24082744423436,
              383.83060807847465
            ],
            [
              337.8704503497126,
              384.2548968030942
            ],
            [
              339.86959989046426,
              384.6473109999059
            ],
            [
              340.2483780562774,
              384.732560003302
            ],
            [
              341.95388559378245,
              385.15942464735906
            ],
            [
              342.96089110380456,
              385.3464147936587
            ],
            [
              344.0448204108172,
              385.6092917691534
            ],
            [
              344.1075419881601,
              385.62249367222023
            ],
            [
              344.55400005361247,
              385.7015968100672
            ],
            [
              350.8652726725099,
              387.12203164366707
            ],
            [
              354.65985112637384,
              387.72679980709137
            ],
            [
              354.94225608476336,
              387.78673956098953
            ],
            [
              356.1468225275751,
              387.9637887043496
            ],
            [
              359.43591475848564,
              388.4879940388994
            ],
            [
              359.9076763030096,
              388.58059637993983
            ],
            [
              360.5366796044712,
              388.66343053135466
            ],
            [
              362.5653778289133,
              388.9867581721546
            ],
            [
              364.16565800788953,
              389.2839130752674
            ],
            [
              365.24389450902856,
              389.4136518661413
            ],
            [
              373.34512333716833,
              390.70480062996
            ],
            [
              384.6397110967599,
              391.74745320732654
            ],
            [
              386.1612478947312,
              391.93053209981156
            ],
            [
              387.23851876892144,
              391.987360459813
            ],
            [
              395.4923355907772,
              392.7493062311474
            ],
            [
              406.2161066462482,
              392.98846911482315
            ],
            [
              407.6826784072768,
              393.06583393551466
            ],
            [
              408.7726294746454,
              393.0454850067793
            ],
            [
              417.0397007127255,
              393.2298582637831
            ],
            [
              427.04797154001534,
              392.70429204471446
            ],
            [
              428.4784075834143,
              392.6775864044832
            ],
            [
              429.5929375203332,
              392.57064776482474
            ],
            [
              437.7289468099937,
              392.14339997002907
            ],
            [
              446.9015035496023,
              390.9098987400833
            ],
            [
              448.30794044036185,
              390.77495176120385
            ],
            [
              449.4550565821924,
              390.5665036654406
            ],
            [
              457.31556759917817,
              389.5094428826505
            ],
            [
              465.55941232609587,
              387.64010226121195
            ],
            [
              466.9461199849713,
              387.3881168167391
            ],
            [
              468.12782470135056,
              387.0576995420277
            ],
            [
              475.57322666292805,
              385.36941054692795
            ],
            [
              482.8241380841928,
              382.9484531718229
            ],
            [
              484.1869488686721,
              382.5673967038927
            ],
            [
              485.3972829367252,
              382.0893233816592
            ],
            [
              492.2975851789729,
              379.7854285147328
            ],
            [
              498.5204842546237,
              376.9057524832618
            ],
            [
              499.84681979298,
              376.3818594078157
            ],
            [
              501.0701797178363,
              375.72586882714904
            ],
            [
              507.3094344497717,
              372.8386241382552
            ],
            [
              512.4976113779173,
              369.598246548615
            ],
            [
              513.7670657315074,
              368.91753919370717
            ],
            [
              514.9768940022026,
              368.04976199121796
            ],
            [
              520.4570539543141,
              364.627020681087
            ],
            [
              522.5143945276618,
              362.90089987672405
            ],
            [
              522.5643639510347,
              362.8680282575156
            ],
            [
              522.7739840961315,
              362.6831027066208
            ],
            [
              523.6427084027376,
              361.9542379195864
            ],
            [
              523.7502904997569,
              361.8813513394338
            ],
            [
              523.9881743056782,
              361.66439000136
            ],
            [
              524.6303711454703,
              361.12558308722583
            ],
            [
              525.8157777727548,
              360.27532287118004
            ],
            [
              526.9737004258401,
              359.159516080763
            ],
            [
              531.6177577085845,
              355.2631247898808
            ],
            [
              533.074616007461,
              353.59595113663534
            ],
            [
              533.2777227700655,
              353.4167716501289
            ],
            [
              534.0448446944812,
              352.49222859463896
            ],
            [
              534.3407881633062,
              352.2223140843658
            ],
            [
              534.8976889522952,
              351.5237381800762
            ],
            [
              535.8888759093707,
              350.56860258934563
            ],
            [
              536.9443329253298,
              349.16759314476855
            ],
            [
              540.6986330521406,
              344.87131377256236
            ],
            [
              540.7086018578703,
              344.8578082356557
            ],
            [
              540.7216468080935,
              344.83658735382426
            ],
            [
              540.7385073376059,
              344.81729289501135
            ],
            [
              541.6524951579098,
              343.3234117736152
            ],
            [
              541.938996318974,
              342.97811769400505
            ],
            [
              542.5503426640779,
              341.924255484869
            ],
            [
              542.8312913539258,
              341.57183367302093
            ],
            [
              543.2784586212637,
              340.7596998921157
            ],
            [
              543.9104535763295,
              339.9207923027636
            ],
            [
              544.7920702738571,
              338.21502314134665
            ],
            [
              547.6463635875193,
              333.5717995021751
            ],
            [
              547.6662956347244,
              333.5213884055098
            ],
            [
              547.6679547722445,
              333.51868943045787
            ],
            [
              547.6985085145088,
              333.4414144293766
            ],
            [
              547.8276849000179,
              333.2302801457497
            ],
            [
              548.2991251992187,
              332.01428430268203
            ],
            [
              548.4913339724902,
              331.68294746875995
            ],
            [
              548.922783083901,
              330.5086218249321
            ],
            [
              549.1667859148087,
              330.06547010945377
            ],
            [
              549.4793226610932,
              329.1460359089147
            ],
            [
              549.8324477916565,
              328.4628025269573
            ],
            [
              550.464072245509,
              326.44688856537255
            ],
            [
              552.4283041941276,
              321.47905108142317
            ],
            [
              552.4385120538859,
              321.4289395514573
            ],
            [
              552.4678357534236,
              321.3547765474537
            ],
            [
              552.5077221559037,
              321.15896197832626
            ],
            [
              552.6232530834096,
              320.8609706359302
            ],
            [
              552.7945561281326,
              319.9703630761201
            ],
            [
              552.9056551010574,
              319.6679719726
            ],
            [
              553.1372857164062,
              318.38488101248214
            ],
            [
              553.3209689088133,
              317.8445138038988
            ],
            [
              553.4778048128218,
              316.8281578123754
            ],
            [
              553.6337116366776,
              316.33056032241086
            ],
            [
              553.9017613660506,
              314.3151964230851
            ],
            [
              555.0442319140817,
              308.7064584997636
            ],
            [
              555.0604870492627,
              308.18974813262247
            ],
            [
              555.1243510260114,
              307.85771818765966
            ],
            [
              555.1333636311341,
              307.3278386434474
            ],
            [
              555.1793192388279,
              307.07327287855384
            ],
            [
              555.1957084915877,
              305.69549206398824
            ],
            [
              555.2947870767509,
              305.0534253492017
            ],
            [
              555.2797950118922,
              303.95428589996453
            ],
            [
              555.3185835341491,
              303.66264976356916
            ],
            [
              555.2612744681143,
              301.8072148680298
            ],
            [
              555.4567663549713,
              295.5930134109277
            ],
            [
              555.3475665804406,
              294.73417014229534
            ],
            [
              555.3536401489547,
              294.3770858505674
            ],
            [
              555.3321177597978,
              294.2280947887986
            ],
            [
              555.3343550569059,
              294.04001391302063
            ],
            [
              555.1246994670594,
              292.5834951968227
            ],
            [
              555.1145237397861,
              291.8374643211307
            ],
            [
              554.9173673008543,
              290.67289698098267
            ],
            [
              554.9150580802783,
              290.5981337932057
            ],
            [
              554.7797409364005,
              289.8599629976883
            ],
            [
              554.5712053025127,
              288.62818081585885
            ],
            [
              553.7486582951688,
              282.1589462082851
            ],
            [
              553.4889843681963,
              281.219859925016
            ],
            [
              553.4153596105543,
              280.7083742186467
            ],
            [
              552.9734338053396,
              279.190434258313
            ],
            [
              552.8295535309775,
              278.3405595632204
            ],
            [
              551.7531496392847,
              274.94237722613695
            ],
            [
              549.9844556566647,
              268.546062133221
            ],
            [
              549.6263349351754,
              267.693719049056
            ],
            [
              549.487177975008,
              267.21573856434975
            ],
            [
              548.8111519849202,
              265.654558274608
            ],
            [
              548.5098819320294,
              264.7034556444505
            ],
            [
              546.8701349842502,
              261.1338418187342
            ],
            [
              544.247487228768,
              254.8918246934793
            ],
            [
              543.8231543673656,
              254.1355284147522
            ],
            [
              543.6324664878048,
              253.69516345330163
            ],
            [
              543.0134214422385,
              252.61381837758714
            ],
            [
              543.0111284178352,
              252.60864589512505
            ],
            [
              542.9851168964911,
              252.56437612555752
            ],
            [
              542.724606487519,
              252.1093177256516
            ],
            [
              542.2435783631809,
              251.06215331683688
            ],
            [
              540.0124569485965,
              247.3436521794697
            ],
            [
              536.6372793995026,
              241.32801103392788
            ],
            [
              536.607351309036,
              241.28061795356174
            ],
            [
              536.1632726050993,
              240.64800948218283
            ],
            [
              535.9492317738458,
              240.2741239296858
            ],
            [
              534.888971147359,
              238.78530868304063
            ],
            [
              534.8584683608518,
              238.73339509779532
            ],
            [
              534.7908880616928,
              238.64111823506113
            ],
            [
              534.1341990749214,
              237.5466467606589
            ],
            [
              531.3501560509712,
              233.791525982882
            ],
            [
              527.2375614861024,
              227.9329650159036
            ],
            [
              526.7490944405279,
              227.35531473218828
            ],
            [
              526.5484239731022,
              227.07353377756502
            ],
            [
              525.198072159319,
              225.49358739152407
            ],
            [
              524.2982808867065,
              224.27994777662758
            ],
            [
              521.0350576718952,
              220.59802170596427
            ],
            [
              516.2321951520522,
              214.918263117554
            ],
            [
              515.7164554151548,
              214.39985170291226
            ],
            [
              515.5516474559226,
              214.20702214775275
            ],
            [
              513.9966621233574,
              212.65653246059628
            ],
            [
              512.8629703518689,
              211.37737715469743
            ],
            [
              509.1426771277099,
              207.79201938428363
            ],
            [
              503.7246956057929,
              202.3459711853904
            ],
            [
              503.19859180714525,
              201.8896806351336
            ],
            [
              503.0890369376234,
              201.78044250162978
            ],
            [
              501.3436842025765,
              200.27589680983908
            ],
            [
              499.9638364017421,
              198.94609624398157
            ],
            [
              495.80890303754217,
              195.48059337219146
            ],
            [
              489.85548062560576,
              190.31718190240775
            ],
            [
              489.3354762453349,
              189.9244663023118
            ],
            [
              489.2973321941224,
              189.89158500171587
            ],
            [
              488.10013464268036,
              188.99151662493406
            ],
            [
              487.346474227859,
              188.42234026162407
            ],
            [
              485.7428988822725,
              187.0848470991119
            ],
            [
              481.1765204100061,
              183.76269275081282
            ],
            [
              478.6155206019747,
              181.82858485745825
            ],
            [
              477.0492700922216,
              180.61983217032642
            ]
          ]
        ]
      }
    }
  ]
}