{
  "type": "FeatureCollection",
  "features": [
    {
      "type": "Feature",
      "properties": {
        "method": "Homography",
        "mode": "tmpl2img",
        "inside_ratio": 1.0
      },
      "geometry": {
        "type": "Polygon",
        "coordinates": [
          [
            [
              410.0879112869688,
              199.728285609267
            ],
            [
              410.30867116313635,
              198.57366361825314
            ],
            [
              410.4632024505229,
              197.9535393199667
            ],
            [
              410.6238388745482,
              197.09541465521548
            ],
            [
              410.9100998489401,
              195.88447666560265
            ],
            [
              410.91243313022073,
              195.87309921889926
            ],
            [
              410.9221114203989,
              195.81670283852634
            ],
            [
              410.9473273042674,
              195.70998277427958
            ],
            [
              410.9566589118156,
              195.66448025435366
            ],
            [
              411.0163101458766,
              195.31687950937402
            ],
            [
              411.30786661149125,
              194.03032827549882
            ],
            [
              411.3866784459278,
              193.5539261495373
            ],
            [
              411.595575758316,
              192.59855606605828
            ],
            [
              411.630263166879,
              192.3781812783543
            ],
            [
              411.63977006919845,
              192.3343587552244
            ],
            [
              411.7125794443374,
              191.8683406874054
            ],
            [
              411.8060024694106,
              191.42795367542047
            ],
            [
              412.0578188243,
              189.7675827170735
            ],
            [
              412.1216502812133,
              189.45306853540325
            ],
            [
              412.29883595743775,
              188.21490734579032
            ],
            [
              412.4702512106927,
              187.268131555032
            ],
            [
              412.5622019600781,
              186.78720921005092
            ],
            [
              412.56456756162305,
              186.77217684342526
            ],
            [
              412.57545418194906,
              186.68706525897522
            ],
            [
              412.606997263647,
              186.51284373814454
            ],
            [
              412.60936232926133,
              186.49781471460358
            ],
            [
              412.7983006969373,
              185.02094571213573
            ],
            [
              412.8057519448483,
              184.9759043757701
            ],
            [
              412.9737277634387,
              184.01033411276825
            ],
            [
              412.99180841099167,
              183.85122942484793
            ],
            [
              413.2251862840633,
              182.44050582368928
            ],
            [
              413.29002323859527,
              181.83345370653097
            ],
            [
              413.4376490390051,
              180.89556281827657
            ],
            [
              413.5012957752185,
              180.2499038144455
            ],
            [
              413.5692004787741,
              179.802168806228
            ],
            [
              413.69432199252265,
              178.46334792986966
            ],
            [
              413.78161237542713,
              177.85336880147477
            ],
            [
              413.9145214149733,
              176.29581593240547
            ],
            [
              414.10546137343886,
              174.80330115386283
            ],
            [
              414.119380881744,
              174.60497667527477
            ],
            [
              414.13419040675444,
              174.48850421216136
            ],
            [
              414.2382836917046,
              172.9551293030154
            ],
            [
              414.4748889866826,
              170.7398533653711
            ],
            [
              414.49998330419817,
              170.23337232079223
            ],
            [
              414.5249510190128,
              169.9996308525284
            ],
            [
              414.5354748008609,
              169.75876099609565
            ],
            [
              414.60088106141814,
              169.09525264438992
            ],
            [
              414.60480970569427,
              168.9993752031567
            ],
            [
              414.6126075668046,
              168.92039652900897
            ],
            [
              414.633291306122,
              168.41622108685036
            ],
            [
              414.6637208726065,
              168.0906196963293
            ],
            [
              414.6837914262691,
              167.5385860378629
            ],
            [
              414.69276571784064,
              167.44053831628378
            ],
            [
              414.70766240421665,
              167.0010454064255
            ],
            [
              414.77739716313675,
              166.18382805081865
            ],
            [
              414.81432767244996,
              164.88827811411443
            ],
            [
              414.8265426796144,
              164.73576476973543
            ],
            [
              414.8321917838047,
              164.4488815439899
            ],
            [
              414.9292265087706,
              163.06633549297166
            ],
            [
              414.933926911803,
              162.70776454839734
            ],
            [
              414.952281329241,
              162.43738972855394
            ],
            [
              414.9675002199792,
              160.79743306111092
            ],
            [
              415.0547941482089,
              159.03557124033614
            ],
            [
              415.04917108785395,
              158.27896449182612
            ],
            [
              415.09700916399737,
              157.11288988517356
            ],
            [
              415.09705398128636,
              157.10923254235473
            ],
            [
              415.0966174504891,
              157.0865297555624
            ],
            [
              415.0976365950436,
              157.06168798571971
            ],
            [
              415.09768141063586,
              157.05803078136108
            ],
            [
              415.08740415077847,
              156.4373572118085
            ],
            [
              415.08876541532925,
              156.39991609962178
            ],
            [
              415.08050788387453,
              156.00108604320602
            ],
            [
              415.0926766264168,
              155.64207492262727
            ],
            [
              415.08595961818565,
              155.35922593750212
            ],
            [
              415.10904187122566,
              154.54948320658315
            ],
            [
              415.06238598345294,
              152.90824515690807
            ],
            [
              415.06824881766994,
              152.46099797663916
            ],
            [
              415.06988476594654,
              152.37791823431348
            ],
            [
              415.06947034548205,
              152.36781354577056
            ],
            [
              415.0822489428671,
              151.3929963431435
            ],
            [
              415.0595271157997,
              150.88080221438807
            ],
            [
              415.0634390995465,
              150.45925481417015
            ],
            [
              414.97836289362766,
              148.75142001395204
            ],
            [
              414.96855698001315,
              147.43199252220307
            ],
            [
              414.9473841989166,
              147.107178488538
            ],
            [
              414.93358228819636,
              146.1695405968685
            ],
            [
              414.91231686085933,
              145.8633272991554
            ],
            [
              414.90414372771295,
              145.36972805236022
            ],
            [
              414.86003285852365,
              144.78240472782176
            ],
            [
              414.8517113922974,
              144.34962776595341
            ],
            [
              414.80220424475,
              143.7556989342674
            ],
            [
              414.7822078887137,
              143.05227688090935
            ],
            [
              414.63861529824055,
              141.3926320478325
            ],
            [
              414.57177884453677,
              139.8860085232628
            ],
            [
              414.5040933466456,
              139.23084927012962
            ],
            [
              414.4759075880178,
              138.66504336776424
            ],
            [
              414.3052439900101,
              137.1217307720871
            ],
            [
              414.3037734872037,
              137.10055614405096
            ],
            [
              414.25264290940373,
              136.29023919977067
            ],
            [
              414.2406940807549,
              136.1922389603509
            ],
            [
              414.1862104975401,
              135.40769805155762
            ],
            [
              414.11122326479966,
              134.81222394936228
            ],
            [
              414.0429511153205,
              133.9032002427947
            ],
            [
              413.8987140012585,
              132.84084423992417
            ],
            [
              413.80783065029425,
              131.79041341095947
            ],
            [
              413.5637901187355,
              130.12921923580757
            ],
            [
              413.4103614277779,
              128.6441119424373
            ],
            [
              413.28110150423333,
              127.86040019805836
            ],
            [
              413.2037842208484,
              127.16121924376887
            ],
            [
              413.0019436324878,
              126.00342718502536
            ],
            [
              412.8650180364639,
              124.91610013772939
            ],
            [
              412.7067596427758,
              124.06169002501791
            ],
            [
              412.52963441599326,
              122.75710174927463
            ],
            [
              412.34526997861946,
              121.83470132863268
            ],
            [
              412.2017601584599,
              120.85782393940863
            ],
            [
              412.0479649148901,
              120.12856975852078
            ],
            [
              411.99640697936195,
              119.78535151268918
            ],
            [
              411.80390322071764,
              118.90404611857285
            ],
            [
              411.6154663322617,
              117.76154039438357
            ],
            [
              411.40919255198617,
              116.86713518558368
            ],
            [
              411.2665969052339,
              116.04918222198054
            ],
            [
              411.0807877605135,
              115.28334477050618
            ],
            [
              410.9861479976975,
              114.77240081023096
            ],
            [
              410.7644484638956,
              113.88059549474461
            ],
            [
              410.73421343059545,
              113.72075296751211
            ],
            [
              410.6864971713908,
              113.535634778991
            ],
            [
              410.3845993868335,
              112.02519899519758
            ],
            [
              410.3834651969143,
              112.02098296590617
            ],
            [
              410.3786601069529,
              111.99694243450506
            ],
            [
              410.1675847713511,
              111.21233119671611
            ],
            [
              409.98440200176157,
              110.34372955799756
            ],
            [
              409.75575358738786,
              109.52737039767771
            ],
            [
              409.6784092828944,
              109.17327885558673
            ],
            [
              409.46343423548257,
              108.4303073394704
            ],
            [
              409.20912001993236,
              107.32759831480199
            ],
            [
              408.91177756806144,
              106.3434767110844
            ],
            [
              408.6888855437147,
              105.42479716958753
            ],
            [
              408.48998945906834,
              104.79820286538263
            ],
            [
              408.42609361915476,
              104.5425957990343
            ],
            [
              408.14284908888965,
              103.66739420241521
            ],
            [
              408.06057298110403,
              103.34819893679837
            ],
            [
              408.01597298067924,
              103.2143394583135
            ],
            [
              407.62685310082264,
              101.76789935336605
            ],
            [
              407.3916951857429,
              101.08681008582106
            ],
            [
              407.18036684485946,
              100.33228997514337
            ],
            [
              406.86175278541424,
              99.43868140579075
            ],
            [
              406.7632146448941,
              99.09812545504104
            ],
            [
              406.536703497898,
              98.48263582495271
            ],
            [
              406.2175489303534,
              97.42632212716038
            ],
            [
              405.81665519903146,
              96.37623707576934
            ],
            [
              405.49979717023797,
              95.37802016045654
            ],
            [
              405.29500446911646,
              94.86779565132483
            ],
            [
              405.21615115660853,
              94.62414559765699
            ],
            [
              404.87524525142226,
              93.78796789148475
            ],
            [
              404.79775914173376,
              93.55540622932185
            ],
            [
              404.7609653725917,
              93.46741168733138
            ],
            [
              404.29727453674116,
              92.12442116267185
            ],
            [
              404.0471753229423,
              91.54470916876355
            ],
            [
              403.8181344832618,
              90.90232428021388
            ],
            [
              403.3984619926276,
              89.95521839390099
            ],
            [
              403.2789758760771,
              89.63054357478288
            ],
            [
              403.05170868302434,
              89.13384644319594
            ],
            [
              402.67083917964885,
              88.13621205587975
            ],
            [
              402.28814708328656,
              87.32663940930638
            ],
            [
              402.2160232757507,
              87.14375316942453
            ],
            [
              402.2099540654135,
              87.12984897428845
            ],
            [
              402.08841950545207,
              86.87884765621213
            ],
            [
              401.732701331517,
              85.99260449575375
            ],
            [
              401.5367984715723,
              85.59938937755706
            ],
            [
              401.4427094382064,
              85.36860677481387
            ],
            [
              401.0453301384288,
              84.58124350686899
            ],
            [
              400.97860850014945,
              84.4216746413447
            ],
            [
              400.95157669641134,
              84.36933414536828
            ],
            [
              400.42275810030543,
              83.14357066496316
            ],
            [
              400.16647964592204,
              82.66136527426227
            ],
            [
              399.92973673425433,
              82.12709007112848
            ],
            [
              399.40000949992987,
              81.15298266203288
            ],
            [
              399.2595221156175,
              80.84594458990841
            ],
            [
              399.06029939780285,
              80.49171534231102
            ],
            [
              399.0563768562722,
              80.4832477631044
            ],
            [
              399.03704196501906,
              80.44903258158027
            ],
            [
              398.60261670990934,
              79.53002012521985
            ],
            [
              398.54662303737547,
              79.43340958251818
            ],
            [
              398.543309853549,
              79.42641409238732
            ],
            [
              398.1603069405032,
              78.76624633791683
            ],
            [
              398.10673862172155,
              78.65561345600995
            ],
            [
              397.9223384871676,
              78.34446563452533
            ],
            [
              397.4248300381014,
              77.34586947492507
            ],
            [
              397.2490406627507,
              77.05931448525057
            ],
            [
              397.14029314659524,
              76.84384327235962
            ],
            [
              396.6899558762566,
              76.11774466502827
            ],
            [
              396.63955919711356,
              76.02016378558405
            ],
            [
              396.62291637943895,
              75.9939093091058
            ],
            [
              396.0396121105366,
              74.89638254446375
            ],
            [
              395.78544393260796,
              74.50621264226334
            ],
            [
              395.5504617188165,
              74.07410739898182
            ],
            [
              394.90395891185995,
              73.10150714097368
            ],
            [
              394.7420728641373,
              72.81366460218773
            ],
            [
              394.5403305900029,
              72.52101984215497
            ],
            [
              394.04975003852184,
              71.6745803933631
            ],
            [
              394.0292131099271,
              71.64563486293864
            ],
            [
              394.0079470376107,
              71.60897933179375
            ],
            [
              393.53856142958244,
              70.94749336776947
            ],
            [
              393.52867030631626,
              70.93080356728515
            ],
            [
              393.43608657114925,
              70.80307973565708
            ],
            [
              393.25169265087527,
              70.5432209158961
            ],
            [
              392.6169444704007,
              69.5085152748828
            ],
            [
              392.4713370368165,
              69.3158797829648
            ],
            [
              392.34882060993556,
              69.11834115404507
            ],
            [
              391.8502807353967,
              68.46495281389564
            ],
            [
              391.820343597919,
              68.41772620317701
            ],
            [
              391.81353463625845,
              68.40899199741236
            ],
            [
              391.18732433475816,
              67.44770559998578
            ],
            [
              391.16518145694,
              67.42005701214003
            ],
            [
              391.16075450318857,
              67.41326125095154
            ],
            [
              390.93804033892957,
              67.13517043561299
            ],
            [
              390.7185805069068,
              66.80501457712606
            ],
            [
              389.951045924348,
              65.8638622610187
            ],
            [
              389.7669495040637,
              65.59681435067097
            ],
            [
              389.6139717196164,
              65.41672940037157
            ],
            [
              389.0317257056032,
              64.59619387628311
            ],
            [
              388.08151108903866,
              63.50823480154253
            ],
            [
              387.3530286773091,
              62.54446829397279
            ],
            [
              387.24628442375644,
              62.43093695729667
            ],
            [
              387.11130721487643,
              62.25403529111155
            ],
            [
              386.579854394932,
              61.693345545032784
            ],
            [
              385.88177670214935,
              60.82169467630762
            ],
            [
              385.6460159429101,
              60.585026583782195
            ],
            [
              385.4750956659055,
              60.375443825920975
            ],
            [
              384.7255404193498,
              59.63537863004712
            ],
            [
              384.7126442221401,
              59.62004264568954
            ],
            [
              384.6175734481398,
              59.5287786188244
            ],
            [
              384.58488060388294,
              59.49649969568952
            ],
            [
              384.37731032121917,
              59.25214863404463
            ],
            [
              384.30394153142436,
              59.18306340441441
            ],
            [
              383.6566500815593,
              58.4419396681384
            ],
            [
              382.4973726377696,
              57.38007674816765
            ],
            [
              381.6800087630595,
              56.5107427076099
            ],
            [
              381.61926251459545,
              56.45985557679406
            ],
            [
              381.47359771693107,
              56.30617729087627
            ],
            [
              380.94784837173904,
              55.8687779553303
            ],
            [
              380.2210978971557,
              55.13923055689234
            ],
            [
              379.9758166903702,
              54.94579072039545
            ],
            [
              379.86350997567064,
              54.8349059107815
            ],
            [
              378.9118870521281,
              54.09588087781307
            ],
            [
              377.9271667472375,
              53.19390699405137
            ],
            [
              376.57468252787487,
              52.230504599695635
            ],
            [
              375.96442518097166,
              51.72279848367341
            ],
            [
              375.64749452566554,
              51.45730568164233
            ],
            [
              375.6382151027359,
              51.45140666402998
            ],
            [
              375.4841196980089,
              51.323206356683585
            ],
            [
              374.97141752277184,
              50.99909553976015
            ],
            [
              374.2262012190692,
              50.411384308928184
            ],
            [
              373.9753914042386,
              50.26222600391176
            ],
            [
              373.92961245413653,
              50.22667432763886
            ],
            [
              372.98096055458643,
              49.67062234441917
            ],
            [
              371.8899540940216,
              48.89347594868767
            ],
            [
              370.39148329428144,
              48.10383529716138
            ],
            [
              369.19365401318447,
              47.34661317955846
            ],
            [
              368.70031657864416,
              47.125103079356016
            ],
            [
              367.94678338660833,
              46.676971758130165
            ],
            [
              367.3534450074114,
              46.43015024261581
            ],
            [
              367.32953484737413,
              46.416326306237174
            ],
            [
              367.10986534752345,
              46.32882408049191
            ],
            [
              366.6979257289289,
              46.15746223280186
            ],
            [
              365.5937239318136,
              45.575587279591524
            ],
            [
              363.95444709569676,
              44.99419236571335
            ],
            [
              362.65511702603726,
              44.410788971256856
            ],
            [
              362.1864464850118,
              44.28074199481738
            ],
            [
              361.4345494460773,
              43.96796201433943
            ],
            [
              360.76873301352396,
              43.80292406548036
            ],
            [
              360.7117649578543,
              43.78023164950873
            ],
            [
              360.2583893333183,
              43.676423621702014
            ],
            [
              360.1937347011352,
              43.66039748092501
            ],
            [
              359.0890303318432,
              43.26859697017857
            ],
            [
              357.3167317025145,
              42.9294906825644
            ],
            [
              355.9233485688337,
              42.54285391388913
            ],
            [
              355.4836574149603,
              42.492896265504534
            ],
            [
              354.7430116545705,
              42.30931014304229
            ],
            [
              354.01035031760483,
              42.245829269560616
            ],
            [
              353.9161010749239,
              42.22424930919925
            ],
            [
              353.4797505647533,
              42.19533425556517
            ],
            [
              352.4280801467854,
              41.99411080183604
            ],
            [
              350.533205113657,
              41.930426556346156
            ],
            [
              349.0548988798304,
              41.76246160551955
            ],
            [
              348.64754784644373,
              41.7811734074021
            ],
            [
              347.9272861174476,
              41.71876688833535
            ],
            [
              347.1350722015176,
              41.77489996964188
            ],
            [
              347.00000734051406,
              41.76594980777218
            ],
            [
              346.6388905953025,
              41.79954379233286
            ],
            [
              345.6645391658275,
              41.76679712854748
            ],
            [
              343.6602288682032,
              42.010267522764174
            ],
            [
              342.1078072681838,
              42.081578512635396
            ],
            [
              341.7363839184493,
              42.15742923637609
            ],
            [
              341.0417396748182,
              42.20664892442397
            ],
            [
              340.197748495879,
              42.39875064481454
            ],
            [
              340.0223845037715,
              42.41506441403986
            ],
            [
              339.73794350277876,
              42.48672087695282
            ],
            [
              338.85332753010846,
              42.59417819025131
            ],
            [
              336.7554272370348,
              43.17462206898405
            ],
            [
              335.14136494798544,
              43.50423999116907
            ],
            [
              334.80890628010474,
              43.62531069237169
            ],
            [
              334.1483146511432,
              43.77566864819714
            ],
            [
              333.2620467244924,
              44.11813075003267
            ],
            [
              333.04332337272115,
              44.173231602892514
            ],
            [
              332.83523283673253,
              44.25925552396891
            ],
            [
              332.0503978665734,
              44.47640247596646
            ],
            [
              329.8774353297562,
              45.42119301882704
            ],
            [
              328.2158543851627,
              46.026287093680104
            ],
            [
              327.92287155609,
              46.181237283904764
            ],
            [
              327.303460406179,
              46.420583465706336
            ],
            [
              326.38684711069465,
              46.92499628962326
            ],
            [
              326.12383211366716,
              47.03372579641068
            ],
            [
              325.99006929581867,
              47.111395497372776
            ],
            [
              325.3124896137991,
              47.40600291225593
            ],
            [
              323.08561927739794,
              48.73952086353118
            ],
            [
              321.3922576381841,
              49.635091122515774
            ],
            [
              321.1385801701216,
              49.813120606860494
            ],
            [
              320.5663874685545,
              50.12799857977092
            ],
            [
              319.63251449984034,
              50.80292493577886
            ],
            [
              319.3255298313877,
              50.98117631969536
            ],
            [
              319.2624443269801,
              51.02895475825123
            ],
            [
              318.6968532332268,
              51.367647974589545
            ],
            [
              316.4466813663145,
              53.10538235738486
            ],
            [
              316.4233755356769,
              53.12222588950963
            ],
            [
              316.1568916311357,
              53.309242862177065
            ],
            [
              315.77309426477154,
              53.5678744424392
            ],
            [
              315.70311615802876,
              53.62770005154488
            ],
            [
              314.73192657774035,
              54.30927568182162
            ],
            [
              314.516645667722,
              54.5002529711145
            ],
            [
              313.9966165964182,
              54.876087091889495
            ],
            [
              313.52892115581335,
              55.30066660126756
            ],
            [
              313.4654266287492,
              55.347356408276816
            ],
            [
              313.06913900955846,
              55.7137482200109
            ],
            [
              312.26093845176723,
              56.33789516545165
            ],
            [
              310.0527196463231,
              58.45640386799648
            ],
            [
              310.0162837906195,
              58.48948077316046
            ],
            [
              309.35628845259515,
              59.053723290516125
            ],
            [
              309.30765909972655,
              59.10490391883222
            ],
            [
              309.29153720706483,
              59.11870354327951
            ],
            [
              309.2216377052239,
              59.19249438355834
            ],
            [
              308.96219750711094,
              59.41782462133559
            ],
            [
              308.90711950863925,
              59.47650516170454
            ],
            [
              308.2962085764334,
              60.018448773059
            ],
            [
              308.11774805047514,
              60.21299420327178
            ],
            [
              307.6536173666007,
              60.63433758389696
            ],
            [
              307.1900279471558,
              61.149341080393924
            ],
            [
              307.0454229870188,
              61.28303708997091
            ],
            [
              306.70836607650256,
              61.66489123553261
            ],
            [
              306.0620413941339,
              62.284958622367874
            ],
            [
              303.97909964456164,
              64.71301928185733
            ],
            [
              303.2135101088959,
              65.51877447194549
            ],
            [
              303.13836648958187,
              65.61442419398556
            ],
            [
              303.0903652117065,
              65.66509772577378
            ],
            [
              303.0499766132823,
              65.7167520777699
            ],
            [
              302.89686303340454,
              65.8798805111619
            ],
            [
              302.77098274065173,
              66.0416711718737
            ],
            [
              302.14602230333065,
              66.72296019359358
            ],
            [
              302.00220901001,
              66.91251163558098
            ],
            [
              301.5963992978352,
              67.36332740469886
            ],
            [
              301.1458015990051,
              67.96675967191153
            ],
            [
              300.92592218405184,
              68.2158626082561
            ],
            [
              300.6482882513044,
              68.59570688451501
            ],
            [
              300.1569064660791,
              69.16850484284518
            ],
            [
              298.24222861464875,
              71.84667958765516
            ],
            [
              297.39861996724653,
              72.92050240009038
            ],
            [
              297.30143255104974,
              73.06876056642285
            ],
            [
              297.2250622266856,
              73.16643317133573
            ],
            [
              297.21200437990973,
              73.18648123101107
            ],
            [
              297.1564318984317,
              73.25790709361942
            ],
            [
              296.9670159482964,
              73.54908940574026
            ],
            [
              296.34137967425653,
              74.37370203480921
            ],
            [
              296.22951206713253,
              74.55056546189978
            ],
            [
              295.88305200725847,
              75.0145384914459
            ],
            [
              295.45394323278043,
              75.7023390048969
            ],
            [
              295.16766348933754,
              76.09401202871922
            ],
            [
              294.9482623539592,
              76.4541477541898
            ],
            [
              294.60128016598804,
              76.93949255097662
            ],
            [
              292.8759550098175,
              79.8197702245366
            ],
            [
              291.9687308798668,
              81.20372908689606
            ],
            [
              291.8673860072745,
              81.38856668348267
            ],
            [
              291.7963132027862,
              81.49782434379885
            ],
            [
              291.78458894302867,
              81.51933659758372
            ],
            [
              291.7544764561363,
              81.5655691001262
            ],
            [
              291.52174420140966,
              81.99357760942257
            ],
            [
              290.9408518209855,
              82.91197230670271
            ],
            [
              290.85776578533853,
              83.06935966791069
            ],
            [
              290.5702326113629,
              83.53023457063856
            ],
            [
              290.1705471387276,
              84.2965225539823
            ],
            [
              289.82979812809094,
              84.85584460096891
            ],
            [
              289.66593324339317,
              85.17861750753738
            ],
            [
              289.44941564994497,
              85.5400744700712
            ],
            [
              287.93000486478593,
              88.56974959500309
            ],
            [
              286.9791201068341,
              90.3040184218071
            ],
            [
              286.88703163635887,
              90.50561785286042
            ],
            [
              286.8701231527261,
              90.53664237794999
            ],
            [
              286.83805242747616,
              90.60716637263654
            ],
            [
              286.73552521084804,
              90.79572004434198
            ],
            [
              286.47695646500955,
              91.36779409845359
            ],
            [
              286.0009791645205,
              92.26942348464625
            ],
            [
              285.943110469909,
              92.40148043083481
            ],
            [
              285.71260066816126,
              92.84342016399195
            ],
            [
              285.68915737697137,
              92.89749368514657
            ],
            [
              285.6890332458479,
              92.89773167385806
            ],
            [
              285.65113316298306,
              92.98515075117717
            ],
            [
              285.6439756809293,
              92.99887061115449
            ],
            [
              285.3403867633475,
              93.69886400452887
            ],
            [
              284.969271962431,
              94.42986749670749
            ],
            [
              284.8566297965473,
              94.69799883791791
            ],
            [
              284.753528857128,
              94.90358007674739
            ],
            [
              284.5365984403226,
              95.42391551391009
            ],
            [
              284.51042760626984,
              95.4764991376491
            ],
            [
              284.1829879288181,
              96.27209569444543
            ],
            [
              283.4515182639219,
              98.0266195341876
            ],
            [
              282.48262786406735,
              100.14770757440493
            ],
            [
              282.35348543472446,
              100.4908255060921
            ],
            [
              282.22256010202085,
              100.78049309768592
            ],
            [
              281.95176364054186,
              101.50977425024982
            ],
            [
              281.5756282979101,
              102.36811890508635
            ],
            [
              281.5521687374994,
              102.43346344849002
            ],
            [
              281.29515307392444,
              103.0260715974427
            ],
            [
              280.94741094148355,
              104.00343154608792
            ],
            [
              280.64015419689804,
              104.7348198532764
            ],
            [
              280.5727159119455,
              104.93179632939767
            ],
            [
              280.56320930459253,
              104.9545991468595
            ],
            [
              280.3372724839797,
              105.61622280244966
            ],
            [
              280.25148024415626,
              105.82467649728811
            ],
            [
              280.24329724078785,
              105.84665726711685
            ],
            [
              280.195876114821,
              105.98722744099673
            ],
            [
              280.17986139720443,
              106.02614979817295
            ],
            [
              280.17713325664147,
              106.03347802200776
            ],
            [
              279.3973732427126,
              108.34490651057946
            ],
            [
              278.52900984171765,
              110.65205727136382
            ],
            [
              278.4026971701927,
              111.06775470524978
            ],
            [
              278.26668358313765,
              111.43405249583839
            ],
            [
              278.0741802987876,
              112.07889980667308
            ],
            [
              277.5014250016071,
              113.6886791104039
            ],
            [
              277.1372087205704,
              114.96636498345097
            ],
            [
              276.8929187013767,
              115.67989717317772
            ],
            [
              276.76904100558886,
              116.1360241645328
            ],
            [
              276.7301213789478,
              116.25139290900007
            ],
            [
              276.6684129247178,
              116.47849561937912
            ],
            [
              276.61506573098677,
              116.63720135248239
            ],
            [
              275.8960445564034,
              119.31719671816373
            ],
            [
              275.16425138392754,
              121.72554213806505
            ],
            [
              275.04832192860016,
              122.21491717168749
            ],
            [
              274.91502525575066,
              122.66143423409034
            ],
            [
              274.79198435937934,
              123.19350965392475
            ],
            [
              274.3075187035682,
              124.8930353386257
            ],
            [
              273.99561071999454,
              126.31508337111988
            ],
            [
              273.827550615417,
              126.93358703867628
            ],
            [
              273.7966218240778,
              127.0806951133782
            ],
            [
              273.77368801367913,
              127.16513912786588
            ],
            [
              273.7185245927376,
              127.4334297549592
            ],
            [
              273.6392929184433,
              127.7287486237727
            ],
            [
              272.98560195218613,
              130.91990612876901
            ],
            [
              272.9784783103205,
              130.95238417173064
            ],
            [
              272.42985418368517,
              133.26830077510337
            ],
            [
              272.3321783199784,
              133.8306422636189
            ],
            [
              272.209989793555,
              134.35903171307604
            ],
            [
              272.1409146137801,
              134.77099693407968
            ],
            [
              271.75349332885474,
              136.53732452097677
            ],
            [
              271.5917660872013,
              137.56775485512114
            ],
            [
              271.50241193746143,
              137.9927542284822
            ],
            [
              271.40469504862244,
              138.6375023484178
            ],
            [
              271.2857950256042,
              139.21794283239595
            ],
            [
              270.7689058655803,
              142.80069306587478
            ],
            [
              270.38456217571047,
              144.99659424741859
            ],
            [
              270.368613276106,
              145.1353192596127
            ],
            [
              270.3621095723918,
              145.17276251621726
            ],
            [
              270.2907400840583,
              145.80546056484278
            ],
            [
              270.18849183747983,
              146.4152703638652
            ],
            [
              270.15773880338475,
              146.7045285868161
            ],
            [
              269.874015134381,
              148.5122480041765
            ],
            [
              269.8142717581907,
              149.13131195131498
            ],
            [
              269.7832923316806,
              149.3357180395487
            ],
            [
              269.7020337571287,
              150.19557883888274
            ],
            [
              269.58589377983986,
              151.00058804187273
            ],
            [
              269.2741636485383,
              154.6549439163644
            ],
            [
              269.008153582379,
              156.968724213752
            ],
            [
              268.94336201861216,
              158.12676645921724
            ],
            [
              268.8811965906075,
              158.71148474022087
            ],
            [
              268.8734660239282,
              158.8799895198448
            ],
            [
              268.6976416541806,
              160.70189071258525
            ],
            [
              268.65168237365856,
              161.95217916949238
            ],
            [
              268.5651488140292,
              162.96659641762105
            ],
            [
              268.54634116814395,
              163.6686351128365
            ],
            [
              268.5437267510531,
              163.7004686693646
            ],
            [
              268.5333524035403,
              164.15347066337975
            ],
            [
              268.46644873713944,
              166.65080408516573
            ],
            [
              268.33113713568787,
              169.06927559084167
            ],
            [
              268.33582679944254,
              170.54479798383346
            ],
            [
              268.3257980108806,
              170.81762380769018
            ],
            [
              268.311787875577,
              171.12300565871408
            ],
            [
              268.3125903573948,
              171.17692831606894
            ],
            [
              268.2461354621829,
              172.9847849109935
            ],
            [
              268.2502718816047,
              173.1609185401369
            ],
            [
              268.24570692799676,
              173.2874714333484
            ],
            [
              268.24910562983854,
              173.42415872481826
            ],
            [
              268.24816563990413,
              173.45066907859015
            ],
            [
              268.26621599183477,
              174.12495242148202
            ],
            [
              268.2427470678898,
              175.00098405459127
            ],
            [
              268.26745889167256,
              175.76386745476088
            ],
            [
              268.26480211504634,
              175.87987717091266
            ],
            [
              268.3154737610648,
              177.2461435967747
            ],
            [
              268.3616571651003,
              178.67188022417324
            ],
            [
              268.369624677715,
              181.17872163291958
            ],
            [
              268.47894476343726,
              182.89808019231518
            ],
            [
              268.5338302775252,
              185.23517026946487
            ],
            [
              268.5464576815342,
              185.38291487403797
            ],
            [
              268.5536342219135,
              185.67153738699568
            ],
            [
              268.5848551347878,
              186.0279373173466
            ],
            [
              268.5863854419304,
              186.08510299587599
            ],
            [
              268.61031966872775,
              186.3483875479783
            ],
            [
              268.63094250990525,
              186.9850391902334
            ],
            [
              268.7067662914427,
              187.79661686813716
            ],
            [
              268.71426637633266,
              187.9988426686492
            ],
            [
              268.91417279881307,
              190.0165864899906
            ],
            [
              268.968578707137,
              190.59891857424927
            ],
            [
              269.13233099223606,
              193.17437294868841
            ],
            [
              269.3723579833282,
              195.07122904945976
            ],
            [
              269.59177450741794,
              197.62339159710018
            ],
            [
              269.6128232152001,
              197.76262789873002
            ],
            [
              269.62373174614197,
              197.88715339494217
            ],
            [
              269.6895144333364,
              198.3154335079126
            ],
            [
              269.73456713149005,
              198.79765377453163
            ],
            [
              269.8680054789404,
              199.64404104108763
            ],
            [
              269.8965058425271,
              199.93170779948605
            ],
            [
              270.2906416833168,
              202.32812974473904
            ],
            [
              270.6201132056069,
              204.9318372038229
            ],
            [
              270.9694754470217,
              206.73682438307213
            ],
            [
              271.37646926512656,
              209.42907108118692
            ],
            [
              271.4421253194549,
              209.72585804751094
            ],
            [
              271.45353214870903,
              209.8001225436828
            ],
            [
              271.50601133057523,
              210.03376275097307
            ],
            [
              271.5506342728,
              210.31680200333244
            ],
            [
              271.72983063570655,
              211.10723712372547
            ],
            [
              271.74973254893473,
              211.23001431707254
            ],
            [
              271.76660823680555,
              211.3022911207124
            ],
            [
              271.80767581091845,
              211.55198989368418
            ],
            [
              272.3395416479216,
              213.8152994848569
            ],
            [
              272.8256174983302,
              216.32662032646437
            ],
            [
              273.27725121078925,
              218.02123083047096
            ],
            [
              273.8947654273532,
              220.81259825073963
            ],
            [
              274.02566957051334,
              221.25141997303626
            ],
            [
              274.0313883763047,
              221.27688041130864
            ],
            [
              274.0471299962447,
              221.32884413245012
            ],
            [
              274.06805444505517,
              221.4211418718827
            ],
            [
              274.3311110884698,
              222.2902529461453
            ],
            [
              274.4354107577607,
              222.7340912704571
            ],
            [
              275.0956476699201,
              224.84417972713217
            ],
            [
              275.73305338550955,
              227.23584002874784
            ],
            [
              276.2787519950424,
              228.80428641491167
            ],
            [
              277.12669754886144,
              231.64680094001758
            ],
            [
              277.6446701760042,
              232.9907447962784
            ],
            [
              277.7586766281058,
              233.35510445891012
            ],
            [
              278.42788336189295,
              235.02288799103613
            ],
            [
              278.5765744048002,
              235.40868523807862
            ],
            [
              279.3181131165239,
              237.54001504591537
            ],
            [
              279.9489010464217,
              238.96935594179718
            ],
            [
              281.04328805738203,
              241.80887799891983
            ],
            [
              281.65467737387604,
              243.06463898222785
            ],
            [
              281.7477812226149,
              243.29667051729322
            ],
            [
              281.81824267083687,
              243.43632096624268
            ],
            [
              281.82231030440596,
              243.44643711866112
            ],
            [
              282.02057224376665,
              243.83732628778185
            ],
            [
              282.14084222503186,
              244.07569432171272
            ],
            [
              282.14358645980144,
              244.08240982559764
            ],
            [
              282.18122587862763,
              244.15573234957432
            ],
            [
              282.3144226393994,
              244.41972050070535
            ],
            [
              282.73979307385775,
              245.2934086412134
            ],
            [
              283.54804987995965,
              247.12488710264887
            ],
            [
              284.255927976533,
              248.40746870878846
            ],
            [
              285.6088453681331,
              251.18628873096867
            ],
            [
              286.31379086581535,
              252.3462332605329
            ],
            [
              286.3645540125584,
              252.44684283375582
            ],
            [
              286.4819232003312,
              252.63323423758627
            ],
            [
              286.5210174002802,
              252.7103115595665
            ],
            [
              286.79040806356534,
              253.13453387875128
            ],
            [
              286.8071405252216,
              253.1671291302111
            ],
            [
              286.9153263028383,
              253.3360228851386
            ],
            [
              287.57672237428557,
              254.4243095079562
            ],
            [
              288.38192358851035,
              255.88322774768255
            ],
            [
              289.0803160484161,
              256.8983805711917
            ],
            [
              290.65667836759746,
              259.4921879715717
            ],
            [
              291.5110970283853,
              260.6199536461588
            ],
            [
              291.5627010659448,
              260.7019048736295
            ],
            [
              291.73350958149877,
              260.9186714740978
            ],
            [
              291.8166327790039,
              261.0495695356498
            ],
            [
              292.01801534929496,
              261.30206363690075
            ],
            [
              292.04814211630384,
              261.34909590784486
            ],
            [
              292.32537383059423,
              261.694735213213
            ],
            [
              292.92013050260687,
              262.47976741137455
            ],
            [
              293.77101726301794,
              263.7165792999862
            ],
            [
              294.4743857385167,
              264.5312625215072
            ],
            [
              296.22880949766676,
              266.8469643958639
            ],
            [
              296.5725202970356,
              267.20680549567004
            ],
            [
              296.67629906704946,
              267.34210112254135
            ],
            [
              297.5438701432257,
              268.23039779130164
            ],
            [
              297.6525804768218,
              268.366699150143
            ],
            [
              297.7676159630775,
              268.4798636576062
            ],
            [
              297.812142404048,
              268.5353771047905
            ],
            [
              298.0062866361596,
              268.72589082388697
            ],
            [
              298.02414310376395,
              268.74802768546874
            ],
            [
              298.03538480243026,
              268.7588944258419
            ],
            [
              298.064292825419,
              268.7947320085724
            ],
            [
              298.3899550902383,
              269.10953225326415
            ],
            [
              298.77641386297125,
              269.5141274829344
            ],
            [
              299.65942071845325,
              270.53687856536175
            ],
            [
              300.3571743720856,
              271.169072864891
            ],
            [
              302.26768209724014,
              273.16924045429755
            ],
            [
              302.6318551114266,
              273.46435255159304
            ],
            [
              302.69697256046703,
              273.53163265454026
            ],
            [
              302.8055998600303,
              273.61782610429805
            ],
            [
              302.97783141820696,
              273.7941721393089
            ],
            [
              303.91392682630254,
              274.5262086959547
            ],
            [
              303.9650122246687,
              274.57646322292
            ],
            [
              303.97909951791337,
              274.5870116166312
            ],
            [
              304.03785558085053,
              274.64466893638183
            ],
            [
              304.3865984693728,
              274.90616578134717
            ],
            [
              304.534718770717,
              275.04934573230616
            ],
            [
              304.539255748054,
              275.0531761831296
            ],
            [
              305.08817970588154,
              275.45556364499146
            ],
            [
              305.98477173050964,
              276.2679139122039
            ],
            [
              306.668949833661,
              276.7358620925285
            ],
            [
              308.7098184803831,
              278.3897051923113
            ],
            [
              309.1582765873513,
              278.65853985215847
            ],
            [
              309.3079633185528,
              278.77731308685134
            ],
            [
              309.470762533496,
              278.87171326925727
            ],
            [
              309.70487213019123,
              279.05478946166954
            ],
            [
              310.58237254671866,
              279.55192466751265
            ],
            [
              310.658019133993,
              279.6086465235122
            ],
            [
              311.02553232228445,
              279.8079265095831
            ],
            [
              311.18689536074777,
              279.9262133188145
            ],
            [
              311.82565947186754,
              280.26282806900974
            ],
            [
              312.6791385196801,
              280.8465707604735
            ],
            [
              313.34425521790297,
              281.1678849253918
            ],
            [
              315.4867235192511,
              282.45221835157105
            ],
            [
              316.0185075032191,
              282.66846572740803
            ],
            [
              316.2619984101196,
              282.809655511612
            ],
            [
              316.4818043639297,
              282.8941626830856
            ],
            [
              316.78047414476254,
              283.0633697400558
            ],
            [
              317.5608177633707,
              283.3516131937893
            ],
            [
              317.6003847415207,
              283.3730679527074
            ],
            [
              317.9793617791176,
              283.5062150509206
            ],
            [
              317.98266211022485,
              283.50743412776785
            ],
            [
              318.15097640807346,
              283.5961320905045
            ],
            [
              318.8781291015506,
              283.84126851421263
            ],
            [
              319.6700216314404,
              284.22382737587947
            ],
            [
              320.31280278034836,
              284.4147200576061
            ],
            [
              322.5258923960321,
              285.3146622076182
            ],
            [
              323.1375456602068,
              285.45304637680476
            ],
            [
              323.4813766543649,
              285.5852365394275
            ],
            [
              323.75934851681586,
              285.6412274994141
            ],
            [
              324.12323913889,
              285.77564147703845
            ],
            [
              324.787964599777,
              285.8983011631268
            ],
            [
              324.78881357302447,
              285.89859943534884
            ],
            [
              324.7998279925117,
              285.90049027745346
            ],
            [
              325.2120999997803,
              285.97656552651097
            ],
            [
              325.35510804753073,
              286.0247761454156
            ],
            [
              326.1660444838622,
              286.1530115545863
            ],
            [
              326.8814484869681,
              286.36547171914185
            ],
            [
              327.50048027969365,
              286.4401433447765
            ],
            [
              329.7518955213448,
              286.9495172759693
            ],
            [
              330.43760032855613,
              286.98640584480034
            ],
            [
              330.8853417526679,
              287.0765929304397
            ],
            [
              331.22090427734275,
              287.0853511678092
            ],
            [
              331.6486280770947,
              287.16427768725106
            ],
            [
              332.6046392133885,
              287.1711626606915
            ],
            [
              332.7202708046091,
              287.1894477737329
            ],
            [
              333.5325509027004,
              287.1778452683437
            ],
            [
              333.6213717823964,
              287.17848493599155
            ],
            [
              334.23513034053707,
              287.2525204699066
            ],
            [
              334.8304435672335,
              287.22272575751646
            ],
            [
              337.0875108328079,
              287.34414824181044
            ],
            [
              337.83928303962557,
              287.2580919476862
            ],
            [
              338.39134716140313,
              287.27250091253177
            ],
            [
              338.78217232793764,
              287.21565184056345
            ],
            [
              339.2703235352163,
              287.2191673938545
            ],
            [
              340.07936328932965,
              287.08433143463265
            ],
            [
              340.1660288103532,
              287.08309351537963
            ],
            [
              340.9342121316607,
              286.9418608538457
            ],
            [
              341.1453498464054,
              286.9066722785637
            ],
            [
              341.65164932493195,
              286.8813325974199
            ],
            [
              342.2242656407,
              286.75613756705246
            ],
            [
              344.4548723513655,
              286.5007972586147
            ],
            [
              345.2628049390116,
              286.27298493664495
            ],
            [
              345.9163348158719,
              286.1779230773174
            ],
            [
              346.3583641265093,
              286.03786233775213
            ],
            [
              346.9016036702414,
              285.94732509950467
            ],
            [
              347.55518165325077,
              285.7245770083103
            ],
            [
              347.611746597397,
              285.7141773844295
            ],
            [
              348.2826347100287,
              285.47665130694935
            ],
            [
              348.6517442123346,
              285.3508538669809
            ],
            [
              349.05164280617765,
              285.2634212961286
            ],
            [
              349.6031102068157,
              285.04915136905436
            ],
            [
              351.7766040435674,
              284.43629246806546
            ],
            [
              352.6291481491942,
              284.05091118592475
            ],
            [
              353.3779919003965,
              283.81363368623596
            ],
            [
              353.8654981264693,
              283.5739370146105
            ],
            [
              354.4566883737182,
              283.37245149562335
            ],
            [
              354.9519812179691,
              283.11538765422176
            ],
            [
              354.9777773239082,
              283.10625461438326
            ],
            [
              355.432179505177,
              282.86615809684764
            ],
            [
              356.05963017452245,
              282.54050251505265
            ],
            [
              356.35695339199043,
              282.42497905156415
            ],
            [
              356.8888972106128,
              282.1253479874322
            ],
            [
              358.97690966073776,
              281.18148958779847
            ],
            [
              359.8611808951354,
              280.6259845026189
            ],
            [
              360.69595203573107,
              280.2155448953551
            ],
            [
              361.21808705056304,
              279.8637415405785
            ],
            [
              361.63429173603623,
              279.64952614829997
            ],
            [
              361.64755281570444,
              279.64029332312117
            ],
            [
              361.8520207757948,
              279.5341716218412
            ],
            [
              363.29078007355093,
              278.51932248715576
            ],
            [
              363.4917155226113,
              278.4061404173228
            ],
            [
              364.0054288099791,
              278.0225403314528
            ],
            [
              365.98259214898394,
              276.7804731394908
            ],
            [
              366.4027295383465,
              276.4382386842496
            ],
            [
              366.4617770871376,
              276.40050370599585
            ],
            [
              366.9133653840115,
              276.0263853640384
            ],
            [
              367.79291096595864,
              275.4337664481874
            ],
            [
              368.2134608796263,
              275.06887962506886
            ],
            [
              368.63202489639576,
              274.7774607899017
            ],
            [
              368.7710725029618,
              274.6537210356081
            ],
            [
              369.0074516114945,
              274.4869877021523
            ],
            [
              369.01186631054003,
              274.48299373376
            ],
            [
              369.04950718626833,
              274.4564432285577
            ],
            [
              370.31812162664465,
              273.30872512342177
            ],
            [
              370.3833533940327,
              273.2600152453828
            ],
            [
              370.6488215853529,
              273.00954018754965
            ],
            [
              370.98249807939914,
              272.70766237401426
            ],
            [
              372.7286585380399,
              271.28527939057545
            ],
            [
              373.1323004816305,
              270.87430834250677
            ],
            [
              373.2620080221015,
              270.7668521255969
            ],
            [
              373.7336422994554,
              270.27933765660384
            ],
            [
              374.59563176366953,
              269.53143928130595
            ],
            [
              374.6329774101001,
              269.49114862387955
            ],
            [
              374.6401354351616,
              269.484938051426
            ],
            [
              374.92672216944965,
              269.17575132413145
            ],
            [
              375.3331588415754,
              268.81405956125775
            ],
            [
              375.5490761697536,
              268.57626974119506
            ],
            [
              375.8890446358879,
              268.2686995675126
            ],
            [
              377.80558417255935,
              266.11616978216324
            ],
            [
              379.2760143589753,
              264.6190403474849
            ],
            [
              379.5989485235057,
              264.21654326978313
            ],
            [
              379.7196307520538,
              264.091797602659
            ],
            [
              380.195574107899,
              263.4914020766005
            ],
            [
              381.0799645668797,
              262.5372693169894
            ],
            [
              381.32427260252825,
              262.2160441300894
            ],
            [
              381.67191596428415,
              261.83318438865723
            ],
            [
              381.94867588181893,
              261.46292463018614
            ],
            [
              382.34270051863155,
              261.0203823550684
            ],
            [
              384.1679458211399,
              258.521859144387
            ],
            [
              385.4149803612298,
              256.9675864371197
            ],
            [
              385.6614998960927,
              256.5962172847881
            ],
            [
              385.77262106653,
              256.4560395666497
            ],
            [
              386.20308993879013,
              255.80119573375242
            ],
            [
              387.09464639374767,
              254.62894452998884
            ],
            [
              387.2981543236089,
              254.3061924939748
            ],
            [
              387.5880466335919,
              253.91836373020416
            ],
            [
              387.84840348518384,
              253.49920107330357
            ],
            [
              388.0284258025699,
              253.25483538217802
            ],
            [
              388.09460950209416,
              253.14676773394882
            ],
            [
              388.34632458886256,
              252.80220254815464
            ],
            [
              390.0488501080212,
              249.98689713459487
            ],
            [
              391.0874108400434,
              248.42235816647624
            ],
            [
              391.2639885198071,
              248.10238534744244
            ],
            [
              391.3648722976359,
              247.94891752663807
            ],
            [
              391.7485479109298,
              247.24812064195828
            ],
            [
              392.62782546531395,
              245.8536363036934
            ],
            [
              392.63014452198604,
              245.84960258996193
            ],
            [
              392.794082233818,
              245.53688384675755
            ],
            [
              393.02737091720616,
              245.1612997061499
            ],
            [
              393.2570240031743,
              244.71735084793005
            ],
            [
              393.42880546178696,
              244.4368585457971
            ],
            [
              393.5559917121296,
              244.18746879529414
            ],
            [
              393.84250523159045,
              243.71368848873246
            ],
            [
              395.39403350611286,
              240.6184149000841
            ],
            [
              396.24174756850357,
              239.0822895039282
            ],
            [
              396.35673516419547,
              238.83110595791717
            ],
            [
              396.4466390165107,
              238.66689343713657
            ],
            [
              396.781603329365,
              237.93050352376537
            ],
            [
              397.0176603210691,
              237.48021392935496
            ],
            [
              397.2271570682463,
              237.0865768234293
            ],
            [
              397.24396581993705,
              237.04852575710737
            ],
            [
              397.6321369938142,
              236.30807134741147
            ],
            [
              397.7626392084702,
              236.00741900627588
            ],
            [
              397.94217883453484,
              235.66034589093005
            ],
            [
              398.14012108838546,
              235.19880155871508
            ],
            [
              398.3012644689941,
              234.88282787935535
            ],
            [
              398.47424747043937,
              234.47343830651982
            ],
            [
              398.7810018343657,
              233.86146835634352
            ],
            [
              400.15712464572397,
              230.52938175528394
            ],
            [
              400.8333474325967,
              229.05221340095432
            ],
            [
              400.8966339704131,
              228.88396650170287
            ],
            [
              400.97484204981566,
              228.7120328400913
            ],
            [
              401.2429809918784,
              227.99569456978097
            ],
            [
              401.6660493295087,
              227.03796721026995
            ],
            [
              401.7173757436983,
              226.8964563991418
            ],
            [
              402.0602825466182,
              226.1064641882106
            ],
            [
              402.09559705553636,
              226.00703716988863
            ],
            [
              402.1017038746314,
              226.01399943769889
            ],
            [
              402.1063240755435,
              226.002229898575
            ],
            [
              402.21146458556024,
              225.70560099606922
            ],
            [
              402.291493872599,
              225.51899574567074
            ],
            [
              402.45734524748286,
              225.0468548627148
            ],
            [
              402.60535395563124,
              224.6965706076242
            ],
            [
              402.8071740455928,
              224.1126622411176
            ],
            [
              403.1190203218132,
              223.35757062427447
            ],
            [
              404.2505324140648,
              219.98356606985365
            ],
            [
              404.26007156333327,
              219.95901759475396
            ],
            [
              404.2810346333674,
              219.89261288643246
            ],
            [
              404.2997636267378,
              219.83676575112167
            ],
            [
              404.82467080059473,
              218.44130302801554
            ],
            [
              404.8473149917138,
              218.3666479150034
            ],
            [
              404.91324247809695,
              218.1905213844839
            ],
            [
              405.10448225512175,
              217.5579472249832
            ],
            [
              405.5101799573149,
              216.43940793455957
            ],
            [
              405.5767647884909,
              216.2112081534347
            ],
            [
              405.91220120419933,
              215.26485421399371
            ],
            [
              405.9907060557147,
              214.98818581034456
            ],
            [
              406.04120860537927,
              214.84441661694143
            ],
            [
              406.17517096922165,
              214.36833211784747
            ],
            [
              406.30749956899297,
              213.98547738544744
            ],
            [
              406.51978918145676,
              213.216972304926
            ],
            [
              406.8213429278961,
              212.31778287436842
            ],
            [
              406.7954473125455,
              212.29573339679703
            ],
            [
              407.1846983014185,
              210.80994903685004
            ],
            [
              407.43950755614316,
              209.88751950981137
            ],
            [
              407.6760287030957,
              209.13829157001413
            ],
            [
              407.79853268224946,
              208.64669083727017
            ],
            [
              408.2324957787305,
              207.21124761891588
            ],
            [
              408.3592360983411,
              206.6751121287253
            ],
            [
              408.7312701478371,
              205.40007565019292
            ],
            [
              408.8103286596534,
              205.0512141502004
            ],
            [
              409.0823320083152,
              204.09261438463568
            ],
            [
              409.13720795463587,
              203.84164496424077
            ],
            [
              409.16410447397857,
              203.74605829667047
            ],
            [
              409.2669021497067,
              203.27220746993987
            ],
            [
              409.3810128798305,
              202.8591176591811
            ],
            [
              409.79542755953344,
              200.90560735081493
            ],
            [
              409.80342691341957,
              200.87555770831693
            ],
            [
              409.83932217929737,
              200.6986924021081
            ],
            [
              409.8633320130914,
              200.58551239156893
            ],
            [
              410.0879112869688,
              199.728285609267
            ]
          ]
        ]
      }
    }
  ]
}