{
  "type": "FeatureCollection",
  "features": [
    {
      "type": "Feature",
      "properties": {
        "method": "Homography",
        "mode": "tmpl2img",
        "inside_ratio": 1.0
      },
      "geometry": {
        "type": "Polygon",
        "coordinates": [
          [
            [
              550.8128702299787,
              312.032327238635
            ],
            [
              551.076747343561,
              311.8585998878565
            ],
            [
              551.7938855858993,
              311.3914106714727
            ],
            [
              551.8275373128423,
              311.3643063487968
            ],
            [
              551.8660293986287,
              311.33896452207756
            ],
            [
              552.9088007890656,
              310.50374427196857
            ],
            [
              552.8285817555615,
              310.55802880954155
            ],
            [
              553.2236179213745,
              310.2398523389374
            ],
            [
              553.6795227611533,
              309.93133972891974
            ],
            [
              554.4304120161894,
              309.3076949691737
            ],
            [
              556.2574391799761,
              308.00936857085367
            ],
            [
              558.3918283107413,
              306.1588096647996
            ],
            [
              558.863166940184,
              305.80655043787203
            ],
            [
              559.377862148182,
              305.33987551498547
            ],
            [
              561.4905584565148,
              303.68907208340295
            ],
            [
              561.8855636190935,
              303.3136984338217
            ],
            [
              562.473506463881,
              302.84277856165085
            ],
            [
              562.8030966459542,
              302.52419237040976
            ],
            [
              563.2358593187901,
              302.17562960132244
            ],
            [
              564.3965444372227,
              301.0304074497632
            ],
            [
              564.7038682720208,
              300.7751622217409
            ],
            [
              565.3187708382916,
              300.1530092223411
            ],
            [
              566.898199476881,
              298.78361238112956
            ],
            [
              567.1583790137528,
              298.5098851440622
            ],
            [
              567.2510499665092,
              298.42912156997704
            ],
            [
              568.7668248763027,
              296.82688882124415
            ],
            [
              569.1043406933969,
              296.52086271985354
            ],
            [
              569.5651281379718,
              296.01580353579004
            ],
            [
              571.7171229166079,
              293.97076157058865
            ],
            [
              572.054110314384,
              293.5820412685546
            ],
            [
              572.2451546281555,
              293.39737533011987
            ],
            [
              572.8357101137673,
              292.70924928386574
            ],
            [
              573.2242324883177,
              292.32982639064994
            ],
            [
              573.270242584416,
              292.27492715360245
            ],
            [
              573.6938773418816,
              291.85693617507167
            ],
            [
              574.5998024773196,
              290.762543173629
            ],
            [
              574.7776197586121,
              290.5826292149181
            ],
            [
              575.267545166843,
              289.97846998106775
            ],
            [
              575.7502507695597,
              289.4706296161624
            ],
            [
              576.3468803700811,
              288.8474314271187
            ],
            [
              576.367476981064,
              288.82126407593756
            ],
            [
              576.6007226362236,
              288.57587318348294
            ],
            [
              576.7345614464119,
              288.4046828700864
            ],
            [
              576.9090291949229,
              288.2202637070258
            ],
            [
              578.254990089616,
              286.4910331920532
            ],
            [
              578.4215246935149,
              286.3084982029662
            ],
            [
              578.827135374471,
              285.7692495608843
            ],
            [
              580.9581363417345,
              283.3111061850156
            ],
            [
              581.9332789124868,
              281.93819401850544
            ],
            [
              582.573457696273,
              281.1743328275373
            ],
            [
              582.7434176585276,
              280.9247374740605
            ],
            [
              583.0620851670732,
              280.5397746581469
            ],
            [
              583.7342851884433,
              279.537576165316
            ],
            [
              583.8037614872867,
              279.45190037310414
            ],
            [
              583.8728568763397,
              279.3471687836187
            ],
            [
              583.8904808285207,
              279.32543552940865
            ],
            [
              584.1428932964097,
              278.94284040518534
            ],
            [
              585.0854479230559,
              277.74535417971583
            ],
            [
              585.164149721625,
              277.62257970681895
            ],
            [
              585.2747669046781,
              277.48109167202176
            ],
            [
              585.3054334371087,
              277.4329380952439
            ],
            [
              585.5408975051623,
              277.13042436449314
            ],
            [
              586.7002002523228,
              275.30221862771424
            ],
            [
              586.731221799906,
              275.26097630301666
            ],
            [
              586.875137424766,
              275.0263449242911
            ],
            [
              587.1462476549576,
              274.5988075279251
            ],
            [
              589.1273506534122,
              271.8095944515027
            ],
            [
              590.0756598783298,
              270.1569450802703
            ],
            [
              590.7656452545622,
              269.1436644134106
            ],
            [
              591.0223865656487,
              268.6715779749011
            ],
            [
              591.245659201526,
              268.3386956600322
            ],
            [
              591.6974491814472,
              267.49199460642643
            ],
            [
              591.7820861201968,
              267.3637058560145
            ],
            [
              591.9748926422324,
              266.997849557052
            ],
            [
              592.7101425904212,
              265.8508627476719
            ],
            [
              592.779965661327,
              265.71450564552885
            ],
            [
              593.0667109517193,
              265.2623119573967
            ],
            [
              594.4402485499968,
              262.5506342542045
            ],
            [
              596.1485210716163,
              259.57357209498826
            ],
            [
              596.8132583006727,
              258.1020369695877
            ],
            [
              596.8163528768961,
              258.09651622892414
            ],
            [
              596.8312695594977,
              258.06216527459327
            ],
            [
              597.022621584053,
              257.6385674781627
            ],
            [
              597.7194074007398,
              256.3573434584762
            ],
            [
              598.020564038689,
              255.64182472751898
            ],
            [
              598.1617665376863,
              255.37719667024118
            ],
            [
              598.3829197422596,
              254.83842126816677
            ],
            [
              598.4631545019068,
              254.6861733467411
            ],
            [
              598.6032873736542,
              254.34217178536332
            ],
            [
              599.1495886138547,
              253.275303012088
            ],
            [
              599.1891683471382,
              253.17517926544136
            ],
            [
              599.4167693028486,
              252.72584286753508
            ],
            [
              600.5393705227307,
              249.8535069092398
            ],
            [
              601.9561177211166,
              246.71724016323228
            ],
            [
              602.6707864797522,
              244.61460565110852
            ],
            [
              602.7010873961774,
              244.54482703998914
            ],
            [
              602.7318595587025,
              244.44824714403757
            ],
            [
              603.3656598837656,
              242.94239953143307
            ],
            [
              603.6649445087845,
              241.97030559708313
            ],
            [
              603.7404033755878,
              241.78647203528328
            ],
            [
              603.800835907111,
              241.58310399155224
            ],
            [
              603.8693436329585,
              241.41492956991468
            ],
            [
              603.9636976881658,
              241.09718564861055
            ],
            [
              604.3435055017311,
              240.13639642305782
            ],
            [
              604.3611718249483,
              240.07488106092845
            ],
            [
              604.5322615688287,
              239.63712345408592
            ],
            [
              605.3861767598345,
              236.62562719370544
            ],
            [
              606.4959372340027,
              233.36058916732722
            ],
            [
              606.5001148724614,
              233.34602349159263
            ],
            [
              607.2084560480455,
              230.46077324694244
            ],
            [
              607.6483083025093,
              229.032107445818
            ],
            [
              607.8637689722989,
              227.96342112440485
            ],
            [
              607.9485889566179,
              227.67778385788782
            ],
            [
              608.0022111295409,
              227.39967852296647
            ],
            [
              608.0727741553103,
              227.15082443248565
            ],
            [
              608.2432723226033,
              226.55713799380305
            ],
            [
              608.2473174560489,
              226.53526389092409
            ],
            [
              608.3658106788666,
              226.11737473610634
            ],
            [
              608.6266428735528,
              224.68414465848906
            ],
            [
              609.1851456395643,
              222.40922362076753
            ],
            [
              609.1885602401056,
              222.39256457701316
            ],
            [
              609.64982452562,
              219.4634870109084
            ],
            [
              609.7848802136923,
              218.8787003051588
            ],
            [
              609.94786430929,
              217.62629471921161
            ],
            [
              610.5248053922592,
              214.76466320113374
            ],
            [
              610.6170366497232,
              213.83818171437616
            ],
            [
              610.6616051105226,
              213.60703243336815
            ],
            [
              610.6813190294292,
              213.39403658695042
            ],
            [
              610.8819122635988,
              212.29180970534824
            ],
            [
              610.999130827174,
              210.8952476262061
            ],
            [
              611.276318100925,
              209.1350787801937
            ],
            [
              611.4947602856693,
              205.73960629988665
            ],
            [
              611.6224147741224,
              204.75868117451176
            ],
            [
              611.6701939287735,
              203.2590055380177
            ],
            [
              611.9665737235631,
              200.281811032873
            ],
            [
              611.9661883886502,
              199.51187353969252
            ],
            [
              611.9822642660159,
              199.33818432441979
            ],
            [
              611.981404663627,
              199.1922685991127
            ],
            [
              612.0572634780532,
              198.28847366777708
            ],
            [
              612.043694986977,
              197.2069473089918
            ],
            [
              612.1379422772083,
              195.7419643406248
            ],
            [
              612.0317572245225,
              191.910381447395
            ],
            [
              612.0758349118328,
              190.52688619260516
            ],
            [
              611.9608168899433,
              188.77908542995775
            ],
            [
              611.9592896134349,
              185.72743521166257
            ],
            [
              611.8985222807577,
              185.1231559435261
            ],
            [
              611.8978477534837,
              185.00865633849077
            ],
            [
              611.8896777580857,
              184.9304390416182
            ],
            [
              611.8809788210395,
              184.23705835336347
            ],
            [
              611.7980784103067,
              183.47831191782518
            ],
            [
              611.7661542250914,
              182.3263591829833
            ],
            [
              611.258107798951,
              178.10079810506622
            ],
            [
              611.140829094053,
              176.31864426086807
            ],
            [
              610.8130291791972,
              174.3288533470936
            ],
            [
              610.503025427996,
              171.24613058144217
            ],
            [
              610.4148913605932,
              170.81123828233657
            ],
            [
              610.4091685501091,
              170.7564496633772
            ],
            [
              610.4068631948129,
              170.74520750942597
            ],
            [
              610.354690950788,
              170.2677007777544
            ],
            [
              610.2637812929033,
              169.83071260410443
            ],
            [
              610.1640946128246,
              169.00159122153886
            ],
            [
              609.1832063355216,
              164.4356028053697
            ],
            [
              608.8262882098998,
              162.2690603167914
            ],
            [
              608.2702933788643,
              160.18603628342822
            ],
            [
              608.1171161367201,
              159.4730034850619
            ],
            [
              607.612248863798,
              156.98176603835265
            ],
            [
              607.5463698081508,
              156.7685505730828
            ],
            [
              607.4925355642263,
              156.50977797982716
            ],
            [
              607.4537122451869,
              156.3848898292509
            ],
            [
              607.3452967899426,
              155.88022102619092
            ],
            [
              605.828602333708,
              151.03828733834766
            ],
            [
              605.1542210274226,
              148.5117306328754
            ],
            [
              604.7938689928966,
              147.54970087310562
            ],
            [
              604.7625294361703,
              147.4353346909275
            ],
            [
              604.7526628339155,
              147.40954355870483
            ],
            [
              604.7421253893574,
              147.37108446440416
            ],
            [
              604.4041585641598,
              146.49085707267307
            ],
            [
              603.3335724648181,
              143.0730909703963
            ],
            [
              603.3270866425785,
              143.05529734226278
            ],
            [
              601.2886446221098,
              138.19182347509366
            ],
            [
              600.1595449142958,
              135.17747246126245
            ],
            [
              599.7669139615278,
              134.3768798945406
            ],
            [
              599.6563035804284,
              134.0877462193941
            ],
            [
              599.594212776887,
              133.9634558046723
            ],
            [
              599.5542180521195,
              133.85929039657736
            ],
            [
              599.0638310849656,
              132.88368991592003
            ],
            [
              597.9836963695648,
              130.30662031641637
            ],
            [
              597.7685888403346,
              129.90488433906705
            ],
            [
              597.7516011119361,
              129.86455034494662
            ],
            [
              597.4873113164002,
              129.37708227297242
            ],
            [
              597.4288746065871,
              129.2392726936546
            ],
            [
              596.8604265589847,
              128.208795583152
            ],
            [
              595.4510588973034,
              125.57665296610585
            ],
            [
              593.8897538114895,
              122.39308010386165
            ],
            [
              593.4948260190929,
              121.75399375067566
            ],
            [
              593.2696389576745,
              121.30322501108652
            ],
            [
              593.1361915621077,
              121.09094590943928
            ],
            [
              593.0540155012408,
              120.92746072357929
            ],
            [
              592.4591829349058,
              119.98900934419616
            ],
            [
              591.4586086542587,
              118.12033144190875
            ],
            [
              591.1524404446791,
              117.65938874104995
            ],
            [
              591.1276538612284,
              117.61345375814639
            ],
            [
              591.0629932361318,
              117.51723191253416
            ],
            [
              591.0562940747418,
              117.50479809050213
            ],
            [
              591.0261914272967,
              117.45990004302898
            ],
            [
              590.9216352952992,
              117.2670519764704
            ],
            [
              590.9123514939612,
              117.25333499018525
            ],
            [
              590.8964741142371,
              117.22405003177364
            ],
            [
              590.8287152705809,
              117.1239351008834
            ],
            [
              590.8115922946571,
              117.09233298641317
            ],
            [
              590.6506848395488,
              116.8543658915096
            ],
            [
              590.6444831117373,
              116.84298994447397
            ],
            [
              590.4821098193852,
              116.6050591841456
            ],
            [
              590.3587565727361,
              116.42263125544504
            ],
            [
              590.1650734909334,
              116.07152444217459
            ],
            [
              588.6289076361795,
              113.86015684201547
            ],
            [
              588.454726246848,
              113.59792308452035
            ],
            [
              586.4044666176758,
              110.2801192363242
            ],
            [
              586.036238620927,
              109.79682041877506
            ],
            [
              585.6637098139508,
              109.20422675935811
            ],
            [
              585.4414910090156,
              108.91738509168908
            ],
            [
              585.3053803964299,
              108.7026470303642
            ],
            [
              584.6301812981169,
              107.83998995211535
            ],
            [
              583.8102989079521,
              106.60563971114262
            ],
            [
              583.4538466075011,
              106.1657606175453
            ],
            [
              583.217932800156,
              105.81389557500178
            ],
            [
              583.0328437715567,
              105.58829057451396
            ],
            [
              582.7990235417568,
              105.24249229705562
            ],
            [
              581.8369550026289,
              104.08288966131528
            ],
            [
              581.5853327762313,
              103.7206701540823
            ],
            [
              580.1924354008669,
              102.10071356143969
            ],
            [
              579.9487074358344,
              101.80694281729397
            ],
            [
              577.7748602781097,
              98.95377095066755
            ],
            [
              577.4602192670022,
              98.61510083061661
            ],
            [
              576.9113690399203,
              97.90664092110512
            ],
            [
              576.5850966035484,
              97.56131915061461
            ],
            [
              576.3844408955512,
              97.30495466903488
            ],
            [
              575.6596409987882,
              96.54734016138741
            ],
            [
              575.1073084404441,
              95.86573551243815
            ],
            [
              574.7956992543977,
              95.54803585715571
            ],
            [
              574.2902564768551,
              94.93195170065901
            ],
            [
              574.0186411985634,
              94.6593019174121
            ],
            [
              573.6653358393544,
              94.23345509978076
            ],
            [
              572.9760537706272,
              93.55126232096013
            ],
            [
              572.8950445873294,
              93.45480390128334
            ],
            [
              572.0515721248867,
              92.63279053494954
            ],
            [
              571.780652370599,
              92.31770756489217
            ],
            [
              570.9432378430467,
              91.52562971540576
            ],
            [
              570.8304497977081,
              91.39608486327656
            ],
            [
              570.2923716140857,
              90.89518192825548
            ],
            [
              570.2385570841494,
              90.84192088263079
            ],
            [
              568.082992969326,
              88.52173650822093
            ],
            [
              567.8456855390449,
              88.31165976956466
            ],
            [
              567.0964503545712,
              87.51868067728678
            ],
            [
              566.653351359279,
              87.1332995116538
            ],
            [
              566.3788427171033,
              86.84636275749523
            ],
            [
              565.6400881567353,
              86.21347635131544
            ],
            [
              565.4276302181826,
              85.99686587620754
            ],
            [
              565.1870571928954,
              85.79408093302013
            ],
            [
              564.3562159870983,
              84.96007529058927
            ],
            [
              564.0582455050228,
              84.71371482822387
            ],
            [
              563.6808898653586,
              84.33876889806324
            ],
            [
              563.60630535678,
              84.27788209374603
            ],
            [
              563.4981797169165,
              84.17086852984924
            ],
            [
              563.3810912634082,
              84.0757516884498
            ],
            [
              563.3656820559191,
              84.06052487750684
            ],
            [
              562.7102645533533,
              83.52913863790515
            ],
            [
              562.4714908363827,
              83.29643965173689
            ],
            [
              561.0943809014551,
              82.19913445490779
            ],
            [
              561.0844146787764,
              82.18963725566495
            ],
            [
              561.0206601131748,
              82.14024915294678
            ],
            [
              560.8550243462522,
              81.98358071967188
            ],
            [
              560.4023873823002,
              81.63622450891836
            ],
            [
              560.1146059936434,
              81.36591436017923
            ],
            [
              559.7934554684268,
              81.12162471702456
            ],
            [
              559.634445078267,
              80.97360018535097
            ],
            [
              559.568235692326,
              80.9238053469923
            ],
            [
              559.5548220367592,
              80.91131842662423
            ],
            [
              559.1459953506229,
              80.60384753772266
            ],
            [
              558.7334345119933,
              80.24502664538622
            ],
            [
              557.4210238151628,
              79.08321321770583
            ],
            [
              557.2807587138263,
              78.98157559194165
            ],
            [
              556.3129653092453,
              78.13984642009478
            ],
            [
              555.7431058425734,
              77.73479357234818
            ],
            [
              555.3868880456787,
              77.42962401618463
            ],
            [
              554.4984672085033,
              76.80973929175092
            ],
            [
              553.5081127758164,
              75.99091933950203
            ],
            [
              553.1993152320733,
              75.78217188096895
            ],
            [
              552.648898883111,
              75.33284140776162
            ],
            [
              552.4815227064348,
              75.22148380241363
            ],
            [
              552.3951232814226,
              75.15129720281573
            ],
            [
              552.2965622521198,
              75.08612623081741
            ],
            [
              552.2342300078112,
              75.03558974565239
            ],
            [
              551.4790788608454,
              74.53749421052636
            ],
            [
              551.0883255912255,
              74.22613519511914
            ],
            [
              549.3878210296746,
              73.12875568981796
            ],
            [
              549.2908660455561,
              73.05364855565762
            ],
            [
              548.7384032798897,
              72.70966964612325
            ],
            [
              548.7149430582559,
              72.69453015928602
            ],
            [
              548.0553272581049,
              72.19278005838738
            ],
            [
              547.5686387370566,
              71.89673459767737
            ],
            [
              547.329831836648,
              71.7171324032791
            ],
            [
              547.2921186701537,
              71.69174828596931
            ],
            [
              546.9504931873137,
              71.48505481518234
            ],
            [
              546.1472996443832,
              70.91414944135782
            ],
            [
              545.8903365535346,
              70.72795117666861
            ],
            [
              545.862057302203,
              70.71140081692837
            ],
            [
              544.6642028044778,
              69.85997269497469
            ],
            [
              543.9607629655208,
              69.45718561707255
            ],
            [
              543.5165697406222,
              69.14725525149939
            ],
            [
              542.7499725999435,
              68.71840546842068
            ],
            [
              541.8467412379821,
              68.10782013479592
            ],
            [
              541.5325669009161,
              67.93699730202924
            ],
            [
              540.7919968808673,
              67.4442861787464
            ],
            [
              540.5216011452519,
              67.30023290183655
            ],
            [
              540.462715914422,
              67.26129654171591
            ],
            [
              540.3876569518383,
              67.22162406578097
            ],
            [
              540.2716623434272,
              67.14511435407196
            ],
            [
              540.2540879301589,
              67.13585476108655
            ],
            [
              540.2103331417844,
              67.10699422790482
            ],
            [
              539.3720521861162,
              66.66532142016213
            ],
            [
              538.8586383461864,
              66.33400221149148
            ],
            [
              536.8277186325033,
              65.29374124047253
            ],
            [
              536.6266103593117,
              65.16852555388623
            ],
            [
              536.0217122606696,
              64.87282073230148
            ],
            [
              535.9945237936333,
              64.85637090961464
            ],
            [
              535.1103164868443,
              64.31852062509141
            ],
            [
              534.356148693486,
              63.95761862773787
            ],
            [
              532.26173974363,
              62.758367726421326
            ],
            [
              531.4212273025147,
              62.38087861679335
            ],
            [
              530.8845103366516,
              62.08062840430216
            ],
            [
              530.2660876219334,
              61.811188543474884
            ],
            [
              529.480452194496,
              61.384022943379165
            ],
            [
              529.1655301520068,
              61.250288232328714
            ],
            [
              529.1028919696583,
              61.21691775256532
            ],
            [
              529.076050777803,
              61.202410904959194
            ],
            [
              529.07419151895,
              61.201627592876065
            ],
            [
              528.2229560674376,
              60.74813206740842
            ],
            [
              528.1902317995232,
              60.73460622798021
            ],
            [
              528.17763159191,
              60.72789346975394
            ],
            [
              527.8313535311746,
              60.5847672290639
            ],
            [
              527.5318559270469,
              60.42696816801339
            ],
            [
              526.5283396709532,
              60.0182781647179
            ],
            [
              525.90392862427,
              59.69844748043258
            ],
            [
              523.5449247153592,
              58.7735351776294
            ],
            [
              523.223823201544,
              58.61656449763926
            ],
            [
              523.2013517232203,
              58.60696854081422
            ],
            [
              523.0847453869688,
              58.56376330536381
            ],
            [
              522.9982592340527,
              58.522375930267344
            ],
            [
              522.5031161062752,
              58.28474038657046
            ],
            [
              522.4970042405761,
              58.282503676493846
            ],
            [
              522.3789159294753,
              58.22599329815195
            ],
            [
              521.2677316004281,
              57.820762829552066
            ],
            [
              519.2243723013644,
              56.90305376932535
            ],
            [
              518.2467697257193,
              56.574506151037696
            ],
            [
              517.6148162602387,
              56.29917109342108
            ],
            [
              517.1657423379713,
              56.154461521767374
            ],
            [
              516.5241461582016,
              55.882001458223456
            ],
            [
              516.2273306832604,
              55.78850562489097
            ],
            [
              516.140079870644,
              55.75244246578336
            ],
            [
              516.0591063691173,
              55.71832805481296
            ],
            [
              516.0527637564819,
              55.71635231574578
            ],
            [
              515.0159974012222,
              55.28782828338521
            ],
            [
              514.6128191134136,
              55.165587332642474
            ],
            [
              514.2595698284108,
              55.02172374242141
            ],
            [
              513.0913152598337,
              54.67491034798125
            ],
            [
              512.3528989032194,
              54.38539392526913
            ],
            [
              510.1780007376458,
              53.7742175695121
            ],
            [
              509.2546134524621,
              53.436292990788715
            ],
            [
              509.22138360671636,
              53.427659799943115
            ],
            [
              509.1315292520935,
              53.394891409239
            ],
            [
              507.6305698594832,
              53.00666859799669
            ],
            [
              505.67697804196564,
              52.350115562289545
            ],
            [
              504.5658190780335,
              52.0942625047179
            ],
            [
              503.8378585190825,
              51.8596845088944
            ],
            [
              503.57382140410914,
              51.80269459301553
            ],
            [
              503.098205743593,
              51.65287732850685
            ],
            [
              502.86228958933884,
              51.60290565013223
            ],
            [
              501.38695148353446,
              51.15559303887989
            ],
            [
              500.92821868986886,
              51.06411787013829
            ],
            [
              500.5212942162816,
              50.943316409768855
            ],
            [
              499.19315838975757,
              50.68732549291089
            ],
            [
              498.34017598198545,
              50.44762568178408
            ],
            [
              496.513044097494,
              50.1260037766355
            ],
            [
              495.59999603465553,
              49.88879177628044
            ],
            [
              495.5381499663864,
              49.878966896891235
            ],
            [
              495.47986604216896,
              49.863891772918365
            ],
            [
              493.57167479843423,
              49.562774643331224
            ],
            [
              491.74931978797946,
              49.14316312371149
            ],
            [
              490.6125571992028,
              48.996381495980955
            ],
            [
              490.56376416885973,
              48.98547284917552
            ],
            [
              490.46756565418144,
              48.97383315511499
            ],
            [
              489.6889918433982,
              48.805785356271386
            ],
            [
              489.6199761766444,
              48.79792339323656
            ],
            [
              489.32737714042645,
              48.735945166371955
            ],
            [
              489.1557389501131,
              48.71658661535487
            ],
            [
              488.38229512537305,
              48.56235542594209
            ],
            [
              488.37465130464926,
              48.56077391652231
            ],
            [
              488.374027785955,
              48.56070684908772
            ],
            [
              487.4201210898692,
              48.37048984870606
            ],
            [
              486.9085922231231,
              48.31954254984177
            ],
            [
              486.44933619497937,
              48.23102346213526
            ],
            [
              484.97053176994393,
              48.09422663098344
            ],
            [
              484.00497349019463,
              47.924263698310774
            ],
            [
              482.54941762937256,
              47.815574152444086
            ],
            [
              481.6667049093179,
              47.67534622451652
            ],
            [
              481.5758594233839,
              47.669806365252256
            ],
            [
              481.55121334770246,
              47.66591715572849
            ],
            [
              479.3882606024081,
              47.536153897209445
            ],
            [
              478.2659342536382,
              47.38692954446235
            ],
            [
              478.0997456926126,
              47.38069598833355
            ],
            [
              477.57480269562694,
              47.312914036033845
            ],
            [
              476.46008886187786,
              47.27889155641064
            ],
            [
              476.45614424293285,
              47.2784986799043
            ],
            [
              476.1375234428177,
              47.23994664358997
            ],
            [
              476.0848395575289,
              47.23884692356333
            ],
            [
              475.4124629730821,
              47.1665241919799
            ],
            [
              475.33961104288665,
              47.158307443678694
            ],
            [
              475.33545933182637,
              47.15824146200829
            ],
            [
              474.31382823032726,
              47.04835192443116
            ],
            [
              474.1260002510585,
              47.04642078546806
            ],
            [
              473.2483461739778,
              46.95900811442531
            ],
            [
              472.68817517747783,
              46.958047003430536
            ],
            [
              472.17921641270686,
              46.91096576332704
            ],
            [
              470.5632174244354,
              46.92053831629786
            ],
            [
              469.489708828038,
              46.84037707687838
            ],
            [
              468.41723799241936,
              46.867378924057085
            ],
            [
              467.5847820458446,
              46.816614830059024
            ],
            [
              465.2685641343449,
              46.899412018623984
            ],
            [
              464.45122788022155,
              46.868754605266055
            ],
            [
              463.9544304940544,
              46.89720300623763
            ],
            [
              463.2891964420786,
              46.876899219477885
            ],
            [
              463.25150234564046,
              46.877594301984814
            ],
            [
              462.5383661851446,
              46.92728341487874
            ],
            [
              460.1725858290166,
              46.902959825674756
            ],
            [
              459.79286060436453,
              46.93592192241633
            ],
            [
              459.0064159378674,
              46.934572583339474
            ],
            [
              458.4031117134231,
              46.99257007923206
            ],
            [
              457.84836392386705,
              46.99585619056755
            ],
            [
              456.11272308625445,
              47.1771725519896
            ],
            [
              454.9385882779422,
              47.20673401659849
            ],
            [
              454.2486990776058,
              47.29333602746431
            ],
            [
              453.48565662095234,
              47.320612291004224
            ],
            [
              451.1653753690189,
              47.629550193312156
            ],
            [
              450.64937570228074,
              47.659098185779726
            ],
            [
              450.6311009324741,
              47.661015753049355
            ],
            [
              449.6200721694581,
              47.81897212503675
            ],
            [
              449.12860894141045,
              47.86163365348119
            ],
            [
              448.3602608302606,
              47.915169763633486
            ],
            [
              448.208508077308,
              47.941503126800654
            ],
            [
              446.0835415694755,
              48.12596111659241
            ],
            [
              445.5139498312618,
              48.23164496553554
            ],
            [
              444.82978683812667,
              48.29741566426324
            ],
            [
              444.190149974998,
              48.42268229597062
            ],
            [
              443.59479267191233,
              48.484877202660094
            ],
            [
              441.7608735395794,
              48.860936741203886
            ],
            [
              440.4961743433431,
              49.019694833767126
            ],
            [
              440.1768845424266,
              49.092632008399534
            ],
            [
              439.5009183661406,
              49.18263470628963
            ],
            [
              436.6738954007711,
              49.84159619712659
            ],
            [
              436.0824049184612,
              49.93400671409984
            ],
            [
              435.45642972011865,
              50.09774899206744
            ],
            [
              432.1788234029615,
              50.70588641344823
            ],
            [
              431.4283155207978,
              50.92196291712163
            ],
            [
              430.853294245447,
              51.03457521713659
            ],
            [
              430.185332028741,
              51.23459254870532
            ],
            [
              429.55577233982797,
              51.363688713269426
            ],
            [
              427.76836551924725,
              51.91741988844862
            ],
            [
              427.65822638438146,
              51.94309263656774
            ],
            [
              426.99103664789476,
              52.091738278862834
            ],
            [
              426.91995925953313,
              52.11517811700373
            ],
            [
              425.7610894163131,
              52.38530347819048
            ],
            [
              422.4942801504406,
              53.48838156595856
            ],
            [
              421.83654454893485,
              53.66043171424309
            ],
            [
              421.5643325626803,
              53.76187306413565
            ],
            [
              418.58883065888824,
              54.618541013062966
            ],
            [
              417.6732451188556,
              54.98126290450834
            ],
            [
              417.2098700117478,
              55.1200178372319
            ],
            [
              416.522691045146,
              55.40128291869712
            ],
            [
              415.86650636789454,
              55.60456619382188
            ],
            [
              414.4076266111884,
              56.21893899881428
            ],
            [
              412.39440612279213,
              56.89872750982916
            ],
            [
              409.12370260979253,
              58.36828257033967
            ],
            [
              405.44101115171316,
              59.827231792290334
            ],
            [
              404.38281090018364,
              60.37018409874261
            ],
            [
              404.0292781416796,
              60.514886461527254
            ],
            [
              403.3329682323046,
              60.88277020304636
            ],
            [
              402.65882987074633,
              61.166667675905785
            ],
            [
              401.51274910939856,
              61.78794906939929
            ],
            [
              399.52562219985214,
              62.68078218440321
            ],
            [
              396.39680785434064,
              64.46772496281983
            ],
            [
              392.858665967223,
              66.28311131844167
            ],
            [
              391.68644623770183,
              67.0360160915984
            ],
            [
              391.4368805938791,
              67.16786994224476
            ],
            [
              391.42127645678204,
              67.1771142975775
            ],
            [
              390.73918831047513,
              67.62821189529863
            ],
            [
              390.05993999313785,
              67.99642708165729
            ],
            [
              389.2033439758317,
              68.5760889978655
            ],
            [
              387.2748443753699,
              69.67750252188218
            ],
            [
              384.3172719594775,
              71.76916154933983
            ],
            [
              384.2271309824797,
              71.82705817923471
            ],
            [
              383.9838923125161,
              71.97526772456203
            ],
            [
              383.90933027654575,
              72.03117833041034
            ],
            [
              380.9597931371052,
              73.92563594356663
            ],
            [
              379.62358841770777,
              74.97949110473645
            ],
            [
              379.37236712942865,
              75.14563578890126
            ],
            [
              378.7673443910483,
              75.63817123352551
            ],
            [
              378.19117093180046,
              76.02807009448954
            ],
            [
              378.08156507570277,
              76.11910231705455
            ],
            [
              378.043904496847,
              76.14458737986334
            ],
            [
              377.54735090374186,
              76.55699579320006
            ],
            [
              375.7564114125187,
              77.82358684414906
            ],
            [
              372.99843082298145,
              80.20470579179235
            ],
            [
              372.7911924483863,
              80.36815322430371
            ],
            [
              372.53595476134575,
              80.55954410483216
            ],
            [
              372.45787205547185,
              80.63104064810706
            ],
            [
              369.85598104596033,
              82.68313358669589
            ],
            [
              368.4138472407166,
              84.06672110227623
            ],
            [
              368.16972413685824,
              84.26545624704309
            ],
            [
              367.6790105122443,
              84.7530629644346
            ],
            [
              367.01955898597726,
              85.30076488702966
            ],
            [
              366.5760290708356,
              85.74952454777898
            ],
            [
              365.0778269652659,
              87.04300624759948
            ],
            [
              362.54658182632016,
              89.69579320949659
            ],
            [
              362.3057957468207,
              89.92680409928155
            ],
            [
              361.98959801395034,
              90.21633101368381
            ],
            [
              361.9002182493093,
              90.31591637173074
            ],
            [
              359.6513619483004,
              92.47347587913067
            ],
            [
              358.6338482978535,
              93.66355661098747
            ],
            [
              358.51177174050565,
              93.78303253105271
            ],
            [
              358.11941933105334,
              94.25212849177844
            ],
            [
              357.92296769777806,
              94.44733630997987
            ],
            [
              357.63769007918324,
              94.79325719492489
            ],
            [
              356.945807499386,
              95.49329789385249
            ],
            [
              356.55585231017085,
              95.97417727752872
            ],
            [
              355.3387562267786,
              97.24971419479839
            ],
            [
              352.9872391599588,
              100.24660054255853
            ],
            [
              352.43833734886744,
              100.858177263677
            ],
            [
              352.1693552417271,
              101.22440714509686
            ],
            [
              350.0975800254622,
              103.6475488538647
            ],
            [
              349.3005975769027,
              104.79589874356704
            ],
            [
              349.1823888316244,
              104.93722894466615
            ],
            [
              348.76227898529044,
              105.5553705181604
            ],
            [
              348.73236447990905,
              105.5916441390201
            ],
            [
              348.6154588202556,
              105.76599857734416
            ],
            [
              347.9196657707387,
              106.62402673567453
            ],
            [
              347.5842701491929,
              107.13240387952517
            ],
            [
              346.6300957359998,
              108.34844960275969
            ],
            [
              345.8578962290457,
              109.55673011981051
            ],
            [
              345.7966860674039,
              109.63621770893359
            ],
            [
              345.4036233600159,
              110.26754261339448
            ],
            [
              344.573454035729,
              111.56653000112864
            ],
            [
              343.97375760631076,
              112.38304064039491
            ],
            [
              343.61314063260755,
              112.99079759770937
            ],
            [
              341.7210777807189,
              115.71701844631946
            ],
            [
              341.1246676591827,
              116.79320539439207
            ],
            [
              341.0086835534314,
              116.96386218395807
            ],
            [
              340.59366769695674,
              117.72843519346229
            ],
            [
              340.02806047906256,
              118.58575640906861
            ],
            [
              339.748412203944,
              119.11639760240911
            ],
            [
              339.0331250234529,
              120.23562593203286
            ],
            [
              338.28450332169143,
              121.70204833856278
            ],
            [
              338.13244818516705,
              121.94627449565178
            ],
            [
              337.3893605433502,
              123.45548057818469
            ],
            [
              337.3001045503937,
              123.63031786609953
            ],
            [
              336.67702369321165,
              124.68041188147869
            ],
            [
              336.2619756348148,
              125.56764684058514
            ],
            [
              334.59979264075383,
              128.5669581852705
            ],
            [
              334.1819084036575,
              129.54065398604556
            ],
            [
              334.0717069109378,
              129.74367535405818
            ],
            [
              333.77269335713356,
              130.4555076995049
            ],
            [
              333.3469920973504,
              131.2632889183295
            ],
            [
              333.12420144327575,
              131.81020080197575
            ],
            [
              332.6187480143768,
              132.8002979790422
            ],
            [
              331.93936377930714,
              134.5243879360137
            ],
            [
              331.727012438834,
              134.95567210310037
            ],
            [
              331.1533778178027,
              136.48813299582528
            ],
            [
              330.6181023117289,
              137.63237432439698
            ],
            [
              330.1942601494708,
              138.83211802170453
            ],
            [
              328.805805184427,
              142.06730291024965
            ],
            [
              328.5398550717483,
              142.9128144090835
            ],
            [
              328.4402464258184,
              143.14994297782673
            ],
            [
              328.24214503943256,
              143.79479088888013
            ],
            [
              327.9408029663009,
              144.53453269516845
            ],
            [
              327.7755908359009,
              145.090896171448
            ],
            [
              327.4468312694831,
              145.92519734804046
            ],
            [
              326.8947532426659,
              147.85440912112188
            ],
            [
              326.7348427798729,
              148.27879341224298
            ],
            [
              326.72212465426924,
              148.326194943224
            ],
            [
              326.6435441993938,
              148.5361220807603
            ],
            [
              326.27707389481236,
              149.92025398034485
            ],
            [
              325.8550910644479,
              151.11473458226428
            ],
            [
              325.47549304008476,
              152.65506760192108
            ],
            [
              324.39776128278254,
              156.08140415913311
            ],
            [
              324.25351581071385,
              156.77834074200487
            ],
            [
              324.17014403469494,
              157.04972761412617
            ],
            [
              324.0563237522258,
              157.61578982612534
            ],
            [
              323.86155764264146,
              158.27167840719528
            ],
            [
              323.75393157863795,
              158.82986881494276
            ],
            [
              323.5656452392704,
              159.4878269385826
            ],
            [
              323.4558439760091,
              160.08423265897846
            ],
            [
              323.45366400577643,
              160.09192074356207
            ],
            [
              323.3879050212933,
              160.4532555646717
            ],
            [
              323.2119937054594,
              161.40875017330245
            ],
            [
              323.01983801957516,
              162.1249306832352
            ],
            [
              322.9767976742455,
              162.38515915041114
            ],
            [
              322.9321726337848,
              162.55370470856332
            ],
            [
              322.73879956530095,
              163.75596777038737
            ],
            [
              322.490372647045,
              164.75675426738982
            ],
            [
              322.48627002756876,
              164.7847379733544
            ],
            [
              322.4336613700233,
              164.99821340562966
            ],
            [
              322.1584134993197,
              166.90103939403406
            ],
            [
              321.42027849426483,
              170.4674133034386
            ],
            [
              321.3648726374892,
              171.00117895564867
            ],
            [
              321.3037423567055,
              171.3051980742889
            ],
            [
              321.2563552282558,
              171.7832660658869
            ],
            [
              321.1485414887367,
              172.34242983171495
            ],
            [
              321.13031479634634,
              172.5393571797123
            ],
            [
              321.1258941588847,
              172.56231661340686
            ],
            [
              321.093017285643,
              172.91835963116858
            ],
            [
              321.01141374694186,
              173.3616042335722
            ],
            [
              320.98714679862843,
              173.64502776204571
            ],
            [
              320.9375624210694,
              173.91748577431576
            ],
            [
              320.8017074657954,
              175.5360850215034
            ],
            [
              320.6805628038162,
              176.268544053775
            ],
            [
              320.64893574079605,
              176.7493287390459
            ],
            [
              320.6294963703156,
              176.87018960799327
            ],
            [
              320.5703156959819,
              177.85334035255855
            ],
            [
              320.4210049479305,
              178.87177944847193
            ],
            [
              320.4181292987995,
              178.93186090664398
            ],
            [
              320.38662053029236,
              179.1496853114289
            ],
            [
              320.2823911460025,
              181.42952485705558
            ],
            [
              319.903494452578,
              185.07971731876367
            ],
            [
              319.90249047107426,
              185.44181484723666
            ],
            [
              319.8694648215935,
              185.77499616535823
            ],
            [
              319.8697831923163,
              186.15856689005273
            ],
            [
              319.82788233324345,
              186.6112779406633
            ],
            [
              319.8279264859352,
              186.61877277065346
            ],
            [
              319.80892585407304,
              186.82454180058227
            ],
            [
              319.81197511513926,
              187.32792606687204
            ],
            [
              319.76221120659,
              187.9208218118913
            ],
            [
              319.7865311554659,
              189.85933255834115
            ],
            [
              319.73956408474226,
              190.57331122548266
            ],
            [
              319.762401684585,
              191.27497284953472
            ],
            [
              319.7582225917691,
              191.3443988613341
            ],
            [
              319.7878756420751,
              192.09986480418328
            ],
            [
              319.7389868258383,
              193.12130770404454
            ],
            [
              319.7436242559106,
              193.21412926947087
            ],
            [
              319.7335971487257,
              193.43345509260573
            ],
            [
              319.8622015842984,
              195.89092169831292
            ],
            [
              319.8653805857898,
              196.14431567395283
            ],
            [
              319.8704811672363,
              196.9863401485423
            ],
            [
              319.8691180672957,
              197.47795789978645
            ],
            [
              319.85455217303763,
              198.3199671454865
            ],
            [
              319.86640874524437,
              198.45510619743794
            ],
            [
              319.86276181800605,
              199.7704126580803
            ],
            [
              319.8716225147054,
              199.86064323260157
            ],
            [
              319.871240873542,
              199.96767951776525
            ],
            [
              319.88133079064914,
              200.07102926059883
            ],
            [
              319.8815338207122,
              200.31563840736322
            ],
            [
              319.89123122702495,
              200.41184336480035
            ],
            [
              319.8956851884547,
              201.14712120828295
            ],
            [
              319.9325692307901,
              201.49983311426232
            ],
            [
              319.9384958636036,
              201.97223712630495
            ],
            [
              320.18358603349037,
              204.21542616561217
            ],
            [
              320.20591161734103,
              204.90135662949555
            ],
            [
              320.3262756398343,
              205.81659403712987
            ],
            [
              320.32694311515104,
              205.83359919727113
            ],
            [
              320.33001433684933,
              205.86805186915902
            ],
            [
              320.40334271066604,
              206.4188781609737
            ],
            [
              320.45082798104806,
              207.36933068656123
            ],
            [
              320.46943861475876,
              207.494446236575
            ],
            [
              320.48085291624295,
              207.7125589682321
            ],
            [
              320.78564125848703,
              209.72573970625027
            ],
            [
              320.9519293952194,
              211.24769273225496
            ],
            [
              321.1808112428255,
              213.43642660402827
            ],
            [
              321.19141298990337,
              213.55726338726498
            ],
            [
              321.1958072963956,
              213.57982972113393
            ],
            [
              321.261651738339,
              214.20948192747568
            ],
            [
              321.3019015889231,
              214.62175604989864
            ],
            [
              321.3078740028779,
              214.6514926727617
            ],
            [
              321.3853374307573,
              215.39225403163962
            ],
            [
              321.4268996338967,
              215.59486028236373
            ],
            [
              321.4647837338551,
              215.94159470191403
            ],
            [
              321.9895773927213,
              218.46419381638663
            ],
            [
              322.07511054123864,
              219.11458033122958
            ],
            [
              322.41451036216705,
              220.57077267532506
            ],
            [
              322.5497340595782,
              221.47985441592502
            ],
            [
              322.588765816613,
              221.6356953236417
            ],
            [
              322.6212225693057,
              221.85007789769756
            ],
            [
              323.02717789148534,
              223.45177332515374
            ],
            [
              323.8503852269613,
              227.4087992160758
            ],
            [
              324.26355029676256,
              229.42288459707115
            ],
            [
              324.28132033622194,
              229.48023530642908
            ],
            [
              324.32693912041464,
              229.69951749982874
            ],
            [
              325.0249852695111,
              231.94501568850578
            ],
            [
              325.0886327878279,
              232.22837327148903
            ],
            [
              325.2331162833409,
              232.66397989076611
            ],
            [
              325.32914470402875,
              233.0759890976228
            ],
            [
              325.80589749197173,
              234.48063900089153
            ],
            [
              326.0156715036603,
              235.31819730965253
            ],
            [
              326.0813681078553,
              235.50207107196286
            ],
            [
              326.13418259588354,
              235.71045046579403
            ],
            [
              326.5779863634285,
              236.94076152549886
            ],
            [
              328.4984542052572,
              243.11858668188515
            ],
            [
              329.3821603132383,
              245.2026712360439
            ],
            [
              329.4293012468376,
              245.31515461154498
            ],
            [
              329.65172583712706,
              245.98574763311473
            ],
            [
              329.8990057104797,
              246.54010505681
            ],
            [
              329.936650308946,
              246.65101679748363
            ],
            [
              330.5426534048695,
              247.98845940763675
            ],
            [
              330.815558767268,
              248.75227568634674
            ],
            [
              330.9137679029394,
              248.9603980636726
            ],
            [
              330.9860480308207,
              249.16077275006566
            ],
            [
              331.4462910478366,
              250.12791082841886
            ],
            [
              333.8451424286709,
              255.85183015156898
            ],
            [
              334.0977590254277,
              256.3236834718965
            ],
            [
              334.3704177134822,
              256.96670693323574
            ],
            [
              335.308560242423,
              258.6673626158467
            ],
            [
              335.5563909042719,
              259.2229548091934
            ],
            [
              336.70822370265773,
              261.2398658372331
            ],
            [
              336.90358207167424,
              261.65386447302217
            ],
            [
              337.039569706668,
              261.88142489383233
            ],
            [
              337.1302954531704,
              262.0720727057693
            ],
            [
              337.5349154310615,
              262.7438224621594
            ],
            [
              340.3668900935884,
              268.03356456422205
            ],
            [
              341.00708147738067,
              268.9975866725194
            ],
            [
              341.6342188291359,
              270.13445518471576
            ],
            [
              342.49760080461397,
              271.37732549143266
            ],
            [
              342.74444882118746,
              271.809567469257
            ],
            [
              344.17222702785034,
              273.81714612074205
            ],
            [
              344.22163268687893,
              273.8998210827553
            ],
            [
              344.39990947652154,
              274.14107996182094
            ],
            [
              344.5080090885403,
              274.32054684928454
            ],
            [
              344.82172998345345,
              274.74181502105176
            ],
            [
              348.0110027096114,
              279.5443311049988
            ],
            [
              349.09462272646635,
              280.8819366479944
            ],
            [
              349.770663780978,
              281.86459970371453
            ],
            [
              349.8373252549949,
              281.9431304750351
            ],
            [
              350.21395954383786,
              282.485309472808
            ],
            [
              350.92555092450635,
              283.3128989052497
            ],
            [
              351.14507504058827,
              283.62156864607846
            ],
            [
              353.5025659655545,
              286.3230407418637
            ],
            [
              356.7090319900139,
              290.28105799983723
            ],
            [
              357.3922449312154,
              290.97786491724867
            ],
            [
              357.41099958840755,
              291.00075037729806
            ],
            [
              357.6669443067435,
              291.25803002170767
            ],
            [
              358.16366963857195,
              291.7646387616749
            ],
            [
              359.2976460646928,
              293.10258726567776
            ],
            [
              359.56226113647926,
              293.35749795044865
            ],
            [
              360.01863994947024,
              293.8882720619982
            ],
            [
              360.51050956704876,
              294.35351241322945
            ],
            [
              360.67549747645387,
              294.5425736853887
            ],
            [
              363.3491315788906,
              297.0532765083208
            ],
            [
              366.383092478075,
              300.1476045195785
            ],
            [
              367.17334427979563,
              300.814012347284
            ],
            [
              367.3220453504847,
              300.9634889953836
            ],
            [
              367.8830416185235,
              301.42812680991875
            ],
            [
              367.96378623569103,
              301.50857303247346
            ],
            [
              368.22505135169297,
              301.72257625538214
            ],
            [
              368.5325191419399,
              302.0264045941096
            ],
            [
              368.713556816695,
              302.1731826841354
            ],
            [
              369.91509556540893,
              303.33065668282654
            ],
            [
              370.4240297844922,
              303.7303258266904
            ],
            [
              370.94426797381703,
              304.22239890721846
            ],
            [
              371.1588485469606,
              304.3870692737941
            ],
            [
              371.2418120642443,
              304.4649769937855
            ],
            [
              374.150027832741,
              306.6973479132741
            ],
            [
              376.9465589631201,
              309.05562186051947
            ],
            [
              377.8385664764389,
              309.67365993748973
            ],
            [
              378.14498568760223,
              309.9274476375335
            ],
            [
              378.7057260949778,
              310.30733570449564
            ],
            [
              378.9469828647191,
              310.50495001697874
            ],
            [
              379.1917890174483,
              310.66851334716966
            ],
            [
              379.66397119005006,
              311.05133972597656
            ],
            [
              380.17969897479725,
              311.3915122966465
            ],
            [
              381.50986693636014,
              312.43610130342614
            ],
            [
              382.1757713175104,
              312.85797621225413
            ],
            [
              382.73990800580066,
              313.29101228583977
            ],
            [
              382.85272689931145,
              313.36101881143173
            ],
            [
              382.8749623590318,
              313.3780824311855
            ],
            [
              383.4878309038538,
              313.75511436902826
            ],
            [
              385.8004164323995,
              315.19012292967176
            ],
            [
              388.3048421555175,
              316.9253442531622
            ],
            [
              389.2908831904553,
              317.47852368103776
            ],
            [
              389.7795840666024,
              317.80960670753757
            ],
            [
              390.32495613745994,
              318.10696156306494
            ],
            [
              390.7520227133696,
              318.39229929090106
            ],
            [
              390.9723714815258,
              318.51032819076903
            ],
            [
              391.62653885445906,
              318.9418151175525
            ],
            [
              392.46316527709996,
              319.38261618623994
            ],
            [
              392.75260518014306,
              319.5698413996446
            ],
            [
              392.84489470587744,
              319.61725815144933
            ],
            [
              393.96377742788434,
              320.32611149389516
            ],
            [
              394.54872003819753,
              320.618631588088
            ],
            [
              395.0564935819315,
              320.9337158836206
            ],
            [
              395.5511721171648,
              321.1763875821203
            ],
            [
              395.68418174113856,
              321.2582140630528
            ],
            [
              397.45203031335075,
              322.1088810182166
            ],
            [
              398.18830460924437,
              322.47007100568936
            ],
            [
              400.35623567496043,
              323.6863032152015
            ],
            [
              401.4265231361238,
              324.1599023489368
            ],
            [
              402.11808679316243,
              324.5369656829912
            ],
            [
              402.48977310278053,
              324.6953865169745
            ],
            [
              402.5148456366228,
              324.70901895204554
            ],
            [
              402.659120976963,
              324.77028687981567
            ],
            [
              403.26731668587854,
              325.0960643780014
            ],
            [
              403.45694802984553,
              325.17501175879295
            ],
            [
              404.3050160691464,
              325.6218411774528
            ],
            [
              405.3993374442506,
              326.06751229006863
            ],
            [
              405.67754114682236,
              326.21044850963455
            ],
            [
              405.9264448184895,
              326.3084429743763
            ],
            [
              407.14988728932485,
              326.9202662549922
            ],
            [
              407.6357744361593,
              327.1046637485099
            ],
            [
              408.07021242521364,
              327.31778357722243
            ],
            [
              408.98813529315316,
              327.65991262350104
            ],
            [
              409.2360667946317,
              327.77921420776977
            ],
            [
              411.2166062119088,
              328.49198604818355
            ],
            [
              412.9928267681935,
              329.27795855305453
            ],
            [
              414.9939395479154,
              330.0249357228617
            ],
            [
              415.0462209711487,
              330.04721920884435
            ],
            [
              415.09507193215944,
              330.0626865097965
            ],
            [
              415.31601883672124,
              330.1451617681269
            ],
            [
              415.4711516729445,
              330.21104043720936
            ],
            [
              415.6079042970142,
              330.2541170340394
            ],
            [
              416.0822447431355,
              330.4311792603829
            ],
            [
              416.3745618917913,
              330.5528768277324
            ],
            [
              416.5292666084998,
              330.6002647582473
            ],
            [
              417.5773021678327,
              331.02708560303597
            ],
            [
              418.93675461426835,
              331.43065887398126
            ],
            [
              419.19856527953345,
              331.5337348785818
            ],
            [
              419.62125138499937,
              331.65323417786743
            ],
            [
              420.9337936358125,
              332.15135293398754
            ],
            [
              421.30614371393176,
              332.25109192623165
            ],
            [
              421.65283925481253,
              332.3803126035942
            ],
            [
              423.02442658848304,
              332.7414757515939
            ],
            [
              423.38688120675954,
              332.8719187223482
            ],
            [
              423.40820812818106,
              332.8783746271416
            ],
            [
              425.31454037076,
              333.35663914060547
            ],
            [
              426.4242078292234,
              333.72631093524626
            ],
            [
              427.19784529750086,
              333.9049077893649
            ],
            [
              428.89709208752583,
              334.4401645669179
            ],
            [
              429.4419493001848,
              334.55557603365855
            ],
            [
              429.94985992347165,
              334.71115521602087
            ],
            [
              430.06767870452825,
              334.73503590867193
            ],
            [
              431.3155777799368,
              335.1054929356929
            ],
            [
              432.9395547488044,
              335.4185056147452
            ],
            [
              433.1817948815752,
              335.48699030291334
            ],
            [
              433.7908956879985,
              335.59530118950454
            ],
            [
              435.17500038498883,
              335.966052307246
            ],
            [
              435.42319547964735,
              336.0062903893287
            ],
            [
              435.6705432910287,
              336.0714214327687
            ],
            [
              436.94714956536166,
              336.27505181421793
            ],
            [
              437.03940268459104,
              336.2981964645522
            ],
            [
              437.992679342521,
              336.44182338005163
            ],
            [
              438.62189948915443,
              336.54218975068005
            ],
            [
              439.894210074283,
              336.83590699843865
            ],
            [
              440.7354079736339,
              336.94775255226557
            ],
            [
              442.6679206907196,
              337.3570967290608
            ],
            [
              443.42559619978175,
              337.44255265219954
            ],
            [
              443.8648880263253,
              337.5315927272193
            ],
            [
              443.94618585270325,
              337.5399735636273
            ],
            [
              445.3875358012368,
              337.81778588331395
            ],
            [
              447.2671270247821,
              337.99165750481063
            ],
            [
              447.4887705825997,
              338.0310703737389
            ],
            [
              448.29167980454514,
              338.0925650163334
            ],
            [
              449.7283503001396,
              338.3254820504238
            ],
            [
              449.84581168293414,
              338.33250644210204
            ],
            [
              449.98520690129465,
              338.35474125488423
            ],
            [
              452.3786108475938,
              338.49583116111455
            ],
            [
              453.5979683782951,
              338.657956766098
            ],
            [
              454.5025231392315,
              338.6918856528619
            ],
            [
              456.6556867882572,
              338.9347344517416
            ],
            [
              457.62549565200516,
              338.9501472776629
            ],
            [
              457.9881120909992,
              338.98752870829964
            ],
            [
              458.0355218539466,
              338.9877880709765
            ],
            [
              459.65765558351154,
              339.13784358213474
            ],
            [
              461.77562628360477,
              339.1252975429009
            ],
            [
              461.97782733784913,
              339.1407840776355
            ],
            [
              462.94164478285256,
              339.1185164666104
            ],
            [
              464.4557864851156,
              339.207774325128
            ],
            [
              464.4653053889912,
              339.20786222550714
            ],
            [
              464.4795642752352,
              339.2072789522298
            ],
            [
              464.6587356175913,
              339.21799370509143
            ],
            [
              464.6682545214397,
              339.2180816054625
            ],
            [
              466.5615169779609,
              339.14420568270674
            ],
            [
              467.41267475171173,
              339.1761317052943
            ],
            [
              468.3755494718083,
              339.1209940437564
            ],
            [
              470.73042402627294,
              339.15841922404013
            ],
            [
              471.8826904537362,
              339.06542720397874
            ],
            [
              472.0482111734992,
              339.0644467232564
            ],
            [
              472.18603000124267,
              339.065200683137
            ],
            [
              472.2042647392472,
              339.0635223222797
            ],
            [
              473.9885080723513,
              339.0529531548942
            ],
            [
              476.31952588740774,
              338.80943983147324
            ],
            [
              476.5054971694031,
              338.8051432334017
            ],
            [
              477.08666669622863,
              338.7335097726205
            ],
            [
              478.7412206064521,
              338.6689483609405
            ],
            [
              480.5318095975821,
              338.4248829689875
            ],
            [
              481.2145269296775,
              338.3857881247762
            ],
            [
              482.18771744876193,
              338.23377468488445
            ],
            [
              484.7613579647092,
              338.0260726944409
            ],
            [
              486.08641532628235,
              337.7891268628679
            ],
            [
              488.24207932430386,
              337.56393214278916
            ],
            [
              490.7531885957728,
              337.04900944134806
            ],
            [
              490.92792975978404,
              337.0274712950007
            ],
            [
              491.14696934391935,
              336.9779886023568
            ],
            [
              492.6958847622933,
              336.7668644132936
            ],
            [
              494.87717490158417,
              336.25166733797386
            ],
            [
              495.77236032858127,
              336.11183838009316
            ],
            [
              496.4338550726437,
              335.938804917186
            ],
            [
              498.6181211586867,
              335.54821598183247
            ],
            [
              500.06153694522794,
              335.140259418955
            ],
            [
              502.2810996563904,
              334.68512063219237
            ],
            [
              504.7550240463071,
              333.9186264929271
            ],
            [
              506.4024566920413,
              333.52952076801824
            ],
            [
              508.9072520263793,
              332.67602000708376
            ],
            [
              510.0182206981053,
              332.3854133799373
            ],
            [
              510.6762616921952,
              332.1401906487918
            ],
            [
              512.7650443375979,
              331.54983228043363
            ],
            [
              514.0923815773297,
              331.0256400084092
            ],
            [
              515.9787399753224,
              330.44119099998306
            ],
            [
              518.2367104949446,
              329.49703775935296
            ],
            [
              519.7334535684125,
              328.98702748640557
            ],
            [
              521.8047721567245,
              328.0498896797972
            ],
            [
              521.8803272649563,
              328.02296817699624
            ],
            [
              522.2073286459349,
              327.8677588827932
            ],
            [
              522.5167574628288,
              327.72776233933126
            ],
            [
              523.8164017872289,
              327.2434424662281
            ],
            [
              524.4112996092222,
              326.9504909610578
            ],
            [
              526.4301139513557,
              326.15322042186983
            ],
            [
              527.2657547567452,
              325.72161140839023
            ],
            [
              528.5175316326068,
              325.19819040548964
            ],
            [
              528.9887418158654,
              324.94737281007644
            ],
            [
              527.7757796692343,
              325.45818321302596
            ],
            [
              528.3711994288836,
              325.150648524175
            ],
            [
              529.1966412040657,
              324.8030331868274
            ],
            [
              530.2839718633354,
              324.21359976297737
            ],
            [
              532.5648857329815,
              323.1816336362205
            ],
            [
              534.871890690385,
              321.8565985311327
            ],
            [
              535.1829974094017,
              321.70893354532296
            ],
            [
              535.7418529363146,
              321.37087286725256
            ],
            [
              537.026611702819,
              320.7382062133986
            ],
            [
              537.5067436299126,
              320.43822345370177
            ],
            [
              538.470869571459,
              319.94847966175837
            ],
            [
              538.59044253729,
              319.87240288545195
            ],
            [
              539.483770083209,
              319.4109986333652
            ],
            [
              539.902973810563,
              319.13790280703137
            ],
            [
              540.5145982913865,
              318.812344941291
            ],
            [
              541.294692851249,
              318.2987582971269
            ],
            [
              540.6774428522274,
              318.6333646813041
            ],
            [
              541.1710288040201,
              318.3118115686196
            ],
            [
              541.7955310816741,
              317.9732737810759
            ],
            [
              541.8106781742364,
              317.96302368358175
            ],
            [
              541.8107536997908,
              317.96298274175643
            ],
            [
              542.7070873836055,
              317.3564301892943
            ],
            [
              544.7774099057957,
              316.16733433931535
            ],
            [
              547.258007792503,
              314.40456595591814
            ],
            [
              547.7821697182961,
              314.0874919939868
            ],
            [
              547.7897810273545,
              314.08234647432715
            ],
            [
              548.3518111911012,
              313.66230810141184
            ],
            [
              549.5145367013456,
              312.93584608622706
            ],
            [
              549.6136798926098,
              312.85900853881856
            ],
            [
              550.3738893688604,
              312.37533494356103
            ],
            [
              550.8128702299787,
              312.032327238635
            ]
          ]
        ]
      }
    }
  ]
}