{
  "type": "FeatureCollection",
  "features": [
    {
      "type": "Feature",
      "properties": {
        "method": "Homography",
        "mode": "tmpl2img",
        "inside_ratio": 1.0
      },
      "geometry": {
        "type": "Polygon",
        "coordinates": [
          [
            [
              313.5029112335752,
              322.4791676626281
            ],
            [
              312.7274809648959,
              322.6158526096513
            ],
            [
              311.3826583201825,
              322.9918797729201
            ],
            [
              310.20791835357426,
              323.25235231948614
            ],
            [
              309.52329675742055,
              323.47647269679123
            ],
            [
              308.6618913075919,
              323.6922306201863
            ],
            [
              308.65351751987873,
              323.6952266390867
            ],
            [
              308.651043945903,
              323.6958462000406
            ],
            [
              308.5403273991918,
              323.7354589628491
            ],
            [
              308.47601154439275,
              323.7517406925975
            ],
            [
              307.8325217953857,
              323.9845368878924
            ],
            [
              307.128611019166,
              324.1813580623524
            ],
            [
              305.84205497570315,
              324.6815782641815
            ],
            [
              304.68282936222045,
              325.0610668507866
            ],
            [
              304.0196565207507,
              325.3528889545452
            ],
            [
              303.1772442471767,
              325.6542917580863
            ],
            [
              303.04778661059555,
              325.7155172931449
            ],
            [
              302.95305265272793,
              325.74978933086925
            ],
            [
              302.3393327153147,
              326.0434563144787
            ],
            [
              301.71015791670226,
              326.28808300318485
            ],
            [
              300.49385023313135,
              326.9043822365152
            ],
            [
              299.3616417845688,
              327.4025984340119
            ],
            [
              298.736658059476,
              327.7544171156775
            ],
            [
              297.9217759256966,
              328.1398064674986
            ],
            [
              297.9202293409712,
              328.1407334049601
            ],
            [
              297.91454435401596,
              328.1434220556841
            ],
            [
              297.7713000168692,
              328.22927479908634
            ],
            [
              297.6550976476143,
              328.2848780102351
            ],
            [
              297.0774072066669,
              328.63548304790476
            ],
            [
              296.5243043229037,
              328.9157385192975
            ],
            [
              295.389019803871,
              329.63888487136796
            ],
            [
              294.2956015658653,
              330.2543968400091
            ],
            [
              293.72053546547386,
              330.65707932202247
            ],
            [
              292.9280204426651,
              331.1320690510996
            ],
            [
              292.7668466994437,
              331.2515973573915
            ],
            [
              292.6342213763585,
              331.33208874707515
            ],
            [
              292.098462714505,
              331.73488311282495
            ],
            [
              291.62099284275195,
              332.0390188516584
            ],
            [
              290.57620576402076,
              332.85885488757185
            ],
            [
              289.5334974427782,
              333.58899769118057
            ],
            [
              289.0133074473768,
              334.03526534470427
            ],
            [
              288.2584638926181,
              334.5950660281905
            ],
            [
              288.0849326830785,
              334.7523374230265
            ],
            [
              287.93977521414354,
              334.86146978952445
            ],
            [
              287.45135097805104,
              335.3109033600968
            ],
            [
              287.04744504623386,
              335.6278451033096
            ],
            [
              286.1012680967181,
              336.53348518637017
            ],
            [
              285.1211910812618,
              337.37428695845085
            ],
            [
              284.85606714614033,
              337.65124959404415
            ],
            [
              284.7920722025168,
              337.7068415460359
            ],
            [
              284.60171695100786,
              337.9091770381293
            ],
            [
              283.95084508607863,
              338.49906243300524
            ],
            [
              283.77114799557717,
              338.6973175562862
            ],
            [
              283.6179019777435,
              338.8383300202007
            ],
            [
              283.1815705655049,
              339.3280947105428
            ],
            [
              282.84770669878026,
              339.6476549155842
            ],
            [
              282.0068618670249,
              340.6276817411219
            ],
            [
              281.10117540357624,
              341.57381023693176
            ],
            [
              280.83513542497974,
              341.9128129794257
            ],
            [
              280.7082439514322,
              342.0476905230694
            ],
            [
              280.5644476138271,
              342.2351866320729
            ],
            [
              280.04664874694976,
              342.8064606460194
            ],
            [
              279.86747947747705,
              343.0480304061448
            ],
            [
              279.7110823769221,
              343.22357994344026
            ],
            [
              279.3308169612606,
              343.74668264945024
            ],
            [
              279.0622235764774,
              344.059735322549
            ],
            [
              278.33204338017646,
              345.10239024670625
            ],
            [
              277.5121653582663,
              346.1471238217473
            ],
            [
              277.25663835932556,
              346.54824060030745
            ],
            [
              277.08127652137415,
              346.77689497934665
            ],
            [
              276.97853147373803,
              346.943131828079
            ],
            [
              276.5834744202313,
              347.47577806777366
            ],
            [
              276.4119007763688,
              347.7620174446424
            ],
            [
              276.2577174615037,
              347.9741159051009
            ],
            [
              275.9365747309182,
              348.52298039070473
            ],
            [
              275.727451951164,
              348.8215955779912
            ],
            [
              275.1119084603798,
              349.9149578220789
            ],
            [
              274.3887250740131,
              351.05018420305595
            ],
            [
              274.1548050479034,
              351.51179371022823
            ],
            [
              273.947881532044,
              351.8465866174874
            ],
            [
              273.89006550661634,
              351.96538091965454
            ],
            [
              273.6663035982007,
              352.3367076613726
            ],
            [
              273.6526636455802,
              352.3653020703986
            ],
            [
              273.5946743678383,
              352.46204661899156
            ],
            [
              273.4380021790826,
              352.7932864191501
            ],
            [
              273.2917511684543,
              353.0432437685558
            ],
            [
              273.0317556925358,
              353.60983971483535
            ],
            [
              272.8755074965572,
              353.88737636455625
            ],
            [
              272.87189172320365,
              353.89460756590563
            ],
            [
              272.37397103244905,
              355.026028578847
            ],
            [
              271.76093498821734,
              356.23577222910205
            ],
            [
              271.5604571046841,
              356.75134440214686
            ],
            [
              271.5443471689856,
              356.7851168135016
            ],
            [
              271.33977473703476,
              357.2054507799973
            ],
            [
              271.3261069025249,
              357.24262950570994
            ],
            [
              271.1873219508267,
              357.53357433417494
            ],
            [
              271.1591246124607,
              357.611339678968
            ],
            [
              271.10903236812953,
              357.71724580776004
            ],
            [
              270.9746639318356,
              358.09276330645383
            ],
            [
              270.8423366788806,
              358.3811378823636
            ],
            [
              270.6459312910465,
              358.9526388019451
            ],
            [
              270.5302402234282,
              359.2155226453826
            ],
            [
              270.52687654552443,
              359.22579663614283
            ],
            [
              270.52662445840735,
              359.22636945157245
            ],
            [
              270.1460402387288,
              360.3888228326925
            ],
            [
              269.65410215589156,
              361.6539478524531
            ],
            [
              269.5219867355013,
              362.12639673286344
            ],
            [
              269.2246034653937,
              362.94654905499783
            ],
            [
              269.19124612833446,
              363.0768548919762
            ],
            [
              269.1504865123579,
              363.19076519309874
            ],
            [
              269.14924732698165,
              363.1957120877026
            ],
            [
              269.14325498231585,
              363.2124588054857
            ],
            [
              269.0391465041498,
              363.628065445858
            ],
            [
              268.9335498646001,
              363.935330828309
            ],
            [
              268.80074147988194,
              364.4978925469695
            ],
            [
              268.7178172974964,
              364.75117550303577
            ],
            [
              268.44899519006987,
              365.9634480995134
            ],
            [
              268.0885165289147,
              367.25253107998606
            ],
            [
              268.01378741775346,
              367.6764349638462
            ],
            [
              267.79669068889797,
              368.5244933957265
            ],
            [
              267.7710449209068,
              368.69039512288856
            ],
            [
              267.73066713770993,
              368.8515854035934
            ],
            [
              267.65920941322514,
              369.3332968981579
            ],
            [
              267.58415264068157,
              369.6512291360251
            ],
            [
              267.51303593141813,
              370.184223583841
            ],
            [
              267.4592742771824,
              370.4266656240452
            ],
            [
              267.30829250968935,
              371.67838315928293
            ],
            [
              267.0792555527252,
              372.97760449472656
            ],
            [
              267.05081669027965,
              373.34953059707595
            ],
            [
              266.9170736556981,
              374.21471039754937
            ],
            [
              266.90608613702693,
              374.4102587182946
            ],
            [
              266.87764129741805,
              374.60201134264673
            ],
            [
              266.85087228748694,
              375.14690463920476
            ],
            [
              266.8074085501998,
              375.472649895052
            ],
            [
              266.7908099557013,
              375.96858321286766
            ],
            [
              266.763115854758,
              376.1981817421869
            ],
            [
              266.7360387891229,
              377.4366447772683
            ],
            [
              266.7297706680805,
              377.5482004961891
            ],
            [
              266.6360389622382,
              378.77403251004665
            ],
            [
              266.6430020901085,
              379.09244813056205
            ],
            [
              266.59406244198715,
              379.96344241924436
            ],
            [
              266.6032624293411,
              380.18709672013887
            ],
            [
              266.59239256659083,
              380.4083568773805
            ],
            [
              266.62202630397184,
              381.0115063585119
            ],
            [
              266.61095239373054,
              381.342372989947
            ],
            [
              266.64074937440853,
              381.79503498796106
            ],
            [
              266.63604641639074,
              382.0101410022253
            ],
            [
              266.7273896642379,
              383.204664990943
            ],
            [
              266.73921459369024,
              383.4921323784171
            ],
            [
              266.7631351754953,
              384.58599235551355
            ],
            [
              266.7951165408437,
              384.8511245621016
            ],
            [
              266.8307086573942,
              385.71637900590116
            ],
            [
              266.8654392429186,
              385.96580510065866
            ],
            [
              266.8776680464509,
              386.2147037262074
            ],
            [
              266.9747636181303,
              386.8692254416441
            ],
            [
              266.99671518509655,
              387.2027035301924
            ],
            [
              267.06405114821484,
              387.6072916566509
            ],
            [
              267.0792897102207,
              387.80657105933864
            ],
            [
              267.281329071982,
              388.95261843339654
            ],
            [
              267.3451020911419,
              389.41061978517445
            ],
            [
              267.45932018650365,
              390.35751168065644
            ],
            [
              267.50669846705426,
              390.5711632184913
            ],
            [
              267.62477661523855,
              391.4191699805411
            ],
            [
              267.69009298998935,
              391.6912641759708
            ],
            [
              267.7307203781619,
              391.9651335949029
            ],
            [
              267.9053582847577,
              392.6622854875755
            ],
            [
              267.96090517097633,
              392.996038946911
            ],
            [
              268.0564208062743,
              393.34924609557925
            ],
            [
              268.0885770610396,
              393.5316491234269
            ],
            [
              268.39441150060117,
              394.6253060479675
            ],
            [
              268.54284640598803,
              395.24365445301993
            ],
            [
              268.7178893530162,
              396.03300759935746
            ],
            [
              268.7720187275691,
              396.1983378488214
            ],
            [
              268.9687644539246,
              397.0179389107898
            ],
            [
              269.0693353260505,
              397.3088643043059
            ],
            [
              269.1433342014559,
              397.60426670032433
            ],
            [
              269.4043098736732,
              398.3336033970518
            ],
            [
              269.49404510095525,
              398.66543518209045
            ],
            [
              269.6081198587547,
              398.9654992329508
            ],
            [
              269.6541884799218,
              399.13023956308956
            ],
            [
              270.0576991473045,
              400.1679439516565
            ],
            [
              270.32180763841166,
              400.93194117149176
            ],
            [
              270.5267219659687,
              401.5578219833726
            ],
            [
              270.5800960976397,
              401.67910255177685
            ],
            [
              270.8499750098581,
              402.45979210006664
            ],
            [
              270.98998858776184,
              402.76502670006175
            ],
            [
              271.10190527299727,
              403.077795108011
            ],
            [
              271.4564492230222,
              403.82737408645283
            ],
            [
              271.58106538163673,
              404.1551664050943
            ],
            [
              271.7040625886086,
              404.4018805147276
            ],
            [
              271.76104627306046,
              404.5484248918927
            ],
            [
              272.25680162563776,
              405.52672436280113
            ],
            [
              272.66542463837544,
              406.41753712323646
            ],
            [
              272.8683979784879,
              406.87874785001844
            ],
            [
              272.9147625992112,
              406.9611027821543
            ],
            [
              273.25063577242054,
              407.69331829438715
            ],
            [
              273.43371167146853,
              408.0077143972799
            ],
            [
              273.5875714827039,
              408.33300574725246
            ],
            [
              274.04110494286084,
              409.08963999957797
            ],
            [
              274.20145219923626,
              409.41127275502123
            ],
            [
              274.3239612728013,
              409.60595654564577
            ],
            [
              274.38886024816793,
              409.7340250232372
            ],
            [
              274.97197561700375,
              410.6493739068458
            ],
            [
              275.5514307927233,
              411.64447184158536
            ],
            [
              275.7203657704768,
              411.9445417744722
            ],
            [
              275.75477948149626,
              411.99368239092314
            ],
            [
              276.14806678755855,
              412.6690743839995
            ],
            [
              276.3771751502822,
              412.98692849108625
            ],
            [
              276.5763945061699,
              413.3192880668072
            ],
            [
              277.132328474984,
              414.06883881609633
            ],
            [
              277.32944915466624,
              414.3820907248306
            ],
            [
              277.4425185455665,
              414.52752363915437
            ],
            [
              277.51232312016236,
              414.63709979311614
            ],
            [
              278.1782844931978,
              415.4857024126142
            ],
            [
              278.95215688504175,
              416.5593363698876
            ],
            [
              279.0551593330548,
              416.70641739201017
            ],
            [
              279.074004101733,
              416.72838143573375
            ],
            [
              279.51489492398576,
              417.3400525112437
            ],
            [
              279.79228395735146,
              417.655184923284
            ],
            [
              280.0395903438251,
              417.98862144215474
            ],
            [
              280.69917474550425,
              418.7163230864517
            ],
            [
              280.9343104292693,
              419.0187609741931
            ],
            [
              281.0296652814681,
              419.11908011902875
            ],
            [
              281.1013542341361,
              419.21042991119947
            ],
            [
              281.8458170544421,
              419.98813525739786
            ],
            [
              282.8349261027892,
              421.1118289967784
            ],
            [
              282.8406627812335,
              421.11851523731855
            ],
            [
              282.8416073499519,
              421.11941933844827
            ],
            [
              283.31931247751453,
              421.6621241716487
            ],
            [
              283.64644551055744,
              421.96796726794935
            ],
            [
              283.9438065265821,
              422.2960376403858
            ],
            [
              283.949496672027,
              422.3011946258431
            ],
            [
              283.9546539215804,
              422.30688447989263
            ],
            [
              284.71300394096465,
              422.99417798694327
            ],
            [
              284.98060299271316,
              423.2757085793581
            ],
            [
              285.0508420487606,
              423.3362743515386
            ],
            [
              285.1213892584823,
              423.409971708422
            ],
            [
              285.9399636492958,
              424.1122224123216
            ],
            [
              287.52537767053553,
              425.5944571126268
            ],
            [
              287.89556761548613,
              425.8785391570366
            ],
            [
              288.2622907133365,
              426.21090072833294
            ],
            [
              289.13623872806215,
              426.8590324642121
            ],
            [
              289.4285548825678,
              427.1110909999117
            ],
            [
              289.46732185836555,
              427.1383246371196
            ],
            [
              289.5337130583526,
              427.1952813015801
            ],
            [
              290.4217470569252,
              427.8171175276036
            ],
            [
              292.093354207633,
              429.0999010913184
            ],
            [
              292.497308795973,
              429.3516477465752
            ],
            [
              292.93186321698136,
              429.67391921635783
            ],
            [
              292.93673143776726,
              429.67683697336497
            ],
            [
              292.9571737886572,
              429.6919972988623
            ],
            [
              293.9431296261135,
              430.2829276776022
            ],
            [
              294.1057374907311,
              430.3967920803337
            ],
            [
              294.23444613229924,
              430.48720935887565
            ],
            [
              294.236571610136,
              430.48840726081005
            ],
            [
              294.2958325435238,
              430.52990409001893
            ],
            [
              295.24820468171595,
              431.0660207434166
            ],
            [
              296.9800866794607,
              432.14533884703997
            ],
            [
              297.3867874542663,
              432.34687612981674
            ],
            [
              297.9437114683441,
              432.68066726535824
            ],
            [
              299.0246773656204,
              433.1919018100225
            ],
            [
              299.36188590013154,
              433.38172583339906
            ],
            [
              300.2842091532475,
              433.7875877253434
            ],
            [
              300.50180987026187,
              433.89050031838764
            ],
            [
              302.1394082682965,
              434.70199897259033
            ],
            [
              302.5361147513314,
              434.852609236176
            ],
            [
              303.1991912402981,
              435.1662061847714
            ],
            [
              304.36510983231767,
              435.5833595058767
            ],
            [
              304.68308426494195,
              435.7232819293636
            ],
            [
              305.5428251800958,
              436.0047335812319
            ],
            [
              306.0286780433471,
              436.17856658883915
            ],
            [
              307.5225769034938,
              436.7457277287022
            ],
            [
              307.9034472772571,
              436.84933916043576
            ],
            [
              308.67299996136904,
              437.12467695857924
            ],
            [
              309.8942009261619,
              437.43055884748946
            ],
            [
              310.0564627382199,
              437.4840277514539
            ],
            [
              310.07283450546,
              437.48771361058203
            ],
            [
              310.20818158885754,
              437.5320219126854
            ],
            [
              311.00202693186054,
              437.70804299708755
            ],
            [
              311.73342734534197,
              437.89124146030844
            ],
            [
              313.07873574632504,
              438.2572172335706
            ],
            [
              313.43914037624285,
              438.3184821347486
            ],
            [
              314.31242186129873,
              438.53721844261594
            ],
            [
              315.5415323537792,
              438.7195331933747
            ],
            [
              315.71476804148006,
              438.7585346238399
            ],
            [
              315.7720146076145,
              438.76570291873816
            ],
            [
              315.8839681643148,
              438.7905266285816
            ],
            [
              316.61270556983993,
              438.8784210062274
            ],
            [
              317.5576895798459,
              439.01859109289643
            ],
            [
              318.75539365388136,
              439.22218787176047
            ],
            [
              319.0920144875871,
              439.24617849440403
            ],
            [
              320.0631462243563,
              439.39022709021475
            ],
            [
              321.2091078292542,
              439.4465243239615
            ],
            [
              321.40724495475666,
              439.47133463909705
            ],
            [
              321.5647685999094,
              439.4756985643885
            ],
            [
              321.6557830638924,
              439.4866759886451
            ],
            [
              322.3237017953598,
              439.50128057127915
            ],
            [
              323.442961105364,
              439.5562660112163
            ],
            [
              324.49892108282035,
              439.63152319914093
            ],
            [
              324.8097831192988,
              439.62341337294635
            ],
            [
              325.8697904312686,
              439.67548796180625
            ],
            [
              326.9183784230195,
              439.6240112404886
            ],
            [
              327.1419775316776,
              439.63020567438554
            ],
            [
              327.40054809249483,
              439.6122899167836
            ],
            [
              327.4680405549079,
              439.6137656939938
            ],
            [
              328.07971645790656,
              439.56699945430154
            ],
            [
              329.3357418862993,
              439.50533932519477
            ],
            [
              330.2550567480329,
              439.4813560693873
            ],
            [
              330.5375823970825,
              439.4463392131085
            ],
            [
              331.68004911409446,
              439.39025384757747
            ],
            [
              332.6223839811294,
              439.250480955462
            ],
            [
              332.8651850861894,
              439.23365782706054
            ],
            [
              333.2221794859435,
              439.173827747812
            ],
            [
              333.26476542043366,
              439.1705718013066
            ],
            [
              333.7121178786093,
              439.0917170679793
            ],
            [
              333.8611821873191,
              439.0667348010043
            ],
            [
              335.1870530199873,
              438.8700735000873
            ],
            [
              335.969420249595,
              438.7731051684295
            ],
            [
              336.22088126690926,
              438.71672974822195
            ],
            [
              337.43076954751723,
              438.5372716913978
            ],
            [
              338.2606380390758,
              438.32941289218985
            ],
            [
              338.52319501460687,
              438.2854099479913
            ],
            [
              338.9725697476462,
              438.16445821042805
            ],
            [
              338.99013203118943,
              438.1613625100238
            ],
            [
              339.14615627232706,
              438.11773642072205
            ],
            [
              339.6878613085298,
              437.97193346261315
            ],
            [
              340.92342214459234,
              437.66246010105914
            ],
            [
              341.5880258251047,
              437.51346161152475
            ],
            [
              341.8106608882407,
              437.4402316615637
            ],
            [
              343.0701849401226,
              437.1247561860492
            ],
            [
              343.78319775965446,
              436.86965061659583
            ],
            [
              344.0629461407206,
              436.7943547659783
            ],
            [
              345.41131171038813,
              436.2871352323432
            ],
            [
              346.4938189391944,
              435.8998299616942
            ],
            [
              347.05779237364976,
              435.71432572979205
            ],
            [
              347.25434322830745,
              435.62772548257357
            ],
            [
              348.543984638856,
              435.1663106280038
            ],
            [
              348.5506087590973,
              435.1631778247459
            ],
            [
              348.562063572222,
              435.1590794599639
            ],
            [
              349.15291572097334,
              434.87964257309073
            ],
            [
              349.43248632689324,
              434.77447549115044
            ],
            [
              350.9047525594704,
              434.051131018225
            ],
            [
              351.8873035539823,
              433.58644456209703
            ],
            [
              352.3270449331164,
              433.39269464323803
            ],
            [
              352.33427650479706,
              433.38907905505255
            ],
            [
              352.4889962235812,
              433.30188077265495
            ],
            [
              353.8175318937021,
              432.6735647505516
            ],
            [
              354.31296253639385,
              432.37663098907075
            ],
            [
              354.5814596844717,
              432.2447146795328
            ],
            [
              356.136231017252,
              431.2838645722161
            ],
            [
              357.1030981380716,
              430.7043778261381
            ],
            [
              357.4256272202287,
              430.52281828799005
            ],
            [
              357.4488025919583,
              430.5065900383908
            ],
            [
              357.4508555930149,
              430.505432990235
            ],
            [
              357.5427789483266,
              430.4408574348106
            ],
            [
              358.8040558050532,
              429.68491775512894
            ],
            [
              358.8143165325566,
              429.6773082813137
            ],
            [
              358.82575051177275,
              429.6704553857396
            ],
            [
              359.2198616821166,
              429.37817799774007
            ],
            [
              359.4615788145272,
              429.22879658857875
            ],
            [
              361.0123221869772,
              428.048868620433
            ],
            [
              361.92076124199394,
              427.3751597430022
            ],
            [
              362.18773134330866,
              427.1882174368183
            ],
            [
              362.2547110614042,
              427.13075596718016
            ],
            [
              362.25673128949063,
              427.1293367701735
            ],
            [
              362.28437981630475,
              427.10549601581425
            ],
            [
              363.49530706181974,
              426.20745840864873
            ],
            [
              363.82428668256523,
              425.9093040653063
            ],
            [
              364.0270776501192,
              425.7550046895574
            ],
            [
              365.48157119275027,
              424.40730654413494
            ],
            [
              366.408159389828,
              423.56753934268556
            ],
            [
              366.60003770482854,
              423.4029281695482
            ],
            [
              366.6671717895645,
              423.3327963157807
            ],
            [
              367.8029258683593,
              422.30346200383394
            ],
            [
              368.0692889068087,
              422.0095905957026
            ],
            [
              368.2351406534323,
              421.85591642335663
            ],
            [
              369.5798024294806,
              420.34308033773107
            ],
            [
              370.4834739492293,
              419.34608306832894
            ],
            [
              370.6200533825177,
              419.2034048910674
            ],
            [
              370.666879410753,
              419.1437365958098
            ],
            [
              371.7071222074881,
              417.99606379081985
            ],
            [
              371.9148341489978,
              417.7160106096375
            ],
            [
              372.04630434253306,
              417.56809768720893
            ],
            [
              373.26798248713254,
              415.89159216765006
            ],
            [
              374.1099482561038,
              414.75638929805467
            ],
            [
              374.2090634278241,
              414.63009130625176
            ],
            [
              374.2421882656181,
              414.57809316796954
            ],
            [
              375.17029653420656,
              413.3267463690656
            ],
            [
              375.32465899399494,
              413.06922071822567
            ],
            [
              375.42482738248253,
              412.93175991733773
            ],
            [
              376.51084071222476,
              411.0902925551011
            ],
            [
              377.256064829074,
              409.84702184031624
            ],
            [
              377.33250371207373,
              409.72703092494294
            ],
            [
              377.35719972728396,
              409.6782966818857
            ],
            [
              378.15909658659956,
              408.34047781784767
            ],
            [
              378.26660493211926,
              408.1131813003967
            ],
            [
              378.3390257697786,
              407.9903829836075
            ],
            [
              379.2772124626808,
              405.9765325491195
            ],
            [
              379.8957179520396,
              404.66887458940744
            ],
            [
              379.9602937978731,
              404.541442898897
            ],
            [
              379.9801760052951,
              404.4903115087173
            ],
            [
              380.64473858630123,
              403.08527862907886
            ],
            [
              380.71291498528404,
              402.8947470465
            ],
            [
              380.761569966992,
              402.79030743253026
            ],
            [
              380.88434875229984,
              402.4422075653636
            ],
            [
              380.88943433909486,
              402.4311207166136
            ],
            [
              380.9472816420669,
              402.26378154075877
            ],
            [
              381.5403470869013,
              400.5823346845956
            ],
            [
              382.0083039488613,
              399.27454250405526
            ],
            [
              382.06712663019886,
              399.1232672755459
            ],
            [
              382.08391260838573,
              399.0632400919213
            ],
            [
              382.60328444208,
              397.6117592437405
            ],
            [
              382.6404903075117,
              397.4632314292134
            ],
            [
              382.66974120089276,
              397.38029990262055
            ],
            [
              382.755640322637,
              397.0326085093205
            ],
            [
              382.77061982519234,
              396.98927619331204
            ],
            [
              382.9169892325804,
              396.3795211881933
            ],
            [
              383.27817732896784,
              394.9175505657916
            ],
            [
              383.57873446876005,
              393.71771030966136
            ],
            [
              383.6327122571722,
              393.52468404801283
            ],
            [
              383.6460750375742,
              393.4488831396089
            ],
            [
              384.0158722866892,
              391.97263264564003
            ],
            [
              384.0311045352153,
              391.8699488664095
            ],
            [
              384.0456445205468,
              391.8110957878732
            ],
            [
              384.09566520286035,
              391.4693177164702
            ],
            [
              384.1145818711394,
              391.3905134542487
            ],
            [
              384.25504589163086,
              390.38170440962466
            ],
            [
              384.26195450890447,
              390.3505495039537
            ],
            [
              384.27391961477525,
              390.25135254082403
            ],
            [
              384.47354702034505,
              388.88735136130265
            ],
            [
              384.59737977200706,
              388.05256883351296
            ],
            [
              384.6419732333652,
              387.79961063327244
            ],
            [
              384.6494935962963,
              387.7012586236287
            ],
            [
              384.8688981269778,
              386.2222067065794
            ],
            [
              384.87157398905487,
              386.1677385244418
            ],
            [
              384.87637661729286,
              386.13492343792444
            ],
            [
              384.8924108603902,
              385.8041653149707
            ],
            [
              384.9086235570262,
              385.6877261375273
            ],
            [
              384.9522123159788,
              384.627952562127
            ],
            [
              384.958112931336,
              384.5790333858123
            ],
            [
              384.96252555742973,
              384.3772067041934
            ],
            [
              384.9677860754215,
              384.2493077206935
            ],
            [
              385.0619178173926,
              382.30753609458543
            ],
            [
              385.0851898238522,
              382.00318261795235
            ],
            [
              385.0825419226288,
              381.8820972199904
            ],
            [
              385.11439222403584,
              381.22508174092354
            ],
            [
              385.1541468578015,
              380.4158611718455
            ],
            [
              385.1538822525142,
              380.41047218175544
            ],
            [
              385.1541468328176,
              380.4050143573246
            ],
            [
              385.1386027124014,
              380.0962425166912
            ],
            [
              385.14524326946076,
              379.93479064094277
            ],
            [
              385.083626026767,
              378.83825884054954
            ],
            [
              385.0851823697032,
              378.76707412577395
            ],
            [
              385.0642265277649,
              378.49302807985
            ],
            [
              385.0286264368662,
              377.8594938601671
            ],
            [
              384.96723259986396,
              376.60913796688396
            ],
            [
              384.95809361059514,
              376.1912227724855
            ],
            [
              384.9388993082476,
              376.03209799217376
            ],
            [
              384.8688713696194,
              374.6058987181786
            ],
            [
              384.8587868873321,
              374.53791917461115
            ],
            [
              384.854318337159,
              374.4491549071821
            ],
            [
              384.8268413306252,
              374.26855443848325
            ],
            [
              384.82220557213157,
              374.18605713120354
            ],
            [
              384.6494003845066,
              373.06821791631603
            ],
            [
              384.641939075873,
              372.97064406866764
            ],
            [
              384.58002406217736,
              372.61943755998635
            ],
            [
              384.4355094368121,
              371.68460384592095
            ],
            [
              384.3230085589639,
              370.9262348875478
            ],
            [
              384.26190859958683,
              370.41970344734256
            ],
            [
              384.2194907712844,
              370.22842098326504
            ],
            [
              384.0158190379045,
              368.85546884949
            ],
            [
              384.00992305990854,
              368.8319321941382
            ],
            [
              384.0085873829399,
              368.82292838926514
            ],
            [
              383.9824643218958,
              368.7186455230533
            ],
            [
              383.95789511525606,
              368.5571573991608
            ],
            [
              383.94321419431515,
              368.5000528789631
            ],
            [
              383.9425623248783,
              368.4958360772491
            ],
            [
              383.65511217983226,
              367.3729706102927
            ],
            [
              383.63265172505083,
              367.2455660045721
            ],
            [
              383.5125636736063,
              366.8161338934996
            ],
            [
              383.2012580982196,
              365.6000820448822
            ],
            [
              383.1304630407314,
              365.317469241733
            ],
            [
              383.00333943307425,
              364.74420752864154
            ],
            [
              382.93317733130726,
              364.5299076612647
            ],
            [
              382.5959735596462,
              363.18379528383656
            ],
            [
              382.54931651874136,
              363.0534049995648
            ],
            [
              382.5146238515557,
              362.9178851586097
            ],
            [
              382.4922125845825,
              362.8560778827103
            ],
            [
              382.4739506200074,
              362.7850441424629
            ],
            [
              382.1035172082001,
              361.77741612794546
            ],
            [
              382.06704030617215,
              361.6469755649096
            ],
            [
              381.8708064392528,
              361.14232287206255
            ],
            [
              381.46629017772744,
              360.02672114317454
            ],
            [
              381.3785177167181,
              359.78142748713447
            ],
            [
              381.1945068201217,
              359.21939314462645
            ],
            [
              381.1030266300915,
              359.0115252300121
            ],
            [
              380.6374024881045,
              357.710266876157
            ],
            [
              380.59002823676104,
              357.61010794543853
            ],
            [
              380.5518804292808,
              357.50490139620933
            ],
            [
              380.46874669961807,
              357.33062350816897
            ],
            [
              380.4175051147902,
              357.1912396007464
            ],
            [
              380.00427772310667,
              356.34218945130795
            ],
            [
              379.96018251303354,
              356.22879023610653
            ],
            [
              379.6798682166932,
              355.6756316542326
            ],
            [
              379.6505523484467,
              355.61539691951106
            ],
            [
              379.1763052866599,
              354.6212062742076
            ],
            [
              379.09859647885133,
              354.4569138394667
            ],
            [
              378.852830807599,
              353.89846727798044
            ],
            [
              378.73788473989333,
              353.6942948840807
            ],
            [
              378.15173627839823,
              352.45505623690843
            ],
            [
              378.1090102671295,
              352.38377601961486
            ],
            [
              378.07287484063613,
              352.3080233036187
            ],
            [
              377.90650789046737,
              352.0319432630677
            ],
            [
              377.80937363221153,
              351.8323634236111
            ],
            [
              377.38133864051207,
              351.1398253205101
            ],
            [
              377.33236853792215,
              351.04319010476894
            ],
            [
              376.9712214049953,
              350.476277204481
            ],
            [
              376.88471769394056,
              350.33631874985946
            ],
            [
              376.3241715411492,
              349.40611233303014
            ],
            [
              376.3164241620535,
              349.3931873056479
            ],
            [
              376.0008630156136,
              348.8326733535268
            ],
            [
              375.8591652662941,
              348.6303378731264
            ],
            [
              375.16291325492864,
              347.4687739173536
            ],
            [
              375.12990603718026,
              347.42427117749276
            ],
            [
              375.1010271930017,
              347.37634776203197
            ],
            [
              374.83039834105085,
              347.0125380884259
            ],
            [
              374.67595528748205,
              346.7626573510373
            ],
            [
              374.2599000664365,
              346.2201641040823
            ],
            [
              374.20890566592806,
              346.14011533488286
            ],
            [
              373.75158686152656,
              345.5573759282574
            ],
            [
              373.6302778985647,
              345.39920150843244
            ],
            [
              373.0512007109619,
              344.6207409670371
            ],
            [
              372.6660694530356,
              344.0707977359889
            ],
            [
              372.4934322655196,
              343.86958482640534
            ],
            [
              371.699717417277,
              342.79944054200615
            ],
            [
              371.6811108457133,
              342.7789124144672
            ],
            [
              371.6644136598492,
              342.7564661834189
            ],
            [
              371.2704404931786,
              342.32221607099257
            ],
            [
              371.04896607060016,
              342.0334361866338
            ],
            [
              370.66982007924065,
              341.6304284054367
            ],
            [
              370.61987455195435,
              341.56678521679953
            ],
            [
              370.04258710464063,
              340.96372013171646
            ],
            [
              369.9124052605057,
              340.82534521188853
            ],
            [
              369.3437894118351,
              340.1985982222518
            ],
            [
              368.8805660048569,
              339.6586998906805
            ],
            [
              368.678475266208,
              339.4652672063927
            ],
            [
              367.79550123452003,
              338.4920243437751
            ],
            [
              367.26413732199273,
              338.010406876162
            ],
            [
              366.9651178217797,
              337.6925683968874
            ],
            [
              366.6453609805732,
              337.41479754366503
            ],
            [
              366.5998395276117,
              337.3672434195772
            ],
            [
              365.85812781352536,
              336.7309328054807
            ],
            [
              365.72291514048703,
              336.613474366075
            ],
            [
              365.2727972240532,
              336.2054966206274
            ],
            [
              364.68080913864827,
              335.6388707317404
            ],
            [
              364.43378063606946,
              335.4450290110218
            ],
            [
              363.4842486444337,
              334.58439248216354
            ],
            [
              362.8203720899115,
              334.09205259874443
            ],
            [
              362.46574663978015,
              333.7839915937474
            ],
            [
              362.22489769757755,
              333.61400362353004
            ],
            [
              362.1875157277343,
              333.5819338264188
            ],
            [
              361.2017880057949,
              332.89168862466954
            ],
            [
              360.802161033548,
              332.59531982600004
            ],
            [
              360.1072448088527,
              332.05002341143535
            ],
            [
              359.82114108831223,
              331.8677820899874
            ],
            [
              358.8146761407885,
              331.12137399414576
            ],
            [
              358.00913685302135,
              330.6385758622866
            ],
            [
              357.5963944840721,
              330.34726780471027
            ],
            [
              357.4505896183719,
              330.2649524275656
            ],
            [
              357.4253962425631,
              330.24731103797996
            ],
            [
              356.2886252174219,
              329.60739114402827
            ],
            [
              356.01591685784916,
              329.4439440117236
            ],
            [
              355.20391894013335,
              328.9267204913199
            ],
            [
              354.8741266388651,
              328.7596146524109
            ],
            [
              353.8281384611016,
              328.1327040276498
            ],
            [
              352.87674752610064,
              327.6827509692838
            ],
            [
              352.406348206,
              327.41718303191686
            ],
            [
              352.3991166176647,
              327.41356741042176
            ],
            [
              352.36380752448474,
              327.398002563281
            ],
            [
              352.3593428859621,
              327.3954892946072
            ],
            [
              351.65493911297784,
              327.08552134460626
            ],
            [
              351.051531812766,
              326.8195291724815
            ],
            [
              350.9574573568445,
              326.7750373788359
            ],
            [
              350.01805324103543,
              326.29904108588875
            ],
            [
              349.64112178763946,
              326.15248654993934
            ],
            [
              348.57265868915147,
              325.64716510822973
            ],
            [
              347.61352230521965,
              325.30399627064065
            ],
            [
              347.14963324824197,
              325.09950610645467
            ],
            [
              347.11808323305286,
              325.0891096692875
            ],
            [
              347.03814452114847,
              325.0539331986354
            ],
            [
              345.6304481262726,
              324.59309846496365
            ],
            [
              344.59959043312676,
              324.19229118425943
            ],
            [
              344.58874305478315,
              324.1886755544332
            ],
            [
              344.1654992326345,
              324.0703301417724
            ],
            [
              343.09884996808023,
              323.688694334429
            ],
            [
              342.13753920445504,
              323.4479087793175
            ],
            [
              341.70092397290966,
              323.3040342743551
            ],
            [
              341.6748679529693,
              323.2981681502105
            ],
            [
              341.5130471972328,
              323.2451932153136
            ],
            [
              340.0709834872213,
              322.9254412381117
            ],
            [
              338.9898658969313,
              322.6231443098131
            ],
            [
              338.50002837093706,
              322.5367985552303
            ],
            [
              337.459428068147,
              322.2761528503921
            ],
            [
              336.50932796727454,
              322.1352238906675
            ],
            [
              336.1040871330519,
              322.043989962915
            ],
            [
              336.0847887592482,
              322.041573461039
            ],
            [
              335.83726062177885,
              321.9866884994247
            ],
            [
              334.3868634333033,
              321.81175338938203
            ],
            [
              333.2644946368277,
              321.61390864390216
            ],
            [
              332.70783754135067,
              321.57134636805154
            ],
            [
              331.70870370508976,
              321.4231442027862
            ],
            [
              330.7911527139544,
              321.37806801314787
            ],
            [
              330.6505873378521,
              321.36111416096037
            ],
            [
              330.4116102197753,
              321.3311899476579
            ],
            [
              330.3997626853999,
              321.3308617318229
            ],
            [
              330.0654457222016,
              321.2905391393541
            ],
            [
              328.62265604360806,
              321.2589913775075
            ],
            [
              327.46776772951006,
              321.1706880478706
            ],
            [
              326.8463478068432,
              321.1842730351939
            ],
            [
              325.90205949817715,
              321.1378833312018
            ],
            [
              325.0397909969262,
              321.1806491389185
            ],
            [
              324.7445150237456,
              321.17419269123485
            ],
            [
              324.6768776428512,
              321.17231891236213
            ],
            [
              324.67254612630137,
              321.17261903314795
            ],
            [
              324.25318823118255,
              321.1634494340052
            ],
            [
              324.2523841988647,
              321.1635109070273
            ],
            [
              324.2495724411778,
              321.16344942567423
            ],
            [
              322.82833136496527,
              321.2721117099209
            ],
            [
              321.6555108239087,
              321.2977509783216
            ],
            [
              320.9530502628264,
              321.3824728678541
            ],
            [
              320.0520271336236,
              321.4267329586582
            ],
            [
              320.03892471552257,
              321.428676389742
            ],
            [
              320.03235393672844,
              321.429002279718
            ],
            [
              319.61276951235914,
              321.4918863454809
            ],
            [
              319.2499755752559,
              321.54569816928665
            ],
            [
              318.4528475756553,
              321.6066433183687
            ],
            [
              317.06282145914895,
              321.8516629594287
            ],
            [
              315.8836991313342,
              321.99387374981467
            ],
            [
              315.1871047720265,
              322.14832810725
            ],
            [
              314.3013067002008,
              322.2797151148378
            ],
            [
              314.19265571566285,
              322.30692914140445
            ],
            [
              314.16968785910495,
              322.3103713859676
            ],
            [
              313.5029112335752,
              322.4791676626281
            ]
          ]
        ]
      }
    }
  ]
}