{
  "type": "FeatureCollection",
  "features": [
    {
      "type": "Feature",
      "properties": {
        "method": "Homography",
        "mode": "tmpl2img",
        "inside_ratio": 1.0
      },
      "geometry": {
        "type": "Polygon",
        "coordinates": [
          [
            [
              219.9774935198236,
              397.62672637091583
            ],
            [
              219.83113648546293,
              397.7970057107312
            ],
            [
              219.3178784377436,
              398.36433928531045
            ],
            [
              218.39172601474928,
              399.3416821673009
            ],
            [
              217.7962113095521,
              400.04632528629674
            ],
            [
              213.26553627218104,
              405.05434040787236
            ],
            [
              212.32749327319934,
              406.220481347217
            ],
            [
              212.17023987005612,
              406.39641111346276
            ],
            [
              210.742038151788,
              408.191461490534
            ],
            [
              208.48050618456202,
              411.0029157794006
            ],
            [
              208.18651151795441,
              411.3449643727461
            ],
            [
              207.86612353546641,
              411.76669394341184
            ],
            [
              207.37518811712454,
              412.37700699997225
            ],
            [
              206.55712487705927,
              413.34498080147523
            ],
            [
              206.0718965352763,
              413.99721169331167
            ],
            [
              201.93837236439242,
              419.13585860468976
            ],
            [
              201.19611154326097,
              420.18935992393796
            ],
            [
              201.1402940380814,
              420.2595147434027
            ],
            [
              200.49204359552743,
              421.18865355584484
            ],
            [
              197.72900107538578,
              425.11027902385473
            ],
            [
              197.27872677251227,
              425.7029791212759
            ],
            [
              196.80127418898212,
              426.42701496206007
            ],
            [
              196.38182250205946,
              427.02234869509704
            ],
            [
              195.6632207382714,
              427.9882738666587
            ],
            [
              195.27306861883307,
              428.5960188194128
            ],
            [
              191.6122520650134,
              433.7918677166357
            ],
            [
              188.05307753479045,
              439.69327037268454
            ],
            [
              187.47043224338978,
              440.57682632772475
            ],
            [
              186.8754953641288,
              441.6457979856788
            ],
            [
              186.8237745691974,
              441.73155529648056
            ],
            [
              186.63049136601208,
              442.02985035393675
            ],
            [
              186.52436366016624,
              442.22398857009426
            ],
            [
              185.93803877689393,
              443.1373143492844
            ],
            [
              185.6306728761719,
              443.70981554774113
            ],
            [
              182.51181068106246,
              448.8811443167193
            ],
            [
              179.6626754143802,
              454.6056603994977
            ],
            [
              178.99196922792035,
              455.8107729569864
            ],
            [
              178.51167803837038,
              456.8815040737268
            ],
            [
              178.45391087877772,
              456.987176887725
            ],
            [
              178.274275533307,
              457.3952497675666
            ],
            [
              178.21991366465264,
              457.5044742734267
            ],
            [
              177.74662893537345,
              458.3817901117204
            ],
            [
              177.71932472639838,
              458.4455304927223
            ],
            [
              177.62358484022488,
              458.6238560630912
            ],
            [
              177.39064708873164,
              459.17064642961105
            ],
            [
              174.87282606732387,
              464.22948203449977
            ],
            [
              173.2135295036497,
              468.5328827720018
            ],
            [
              173.09057610303387,
              468.7961074825839
            ],
            [
              172.86131270634385,
              469.44636024104943
            ],
            [
              172.77422562600188,
              469.67222137630677
            ],
            [
              172.08200512184118,
              471.2154144424263
            ],
            [
              171.50335860900486,
              472.9564085940286
            ],
            [
              171.028141562342,
              474.0657802517095
            ],
            [
              170.98362559382946,
              474.2102765841292
            ],
            [
              170.9693012410423,
              474.2439010957132
            ],
            [
              170.80724841328274,
              474.7735946769285
            ],
            [
              168.93524656625547,
              479.62864850242573
            ],
            [
              167.94627160405602,
              483.3867409585955
            ],
            [
              167.66548701262565,
              484.1831217055199
            ],
            [
              167.43768604094632,
              485.18894090315763
            ],
            [
              166.97952292505798,
              486.5674324133405
            ],
            [
              166.59419580003626,
              488.45811904358385
            ],
            [
              166.22769506915284,
              489.64775982150616
            ],
            [
              166.08940731852056,
              490.44280196161066
            ],
            [
              165.5169319246111,
              492.6182012806011
            ],
            [
              165.32499472780142,
              493.3139685161997
            ],
            [
              165.31867758626362,
              493.3588219886848
            ],
            [
              165.10695572295975,
              494.1435306716623
            ],
            [
              165.09814752289816,
              494.20957675617313
            ],
            [
              164.92899351854558,
              494.85235985173284
            ],
            [
              164.8376497592614,
              495.58164763144146
            ],
            [
              164.8344192604229,
              495.59408229060455
            ],
            [
              164.81729958634665,
              495.7441232352568
            ],
            [
              164.53295670257438,
              498.0143143464671
            ],
            [
              164.24013596316087,
              499.30721805519244
            ],
            [
              164.14136265204007,
              500.4934483481371
            ],
            [
              163.91348477633144,
              501.61157791917066
            ],
            [
              163.7999522463483,
              503.60530732743706
            ],
            [
              163.58301348329596,
              504.85252884638703
            ],
            [
              163.56695336198428,
              505.6908530822833
            ],
            [
              163.3013529382678,
              507.68239140899834
            ],
            [
              163.25301910123687,
              508.0255751749173
            ],
            [
              163.25328973113577,
              508.0427813425152
            ],
            [
              163.14057866887146,
              508.88791704368487
            ],
            [
              163.14568808695975,
              509.09025490831135
            ],
            [
              163.08181045960345,
              509.6002533295914
            ],
            [
              163.11839689223444,
              510.6337154192224
            ],
            [
              163.07407130736456,
              511.0221955152682
            ],
            [
              163.088440836875,
              511.2721101807609
            ],
            [
              163.078281446113,
              511.3612017133061
            ],
            [
              163.1428696395286,
              512.4849736401704
            ],
            [
              163.02588927877395,
              513.8898637466673
            ],
            [
              163.13895523050664,
              515.2129865534681
            ],
            [
              163.0904142827446,
              516.0654075747831
            ],
            [
              163.3291898360287,
              518.1019004188095
            ],
            [
              163.30475863027834,
              519.3771879138573
            ],
            [
              163.42340979585475,
              520.0883014211689
            ],
            [
              163.49435338757368,
              522.8977358159863
            ],
            [
              163.56388973010115,
              523.2176140363831
            ],
            [
              163.57715836268926,
              523.5924149613883
            ],
            [
              163.59506785304305,
              523.6700701182526
            ],
            [
              163.5959563705634,
              523.6951520898998
            ],
            [
              163.74285239263887,
              524.3321097598043
            ],
            [
              163.74659811655363,
              524.4157505080793
            ],
            [
              163.80191378456456,
              524.6461182681866
            ],
            [
              163.8073435722338,
              524.7624333063253
            ],
            [
              163.81384430985764,
              524.7884154727473
            ],
            [
              163.82191214985542,
              524.9612127019462
            ],
            [
              163.87127694738626,
              525.1585543810259
            ],
            [
              163.91613266477856,
              525.9390003616875
            ],
            [
              164.1203514701313,
              526.6975026887985
            ],
            [
              164.20017427950765,
              527.6316068808578
            ],
            [
              164.61067923069993,
              529.0315954613253
            ],
            [
              164.68050453051842,
              529.627128469139
            ],
            [
              165.34974289924398,
              531.6334175815061
            ],
            [
              165.56115171420407,
              532.9004566626847
            ],
            [
              165.59892540859673,
              532.9944431746326
            ],
            [
              165.6392589832281,
              533.2361283874632
            ],
            [
              165.7524696087473,
              533.5178690755791
            ],
            [
              165.81130707678176,
              533.8285769617971
            ],
            [
              165.93686604990305,
              534.1336820196609
            ],
            [
              166.3138948543725,
              535.868074405517
            ],
            [
              166.49227546863352,
              536.2539173816617
            ],
            [
              166.57847193419636,
              536.6276749490568
            ],
            [
              166.77923457006008,
              537.0454753467277
            ],
            [
              166.81040783941785,
              537.1752996168035
            ],
            [
              166.94690014627716,
              537.4537257655306
            ],
            [
              167.11282139685,
              538.1170157981666
            ],
            [
              167.28536817796265,
              538.4528967830445
            ],
            [
              167.51166424557,
              539.2933977036868
            ],
            [
              167.74451079099572,
              539.7192336600227
            ],
            [
              167.89210052867793,
              540.222574598202
            ],
            [
              168.68247768199063,
              541.6245206346514
            ],
            [
              168.80325873887955,
              541.9866064484739
            ],
            [
              169.65697401291618,
              543.3672217838167
            ],
            [
              169.99158891721345,
              544.0675183340563
            ],
            [
              170.54424740033045,
              545.4428873040085
            ],
            [
              170.55278033232318,
              545.4585053189618
            ],
            [
              171.09733144781475,
              546.2148008074457
            ],
            [
              171.68790154091107,
              547.4922228145493
            ],
            [
              171.9685292197328,
              547.8447426469239
            ],
            [
              172.13318209622096,
              548.1873962335102
            ],
            [
              172.1948888963555,
              548.262368243401
            ],
            [
              172.27419497638257,
              548.4273974593664
            ],
            [
              172.30007401232612,
              548.458842549691
            ],
            [
              172.32752281877282,
              548.51595944185
            ],
            [
              172.66650560862044,
              548.927863211033
            ],
            [
              173.11284865563772,
              549.7967182614273
            ],
            [
              173.4869426730816,
              550.221145840186
            ],
            [
              173.95037376474133,
              551.068680948373
            ],
            [
              174.09120094085992,
              551.2183431567545
            ],
            [
              174.16873368113644,
              551.3558682831887
            ],
            [
              175.41149101214265,
              552.6733390081378
            ],
            [
              175.51403603855118,
              552.8391732626762
            ],
            [
              176.1982357995961,
              553.5073821472229
            ],
            [
              176.83168973275744,
              554.1789187310275
            ],
            [
              178.20700394039068,
              556.0890129364399
            ],
            [
              179.18322726444924,
              556.9077265819295
            ],
            [
              179.63590387845466,
              557.4763714310131
            ],
            [
              179.81621743403815,
              557.6155999863109
            ],
            [
              180.47541571517735,
              558.4166030602032
            ],
            [
              181.16281133006405,
              558.9297864432672
            ],
            [
              181.8286178991365,
              559.6851758826318
            ],
            [
              182.3913059367961,
              560.0727737967526
            ],
            [
              183.02360532148649,
              560.7430864217192
            ],
            [
              183.10123046336935,
              560.7936321960622
            ],
            [
              183.22958690567737,
              560.9300412978862
            ],
            [
              186.256088130217,
              562.8575015691517
            ],
            [
              186.47796578847337,
              563.0559242945283
            ],
            [
              186.58837685832611,
              563.1180852877314
            ],
            [
              188.5379175763064,
              564.753075508606
            ],
            [
              189.83060382434957,
              565.4008301627987
            ],
            [
              191.1463253517271,
              566.3830977392935
            ],
            [
              192.29600091688036,
              566.8954514732429
            ],
            [
              193.17808459274582,
              567.5030595435722
            ],
            [
              193.7665142614101,
              567.7383541703279
            ],
            [
              194.36909525243365,
              568.130726049898
            ],
            [
              194.7823087824634,
              568.2875180640038
            ],
            [
              195.24847741512372,
              568.5844026355014
            ],
            [
              198.53148489909898,
              569.7607715026834
            ],
            [
              199.12425741329653,
              570.0578050291556
            ],
            [
              200.61726989647104,
              570.8276108022832
            ],
            [
              200.7159758420084,
              570.8554022976161
            ],
            [
              201.4074818424674,
              571.2019103779346
            ],
            [
              202.7817438648951,
              571.5684302818751
            ],
            [
              204.19211862772735,
              572.1969647988391
            ],
            [
              205.90390087208027,
              572.5917155896901
            ],
            [
              206.98699213503585,
              573.0248099219406
            ],
            [
              207.55324727234537,
              573.133393193276
            ],
            [
              208.0340895265055,
              573.315846622438
            ],
            [
              208.87922785310704,
              573.4685798812368
            ],
            [
              209.80507104752706,
              573.8003284730647
            ],
            [
              212.88368168969865,
              574.2813229884716
            ],
            [
              215.32192881115887,
              574.9678321272665
            ],
            [
              215.62160315747133,
              574.999164645862
            ],
            [
              215.72247200549333,
              575.0271051795853
            ],
            [
              215.76651190050165,
              575.0315078140495
            ],
            [
              216.5866920785643,
              575.2502523876833
            ],
            [
              216.77517499275493,
              575.2671382327815
            ],
            [
              216.80893238559264,
              575.2761412212801
            ],
            [
              217.70635362251596,
              575.3565392420486
            ],
            [
              218.00875308740117,
              575.4284660384184
            ],
            [
              218.04765741975982,
              575.4345261952934
            ],
            [
              218.3006192956644,
              575.450498835911
            ],
            [
              219.38328195505412,
              575.7001695766807
            ],
            [
              221.7344224326083,
              575.8527299188413
            ],
            [
              222.99236831292984,
              576.0939495916058
            ],
            [
              223.39481034191604,
              576.1061137086276
            ],
            [
              223.4042593834156,
              576.1079255760687
            ],
            [
              223.4998403838157,
              576.1108145633439
            ],
            [
              223.76778189113213,
              576.1592369082822
            ],
            [
              225.11853629825794,
              576.1928664239501
            ],
            [
              226.60144496946225,
              576.4245524084661
            ],
            [
              226.62779927331536,
              576.4264765358423
            ],
            [
              229.3503935794547,
              576.4345814113489
            ],
            [
              231.96896022272222,
              576.7083662346851
            ],
            [
              232.38330337008253,
              576.6926757030652
            ],
            [
              232.52957108381523,
              576.7072979741685
            ],
            [
              232.70202435420768,
              576.699968835289
            ],
            [
              233.98543565688018,
              576.8149468682619
            ],
            [
              235.40418763699117,
              576.7397309624719
            ],
            [
              236.4172746629476,
              576.8054679546656
            ],
            [
              237.26380040417567,
              576.7458624193238
            ],
            [
              237.26888474618247,
              576.7461687729947
            ],
            [
              237.44805140601684,
              576.7328889454105
            ],
            [
              237.9974432944485,
              576.6942051865296
            ],
            [
              238.1103871540165,
              576.7013367421182
            ],
            [
              238.764916765743,
              576.6401658763142
            ],
            [
              239.4401734548635,
              576.5926197303072
            ],
            [
              241.263071642145,
              576.6477178114883
            ],
            [
              242.94577181199114,
              576.475053415257
            ],
            [
              244.01110499060627,
              576.4782247995365
            ],
            [
              246.74482906852143,
              576.1488270250007
            ],
            [
              250.2067750735707,
              576.0177285053452
            ],
            [
              250.73962906696008,
              575.9333837178865
            ],
            [
              250.93570150733356,
              575.9250507813543
            ],
            [
              251.01507642475622,
              575.9121112253702
            ],
            [
              252.77847456068235,
              575.8186237166104
            ],
            [
              254.3761398182314,
              575.5409490861466
            ],
            [
              254.93264383941806,
              575.5017645480671
            ],
            [
              254.94333719373688,
              575.4997737895565
            ],
            [
              254.94619313499888,
              575.499572698184
            ],
            [
              255.5142131303696,
              575.3938255672923
            ],
            [
              255.79266515807146,
              575.373186711117
            ],
            [
              258.28954219039264,
              574.9006060506125
            ],
            [
              260.5740819089695,
              574.6661859928031
            ],
            [
              262.51654183530064,
              574.2484278122204
            ],
            [
              262.6584637049803,
              574.2313270563419
            ],
            [
              263.6763460812747,
              573.9989926989692
            ],
            [
              265.4797989550794,
              573.6111302874277
            ],
            [
              266.1856936795586,
              573.4884456037151
            ],
            [
              269.6376174014057,
              572.9420449452542
            ],
            [
              270.22848336062276,
              572.785807722847
            ],
            [
              272.75995070561333,
              572.3458380506339
            ],
            [
              274.4830292615127,
              571.8624395262281
            ],
            [
              274.540856725625,
              571.8516739045183
            ],
            [
              274.65049868734064,
              571.8199644590557
            ],
            [
              274.822885113245,
              571.7878725208208
            ],
            [
              274.9880731690368,
              571.7400968636839
            ],
            [
              275.37965980383376,
              571.6659817718942
            ],
            [
              277.7741153418578,
              570.9670339145943
            ],
            [
              280.13560805376875,
              570.459155792927
            ],
            [
              285.5402782604201,
              568.7603999637507
            ],
            [
              286.98845359018895,
              568.3541237582435
            ],
            [
              289.83847206539684,
              567.6005197241939
            ],
            [
              290.40677368064996,
              567.3951362054495
            ],
            [
              293.4773292934643,
              566.53371172358
            ],
            [
              295.05863384360987,
              565.9352932378937
            ],
            [
              295.0693512431053,
              565.9321935537077
            ],
            [
              295.2175982290842,
              565.8752354685618
            ],
            [
              295.61024701282577,
              565.7606202578431
            ],
            [
              297.89751174964005,
              564.8763660412507
            ],
            [
              300.21472256545184,
              564.148037534556
            ],
            [
              306.03337628304337,
              561.7820839457504
            ],
            [
              308.0517998403028,
              561.0182450201785
            ],
            [
              310.38276674135517,
              560.1758363918074
            ],
            [
              310.9157822831446,
              559.9344183554707
            ],
            [
              314.4776643911492,
              558.5864831350984
            ],
            [
              315.8952673519045,
              557.9184520647718
            ],
            [
              316.06708786696606,
              557.8520264287384
            ],
            [
              318.20315788364974,
              556.8336646291218
            ],
            [
              320.42538054469765,
              555.9300749097001
            ],
            [
              326.56025658740066,
              552.8926836575118
            ],
            [
              328.96843957187014,
              551.757851760836
            ],
            [
              330.8606546261392,
              550.9008132564778
            ],
            [
              331.35079111984146,
              550.6351926675927
            ],
            [
              335.3296712608532,
              548.7601856078124
            ],
            [
              338.457764567833,
              547.0022000665084
            ],
            [
              340.39207147590355,
              546.0445202632284
            ],
            [
              346.7549008979391,
              542.3392171337158
            ],
            [
              349.34632165581354,
              540.8828410679384
            ],
            [
              350.89606509712354,
              540.0429856994602
            ],
            [
              351.3471000345601,
              539.7584054721824
            ],
            [
              355.6539340948188,
              537.3379687192544
            ],
            [
              358.2453451134402,
              535.6479205284924
            ],
            [
              359.7770839526219,
              534.7559342220674
            ],
            [
              365.563066759909,
              530.8755003525606
            ],
            [
              369.64582809048795,
              528.2128338165954
            ],
            [
              370.15934977927384,
              527.8888276104434
            ],
            [
              370.31445811511054,
              527.7767713952703
            ],
            [
              374.6219810147065,
              524.9675214418857
            ],
            [
              376.89660180230095,
              523.2745387347036
            ],
            [
              378.2900258249214,
              522.3400233806091
            ],
            [
              383.93768069572513,
              518.0339180248615
            ],
            [
              392.4947088593423,
              511.6649879663117
            ],
            [
              394.44543388110304,
              510.0221869075019
            ],
            [
              395.6929696383098,
              509.0709920260052
            ],
            [
              401.1411370005259,
              504.38340745303105
            ],
            [
              409.06952565552984,
              497.7065231501111
            ],
            [
              410.70245717722537,
              496.15688025996417
            ],
            [
              411.8016108066373,
              495.2111722348603
            ],
            [
              416.9973592302971,
              490.1830533840817
            ],
            [
              424.19880655926414,
              483.34892010666675
            ],
            [
              425.5306702842439,
              481.9250511346923
            ],
            [
              426.48316218178985,
              481.0032893258591
            ],
            [
              431.3812209789607,
              475.6703439548649
            ],
            [
              437.7854895775289,
              468.82366799647593
            ],
            [
              438.8409565517027,
              467.5482768383208
            ],
            [
              439.65186622934374,
              466.6653684881648
            ],
            [
              444.2136111249119,
              461.05613989223536
            ],
            [
              449.77688851841054,
              454.3336606753954
            ],
            [
              450.58603509601454,
              453.2204578051573
            ],
            [
              451.26301130682964,
              452.3880319665004
            ],
            [
              452.78894472422303,
              450.2526775052598
            ],
            [
              452.8495447896074,
              450.17685644010356
            ],
            [
              453.15725093872544,
              449.7372786619963
            ],
            [
              455.45507543158044,
              446.5217584262794
            ],
            [
              460.15760901928894,
              440.05213471150245
            ],
            [
              460.75366821189647,
              439.10703534415035
            ],
            [
              461.30623718918,
              438.3337836299329
            ],
            [
              462.5978712892495,
              436.2507528667134
            ],
            [
              462.781125980867,
              435.9889619002458
            ],
            [
              463.60179289433364,
              434.6317188174447
            ],
            [
              465.0987456578275,
              432.21756866669665
            ],
            [
              468.9422836316321,
              426.1233328046996
            ],
            [
              469.35976941314476,
              425.345774584644
            ],
            [
              469.7987556852153,
              424.63781719230025
            ],
            [
              470.85503995556184,
              422.63608546085044
            ],
            [
              471.1257660350166,
              422.18835070677034
            ],
            [
              472.1944185753344,
              420.0978703621051
            ],
            [
              473.1630474133659,
              418.26225173603507
            ],
            [
              476.16864656484773,
              412.6643884554685
            ],
            [
              476.44187525235054,
              412.04864625931833
            ],
            [
              476.7789359309622,
              411.409892966556
            ],
            [
              477.60545876979506,
              409.5128834330678
            ],
            [
              477.92640780390593,
              408.8850482647981
            ],
            [
              479.03604182712326,
              406.22945365864797
            ],
            [
              479.6843698242213,
              404.74143138812343
            ],
            [
              481.16645370221556,
              401.40143956587326
            ],
            [
              481.22135369293767,
              401.28093262233836
            ],
            [
              481.2276216716577,
              401.2635927673597
            ],
            [
              481.89128261757463,
              399.7679809703008
            ],
            [
              481.9314661146597,
              399.6529844630133
            ],
            [
              481.9426598151949,
              399.6277109331935
            ],
            [
              482.0639265610996,
              399.27994671603193
            ],
            [
              482.30053928244837,
              398.73688055137717
            ],
            [
              482.90820595588764,
              396.96252604188714
            ],
            [
              483.241255672169,
              396.16546591970007
            ],
            [
              484.23237984807656,
              393.0960083940293
            ],
            [
              484.70937176790306,
              391.7032172456483
            ],
            [
              485.4602075521444,
              389.55448706966854
            ],
            [
              485.683118277158,
              388.9378226205738
            ],
            [
              485.70634182636945,
              388.85010382971467
            ],
            [
              486.1762281275368,
              387.50539051716237
            ],
            [
              486.1931484403444,
              387.4383193722228
            ],
            [
              486.210317291412,
              387.3890831862744
            ],
            [
              486.275361986953,
              387.1306087279177
            ],
            [
              486.42775162009843,
              386.6856390684136
            ],
            [
              486.8315001572368,
              385.04667452930977
            ],
            [
              487.13863040647453,
              384.09550889557534
            ],
            [
              487.890798067558,
              380.74659279115025
            ],
            [
              487.9069996441161,
              380.6808246037474
            ],
            [
              487.9694016664738,
              380.46724356703606
            ],
            [
              488.0060133397603,
              380.27889141733743
            ],
            [
              488.28543081594603,
              379.1446326077979
            ],
            [
              488.47885525307,
              378.37790928560497
            ],
            [
              488.51926365074166,
              378.22528077265946
            ],
            [
              488.5555534320717,
              378.0924798723043
            ],
            [
              488.55763116507086,
              378.08036097870996
            ],
            [
              488.7706660190954,
              377.27569672905616
            ],
            [
              488.7958719022703,
              377.121575805153
            ],
            [
              489.1214565342466,
              375.83192050795117
            ],
            [
              489.15281053773344,
              375.6236177305518
            ],
            [
              489.2310571353193,
              375.3059858707144
            ],
            [
              489.3321661372357,
              374.61109379243834
            ],
            [
              489.35525226595223,
              374.5150738299083
            ],
            [
              489.46022703276867,
              373.7589406914035
            ],
            [
              489.6927335410984,
              372.7237395914986
            ],
            [
              490.0526115900798,
              369.74997685822314
            ],
            [
              490.0955176743847,
              369.52924252716974
            ],
            [
              490.13419562048404,
              369.10370908213355
            ],
            [
              490.4043530780352,
              367.3088968569587
            ],
            [
              490.4593310855544,
              366.98822397647956
            ],
            [
              490.4632162861271,
              366.9266282485176
            ],
            [
              490.5601020001218,
              366.33422227482225
            ],
            [
              490.56541976392145,
              366.23883771643847
            ],
            [
              490.754766496564,
              364.9808978705554
            ],
            [
              490.76335370660576,
              364.7749675765476
            ],
            [
              490.78392628766335,
              364.6335783497208
            ],
            [
              490.8052262640345,
              364.0709125991552
            ],
            [
              490.8352616819507,
              363.85456751451966
            ],
            [
              490.85829686335364,
              363.09239702743184
            ],
            [
              490.98028019685967,
              362.0844180960858
            ],
            [
              491.00565129778613,
              359.51598341430145
            ],
            [
              491.02501658337485,
              359.30292720193205
            ],
            [
              491.013961223043,
              358.76513675710737
            ],
            [
              491.08409494214817,
              357.0832566899715
            ],
            [
              491.11174138007044,
              356.6449517842958
            ],
            [
              491.1064352504519,
              356.54751268990475
            ],
            [
              491.1085616899902,
              356.4965184420312
            ],
            [
              491.1284118864926,
              356.1404661048459
            ],
            [
              491.1254362185419,
              356.0918495670945
            ],
            [
              491.17595326357866,
              354.8803978973511
            ],
            [
              491.1261328784879,
              354.23044354990117
            ],
            [
              491.1351609740084,
              353.93172882152084
            ],
            [
              491.068314343273,
              353.1723115450457
            ],
            [
              491.0779158302138,
              352.2003083146542
            ],
            [
              490.83411504464584,
              350.01647969965353
            ],
            [
              490.8298118649178,
              349.8071505724297
            ],
            [
              490.74246721441153,
              349.19555062178097
            ],
            [
              490.7352252003637,
              349.13068078344855
            ],
            [
              490.6223691061554,
              347.65836560661995
            ],
            [
              490.5909232471033,
              347.08090967538305
            ],
            [
              490.56899459184314,
              346.96204426001447
            ],
            [
              490.5572548427365,
              346.8088880581803
            ],
            [
              490.5512959727437,
              346.7115318915309
            ],
            [
              490.5487808690552,
              346.69833700486913
            ],
            [
              490.4604889959011,
              345.54648547480497
            ],
            [
              490.35050155095485,
              345.0175335160071
            ],
            [
              490.3279488835067,
              344.76132186978657
            ],
            [
              490.16394114200153,
              344.0134434823982
            ],
            [
              490.06031167543034,
              343.0851897286325
            ],
            [
              489.6092332176217,
              341.26048130030523
            ],
            [
              489.5796076685323,
              341.0530388954413
            ],
            [
              489.3927007257108,
              340.3845612555097
            ],
            [
              489.3577348499831,
              340.24311684155634
            ],
            [
              489.1070906498091,
              339.03771798254604
            ],
            [
              488.9721481376176,
              338.3062550837096
            ],
            [
              488.9261197648972,
              338.1673922457803
            ],
            [
              488.68085106408705,
              336.98784525478095
            ],
            [
              488.6780067438938,
              336.97769164283153
            ],
            [
              488.5346654003028,
              336.58391544278066
            ],
            [
              488.48363533399333,
              336.3512173802189
            ],
            [
              488.21577763558446,
              335.62365670628066
            ],
            [
              487.9988287693724,
              334.74605233874655
            ],
            [
              487.3982930678854,
              333.25150935327446
            ],
            [
              487.3408063416515,
              333.045906551747
            ],
            [
              487.02036319914185,
              332.31096171728575
            ],
            [
              486.81786903559544,
              331.8070179368263
            ],
            [
              486.3266912217339,
              330.3251852947601
            ],
            [
              486.1875463165094,
              330.0478085929551
            ],
            [
              485.99406451797296,
              329.50138151464785
            ],
            [
              485.978214824218,
              329.4709336200906
            ],
            [
              485.87983195434845,
              329.1950544165938
            ],
            [
              485.7786561341398,
              329.00389639059705
            ],
            [
              485.66833514070197,
              328.7042402043804
            ],
            [
              485.66219821150395,
              328.6928968034712
            ],
            [
              485.5997576098042,
              328.5213648348012
            ],
            [
              485.23071419147954,
              327.8570926729436
            ],
            [
              484.9606457086784,
              327.18497783355417
            ],
            [
              484.2640347932362,
              325.98924951616056
            ],
            [
              484.17580623594654,
              325.7868949832127
            ],
            [
              483.6755000399736,
              324.9790332610171
            ],
            [
              483.45463386264805,
              324.59991783698547
            ],
            [
              482.7211393724418,
              323.13774225690696
            ],
            [
              482.5689762096778,
              322.92165009814994
            ],
            [
              482.44431483201004,
              322.6821706134339
            ],
            [
              482.4000876291793,
              322.62054822542535
            ],
            [
              482.1753158127953,
              322.1958722836496
            ],
            [
              482.06897267661867,
              322.05123669340236
            ],
            [
              481.943726825249,
              321.8197342823169
            ],
            [
              481.68205539291904,
              321.46956444556076
            ],
            [
              481.4170483015933,
              320.99255598338743
            ],
            [
              481.1723673046362,
              320.6824214401518
            ],
            [
              481.0082563072533,
              320.40072593059347
            ],
            [
              480.2643526879052,
              319.47093562683443
            ],
            [
              480.14261070687354,
              319.27435463854584
            ],
            [
              479.3999988256825,
              318.3905969657126
            ],
            [
              479.219803917289,
              318.1653749419512
            ],
            [
              478.2170430903937,
              316.7413196852425
            ],
            [
              477.9887363760672,
              316.50177288325926
            ],
            [
              477.5986852441222,
              315.97127060802234
            ],
            [
              477.4950492468287,
              315.8664948038546
            ],
            [
              477.3667989829599,
              315.69486974884416
            ],
            [
              476.7571499049236,
              315.0861084914167
            ],
            [
              476.2058590225831,
              314.3873441897278
            ],
            [
              476.1955980667559,
              314.37628547136734
            ],
            [
              475.3706713820224,
              313.59542854074857
            ],
            [
              475.294681161063,
              313.50499510903126
            ],
            [
              474.92847898328597,
              313.17685922349244
            ],
            [
              473.818037090399,
              312.12574005835086
            ],
            [
              472.8708349125369,
              311.13190484315913
            ],
            [
              472.6056901695272,
              310.9233616965296
            ],
            [
              472.2039932944044,
              310.51724688857104
            ],
            [
              472.11013783081603,
              310.44586377474326
            ],
            [
              471.9898198665584,
              310.32572102728534
            ],
            [
              471.6302842597002,
              310.0548627403859
            ],
            [
              471.1552190325318,
              309.60517674770284
            ],
            [
              470.78407228400823,
              309.3334211939276
            ],
            [
              470.5863579809185,
              309.14879802834537
            ],
            [
              469.8758586606534,
              308.6494529308662
            ],
            [
              469.6809791683218,
              308.47483093599783
            ],
            [
              468.74231411074453,
              307.83843538227933
            ],
            [
              467.8902998909644,
              307.21458619850654
            ],
            [
              466.7339520495549,
              306.3050889378397
            ],
            [
              466.5246226658416,
              306.18193395420377
            ],
            [
              466.39742212905577,
              306.08353963346553
            ],
            [
              466.2996290207902,
              306.026598278185
            ],
            [
              466.0405244740904,
              305.8295326130698
            ],
            [
              465.9628396754507,
              305.78525966973973
            ],
            [
              465.86047866948877,
              305.7081453973341
            ],
            [
              465.73905951909126,
              305.63943695922427
            ],
            [
              465.4935628871005,
              305.4596830655443
            ],
            [
              464.7044737111211,
              305.01495864203304
            ],
            [
              464.2175661303178,
              304.67275576234204
            ],
            [
              463.76840330716834,
              304.4371476059856
            ],
            [
              463.7085600769252,
              304.3956735726097
            ],
            [
              463.52118379145867,
              304.2986166856979
            ],
            [
              463.3461541436614,
              304.17995019358574
            ],
            [
              463.162157002887,
              304.0865047853845
            ],
            [
              463.15733092111435,
              304.08323259795003
            ],
            [
              462.084853887302,
              303.5385616118
            ],
            [
              461.4153494088391,
              303.1612341787355
            ],
            [
              460.4919692288382,
              302.6039742166717
            ],
            [
              460.2835761699817,
              302.5101322920655
            ],
            [
              459.85311504390404,
              302.2568786303436
            ],
            [
              459.74592418565635,
              302.21061531124997
            ],
            [
              459.65228646075377,
              302.15609348395816
            ],
            [
              459.56628941633767,
              302.1191185798181
            ],
            [
              459.2432957657336,
              301.93708191088695
            ],
            [
              459.23519453474097,
              301.93309985346946
            ],
            [
              459.06253087814497,
              301.86133561904296
            ],
            [
              459.02215873122765,
              301.8384899052718
            ],
            [
              458.36121073212485,
              301.5634409260867
            ],
            [
              457.85019365126846,
              301.2839633635723
            ],
            [
              457.7568654612546,
              301.24700450718063
            ],
            [
              457.70068292720003,
              301.21645880806625
            ],
            [
              457.4129856455679,
              301.103416137046
            ],
            [
              457.1364992903358,
              300.95838534404515
            ],
            [
              456.8946432821996,
              300.8662111857362
            ],
            [
              456.6550239902289,
              300.7420935448011
            ],
            [
              456.3587874388063,
              300.6305065569852
            ],
            [
              456.14447962308736,
              300.5216676302205
            ],
            [
              454.6988694593146,
              299.98699291906075
            ],
            [
              454.45485160704504,
              299.87203610942726
            ],
            [
              454.3282606219599,
              299.82838139486336
            ],
            [
              453.3391162529357,
              299.38295767587107
            ],
            [
              452.78452733417066,
              299.2032625213723
            ],
            [
              452.2386851548836,
              298.9685746620505
            ],
            [
              452.136493087053,
              298.9374723396964
            ],
            [
              452.01296047127283,
              298.8843576356515
            ],
            [
              451.8600674986095,
              298.83782542235383
            ],
            [
              451.80684005307086,
              298.8151367505972
            ],
            [
              451.6760476586957,
              298.77599771494545
            ],
            [
              451.3460192514439,
              298.63801094408143
            ],
            [
              451.12764606438293,
              298.57405218541874
            ],
            [
              451.03010697609636,
              298.5335112569871
            ],
            [
              450.5859700667033,
              298.40726130707446
            ],
            [
              449.9799171020936,
              298.167258533286
            ],
            [
              449.8519171216947,
              298.13250387480724
            ],
            [
              449.7869424457562,
              298.10697387717244
            ],
            [
              449.3427696090578,
              297.98769866491784
            ],
            [
              448.94010412774855,
              297.83602181095864
            ],
            [
              448.80571396423153,
              297.801233526167
            ],
            [
              448.7739410170303,
              297.7892549888861
            ],
            [
              448.7178952557031,
              297.7748642726755
            ],
            [
              448.487876842508,
              297.6897894497942
            ],
            [
              447.11149657172297,
              297.339690951987
            ],
            [
              447.0219333757516,
              297.30880521593076
            ],
            [
              446.7056015317895,
              297.2335990925201
            ],
            [
              445.57645016707687,
              296.8677370601505
            ],
            [
              444.91655847440876,
              296.7246030989339
            ],
            [
              443.96866145809724,
              296.43611537200957
            ],
            [
              443.63879132724503,
              296.37088491363545
            ],
            [
              443.5936499715064,
              296.35737656600077
            ],
            [
              443.5028619605026,
              296.3399776489949
            ],
            [
              443.1551423064806,
              296.23773355038173
            ],
            [
              443.143063343813,
              296.23546837805156
            ],
            [
              443.13128800257033,
              296.2320195287541
            ],
            [
              442.5561346858619,
              296.1247076773267
            ],
            [
              442.2915532788143,
              296.04949800958883
            ],
            [
              442.03542614025616,
              296.00504937240294
            ],
            [
              441.62354628661944,
              295.8928598300725
            ],
            [
              441.5691505905562,
              295.88356038956545
            ],
            [
              441.4366230420126,
              295.84757640211654
            ],
            [
              441.2706825537781,
              295.8200742238062
            ],
            [
              441.19640216267027,
              295.8001274628023
            ],
            [
              440.8699123344659,
              295.7469691372341
            ],
            [
              440.59905391689045,
              295.6768546324079
            ],
            [
              440.5335226955706,
              295.6665059889416
            ],
            [
              440.2213762723783,
              295.5871078776948
            ],
            [
              438.29365787170036,
              295.2880613018402
            ],
            [
              437.23517942953737,
              295.05847178893134
            ],
            [
              436.6107735652756,
              294.98112337637934
            ],
            [
              435.32437522842224,
              294.7267434088286
            ],
            [
              434.80921493523886,
              294.6726187062281
            ],
            [
              434.33017767232036,
              294.58278467128974
            ],
            [
              433.4992956070529,
              294.50394505615014
            ],
            [
              432.8915019394714,
              294.4000371835703
            ],
            [
              432.5169460755772,
              294.3692720468375
            ],
            [
              432.2564222824001,
              294.32609408651456
            ],
            [
              432.0497465940327,
              294.3108899658914
            ],
            [
              431.9654763483129,
              294.29716927761905
            ],
            [
              431.85649460201586,
              294.28946543154393
            ],
            [
              431.3761919297261,
              294.21495617258597
            ],
            [
              431.1732275078248,
              294.2011667651823
            ],
            [
              431.08682355520335,
              294.18785524527146
            ],
            [
              430.2310836389424,
              294.1329185101213
            ],
            [
              430.08609369944446,
              294.11171738384127
            ],
            [
              430.07151588521066,
              294.1102763174853
            ],
            [
              429.16014018870027,
              294.05817454264195
            ],
            [
              428.34423494535105,
              293.9571041027634
            ],
            [
              427.87999016682005,
              293.9378900764756
            ],
            [
              427.8089006611517,
              293.92921990986264
            ],
            [
              427.6947499447584,
              293.92514591581977
            ],
            [
              426.11067067169495,
              293.7587165137577
            ],
            [
              425.49854162295463,
              293.7447803189142
            ],
            [
              424.92332921443983,
              293.6902003408354
            ],
            [
              424.1277395369859,
              293.6802023748233
            ],
            [
              423.6072488407612,
              293.63745049456696
            ],
            [
              422.8674403276366,
              293.63539255600205
            ],
            [
              422.4728682024119,
              293.6063658125259
            ],
            [
              422.4244909386566,
              293.6067774054283
            ],
            [
              421.98147855042174,
              293.5766791337719
            ],
            [
              421.6234719193616,
              293.58032761612145
            ],
            [
              421.3469612468899,
              293.5625762020585
            ],
            [
              420.6790721219507,
              293.5733265260378
            ],
            [
              420.60544092182744,
              293.5691171574824
            ],
            [
              419.5017354185287,
              293.5911333342902
            ],
            [
              418.9308238234723,
              293.5675046131805
            ],
            [
              418.89976149668485,
              293.5685328579643
            ],
            [
              418.88036271230135,
              293.56772999712143
            ],
            [
              418.4082595108001,
              293.58335757119784
            ],
            [
              416.3563619617806,
              293.5366425131653
            ],
            [
              415.64202688289635,
              293.57356465798034
            ],
            [
              414.96445385574765,
              293.5650497761351
            ],
            [
              414.21772859016676,
              293.6113314981163
            ],
            [
              413.79854727565305,
              293.6101654539602
            ],
            [
              412.9555963235292,
              293.6686628264108
            ],
            [
              412.06497030501964,
              293.67773928763273
            ],
            [
              412.0577628815391,
              293.6780746152314
            ],
            [
              411.55568946844943,
              293.7201762286099
            ],
            [
              411.05091947154165,
              293.7283009918418
            ],
            [
              409.2932017560123,
              293.8850844814769
            ],
            [
              408.97019382181736,
              293.8957766996152
            ],
            [
              408.515643146191,
              293.94190912282187
            ],
            [
              406.08920290244987,
              294.06732558452626
            ],
            [
              405.26798917357723,
              294.16603263191814
            ],
            [
              404.48238511763896,
              294.21472404517874
            ],
            [
              403.7976932860533,
              294.3041841026195
            ],
            [
              403.4923192044931,
              294.3253758236003
            ],
            [
              402.1347184349559,
              294.5101763956282
            ],
            [
              400.89757006225966,
              294.61391808187375
            ],
            [
              400.58945304940306,
              294.66143445111726
            ],
            [
              400.2285458537915,
              294.6936263605848
            ],
            [
              398.6161425870377,
              294.9466110708567
            ],
            [
              398.5891795977922,
              294.94934754908206
            ],
            [
              398.41008430907385,
              294.9789414405806
            ],
            [
              398.09981717413746,
              295.02762209191604
            ],
            [
              395.33664996005757,
              295.3597452256852
            ],
            [
              394.4045032207098,
              295.5314739344635
            ],
            [
              393.5057606659698,
              295.6489013037697
            ],
            [
              392.8958752218941,
              295.7677946504603
            ],
            [
              392.71539878527466,
              295.79236162881494
            ],
            [
              390.843369907276,
              296.16442995594167
            ],
            [
              389.2038824565534,
              296.4172640671074
            ],
            [
              389.10722231169694,
              296.43855262822694
            ],
            [
              388.90983729119114,
              296.46952217118763
            ],
            [
              386.8693778730273,
              296.9196645397904
            ],
            [
              384.12670298288606,
              297.42494551924756
            ],
            [
              383.0802770012372,
              297.68128403367496
            ],
            [
              382.06393576445043,
              297.8794133908989
            ],
            [
              381.91097974171265,
              297.91857460977633
            ],
            [
              381.88938329486257,
              297.92279504369236
            ],
            [
              381.52111222682606,
              298.0172415556389
            ],
            [
              381.49535934290435,
              298.0223599769032
            ],
            [
              380.721725959889,
              298.2222515364879
            ],
            [
              379.56675628184655,
              298.51845416265826
            ],
            [
              377.82794800907214,
              298.89682879510303
            ],
            [
              377.51633226286594,
              298.98302442197166
            ],
            [
              377.1259564320009,
              299.0691445866625
            ],
            [
              375.1882264247375,
              299.61456603929105
            ],
            [
              372.48883465231324,
              300.275824541026
            ],
            [
              371.3256219934598,
              300.62873602839
            ],
            [
              370.1879950340837,
              300.9200018285154
            ],
            [
              370.12432117695363,
              300.9400537324535
            ],
            [
              370.01326025937504,
              300.9685363290828
            ],
            [
              367.6898934356728,
              301.7011029044785
            ],
            [
              366.0452831849786,
              302.15601641007845
            ],
            [
              365.43270823476433,
              302.3604949780092
            ],
            [
              364.91036046792044,
              302.50752251884364
            ],
            [
              364.52260662723694,
              302.6395454697133
            ],
            [
              364.35655786668303,
              302.68657287108977
            ],
            [
              362.971961558972,
              303.1631846577813
            ],
            [
              360.45502085962323,
              303.926808814601
            ],
            [
              359.2242362570684,
              304.37035746407764
            ],
            [
              357.7372814023555,
              304.8392000999262
            ],
            [
              355.430730481443,
              305.69917228886146
            ],
            [
              353.8896803840244,
              306.21357745172276
            ],
            [
              352.9549170660078,
              306.5781280196724
            ],
            [
              352.30005717273144,
              306.80109559972607
            ],
            [
              351.6439923410975,
              307.062547683912
            ],
            [
              351.2811854503565,
              307.18743465599
            ],
            [
              350.24568941533863,
              307.6060351915957
            ],
            [
              348.06088421721245,
              308.39339261625923
            ],
            [
              346.84058259247433,
              308.9019146243207
            ],
            [
              345.09946383733563,
              309.5510716377105
            ],
            [
              342.8278508921644,
              310.52760662477505
            ],
            [
              341.3984900779343,
              311.0850464457287
            ],
            [
              340.1230908818383,
              311.65380689031707
            ],
            [
              339.3370021128925,
              311.96707554471004
            ],
            [
              338.40143626991056,
              312.39408897727793
            ],
            [
              337.8320025546227,
              312.6242832514705
            ],
            [
              337.1654219859409,
              312.93373102133046
            ],
            [
              335.34696142662307,
              313.69151679859374
            ],
            [
              334.1456390949212,
              314.25996939507473
            ],
            [
              332.1433120458528,
              315.12074209982376
            ],
            [
              329.9252785704247,
              316.20149069150676
            ],
            [
              328.61455944899615,
              316.78600195082174
            ],
            [
              326.9836974774199,
              317.6054034672833
            ],
            [
              326.0696476539681,
              318.02259650139763
            ],
            [
              324.8469979683424,
              318.65233282212137
            ],
            [
              324.0635547200196,
              319.01603194176454
            ],
            [
              323.78107582435206,
              319.1643674463821
            ],
            [
              322.360101712532,
              319.83675686434947
            ],
            [
              321.1854413163005,
              320.46002281401513
            ],
            [
              318.91934431208136,
              321.5641906153847
            ],
            [
              316.7739447754973,
              322.73513669571656
            ],
            [
              315.587655751252,
              323.3311693719111
            ],
            [
              313.5911853628515,
              324.4497366903571
            ],
            [
              312.5546479644527,
              324.98361426398975
            ],
            [
              311.3068600099119,
              325.7015235736905
            ],
            [
              309.15499729107347,
              326.84328570791814
            ],
            [
              308.01375182568427,
              327.5163969797185
            ],
            [
              305.4867611215474,
              328.8956132094217
            ],
            [
              303.433282197306,
              330.1409297934272
            ],
            [
              302.37601396322907,
              330.73328803742146
            ],
            [
              300.0097791168162,
              332.2012493612649
            ],
            [
              298.8587136043328,
              332.86350983947636
            ],
            [
              297.775589905324,
              333.5549070111535
            ],
            [
              295.7958369985654,
              334.72257342238635
            ],
            [
              294.72293797183846,
              335.42325141276115
            ],
            [
              291.91524254384143,
              337.12595682553814
            ],
            [
              289.9729315007975,
              338.42789425069594
            ],
            [
              289.04799370678074,
              339.0017058107101
            ],
            [
              286.31540593867373,
              340.8703584121184
            ],
            [
              285.06059319272833,
              341.67135093431096
            ],
            [
              283.87191390112457,
              342.5097279123793
            ],
            [
              281.82459180606224,
              343.8467722152165
            ],
            [
              280.9922666667258,
              344.44766317092694
            ],
            [
              278.2868440761967,
              346.26111675453234
            ],
            [
              276.4745288092973,
              347.5999430434293
            ],
            [
              275.68381394844357,
              348.1406654308172
            ],
            [
              272.59771334353326,
              350.46143554308713
            ],
            [
              271.2531366321058,
              351.4097671646254
            ],
            [
              270.04089423447033,
              352.3527138550296
            ],
            [
              269.96877088623484,
              352.40599411836354
            ],
            [
              267.8775667408723,
              353.9157234273512
            ],
            [
              267.2743847587026,
              354.39643973555604
            ],
            [
              264.6979360878196,
              356.2997604632202
            ],
            [
              263.03351953375824,
              357.6537788861409
            ],
            [
              262.3773115752215,
              358.14725204614535
            ],
            [
              259.30289854093166,
              360.6886739314152
            ],
            [
              258.8366448318191,
              361.0679756815352
            ],
            [
              257.54536300322286,
              362.07240345028646
            ],
            [
              256.5137219648526,
              362.95769514463336
            ],
            [
              255.6286550277982,
              363.6777053700273
            ],
            [
              254.06226788697916,
              364.9260646808214
            ],
            [
              253.675837703967,
              365.26634051466004
            ],
            [
              251.26109974138106,
              367.2307524161615
            ],
            [
              249.76091374776806,
              368.57642639401473
            ],
            [
              249.23764067312263,
              369.0089829923079
            ],
            [
              246.42816175084104,
              371.56592080071124
            ],
            [
              245.22941970812457,
              372.6411981196255
            ],
            [
              244.0644154520127,
              373.64093402913494
            ],
            [
              243.19614671239378,
              374.4650536761358
            ],
            [
              241.41374287486678,
              376.06387840347753
            ],
            [
              240.5150461724707,
              376.8552367993965
            ],
            [
              240.32827151431306,
              377.0375513812445
            ],
            [
              238.10685143393073,
              379.0301757683374
            ],
            [
              236.78486053473992,
              380.34239578398035
            ],
            [
              236.39079285304834,
              380.70104113505886
            ],
            [
              233.92849041489575,
              383.1776543667871
            ],
            [
              231.99963901830847,
              385.0922495514799
            ],
            [
              230.95723493898984,
              386.0816502319984
            ],
            [
              230.2343394764374,
              386.8445016992433
            ],
            [
              227.44788812951094,
              389.6103582813605
            ],
            [
              227.3933085895994,
              389.6636344918192
            ],
            [
              227.38394255112865,
              389.67383123561456
            ],
            [
              225.38501879297593,
              391.65798087444705
            ],
            [
              224.25187390959488,
              392.910510942055
            ],
            [
              223.98077583365637,
              393.183184628105
            ],
            [
              221.96815112643446,
              395.4348407907585
            ],
            [
              220.108992596745,
              397.4898754055188
            ],
            [
              219.9774935198236,
              397.62672637091583
            ]
          ]
        ]
      }
    }
  ]
}