{
  "type": "FeatureCollection",
  "features": [
    {
      "type": "Feature",
      "properties": {
        "method": "Homography",
        "mode": "tmpl2img",
        "inside_ratio": 0.7430894308943089
      },
      "geometry": {
        "type": "Polygon",
        "coordinates": [
          [
            [
              530.5660756384915,
              214.06592017340307
            ],
            [
              530.3242867209068,
              214.08835363152284
            ],
            [
              529.7722161022195,
              214.17547598989742
            ],
            [
              528.4241686860332,
              214.31081896134665
            ],
            [
              526.5213822608486,
              214.62927711170332
            ],
            [
              524.0310250371199,
              214.92687461417015
            ],
            [
              523.4919393141539,
              215.02830306876533
            ],
            [
              522.6033445555219,
              215.1398895524023
            ],
            [
              521.3867311549952,
              215.3777853819307
            ],
            [
              521.2836039249506,
              215.39139236521447
            ],
            [
              520.836929883217,
              215.48091809070263
            ],
            [
              519.4112262728914,
              215.68443613436395
            ],
            [
              518.7453311113653,
              215.82342728391694
            ],
            [
              517.7035769529454,
              215.97799950800353
            ],
            [
              516.9391056972938,
              216.14530501549683
            ],
            [
              516.9248042947397,
              216.14748731427125
            ],
            [
              516.6792690346533,
              216.2021705999084
            ],
            [
              516.0320723890287,
              216.34381040970737
            ],
            [
              515.8928912621271,
              216.36577460704964
            ],
            [
              515.5237614941645,
              216.44974889723716
            ],
            [
              514.9817549077039,
              216.5352762704951
            ],
            [
              514.6127255194222,
              216.62235880966006
            ],
            [
              513.7732339724221,
              216.7628595625371
            ],
            [
              511.9416590776684,
              217.20147706427647
            ],
            [
              509.51428145716284,
              217.65818580329488
            ],
            [
              508.90148357193385,
              217.81914294821243
            ],
            [
              507.9900431380893,
              217.99736544515875
            ],
            [
              507.1710023648743,
              218.21994467607223
            ],
            [
              507.1174225688702,
              218.23068353631098
            ],
            [
              506.81834915070357,
              218.31292567516883
            ],
            [
              505.98371212747674,
              218.48713802271996
            ],
            [
              505.07875353496206,
              218.7409581849909
            ],
            [
              503.6010148815034,
              219.06436317052206
            ],
            [
              501.227838013504,
              219.76717582037492
            ],
            [
              499.90195817715414,
              220.08469169322865
            ],
            [
              499.79286481813216,
              220.11950874074327
            ],
            [
              499.7885966982436,
              220.12051591991693
            ],
            [
              499.76219634452866,
              220.12786229684116
            ],
            [
              498.126667385792,
              220.64925005533235
            ],
            [
              495.8326005905808,
              221.2518083383789
            ],
            [
              495.1644387234976,
              221.48280018771894
            ],
            [
              494.24927528842915,
              221.73150132713656
            ],
            [
              493.789035547214,
              221.8958539913762
            ],
            [
              493.78550198430304,
              221.8968256851241
            ],
            [
              493.6360938911986,
              221.95036218594996
            ],
            [
              493.32710231110894,
              222.03702724846812
            ],
            [
              492.23849619089526,
              222.42935546311924
            ],
            [
              490.3864498641497,
              222.97783611118803
            ],
            [
              490.37093821135045,
              222.9837814057711
            ],
            [
              490.343522302702,
              222.99190056040493
            ],
            [
              488.19558031277666,
              223.81516601218098
            ],
            [
              486.9271545892564,
              224.21952549555562
            ],
            [
              485.1576469337183,
              224.94227229368664
            ],
            [
              483.12960769839736,
              225.6433906253082
            ],
            [
              482.42715062267064,
              225.9532090843805
            ],
            [
              481.52753238275005,
              226.27446481543873
            ],
            [
              481.51091201926556,
              226.2811880672627
            ],
            [
              480.1900457865756,
              226.88353565589227
            ],
            [
              478.1505153207671,
              227.66524902535383
            ],
            [
              476.32338448145254,
              228.55058383807284
            ],
            [
              475.12702217512395,
              229.03923220508514
            ],
            [
              473.281857614111,
              229.98658001839107
            ],
            [
              471.8201036461427,
              230.6262400114047
            ],
            [
              471.7724435009632,
              230.65246410879047
            ],
            [
              471.5281181934604,
              230.76022370422157
            ],
            [
              470.82097698141246,
              231.15213270770346
            ],
            [
              469.91094272619574,
              231.5664166852703
            ],
            [
              469.8709101535238,
              231.58931608367485
            ],
            [
              469.8533379168085,
              231.59732945713355
            ],
            [
              469.13964672908395,
              232.00761276994808
            ],
            [
              468.86703248093016,
              232.16355334186918
            ],
            [
              467.0903952515112,
              233.0244215155782
            ],
            [
              465.5751864057269,
              233.94335345279072
            ],
            [
              464.46559546574736,
              234.5130416924356
            ],
            [
              462.7016568484125,
              235.64349365035332
            ],
            [
              461.368185256444,
              236.37721128293742
            ],
            [
              461.26585390563565,
              236.44773519679714
            ],
            [
              461.1294739351977,
              236.5233191641942
            ],
            [
              460.5860609225398,
              236.90042769693
            ],
            [
              459.64286373411164,
              237.43995455584877
            ],
            [
              458.7296673565365,
              238.09496997644086
            ],
            [
              457.2541898173914,
              238.9898059834366
            ],
            [
              456.0347021615729,
              239.91613211125176
            ],
            [
              455.02633325455696,
              240.56236355831933
            ],
            [
              453.3899598655355,
              241.875581780699
            ],
            [
              452.2003746193674,
              242.69541076542112
            ],
            [
              452.06119136801186,
              242.8163718770713
            ],
            [
              452.01356598433966,
              242.84942213190158
            ],
            [
              451.6153921155828,
              243.19788113942323
            ],
            [
              450.67913123725845,
              243.86944021264708
            ],
            [
              449.9023249927703,
              244.57430242562876
            ],
            [
              448.71212873385304,
              245.4783787290011
            ],
            [
              447.76617712509176,
              246.38876564390932
            ],
            [
              446.8727526978114,
              247.10575434961152
            ],
            [
              445.4092505750332,
              248.5974277504213
            ],
            [
              444.3765937151277,
              249.49488718230856
            ],
            [
              443.9313963742032,
              249.9922325589319
            ],
            [
              443.07662355455,
              250.76784046057068
            ],
            [
              442.4405781178058,
              251.5141395058821
            ],
            [
              441.5144389371546,
              252.40545887534577
            ],
            [
              441.5049090970991,
              252.41737682006374
            ],
            [
              441.47557007204887,
              252.44561267308939
            ],
            [
              440.7787478256806,
              253.31706407758395
            ],
            [
              440.0492996697275,
              254.06055354339352
            ],
            [
              438.80189912908446,
              255.72257167985626
            ],
            [
              437.93686594021426,
              256.6889302304537
            ],
            [
              437.59112458606825,
              257.20420869272454
            ],
            [
              436.87230063330765,
              258.04763527629046
            ],
            [
              436.40519727950806,
              258.78666093111536
            ],
            [
              435.6544570351459,
              259.72554260976347
            ],
            [
              435.1412305190844,
              260.59999270311044
            ],
            [
              434.5825869687341,
              261.34432115434066
            ],
            [
              433.5915300995528,
              263.1650371332033
            ],
            [
              432.90276398347004,
              264.1915453623255
            ],
            [
              432.6547461502836,
              264.7204217984498
            ],
            [
              432.0847286886115,
              265.6222725868598
            ],
            [
              431.7791918243987,
              266.3283308898821
            ],
            [
              431.2232080238218,
              267.2756320738554
            ],
            [
              430.88286885999287,
              268.14124279152907
            ],
            [
              430.4828937663263,
              268.8760553606619
            ],
            [
              429.78466629174727,
              270.84061721951474
            ],
            [
              429.27910504128164,
              271.9186825705462
            ],
            [
              429.1269280511607,
              272.4573878982827
            ],
            [
              428.7158362823646,
              273.40737066847447
            ],
            [
              428.5509117979044,
              274.07228817390796
            ],
            [
              428.180400591893,
              275.01463776225324
            ],
            [
              428.00042598911864,
              275.86082993410196
            ],
            [
              427.7458260566557,
              276.5771828917755
            ],
            [
              427.37253840273445,
              278.6679132207866
            ],
            [
              427.0557854465139,
              279.78921615218997
            ],
            [
              426.9976538682174,
              280.33447775205684
            ],
            [
              426.7527937514166,
              281.3216676077517
            ],
            [
              426.70759750232315,
              281.93936172768474
            ],
            [
              426.5108371840016,
              282.86447581900154
            ],
            [
              426.47730464901247,
              283.681988400547
            ],
            [
              426.35404876778654,
              284.37232682014616
            ],
            [
              426.33296321511307,
              286.5691319559559
            ],
            [
              426.20966048827137,
              287.72568479839543
            ],
            [
              426.2440501011693,
              288.2746331237933
            ],
            [
              426.1699225539835,
              289.28772936416055
            ],
            [
              426.22414117583145,
              289.85403368243226
            ],
            [
              426.18735582240146,
              290.7508489469979
            ],
            [
              426.2853304983195,
              291.53176197861706
            ],
            [
              426.2790138352293,
              292.1898655689709
            ],
            [
              426.63220849479745,
              294.4706580924054
            ],
            [
              426.70639133309476,
              295.65481055657585
            ],
            [
              426.83217747361715,
              296.2048697843928
            ],
            [
              426.93055791399144,
              297.2324368140716
            ],
            [
              427.06484123612364,
              297.74489907439187
            ],
            [
              427.17258413061217,
              298.60367027801385
            ],
            [
              427.38647227962065,
              299.3413976534557
            ],
            [
              427.48262333003913,
              299.9623034089011
            ],
            [
              428.2267794149369,
              302.30342455103664
            ],
            [
              428.50219780888364,
              303.50782138251947
            ],
            [
              428.71872889002054,
              304.05659133837895
            ],
            [
              428.9888054020302,
              305.08727793162274
            ],
            [
              429.18505687824074,
              305.54494423411074
            ],
            [
              429.42058456441606,
              306.3573091200836
            ],
            [
              429.7344495708126,
              307.0465672181643
            ],
            [
              429.91878141413235,
              307.6264767080657
            ],
            [
              431.0650777374769,
              310.00310833174575
            ],
            [
              431.54547206769877,
              311.2206054874361
            ],
            [
              431.85259124059684,
              311.7657412036095
            ],
            [
              432.2911485286368,
              312.7884743638323
            ],
            [
              432.5327235237349,
              313.1916708248323
            ],
            [
              432.87835362189736,
              313.9506861315979
            ],
            [
              433.27619329084183,
              314.58744402281434
            ],
            [
              433.5348025534504,
              315.12362209403085
            ],
            [
              435.0889001434682,
              317.51018091037815
            ],
            [
              435.7782228957352,
              318.7337269648021
            ],
            [
              436.1762423091575,
              319.27282123249364
            ],
            [
              436.7778791838271,
              320.2769725875686
            ],
            [
              437.0497030212261,
              320.62709337406875
            ],
            [
              437.48715106567954,
              321.3272460135759
            ],
            [
              437.9531368991453,
              321.9086623991155
            ],
            [
              438.2726554718785,
              322.399332915366
            ],
            [
              440.2347553680469,
              324.76984236162286
            ],
            [
              441.13733316441466,
              325.99233176729024
            ],
            [
              441.6269661608906,
              326.52280504490005
            ],
            [
              442.3843353600305,
              327.4983291277854
            ],
            [
              442.67295397927194,
              327.7976375355932
            ],
            [
              443.18364644003196,
              328.43483494235846
            ],
            [
              443.70232700013804,
              328.95918630148356
            ],
            [
              444.0700324838648,
              329.4034293924397
            ],
            [
              446.43499087367195,
              331.73186702906656
            ],
            [
              447.5556233943761,
              332.9459714920188
            ],
            [
              448.13788037964446,
              333.464972595135
            ],
            [
              449.04194087542714,
              334.4025174710141
            ],
            [
              449.33551702278584,
              334.6539646908405
            ],
            [
              449.900879288716,
              335.2255081327073
            ],
            [
              450.4573507538633,
              335.69211181540487
            ],
            [
              450.86124203208374,
              336.0897660224898
            ],
            [
              453.6187286320581,
              338.3503863573652
            ],
            [
              454.9627226568942,
              339.5483700640382
            ],
            [
              455.63877641220165,
              340.052690247004
            ],
            [
              456.6790498284921,
              340.9436817691689
            ],
            [
              456.9673171483707,
              341.1507462361722
            ],
            [
              457.5690365585238,
              341.6552905125526
            ],
            [
              458.14908419752925,
              342.0644257711998
            ],
            [
              458.57792857792174,
              342.4159974984445
            ],
            [
              461.7126163159539,
              344.58363179942836
            ],
            [
              463.28575423865993,
              345.7571556483528
            ],
            [
              464.0567802319439,
              346.2431580132251
            ],
            [
              465.2216044717134,
              347.0798595528253
            ],
            [
              465.4957909004213,
              347.2464083272812
            ],
            [
              466.11605591374445,
              347.6839108177396
            ],
            [
              466.70627051429216,
              348.03674006158826
            ],
            [
              467.14962864758934,
              348.3433218897198
            ],
            [
              470.6414050769104,
              350.39365783337024
            ],
            [
              472.449847928768,
              351.53357725295075
            ],
            [
              473.3168448336104,
              351.997142904944
            ],
            [
              474.5936193980324,
              352.7726927378616
            ],
            [
              474.8463500526532,
              352.90286520611164
            ],
            [
              475.4680673672945,
              353.274526716709
            ],
            [
              476.05594072290495,
              353.5730186194474
            ],
            [
              476.50417508915336,
              353.8362173238728
            ],
            [
              480.3283684107393,
              355.7460622844321
            ],
            [
              482.37849377136456,
              356.8422227137857
            ],
            [
              483.342089005124,
              357.27871470790427
            ],
            [
              484.7175077192594,
              357.98714340711985
            ],
            [
              484.9426961757927,
              358.0852567044629
            ],
            [
              485.549688063994,
              358.3934560163178
            ],
            [
              486.1236915027174,
              358.64031152113387
            ],
            [
              486.56796373083694,
              358.86218604593483
            ],
            [
              490.69557872237806,
              360.6097185131068
            ],
            [
              492.9937539996507,
              361.65075221112824
            ],
            [
              494.05399871773886,
              362.0549980901065
            ],
            [
              495.514266633402,
              362.6912283055174
            ],
            [
              495.7070021827134,
              362.761703199445
            ],
            [
              496.284186538642,
              363.00992668720687
            ],
            [
              496.83383622146994,
              363.2085084422879
            ],
            [
              497.26609792749616,
              363.39151760548
            ],
            [
              501.6640593996714,
              364.95653168608766
            ],
            [
              504.21635094174894,
              365.92965922943205
            ],
            [
              504.5246636752232,
              366.0273387921777
            ],
            [
              504.6118706539082,
              366.0604447411486
            ],
            [
              505.4658865646969,
              366.3300970115669
            ],
            [
              506.90354073912465,
              366.85578376624676
            ],
            [
              507.05997797847135,
              366.9030892657728
            ],
            [
              507.59353360288634,
              367.09585643301295
            ],
            [
              508.10944596608715,
              367.2501217494052
            ],
            [
              508.5224272034184,
              367.39708107488707
            ],
            [
              510.8199432158685,
              368.0737987147806
            ],
            [
              510.94098348447505,
              368.1153709513756
            ],
            [
              511.4386210274678,
              368.25602603605984
            ],
            [
              513.1538308065558,
              368.76122935447916
            ],
            [
              515.965649254714,
              369.6520689687021
            ],
            [
              516.0811398782,
              369.68182280590037
            ],
            [
              516.2873828672219,
              369.7469432439851
            ],
            [
              517.4679872798266,
              370.05039665409475
            ],
            [
              518.803581957249,
              370.45427090846516
            ],
            [
              518.920837945398,
              370.48288553507456
            ],
            [
              519.3983574457345,
              370.62567082587515
            ],
            [
              519.8722977360136,
              370.74010787353683
            ],
            [
              520.2594965736373,
              370.85415464498914
            ],
            [
              522.5975568667809,
              371.41005066202496
            ],
            [
              522.8697363116306,
              371.48698099696804
            ],
            [
              523.921008630809,
              371.72471387517766
            ],
            [
              524.7347276935177,
              371.918183302487
            ],
            [
              528.4003143366394,
              372.86035728983194
            ],
            [
              529.9267602059073,
              373.1687215506256
            ],
            [
              531.1311251969356,
              373.4626293933379
            ],
            [
              531.1346105274065,
              373.4632886471395
            ],
            [
              531.3078307268244,
              373.5055605282125
            ],
            [
              531.3889432377517,
              373.5209031282895
            ],
            [
              531.6178207826405,
              373.5761676226822
            ],
            [
              532.0427471664376,
              373.65573426701144
            ],
            [
              532.3984233510835,
              373.7402996543874
            ],
            [
              534.7466429484894,
              374.1728038303279
            ],
            [
              535.190568767974,
              374.2731924364447
            ],
            [
              536.5902725320508,
              374.5148479309072
            ],
            [
              540.868656661457,
              375.3791437346391
            ],
            [
              542.5121175460408,
              375.62487467396306
            ],
            [
              543.978240354444,
              375.9021948512704
            ],
            [
              544.3644738936451,
              375.9549494984007
            ],
            [
              544.3997506206449,
              375.9615549650902
            ],
            [
              544.6206435200991,
              375.9914354800641
            ],
            [
              544.8587184813555,
              376.03528504807963
            ],
            [
              547.1293304240401,
              376.336698669196
            ],
            [
              547.7743491163053,
              376.4485439114733
            ],
            [
              549.1300615688749,
              376.6143923536451
            ],
            [
              553.6085935460193,
              377.28402427483576
            ],
            [
              555.3559624937947,
              377.45624869607235
            ],
            [
              556.9044410128778,
              377.66775139992717
            ],
            [
              557.1983026829586,
              377.6928343658682
            ],
            [
              557.2001897928852,
              377.6930896380626
            ],
            [
              557.3214342951386,
              377.70334443352317
            ],
            [
              559.670927322639,
              377.90388863367804
            ],
            [
              560.5021929921645,
              378.00557990018257
            ],
            [
              562.1059666001021,
              378.1215435395252
            ],
            [
              566.5342585224217,
              378.5580054638098
            ],
            [
              568.3749194378358,
              378.64682981991206
            ],
            [
              569.9973196239259,
              378.78531201324
            ],
            [
              572.4659480390894,
              378.87064001124907
            ],
            [
              573.3671601679002,
              378.93580372123637
            ],
            [
              575.2325052652726,
              378.97775478303004
            ],
            [
              579.5574846619909,
              379.1864643323353
            ],
            [
              581.4786826187817,
              379.1821646593439
            ],
            [
              583.1653010721054,
              379.24046252838247
            ],
            [
              584.4237225519731,
              379.2168683586828
            ],
            [
              585.257165882898,
              379.2032064475236
            ],
            [
              585.8511285400625,
              379.2165644927334
            ],
            [
              586.1496321052933,
              379.22352417537263
            ],
            [
              586.1546208787353,
              379.2233899460331
            ],
            [
              586.2823257894579,
              379.22626199185777
            ],
            [
              588.4164815949273,
              379.1666377498282
            ],
            [
              592.5875671320991,
              379.1573027910048
            ],
            [
              594.5735809107869,
              379.05049056429436
            ],
            [
              596.229142780214,
              379.0233523794445
            ],
            [
              596.2744949475496,
              379.0202508245848
            ],
            [
              596.302005572088,
              379.0197998417115
            ],
            [
              596.8184921264192,
              378.9844785740384
            ],
            [
              597.3879667101623,
              378.9738014835805
            ],
            [
              598.4658369137397,
              378.8921409097914
            ],
            [
              598.9809773235195,
              378.878280397247
            ],
            [
              599.1151586141306,
              378.8677371230337
            ],
            [
              599.1582156224005,
              378.86653419236086
            ],
            [
              600.8775981105657,
              378.72925371141656
            ],
            [
              601.5958429515684,
              378.6728177338064
            ],
            [
              605.5310609136498,
              378.4611729820605
            ],
            [
              607.3941783616297,
              378.261232942049
            ],
            [
              609.2059484508535,
              378.1373303626737
            ],
            [
              610.4614115673775,
              377.9833436298424
            ],
            [
              611.4570293371671,
              377.90791458645197
            ],
            [
              611.631157701727,
              377.8842944250215
            ],
            [
              611.6839614659165,
              377.8801453773978
            ],
            [
              614.6351087131372,
              377.4886698644937
            ],
            [
              615.2819848346207,
              377.43157125249195
            ],
            [
              615.3145315762116,
              377.42758843398184
            ],
            [
              615.6945902450406,
              377.3704760625574
            ],
            [
              618.2916377016556,
              377.0917744847457
            ],
            [
              619.9593659830169,
              376.8183878858194
            ],
            [
              620.660210123819,
              376.732427017642
            ],
            [
              621.2914902860491,
              376.6564456195142
            ],
            [
              621.3181702512528,
              376.6517260165416
            ],
            [
              621.8998305380935,
              376.58038344501335
            ],
            [
              623.0613957945327,
              376.370906235362
            ],
            [
              624.1646838429672,
              376.22455289597644
            ],
            [
              624.9042304385108,
              376.0838288805156
            ],
            [
              625.253413520327,
              376.0364628997866
            ],
            [
              625.2779186484363,
              376.0323684778031
            ],
            [
              627.5365211233014,
              375.59095934534844
            ],
            [
              627.6608209187112,
              375.5722805026729
            ],
            [
              628.023232476829,
              375.4964980674619
            ],
            [
              630.7700278642892,
              375.0462226495124
            ],
            [
              632.1534999163281,
              374.7349898518926
            ],
            [
              633.4916909396246,
              374.49826801611874
            ],
            [
              633.6366804451437,
              374.463754564292
            ],
            [
              634.2835625589487,
              374.3470955480043
            ],
            [
              635.1961685868002,
              374.12543589782723
            ],
            [
              636.3264610344712,
              373.91035912938844
            ],
            [
              640.4104195274551,
              372.8774718872126
            ],
            [
              642.8640751568603,
              372.3254852353701
            ],
            [
              642.8805725783318,
              372.3212355381081
            ],
            [
              643.9503504093643,
              372.0086779005881
            ],
            [
              645.29900043872,
              371.68764385295907
            ],
            [
              645.5550932036247,
              371.6093933376455
            ],
            [
              646.2542064248933,
              371.43958820012654
            ],
            [
              646.9305812521313,
              371.2284365520267
            ],
            [
              648.069934753318,
              370.94027894767004
            ],
            [
              652.5368082746304,
              369.4999672999608
            ],
            [
              654.4857069387319,
              368.9305563956118
            ],
            [
              655.2868241690346,
              368.6358108422101
            ],
            [
              656.613183513647,
              368.23053464377676
            ],
            [
              656.9695409438565,
              368.0944599482097
            ],
            [
              657.7062165402676,
              367.86448352089116
            ],
            [
              657.741751824211,
              367.85059518058347
            ],
            [
              657.823195908411,
              367.82516967875716
            ],
            [
              658.2583933036491,
              367.65508283628753
            ],
            [
              659.2933233005174,
              367.32137700782664
            ],
            [
              664.0459048630371,
              365.41318625128486
            ],
            [
              665.4944915073804,
              364.8802249617138
            ],
            [
              666.0505418096282,
              364.62688968444814
            ],
            [
              667.3319190488734,
              364.1375971849635
            ],
            [
              667.692624283868,
              363.9679317271612
            ],
            [
              668.6509410826737,
              363.5933957575463
            ],
            [
              669.0105411873203,
              363.41985420238336
            ],
            [
              669.892844292832,
              363.0656040736341
            ],
            [
              674.831386156872,
              360.6263565880768
            ],
            [
              675.7980073499954,
              360.18596612882374
            ],
            [
              675.8424915349068,
              360.1610416243333
            ],
            [
              675.976665794318,
              360.09991154983993
            ],
            [
              676.2942667642089,
              359.92196436167126
            ],
            [
              677.3513632620848,
              359.4247363098705
            ],
            [
              677.6728488458963,
              359.239459583703
            ],
            [
              678.7430547566809,
              358.72298254242094
            ],
            [
              679.0318136797447,
              358.5516789695667
            ],
            [
              679.763335832895,
              358.1903651198772
            ],
            [
              684.4523880410459,
              355.35108807447597
            ],
            [
              685.4685008062266,
              354.7817749218596
            ],
            [
              685.7766975046159,
              354.5690960450367
            ],
            [
              686.5669265313351,
              354.11367578869186
            ],
            [
              686.8470669470137,
              353.91535191451396
            ],
            [
              687.989552025407,
              353.2375831592631
            ],
            [
              688.213090718696,
              353.07393774359343
            ],
            [
              688.7991013177822,
              352.7191013356175
            ],
            [
              693.0350577274213,
              349.56028216762695
            ],
            [
              694.0353968285553,
              348.8699730319393
            ],
            [
              694.3242301485675,
              348.6219351459803
            ],
            [
              694.8742857652238,
              348.23252628243273
            ],
            [
              695.112116545016,
              348.02338505199646
            ],
            [
              696.280898439925,
              347.16775779477024
            ],
            [
              696.445721723037,
              347.0168965037944
            ],
            [
              696.8949991901338,
              346.68186324623537
            ],
            [
              700.6001349981226,
              343.2324524806754
            ],
            [
              701.5690086956247,
              342.40042457033076
            ],
            [
              701.8278208173815,
              342.1177968174428
            ],
            [
              702.1706487017751,
              341.81632429297366
            ],
            [
              702.366077140235,
              341.59804763547726
            ],
            [
              703.5094242157983,
              340.55155218547503
            ],
            [
              703.6229470733575,
              340.41827209568095
            ],
            [
              703.9477926706151,
              340.1158470407288
            ],
            [
              707.051554472667,
              336.4133804450925
            ],
            [
              707.9640573931354,
              335.41690992367046
            ],
            [
              708.1821243819768,
              335.10202606424826
            ],
            [
              708.3562784095046,
              334.9075110830968
            ],
            [
              708.5096922041107,
              334.68105014979295
            ],
            [
              709.5710263441763,
              333.4350040890222
            ],
            [
              709.6416008346857,
              333.3237232007466
            ],
            [
              709.8577654853985,
              333.06586114511293
            ],
            [
              710.8644389528374,
              331.454183076833
            ],
            [
              710.8699315875257,
              331.4472332300022
            ],
            [
              710.884824585098,
              331.42154580417025
            ],
            [
              712.2997002456158,
              329.1563385197694
            ],
            [
              713.1202378486449,
              327.97150055503164
            ],
            [
              713.2874753168429,
              327.62835175543074
            ],
            [
              713.3362752672506,
              327.5563159757114
            ],
            [
              713.4480570439976,
              327.3217552794601
            ],
            [
              714.3671532371455,
              325.8725370132636
            ],
            [
              714.4040879143789,
              325.78722672469166
            ],
            [
              714.5305975487244,
              325.58468557333845
            ],
            [
              715.2589746682509,
              323.8770165518709
            ],
            [
              715.273993757962,
              323.8511116424687
            ],
            [
              715.3095710445474,
              323.75839412114595
            ],
            [
              716.263407848994,
              321.52213831519174
            ],
            [
              716.9443952788959,
              320.12484366809997
            ],
            [
              717.1332894642121,
              319.48342256777164
            ],
            [
              717.8070499898286,
              317.92719657103487
            ],
            [
              717.8206124460789,
              317.87129594351444
            ],
            [
              717.8794794382541,
              317.7332831802876
            ],
            [
              718.3052336750818,
              315.95143523225227
            ],
            [
              718.3262136634463,
              315.89675954712754
            ],
            [
              718.3636145440341,
              315.7071021814122
            ],
            [
              718.8721052678702,
              313.57898911869944
            ],
            [
              719.3529341968158,
              311.9462558497279
            ],
            [
              719.4293732399931,
              311.2467356570424
            ],
            [
              719.5286665260145,
              310.83117775379213
            ],
            [
              719.8102226020077,
              309.67068285171956
            ],
            [
              719.8116147915208,
              309.64699508991197
            ],
            [
              719.8274265774182,
              309.5808202974348
            ],
            [
              719.9327266179799,
              307.750239731803
            ],
            [
              719.9513214644239,
              307.65594650822356
            ],
            [
              719.956427938465,
              307.3382059241362
            ],
            [
              720.0675322745292,
              305.4067210229758
            ],
            [
              720.2744025594001,
              303.5135793051682
            ],
            [
              720.219825646463,
              302.7591884534741
            ],
            [
              720.309564817985,
              301.19912463499116
            ],
            [
              720.3085866119071,
              301.1911417329314
            ],
            [
              720.3090573076076,
              301.1831329614699
            ],
            [
              720.0847644925617,
              299.3527091743662
            ],
            [
              720.0870826337136,
              299.2084672726309
            ],
            [
              720.0072055587435,
              298.7197610464314
            ],
            [
              719.8128313877719,
              297.1334993284493
            ],
            [
              719.6521703307923,
              294.91275753221845
            ],
            [
              719.4369524736541,
              294.0660015783883
            ],
            [
              719.2515077835043,
              292.5526121638291
            ],
            [
              718.7081003743125,
              290.771538202156
            ],
            [
              718.6868598760659,
              290.64158397256864
            ],
            [
              718.5278328616231,
              290.1806927930178
            ],
            [
              718.0582041664545,
              288.64143619387676
            ],
            [
              717.44709861438,
              286.23709451193344
            ],
            [
              717.0478129501641,
              285.3297745271923
            ],
            [
              716.6037402929579,
              283.8742804844863
            ],
            [
              715.7639708147459,
              282.17048368954664
            ],
            [
              715.7221076480135,
              282.04915610027086
            ],
            [
              715.4818272401733,
              281.5980464546136
            ],
            [
              714.7702543702992,
              280.15434600288637
            ],
            [
              713.6400747057779,
              277.5861731685719
            ],
            [
              713.0319425528835,
              276.62750896016394
            ],
            [
              712.3526071082092,
              275.24921457893447
            ],
            [
              711.247611296362,
              273.64860242328405
            ],
            [
              711.1846743921556,
              273.5304427913482
            ],
            [
              710.8476043780615,
              273.0691830906911
            ],
            [
              709.9489933538837,
              271.76752410422307
            ],
            [
              708.2342725455193,
              269.0644250185972
            ],
            [
              707.3943836376878,
              268.06711246385055
            ],
            [
              706.5078045471536,
              266.7828820132924
            ],
            [
              706.5017621166746,
              266.7761905095237
            ],
            [
              706.4752790527659,
              266.7378292478183
            ],
            [
              705.1416418734369,
              265.26092235376325
            ],
            [
              705.0887761905041,
              265.18857889972526
            ],
            [
              704.808258675153,
              264.89172453032035
            ],
            [
              703.5016642973053,
              263.44476558654355
            ],
            [
              701.2569898833698,
              260.77936311067305
            ],
            [
              700.2182881769937,
              259.80866357692594
            ],
            [
              699.0705062724614,
              258.537577981883
            ],
            [
              697.4977217479342,
              257.15543459897503
            ],
            [
              697.472502426595,
              257.1287465480502
            ],
            [
              697.3361953272836,
              257.01348719931576
            ],
            [
              695.5105367928599,
              255.40912129698975
            ],
            [
              692.7609155640959,
              252.83951346034604
            ],
            [
              691.5370702311932,
              251.91728854444963
            ],
            [
              690.1661167293727,
              250.71251174173318
            ],
            [
              686.0630705430439,
              247.79237278399597
            ],
            [
              682.8246946193929,
              245.35210448902131
            ],
            [
              681.4242977092198,
              244.49095704239056
            ],
            [
              679.8479459427414,
              243.3690671110272
            ],
            [
              675.2559409039791,
              240.6978433371889
            ],
            [
              671.5526861270491,
              238.4205972420391
            ],
            [
              669.9872615807442,
              237.63299010945113
            ],
            [
              668.2273239519219,
              236.60921352492824
            ],
            [
              663.2101688972851,
              234.22325276472696
            ],
            [
              659.0738484194003,
              232.14215884115004
            ],
            [
              657.5504587872931,
              231.51892233370694
            ],
            [
              656.5605485867894,
              231.04413597673388
            ],
            [
              656.3494900451823,
              230.96058490790358
            ],
            [
              655.4397134593854,
              230.52793110098216
            ],
            [
              650.0693627768838,
              228.4583184992979
            ],
            [
              645.5397358902151,
              226.6051951870928
            ],
            [
              644.4299134917153,
              226.24202031683944
            ],
            [
              644.0080725616073,
              226.07502749901758
            ],
            [
              643.2626345928321,
              225.8351582517036
            ],
            [
              641.6424649215784,
              225.21078122929268
            ],
            [
              635.9971416063804,
              223.4825059661423
            ],
            [
              631.1216474509881,
              221.88706424527575
            ],
            [
              629.1595929268786,
              221.3892394544802
            ],
            [
              627.0117445289051,
              220.7316910647937
            ],
            [
              622.7636144355952,
              219.73575290538614
            ],
            [
              622.821955638992,
              219.64691524525813
            ],
            [
              622.8008871461254,
              219.64165043278874
            ],
            [
              619.1044573640099,
              218.83798733759565
            ],
            [
              616.0070234838454,
              218.05208696914517
            ],
            [
              613.9546184702886,
              217.67055832917046
            ],
            [
              611.738747077055,
              217.15106602822277
            ],
            [
              610.0154888634936,
              216.86189987269827
            ],
            [
              608.2522443956227,
              216.47854225733386
            ],
            [
              604.446634132117,
              215.88760026889
            ],
            [
              602.5783695196191,
              215.52870817943185
            ],
            [
              602.0677481917072,
              215.46086705423983
            ],
            [
              600.3952401729816,
              215.14995877564093
            ],
            [
              598.2771957052345,
              214.8921909351246
            ],
            [
              596.0253554357865,
              214.51432765935252
            ],
            [
              594.7382462321032,
              214.38006438028765
            ],
            [
              593.3515341773832,
              214.16473324487325
            ],
            [
              589.638783278291,
              213.80955537066689
            ],
            [
              588.0211713888834,
              213.5946395324477
            ],
            [
              587.9802745428112,
              213.59038598799899
            ],
            [
              586.9988775508641,
              213.51960987768663
            ],
            [
              586.8875245922336,
              213.50605812648598
            ],
            [
              586.6215952700076,
              213.47136017339244
            ],
            [
              586.5787040978911,
              213.46838869797622
            ],
            [
              586.1861049012739,
              213.41729657876434
            ],
            [
              586.124378580516,
              213.41318259793186
            ],
            [
              584.4929918158942,
              213.21464142008588
            ],
            [
              582.3356362228458,
              213.0863007400465
            ],
            [
              580.0794463163018,
              212.85094895002516
            ],
            [
              579.2513246408067,
              212.8158459682515
            ],
            [
              578.2744893222122,
              212.72239765961174
            ],
            [
              575.4613224593028,
              212.61758638611002
            ],
            [
              575.3223347002279,
              212.60548600452185
            ],
            [
              574.7428901244587,
              212.5908194676828
            ],
            [
              573.4544171632982,
              212.5428143195731
            ],
            [
              571.5576701712936,
              212.40602525720132
            ],
            [
              571.1989901798687,
              212.4028910763805
            ],
            [
              570.948776784853,
              212.38555643812222
            ],
            [
              570.8785711969148,
              212.38281840408405
            ],
            [
              570.6354905701085,
              212.38086789556232
            ],
            [
              569.9196993247338,
              212.33316131869924
            ],
            [
              569.6587062825673,
              212.33215255297873
            ],
            [
              568.5094785972991,
              212.26378521330338
            ],
            [
              566.3402134122103,
              212.26856105155434
            ],
            [
              564.1100642260632,
              212.17402797923182
            ],
            [
              563.7458100720594,
              212.1810968947781
            ],
            [
              563.1971331638016,
              212.16065462161262
            ],
            [
              560.2277484687786,
              212.22342132700177
            ],
            [
              559.3867570263083,
              212.20213468029627
            ],
            [
              557.4085447936183,
              212.2747332736047
            ],
            [
              554.9004614926571,
              212.2546081080958
            ],
            [
              554.5501850350602,
              212.2737565200923
            ],
            [
              553.761097226061,
              212.27070661223965
            ],
            [
              553.3167231003893,
              212.29723347190307
            ],
            [
              552.6516265653519,
              212.298697743535
            ],
            [
              550.706935756064,
              212.4246717906553
            ],
            [
              548.2922415756169,
              212.47571347564505
            ],
            [
              548.2728081031502,
              212.47669954014384
            ],
            [
              548.0528535885549,
              212.4947755725784
            ],
            [
              548.0312117357054,
              212.4951955020945
            ],
            [
              548.0263861993313,
              212.49559354802858
            ],
            [
              548.0214968567578,
              212.49568841831663
            ],
            [
              546.9904087163221,
              212.58074032142395
            ],
            [
              546.8032710682489,
              212.58531699901948
            ],
            [
              545.6323245553153,
              212.6872969091205
            ],
            [
              545.3224458178931,
              212.69680691668054
            ],
            [
              544.9395209964391,
              212.73233512877627
            ],
            [
              543.6892038272256,
              212.7782206339675
            ],
            [
              541.7372424286551,
              212.974196126115
            ],
            [
              539.2198165617751,
              213.1118151599827
            ],
            [
              538.7694960035004,
              213.1656284331004
            ],
            [
              537.9221390086627,
              213.21621130637513
            ],
            [
              537.3194909006045,
              213.29188965423887
            ],
            [
              537.1195575520735,
              213.30484102570895
            ],
            [
              536.1426354755775,
              213.4315643703484
            ],
            [
              536.131356492986,
              213.43232567692988
            ],
            [
              535.8161969726822,
              213.47390897479812
            ],
            [
              535.5360178483429,
              213.51025295410798
            ],
            [
              533.4789577674699,
              213.67627877827277
            ],
            [
              533.2116428126867,
              213.71443777305947
            ],
            [
              533.0103514477025,
              213.73098005339708
            ],
            [
              532.9650491131337,
              213.73765744541643
            ],
            [
              532.6171117965205,
              213.7663579316098
            ],
            [
              532.5596268345685,
              213.7748873384394
            ],
            [
              532.5416872959295,
              213.77636709948055
            ],
            [
              531.7092201256589,
              213.89988597477938
            ],
            [
              531.5809476703826,
              213.9110574615277
            ],
            [
              530.5660756384915,
              214.06592017340307
            ]
          ]
        ]
      }
    }
  ]
}