{
  "type": "FeatureCollection",
  "features": [
    {
      "type": "Feature",
      "properties": {
        "method": "Homography",
        "mode": "tmpl2img",
        "inside_ratio": 1.0
      },
      "geometry": {
        "type": "Polygon",
        "coordinates": [
          [
            [
              482.9691587810814,
              402.77978723090644
            ],
            [
              483.00986614355634,
              402.8736271518429
            ],
            [
              483.02162428062405,
              402.89093828865595
            ],
            [
              483.3902847287617,
              403.6719658041515
            ],
            [
              483.4352005938277,
              403.73464194402055
            ],
            [
              483.47096869467134,
              403.8099392107661
            ],
            [
              483.8834689356241,
              404.37803042063314
            ],
            [
              483.99016804180593,
              404.58616335220887
            ],
            [
              484.1631405324344,
              404.81320176425163
            ],
            [
              484.32578255799336,
              405.1151085476862
            ],
            [
              485.4336450888257,
              406.5232954963799
            ],
            [
              486.49034723870193,
              407.9978304215951
            ],
            [
              486.52933181861005,
              408.05522619716913
            ],
            [
              486.5384000662245,
              408.0648839166968
            ],
            [
              487.03967536427785,
              408.76436951369004
            ],
            [
              487.1519473189448,
              408.87934618935253
            ],
            [
              487.25429583448437,
              409.0202995422269
            ],
            [
              487.7435248883254,
              409.5127049958088
            ],
            [
              487.87239203764244,
              409.681852082947
            ],
            [
              488.06906826087936,
              409.87314117838395
            ],
            [
              488.27285685467285,
              410.13217371180286
            ],
            [
              489.694286233232,
              411.48293207750464
            ],
            [
              490.4041207643261,
              412.20986708909277
            ],
            [
              491.558886926787,
              413.40338622527173
            ],
            [
              491.60810815185573,
              413.44285949385204
            ],
            [
              491.72279904620547,
              413.56031338340404
            ],
            [
              491.92199607507104,
              413.7183055909332
            ],
            [
              492.1177055405215,
              413.91528573213225
            ],
            [
              492.12908954682587,
              413.9241281159325
            ],
            [
              492.13964315973914,
              413.93475034603483
            ],
            [
              492.6630808619584,
              414.34131989525815
            ],
            [
              492.78670318223067,
              414.46155609578943
            ],
            [
              492.99309480495816,
              414.61772958652585
            ],
            [
              493.2198325909681,
              414.83319436156063
            ],
            [
              494.88593470648954,
              416.07153295376924
            ],
            [
              497.03547318746007,
              417.79536875221083
            ],
            [
              497.1751070328705,
              417.88478639292254
            ],
            [
              497.31286348750206,
              417.9940472914867
            ],
            [
              497.3181957942013,
              417.99741798320184
            ],
            [
              497.3428665934327,
              418.01698558426546
            ],
            [
              497.6245626544617,
              418.1950495890793
            ],
            [
              497.94478117700163,
              418.443772789204
            ],
            [
              498.5104597802387,
              418.792638124171
            ],
            [
              498.5997688036516,
              418.8602169423171
            ],
            [
              498.80341214684,
              418.98321732970476
            ],
            [
              499.03627958999493,
              419.156297202211
            ],
            [
              500.806607323499,
              420.2102984293207
            ],
            [
              503.268338460398,
              421.7867227529133
            ],
            [
              503.48127405718736,
              421.89715846329744
            ],
            [
              503.7010558441697,
              422.0360855928782
            ],
            [
              504.1003751848834,
              422.24005101711145
            ],
            [
              504.54348900540464,
              422.5133281934717
            ],
            [
              505.12858003581397,
              422.8036127741818
            ],
            [
              505.1683310569513,
              422.82762235348525
            ],
            [
              505.3586193647416,
              422.92043293523966
            ],
            [
              505.5827780794845,
              423.0538904617367
            ],
            [
              507.34463926232013,
              423.9030789938926
            ],
            [
              507.44449934474386,
              423.9526231513807
            ],
            [
              510.1211029412017,
              425.34080166189545
            ],
            [
              510.40656864668233,
              425.4611457489831
            ],
            [
              510.6864678528107,
              425.6041134304843
            ],
            [
              511.210325413571,
              425.8209841150481
            ],
            [
              511.78262370149145,
              426.104921758796
            ],
            [
              512.5470480637496,
              426.41055571043813
            ],
            [
              512.7171067796496,
              426.4925212550203
            ],
            [
              514.1854497218427,
              427.0656253260265
            ],
            [
              514.7101969397689,
              427.2754309964732
            ],
            [
              517.4581559732148,
              428.4338910667961
            ],
            [
              517.8180486116689,
              428.5565014784353
            ],
            [
              518.1582321711493,
              428.6973333513494
            ],
            [
              518.8086387980253,
              428.9140796876282
            ],
            [
              519.5110001826516,
              429.1948994731585
            ],
            [
              520.2249460499124,
              429.4228811366451
            ],
            [
              520.2995648719195,
              429.4520053619474
            ],
            [
              521.1378453455804,
              429.7143938543012
            ],
            [
              522.3964630332723,
              430.1163035330161
            ],
            [
              525.1489922711472,
              431.0540519247459
            ],
            [
              525.5825289873226,
              431.17146117825456
            ],
            [
              525.9811778827158,
              431.3043098977637
            ],
            [
              526.7557989014525,
              431.5083539509853
            ],
            [
              527.5843712654053,
              431.7729388649289
            ],
            [
              530.3708475262086,
              432.4682207933894
            ],
            [
              533.0714949636454,
              433.199602906579
            ],
            [
              533.575573874329,
              433.3047608310424
            ],
            [
              534.0292436032539,
              433.4242626365372
            ],
            [
              534.9220715126738,
              433.60384280987694
            ],
            [
              535.8690771086026,
              433.8401397725567
            ],
            [
              538.4909464738134,
              434.3306207194745
            ],
            [
              538.8434309074244,
              434.41054044863967
            ],
            [
              539.0143100764462,
              434.4393574162189
            ],
            [
              541.114175599677,
              434.8774187899333
            ],
            [
              541.6837786080642,
              434.9638680952177
            ],
            [
              542.1877646257618,
              435.065238018204
            ],
            [
              543.1898310825263,
              435.2096551225337
            ],
            [
              544.2444083781297,
              435.40693805257325
            ],
            [
              546.4412861411438,
              435.6918385097209
            ],
            [
              546.8761241254638,
              435.76516934441656
            ],
            [
              547.2332896779155,
              435.806123788387
            ],
            [
              549.17746562919,
              436.1011936139718
            ],
            [
              549.8060668057774,
              436.16318230455903
            ],
            [
              550.354747911268,
              436.24225783485167
            ],
            [
              551.3177840236459,
              436.32958803941347
            ],
            [
              551.4325143134733,
              436.34539199656115
            ],
            [
              551.5709490213771,
              436.3570750213707
            ],
            [
              552.6038295191048,
              436.49102335975283
            ],
            [
              552.6151102808487,
              436.4921759574799
            ],
            [
              553.3883434791433,
              436.5522723293663
            ],
            [
              553.4098191142822,
              436.5549569673003
            ],
            [
              553.5733733445189,
              436.5666530150713
            ],
            [
              554.4812961009434,
              436.63721757920524
            ],
            [
              554.8680455907728,
              436.68156426998314
            ],
            [
              555.4138985283578,
              436.71619136415194
            ],
            [
              557.1742050095972,
              436.88978170707367
            ],
            [
              557.8541570385792,
              436.9223205290442
            ],
            [
              558.4412987833657,
              436.9755638166215
            ],
            [
              559.2417797163388,
              437.0072065997613
            ],
            [
              560.222523138575,
              437.08343085080907
            ],
            [
              561.0082811929417,
              437.10680477963757
            ],
            [
              561.0612464098095,
              437.1107823091626
            ],
            [
              561.2359082645271,
              437.114614228485
            ],
            [
              561.5940250803043,
              437.14022378549976
            ],
            [
              562.3296918516278,
              437.15490628194084
            ],
            [
              562.7414274865914,
              437.1810254206717
            ],
            [
              563.4716123977319,
              437.19114152239933
            ],
            [
              565.0294955225289,
              437.26569337236657
            ],
            [
              565.7523758610802,
              437.2645686098049
            ],
            [
              566.3713842168848,
              437.28903783368725
            ],
            [
              566.3850117011632,
              437.2888960816247
            ],
            [
              566.3968072791008,
              437.28936238207285
            ],
            [
              566.9513491175911,
              437.283593100064
            ],
            [
              567.6767142890316,
              437.3051705230353
            ],
            [
              568.1931982424516,
              437.2962315779057
            ],
            [
              568.3680757128193,
              437.3008842521882
            ],
            [
              568.6299967614891,
              437.29498642387455
            ],
            [
              568.6521228352616,
              437.29555374147077
            ],
            [
              568.9801131425586,
              437.28763592358916
            ],
            [
              569.589382458625,
              437.29979576947727
            ],
            [
              570.1255599775192,
              437.2833264054228
            ],
            [
              570.4302056784705,
              437.28754701701877
            ],
            [
              570.4400798849746,
              437.28744079646407
            ],
            [
              571.3356306274889,
              437.25588136849757
            ],
            [
              572.6800859514238,
              437.2537894690022
            ],
            [
              573.3921597823103,
              437.2178073687622
            ],
            [
              574.0313921450911,
              437.21197749817634
            ],
            [
              574.0731830545934,
              437.20949973943476
            ],
            [
              574.1053694993442,
              437.20916488160424
            ],
            [
              574.1877478724883,
              437.2042178276103
            ],
            [
              574.20593217397,
              437.2040288721735
            ],
            [
              574.205977737017,
              437.2040261358587
            ],
            [
              574.2155818846688,
              437.2039263379831
            ],
            [
              574.4945545681023,
              437.1871720842832
            ],
            [
              574.9257511527218,
              437.1797092336276
            ],
            [
              575.5609577773162,
              437.1389179508623
            ],
            [
              575.9128832339791,
              437.1309934410439
            ],
            [
              576.1388293260225,
              437.11482163685645
            ],
            [
              576.2856658791696,
              437.11127694342684
            ],
            [
              576.683351150381,
              437.0818956359461
            ],
            [
              577.3330302979972,
              437.061939927204
            ],
            [
              577.7095912306694,
              437.0312614324333
            ],
            [
              577.9550324954761,
              437.02261202202067
            ],
            [
              578.9898177508396,
              436.93494977534664
            ],
            [
              580.0734409703274,
              436.8801927577224
            ],
            [
              580.0975127217572,
              436.87778741436364
            ],
            [
              580.1563619918187,
              436.87481389214435
            ],
            [
              580.7956396880413,
              436.8109291918254
            ],
            [
              581.5441619170115,
              436.76654974380983
            ],
            [
              581.599280859163,
              436.76048376023994
            ],
            [
              581.6462070449944,
              436.757665515769
            ],
            [
              581.8528443766717,
              436.734869700315
            ],
            [
              581.9263888809459,
              436.73014686753424
            ],
            [
              581.9707924164633,
              436.7251859019578
            ],
            [
              582.0535491983245,
              436.71987201686227
            ],
            [
              582.2308901058929,
              436.7000538128822
            ],
            [
              582.3943122496858,
              436.6893546724781
            ],
            [
              582.9007681960323,
              436.63084446181256
            ],
            [
              583.1810617938942,
              436.610782804011
            ],
            [
              583.3354438038886,
              436.5920395310027
            ],
            [
              583.3661905229362,
              436.5898452721338
            ],
            [
              583.4006737683902,
              436.5856144417748
            ],
            [
              583.6336062252674,
              436.5684052046369
            ],
            [
              584.093575740763,
              436.51115693292513
            ],
            [
              584.7735646996125,
              436.4557580959497
            ],
            [
              584.9957544169691,
              436.426154449161
            ],
            [
              585.1792797152051,
              436.41060703013835
            ],
            [
              586.2493784987437,
              436.2659227390629
            ],
            [
              587.0299283933753,
              436.1879203366679
            ],
            [
              587.139516354852,
              436.1770810621289
            ],
            [
              587.1417676559507,
              436.17674394522265
            ],
            [
              587.2460229248443,
              436.166325442203
            ],
            [
              587.9017922499784,
              436.0675619186738
            ],
            [
              588.7612416506288,
              435.97274918677334
            ],
            [
              589.1685713408496,
              435.9067331445913
            ],
            [
              589.4317945869002,
              435.8763232981076
            ],
            [
              589.9658675394246,
              435.78705038593506
            ],
            [
              590.1334180854891,
              435.7667083420151
            ],
            [
              590.2758470254342,
              435.74208329038555
            ],
            [
              590.5087110952715,
              435.7135126508393
            ],
            [
              590.5241006396188,
              435.7108072917673
            ],
            [
              590.6555673048899,
              435.6944448174719
            ],
            [
              591.1693999370463,
              435.6036032368687
            ],
            [
              591.8696554703974,
              435.5103040612011
            ],
            [
              591.9522923683712,
              435.4948518220889
            ],
            [
              592.0752033893592,
              435.47823345543856
            ],
            [
              593.1347905149422,
              435.2794351682096
            ],
            [
              593.2566826036825,
              435.2610773528752
            ],
            [
              593.9246393249966,
              435.16105541306365
            ],
            [
              593.9357044020682,
              435.15881184152363
            ],
            [
              594.0012390661973,
              435.1489418550886
            ],
            [
              594.4561349806485,
              435.05638592295384
            ],
            [
              595.1398749797768,
              434.94656622853716
            ],
            [
              595.27729444212,
              434.9174794525102
            ],
            [
              595.4256377206588,
              434.89350233884335
            ],
            [
              595.4417963637273,
              434.89002972799216
            ],
            [
              595.5263831534409,
              434.8763207222127
            ],
            [
              595.5389091131973,
              434.8736114967051
            ],
            [
              595.5427909791312,
              434.8729824339479
            ],
            [
              595.9120246325539,
              434.7931210782626
            ],
            [
              596.1206914469697,
              434.758241397294
            ],
            [
              596.6719692458588,
              434.63623471797354
            ],
            [
              596.7386268100807,
              434.62471005197915
            ],
            [
              596.7519198328795,
              434.6216926611748
            ],
            [
              596.8080483760206,
              434.61198851853084
            ],
            [
              596.9126965507912,
              434.588233426509
            ],
            [
              597.319397485284,
              434.5163318900743
            ],
            [
              597.8165595642046,
              434.4010480627815
            ],
            [
              598.6128955511418,
              434.25164059411804
            ],
            [
              599.6372010814893,
              434.0027678661036
            ],
            [
              600.345705478978,
              433.8591104571249
            ],
            [
              600.364659271566,
              433.85420108040705
            ],
            [
              600.3946398514346,
              433.8481010464714
            ],
            [
              600.404406744408,
              433.8455660067087
            ],
            [
              600.4503262436824,
              433.83622301816473
            ],
            [
              600.7361228848686,
              433.76204107733196
            ],
            [
              601.2050998709542,
              433.6627754542248
            ],
            [
              601.4274461702291,
              433.6036697056161
            ],
            [
              601.7176007866009,
              433.5413133515226
            ],
            [
              601.7876639153494,
              433.52228210058956
            ],
            [
              601.9304125146098,
              433.4914070799799
            ],
            [
              602.2893930458752,
              433.3930081168484
            ],
            [
              602.4351220270225,
              433.3607559399836
            ],
            [
              602.9359033002287,
              433.22096800690707
            ],
            [
              603.0388800492263,
              433.1975923278407
            ],
            [
              603.1194638309842,
              433.17463849888077
            ],
            [
              603.5294677832691,
              433.0799124347041
            ],
            [
              603.5918787187999,
              433.06184516655134
            ],
            [
              603.5998916958606,
              433.0599870870589
            ],
            [
              603.921367046869,
              432.96646197887736
            ],
            [
              604.020380575479,
              432.93779866920624
            ],
            [
              604.7689386412316,
              432.755923552474
            ],
            [
              605.7164894352445,
              432.46932729588156
            ],
            [
              606.4585654908597,
              432.27671256877954
            ],
            [
              606.6509832637117,
              432.2151101869222
            ],
            [
              606.9171188869457,
              432.1443640342144
            ],
            [
              607.2097552153841,
              432.04947918761906
            ],
            [
              607.6253471877887,
              431.93659192075273
            ],
            [
              607.7305085045308,
              431.9015619998812
            ],
            [
              607.920245945465,
              431.8495536990695
            ],
            [
              608.1058893185681,
              431.7870098216686
            ],
            [
              608.1164205431854,
              431.7841071047145
            ],
            [
              608.2699037978681,
              431.7320367219599
            ],
            [
              608.3550117087298,
              431.7082797254726
            ],
            [
              608.7915807961457,
              431.558968449452
            ],
            [
              608.8790173781689,
              431.53406263956333
            ],
            [
              608.9267680559136,
              431.5174543414396
            ],
            [
              609.3645861248691,
              431.3907109047848
            ],
            [
              609.4915118217077,
              431.34587637470736
            ],
            [
              609.5036813932509,
              431.3423359495901
            ],
            [
              609.8528380569428,
              431.2182471021714
            ],
            [
              610.5252583773857,
              431.0148668212275
            ],
            [
              611.3702400579948,
              430.7042442476368
            ],
            [
              612.067366386155,
              430.4810598627853
            ],
            [
              612.173145700756,
              430.4401419351123
            ],
            [
              612.2619227644878,
              430.4113567254339
            ],
            [
              612.6102498995839,
              430.2760882968512
            ],
            [
              613.1334651674864,
              430.10180187670284
            ],
            [
              613.2676145514321,
              430.04800721278195
            ],
            [
              613.4962670948138,
              429.97097340111713
            ],
            [
              613.6751470830262,
              429.8982660782015
            ],
            [
              613.7338822322563,
              429.8783397239718
            ],
            [
              614.2634963110685,
              429.6612718104186
            ],
            [
              614.3138054090534,
              429.6437736609214
            ],
            [
              614.3339341126002,
              429.6353659480847
            ],
            [
              614.7897228526294,
              429.4743656582872
            ],
            [
              614.9449124155224,
              429.40854474266405
            ],
            [
              614.962895109543,
              429.40215376690475
            ],
            [
              615.2749456495925,
              429.268840702433
            ],
            [
              615.8680742169654,
              429.0508015114121
            ],
            [
              616.6137226152875,
              428.7224223063462
            ],
            [
              617.264199240475,
              428.4708026432575
            ],
            [
              617.6772454512895,
              428.2797202085304
            ],
            [
              618.2302285632455,
              428.0579708438678
            ],
            [
              618.3871589455013,
              427.98302798216724
            ],
            [
              618.6463434404952,
              427.87768019587645
            ],
            [
              618.8158488758046,
              427.795442119472
            ],
            [
              618.9162308767089,
              427.7542994981451
            ],
            [
              619.3739327118581,
              427.5300539100779
            ],
            [
              619.7938461882353,
              427.3519550161719
            ],
            [
              619.9701653737488,
              427.262966494696
            ],
            [
              619.9933366171642,
              427.253067362756
            ],
            [
              620.2703784806915,
              427.11205239339694
            ],
            [
              620.7869597237091,
              426.8845530273196
            ],
            [
              621.5001743151661,
              426.5111661437162
            ],
            [
              622.151410577606,
              426.2098928058903
            ],
            [
              622.4849100273817,
              426.02612716931924
            ],
            [
              622.9067509784745,
              425.82467498649584
            ],
            [
              623.0801915216358,
              425.7265330271331
            ],
            [
              623.3613217919051,
              425.59013850619635
            ],
            [
              623.5193296120789,
              425.49906584257093
            ],
            [
              623.6541457658101,
              425.4330142663025
            ],
            [
              624.0289881934419,
              425.21447335640835
            ],
            [
              624.3686069163074,
              425.04306734675583
            ],
            [
              624.558805120525,
              424.9292330046569
            ],
            [
              624.5865344245464,
              424.91511872276567
            ],
            [
              624.8304532485492,
              424.7676761936088
            ],
            [
              625.274016142039,
              424.53545917440266
            ],
            [
              625.9352725775617,
              424.1249004330598
            ],
            [
              626.5856560970396,
              423.76652460499497
            ],
            [
              626.8480618435367,
              423.5944699622466
            ],
            [
              627.1562465370677,
              423.42008253749657
            ],
            [
              627.3398718207143,
              423.2969789140273
            ],
            [
              627.6342334923052,
              423.12731451722743
            ],
            [
              627.7790482158766,
              423.0281105836033
            ],
            [
              627.9405429792873,
              422.9339557869856
            ],
            [
              628.2401049977657,
              422.72596115300274
            ],
            [
              628.5076033036543,
              422.56586240870644
            ],
            [
              628.7043998065677,
              422.42597714405997
            ],
            [
              628.7360012998608,
              422.40687487052656
            ],
            [
              628.9484506358305,
              422.2540882570548
            ],
            [
              629.3231564756184,
              422.0214421160214
            ],
            [
              629.9223930208757,
              421.5790652496004
            ],
            [
              630.2026695776314,
              421.39764532885397
            ],
            [
              630.2267427330366,
              421.3791307741536
            ],
            [
              630.5644663055568,
              421.1576916121209
            ],
            [
              630.7632256853135,
              421.00193949033667
            ],
            [
              630.9733928124471,
              420.86104203672545
            ],
            [
              631.1608126861682,
              420.71146535742025
            ],
            [
              631.459611933205,
              420.5067758069366
            ],
            [
              631.5898944957108,
              420.40010474412594
            ],
            [
              631.7698636177641,
              420.2751469412101
            ],
            [
              632.0020491748751,
              420.08196925900165
            ],
            [
              632.2057510641188,
              419.93717556468516
            ],
            [
              632.4019028689087,
              419.77047836923145
            ],
            [
              632.4365815585818,
              419.74553858991743
            ],
            [
              632.6189809503898,
              419.588352020012
            ],
            [
              632.9294937286083,
              419.35912089099963
            ],
            [
              633.4367973934131,
              418.91029228610574
            ],
            [
              633.6646408945372,
              418.7350588822155
            ],
            [
              633.7132362255295,
              418.69024782830945
            ],
            [
              634.0829662810615,
              418.4005194104171
            ],
            [
              634.2259404212523,
              418.2652379688174
            ],
            [
              634.35378898721,
              418.16320415793547
            ],
            [
              634.5385231273559,
              417.9858649263483
            ],
            [
              634.8329144222872,
              417.7448270490714
            ],
            [
              634.9476035519681,
              417.63127691423307
            ],
            [
              635.1374723845897,
              417.4733066189864
            ],
            [
              635.3104393235336,
              417.29869448544474
            ],
            [
              635.4587505153879,
              417.1726540456754
            ],
            [
              635.6471053129496,
              416.9788012036085
            ],
            [
              635.6839002511906,
              416.94709238005254
            ],
            [
              635.83744767346,
              416.786356287238
            ],
            [
              636.0888251266623,
              416.563954204527
            ],
            [
              636.5073739243969,
              416.1136987549028
            ],
            [
              636.6892172492754,
              415.946016163445
            ],
            [
              636.7542826556955,
              415.87293274571505
            ],
            [
              637.1368562130705,
              415.51094349162673
            ],
            [
              637.2323092845327,
              415.39991104245945
            ],
            [
              637.2935012027527,
              415.3411686370395
            ],
            [
              637.4689418316815,
              415.13497842082757
            ],
            [
              637.7500393274215,
              414.85667254622535
            ],
            [
              637.848267739007,
              414.736727227943
            ],
            [
              638.039156749328,
              414.5440225552028
            ],
            [
              638.1612726259119,
              414.3912457743289
            ],
            [
              638.2626423095894,
              414.2869171268231
            ],
            [
              638.4361798864048,
              414.0659585366476
            ],
            [
              638.4739050853838,
              414.0264671469953
            ],
            [
              638.5996005530682,
              413.86297805877234
            ],
            [
              638.7972036116583,
              413.6504058223239
            ],
            [
              639.130872143445,
              413.20347608877637
            ],
            [
              639.2725995999618,
              413.04428355501926
            ],
            [
              639.3460789705235,
              412.94114233437307
            ],
            [
              639.7219729014242,
              412.5038968572501
            ],
            [
              639.7785817986653,
              412.4205264317992
            ],
            [
              639.7886870068202,
              412.4086500775709
            ],
            [
              639.9480527543183,
              412.1727095681683
            ],
            [
              640.2069294715577,
              411.8565988854714
            ],
            [
              640.2879364506643,
              411.73061832572034
            ],
            [
              640.4707170515941,
              411.50194509667
            ],
            [
              640.55053676515,
              411.37383085101754
            ],
            [
              640.613443359084,
              411.2937343522447
            ],
            [
              640.7653085031312,
              411.04609353105593
            ],
            [
              640.8024922281264,
              410.99772954938516
            ],
            [
              640.9011701035095,
              410.83226418164975
            ],
            [
              641.0505883214781,
              410.63212710552733
            ],
            [
              641.3038978396861,
              410.19299919681396
            ],
            [
              641.4108367047248,
              410.0428916905891
            ],
            [
              641.4845623024139,
              409.90805352801135
            ],
            [
              641.8339362251808,
              409.39351510725686
            ],
            [
              642.0005476979684,
              409.0671969027324
            ],
            [
              642.1992536268856,
              408.75817310717287
            ],
            [
              642.2622950568428,
              408.6263814737673
            ],
            [
              642.427638909914,
              408.3609971211083
            ],
            [
              642.4738995734833,
              408.2599578553768
            ],
            [
              642.5068555206993,
              408.20621782253335
            ],
            [
              642.6303852046248,
              407.93267588507996
            ],
            [
              642.6652081861313,
              407.8742838958095
            ],
            [
              642.7362623015414,
              407.7106538387461
            ],
            [
              642.7381527619266,
              407.70742885525254
            ],
            [
              642.739470626273,
              407.70434389460814
            ],
            [
              642.8445668386843,
              407.52215303064355
            ],
            [
              643.0226464407266,
              407.09502188649003
            ],
            [
              643.0995767952425,
              406.9543224825524
            ],
            [
              643.1651454389305,
              406.7862648788413
            ],
            [
              643.4678729758522,
              406.193355491161
            ],
            [
              643.5830575443537,
              405.86525366184964
            ],
            [
              643.7221593975072,
              405.57445346191605
            ],
            [
              643.7664159418272,
              405.436935124659
            ],
            [
              643.9048409072643,
              405.134597116788
            ],
            [
              643.9264697872047,
              405.0626492117597
            ],
            [
              643.9380410301858,
              405.0370260568837
            ],
            [
              644.0267883934819,
              404.7387097530196
            ],
            [
              644.0570215274943,
              404.66908606669654
            ],
            [
              644.1037058818962,
              404.50205699484246
            ],
            [
              644.1741435173542,
              404.33310947089785
            ],
            [
              644.2827008452703,
              403.9218822554427
            ],
            [
              644.3338798851946,
              403.79070634075225
            ],
            [
              644.3825150577251,
              403.5880087493885
            ],
            [
              644.4365546828287,
              403.43407754070296
            ],
            [
              644.5641052434098,
              403.0759329332244
            ],
            [
              644.5667073096633,
              403.06333938096566
            ],
            [
              644.6182123522336,
              402.91662789948913
            ],
            [
              644.6830399319737,
              402.58870987462177
            ],
            [
              644.7700926105376,
              402.31821113157196
            ],
            [
              644.7945765990568,
              402.1749145431418
            ],
            [
              644.8964925461781,
              401.8358938031062
            ],
            [
              644.9506263269737,
              401.4719125769667
            ],
            [
              644.9721601236198,
              401.394868134253
            ],
            [
              644.9937538657633,
              401.22833443797293
            ],
            [
              645.0335900357358,
              401.0774306015834
            ],
            [
              645.0788896764905,
              400.6857170422702
            ],
            [
              645.10808752484,
              400.56402869972777
            ],
            [
              645.128879079411,
              400.342524890695
            ],
            [
              645.2352984439201,
              399.82747350498397
            ],
            [
              645.2381297078064,
              399.78089345388724
            ],
            [
              645.2785496409399,
              399.5764368832166
            ],
            [
              645.2942119058498,
              399.2507163519666
            ],
            [
              645.3366804399254,
              399.0021622389116
            ],
            [
              645.3401420164738,
              398.85291208989196
            ],
            [
              645.395899776059,
              398.47801165986846
            ],
            [
              645.3958542458662,
              398.1272849711727
            ],
            [
              645.4040117563741,
              398.06437320870515
            ],
            [
              645.4011281525934,
              397.8992671207269
            ],
            [
              645.4163563842715,
              397.76758605802877
            ],
            [
              645.4052039646485,
              397.3986846685396
            ],
            [
              645.4157487204454,
              397.28634561440805
            ],
            [
              645.4040042037278,
              397.0519205199333
            ],
            [
              645.435696273239,
              396.530521498254
            ],
            [
              645.4289200996003,
              396.44925534584314
            ],
            [
              645.4415770669973,
              396.18603453011804
            ],
            [
              645.4094507117221,
              395.8645820789351
            ],
            [
              645.4146777913022,
              395.63921008576506
            ],
            [
              645.397963879377,
              395.5056102899689
            ],
            [
              645.3987842016044,
              395.1637449834406
            ],
            [
              645.3954665125522,
              395.14051006250077
            ],
            [
              645.3954579183315,
              395.07430735762773
            ],
            [
              645.3459510866267,
              394.74000177485885
            ],
            [
              645.3450882867255,
              394.69060056438326
            ],
            [
              645.3184168139926,
              394.5279264338668
            ],
            [
              645.3150427285109,
              394.41631793417685
            ],
            [
              645.2547724564713,
              394.0731971469293
            ],
            [
              645.2496027873598,
              393.9700085526965
            ],
            [
              645.2015123666927,
              393.72197112093573
            ],
            [
              645.1577921941102,
              393.19763830481844
            ],
            [
              645.1312840600617,
              393.0812799816426
            ],
            [
              645.0990834364537,
              392.7590844103224
            ],
            [
              645.016992244756,
              392.42871570499176
            ],
            [
              644.9919606812684,
              392.22566464020264
            ],
            [
              644.9839027160654,
              392.195883214379
            ],
            [
              644.9788741944028,
              392.1556885866538
            ],
            [
              644.9589842358567,
              392.0836741068867
            ],
            [
              644.9174883131983,
              391.793063845753
            ],
            [
              644.9011973276329,
              391.7367058765979
            ],
            [
              644.8866745005587,
              391.63863734745604
            ],
            [
              644.7930682757301,
              391.32373079202875
            ],
            [
              644.7870560755265,
              391.28706129687436
            ],
            [
              644.7374212529849,
              391.1278984743361
            ],
            [
              644.7214349457063,
              391.03688786239724
            ],
            [
              644.6198980478486,
              390.7221611813293
            ],
            [
              644.601622068596,
              390.62789860488135
            ],
            [
              644.5126539655835,
              390.36578290623714
            ],
            [
              644.3933233194385,
              389.8419771238805
            ],
            [
              644.3365767443327,
              389.6904439937227
            ],
            [
              644.2420269675447,
              389.3099368199088
            ],
            [
              644.1213794700284,
              389.00808438016236
            ],
            [
              644.0676049158899,
              388.80933905733156
            ],
            [
              644.029855746128,
              388.71962964847995
            ],
            [
              644.0114792113291,
              388.6530947388802
            ],
            [
              644.0064895524598,
              388.64150252003304
            ],
            [
              643.9381346606847,
              388.40503168976346
            ],
            [
              643.8988545685489,
              388.315450532324
            ],
            [
              643.8602673211763,
              388.1856367600608
            ],
            [
              643.7285829685269,
              387.8928803838794
            ],
            [
              643.7208379502125,
              387.8680446150873
            ],
            [
              643.6492603028667,
              387.7135445854261
            ],
            [
              643.6266090921815,
              387.6433342430493
            ],
            [
              643.4921602201823,
              387.35922862449024
            ],
            [
              643.463119695793,
              387.2736701256281
            ],
            [
              643.3280453908985,
              386.9973138343109
            ],
            [
              643.1333960637693,
              386.4775323008854
            ],
            [
              643.0354325351349,
              386.2911135480791
            ],
            [
              642.8606885765897,
              385.85391517014216
            ],
            [
              642.7096456186197,
              385.58220249815804
            ],
            [
              642.6281315480725,
              385.3884875335995
            ],
            [
              642.5749674814577,
              385.29622804304813
            ],
            [
              642.4514006858196,
              385.01442481982735
            ],
            [
              642.3787564012392,
              384.8919897968239
            ],
            [
              642.3063459543163,
              384.7310092428426
            ],
            [
              642.1432745542514,
              384.4628811244211
            ],
            [
              642.1367946786601,
              384.44889434213013
            ],
            [
              642.0445530423541,
              384.30027151632015
            ],
            [
              642.0211125710345,
              384.2507391587435
            ],
            [
              641.8625907908657,
              383.9990559593309
            ],
            [
              641.8249298576332,
              383.9220032893728
            ],
            [
              641.637868286068,
              383.6316321275964
            ],
            [
              641.3686876795491,
              383.11939748630556
            ],
            [
              641.2179756261113,
              382.89882258533896
            ],
            [
              640.9449157858907,
              382.40761253625567
            ],
            [
              640.771900123638,
              382.167233471228
            ],
            [
              640.6636580632635,
              381.97939311247427
            ],
            [
              640.5977604954965,
              381.8902908201876
            ],
            [
              640.4476359053873,
              381.6372701214567
            ],
            [
              640.3308880972913,
              381.4828872666785
            ],
            [
              640.2146877950944,
              381.29182636712056
            ],
            [
              640.0275920614797,
              381.0504761687127
            ],
            [
              640.024996571492,
              381.0462942279699
            ],
            [
              639.9807636121914,
              380.9900682945751
            ],
            [
              639.9094436409024,
              380.89806678877426
            ],
            [
              639.8952322686058,
              380.87550355713057
            ],
            [
              639.764802544138,
              380.71148232355375
            ],
            [
              639.716631048023,
              380.6493419426902
            ],
            [
              639.677670305007,
              380.5888641218391
            ],
            [
              639.485087713846,
              380.3506551230432
            ],
            [
              639.415973049182,
              380.2614984239131
            ],
            [
              639.0897341321597,
              379.7840308612914
            ],
            [
              638.8741232477234,
              379.5305598596866
            ],
            [
              638.4844702474544,
              378.98919601628
            ],
            [
              638.2981291874446,
              378.7808828721602
            ],
            [
              638.1642711232265,
              378.59988893311566
            ],
            [
              638.0856447636953,
              378.5138629981788
            ],
            [
              637.917203970393,
              378.29112330861454
            ],
            [
              637.7452673342949,
              378.1063175014174
            ],
            [
              637.5751225133777,
              377.8868336815997
            ],
            [
              637.0390623388316,
              377.3251207166771
            ],
            [
              637.0120989525426,
              377.29176920128333
            ],
            [
              636.8549716879089,
              377.1322205344624
            ],
            [
              636.66211514338,
              376.93013497285
            ],
            [
              636.2873168922561,
              376.48952415508563
            ],
            [
              636.2828877528987,
              376.48522877887893
            ],
            [
              636.2762279568022,
              376.477399590271
            ],
            [
              635.9847291901727,
              376.19470231153787
            ],
            [
              635.4694944518512,
              375.6187145593148
            ],
            [
              635.2786499103669,
              375.4427001201933
            ],
            [
              635.1204855512555,
              375.2696508152602
            ],
            [
              635.029044986035,
              375.18679043037804
            ],
            [
              634.8509348151136,
              374.9953490095408
            ],
            [
              634.6124274372671,
              374.7823608735414
            ],
            [
              634.3780412239463,
              374.536758269443
            ],
            [
              633.8270571611733,
              374.05764447591815
            ],
            [
              633.8195782619649,
              374.05005032349686
            ],
            [
              633.7659738193413,
              374.0045288350092
            ],
            [
              633.3828060285178,
              373.6713413869125
            ],
            [
              632.9414970528011,
              373.24335725524196
            ],
            [
              632.5391311740993,
              372.91606325604
            ],
            [
              631.8911152430006,
              372.3184031932026
            ],
            [
              631.7046967941293,
              372.1743771758608
            ],
            [
              631.5238341166947,
              372.01048546076294
            ],
            [
              631.4194973925116,
              371.9310603193883
            ],
            [
              631.2407026636208,
              371.7713958411793
            ],
            [
              630.9240356283524,
              371.53329258764353
            ],
            [
              630.6150484813645,
              371.2646096725677
            ],
            [
              629.5685864473899,
              370.4997513497075
            ],
            [
              629.0676727065525,
              370.0922961698117
            ],
            [
              628.5331645025283,
              369.7240662351158
            ],
            [
              627.7422028807596,
              369.11297300404635
            ],
            [
              627.5691590179546,
              369.00003414304126
            ],
            [
              627.3676056236548,
              368.84660392024796
            ],
            [
              627.2503938803984,
              368.7710661633422
            ],
            [
              627.0801463909756,
              368.64305637191126
            ],
            [
              626.7871775449795,
              368.45623888799577
            ],
            [
              626.7341649607024,
              368.4168313476711
            ],
            [
              626.6211029812212,
              368.34543787498563
            ],
            [
              626.2797759112875,
              368.09596217326094
            ],
            [
              625.2064572949762,
              367.43225262299705
            ],
            [
              624.6498004844244,
              367.0487642135574
            ],
            [
              624.1397922100743,
              366.74989167304096
            ],
            [
              624.1275135650975,
              366.74157813902553
            ],
            [
              623.9906131060692,
              366.6624704682297
            ],
            [
              623.9607716084965,
              366.64498290059475
            ],
            [
              623.0183040144734,
              366.0298717092496
            ],
            [
              622.8674866532543,
              365.9464773341256
            ],
            [
              622.64774827079,
              365.8048657169281
            ],
            [
              622.517889887666,
              365.733841646222
            ],
            [
              622.3655480778493,
              365.6366978236121
            ],
            [
              622.1248103029927,
              365.5062345460542
            ],
            [
              622.021820021003,
              365.4412008900144
            ],
            [
              621.7531962332737,
              365.29685469794
            ],
            [
              621.3688752686691,
              365.05920159969185
            ],
            [
              620.2934239383109,
              364.4958618563377
            ],
            [
              619.6860040813281,
              364.1399046592758
            ],
            [
              619.2441031759544,
              363.91970870069383
            ],
            [
              619.2100416807652,
              363.90002633024903
            ],
            [
              618.8701840158933,
              363.73254793368835
            ],
            [
              618.7903847858406,
              363.6868829328958
            ],
            [
              618.7177991153009,
              363.65167632627714
            ],
            [
              618.0664735399442,
              363.2880616404583
            ],
            [
              618.0196659426554,
              363.26587759667615
            ],
            [
              617.7187642919152,
              363.09949419800375
            ],
            [
              617.5987816144856,
              363.0434100746986
            ],
            [
              617.3639525654987,
              362.9149738923227
            ],
            [
              617.2219891521431,
              362.84924348173735
            ],
            [
              617.0968828893582,
              362.7814445121077
            ],
            [
              616.9262307807946,
              362.7030632536613
            ],
            [
              616.7640463245817,
              362.6159127117591
            ],
            [
              616.3044349738748,
              362.4063614242728
            ],
            [
              615.88320514107,
              362.185714055857
            ],
            [
              614.8304844192104,
              361.72043506002916
            ],
            [
              614.1785844560291,
              361.3955981213635
            ],
            [
              613.8283604263545,
              361.24798860843873
            ],
            [
              613.769659688004,
              361.2190614823139
            ],
            [
              613.283553356569,
              361.01587574377174
            ],
            [
              613.0976389436372,
              360.9257007057488
            ],
            [
              612.9841379393157,
              360.8793339551766
            ],
            [
              612.3755143774597,
              360.5908822395582
            ],
            [
              612.2136005903677,
              360.5261870633321
            ],
            [
              611.8480504688409,
              360.3553160798711
            ],
            [
              611.7670837204537,
              360.3235703857557
            ],
            [
              611.5209223629053,
              360.2095953359969
            ],
            [
              611.3678124468928,
              360.15005744758366
            ],
            [
              611.2790478245649,
              360.1092874690479
            ],
            [
              611.1953500812431,
              360.0769687417633
            ],
            [
              610.9658974816919,
              359.9723540763932
            ],
            [
              610.9628426200218,
              359.97118198139515
            ],
            [
              610.9615754824151,
              359.97060425450553
            ],
            [
              610.2778228109245,
              359.7082605322063
            ],
            [
              609.8292183720325,
              359.50998741140995
            ],
            [
              608.8075573096951,
              359.13186224430325
            ],
            [
              608.1352900429499,
              358.84852062467206
            ],
            [
              607.8990918242381,
              358.7652451258141
            ],
            [
              607.8140562645577,
              358.7297014353124
            ],
            [
              607.1642764105435,
              358.5018389763379
            ],
            [
              606.852582351874,
              358.3745075861064
            ],
            [
              606.6921558008811,
              358.3200077743513
            ],
            [
              606.1487179556428,
              358.10286871659656
            ],
            [
              605.8498202533339,
              358.00351135227675
            ],
            [
              605.4172716773048,
              357.83391636351297
            ],
            [
              605.3828526733729,
              357.8227629363256
            ],
            [
              605.1298328261545,
              357.7243743549563
            ],
            [
              605.1261710992706,
              357.723196139322
            ],
            [
              605.0623491663519,
              357.6983785792018
            ],
            [
              604.920228300766,
              357.6526469383309
            ],
            [
              604.6341023848782,
              357.54286552035853
            ],
            [
              603.7811159318518,
              357.27153492437753
            ],
            [
              603.3757021254427,
              357.12148793820603
            ],
            [
              603.3593896044915,
              357.1165067297846
            ],
            [
              603.2530536684387,
              357.07715381846714
            ],
            [
              602.192139854877,
              356.7531669873519
            ],
            [
              601.5707499491444,
              356.53408593471465
            ],
            [
              601.4690150136311,
              356.5046452215747
            ],
            [
              601.3573706134337,
              356.46549416540864
            ],
            [
              600.5284727685623,
              356.226092752767
            ],
            [
              600.0720673140345,
              356.07104353427894
            ],
            [
              599.8599089889323,
              356.01238933580765
            ],
            [
              599.4033110819045,
              355.86061043538444
            ],
            [
              599.075936610398,
              355.7720712212624
            ],
            [
              598.1391442590475,
              355.47063025266857
            ],
            [
              598.0325161571371,
              355.4429349537951
            ],
            [
              597.7964538640027,
              355.3678447545814
            ],
            [
              597.0680598309311,
              355.1804455809015
            ],
            [
              596.8969183301637,
              355.1274985535841
            ],
            [
              596.7377452091805,
              355.0874783948069
            ],
            [
              596.2895465435435,
              354.9506053863365
            ],
            [
              595.5407705955008,
              354.7670381056801
            ],
            [
              595.4478891465817,
              354.73922893665883
            ],
            [
              595.0800851535396,
              354.6524951137635
            ],
            [
              594.4216262138406,
              354.46231968827965
            ],
            [
              594.4121050839616,
              354.4598480328361
            ],
            [
              594.4097300073211,
              354.46801330698696
            ],
            [
              594.3878386285096,
              354.46314405913944
            ],
            [
              594.3848643379918,
              354.462372036089
            ],
            [
              593.6197380997517,
              354.28720498754143
            ],
            [
              592.7823164112311,
              354.05568780386307
            ],
            [
              592.5152692308918,
              353.99772293068753
            ],
            [
              592.1656026285581,
              353.9031547561044
            ],
            [
              592.1511098733868,
              353.9000809126288
            ],
            [
              592.0882897637947,
              353.88309123616574
            ],
            [
              591.7543395850179,
              353.81225811140285
            ],
            [
              590.7160076545135,
              353.5425645444324
            ],
            [
              590.6511229515665,
              353.5295140601057
            ],
            [
              590.4769376590289,
              353.4847001566314
            ],
            [
              589.9227040572327,
              353.3740042398218
            ],
            [
              589.8207953784697,
              353.34838181387556
            ],
            [
              589.4853473468437,
              353.28251181730326
            ],
            [
              588.8479170302587,
              353.12624164045354
            ],
            [
              587.6654201583648,
              352.9040033826508
            ],
            [
              587.4611195903341,
              352.85582617516883
            ],
            [
              587.0608106661817,
              352.78561230549724
            ],
            [
              586.5036330842042,
              352.6580527634567
            ],
            [
              585.7635958139379,
              352.5322145031465
            ],
            [
              585.0207451019554,
              352.3709724063251
            ],
            [
              584.8816088149379,
              352.348695742888
            ],
            [
              584.8745069382427,
              352.3471160891768
            ],
            [
              584.8238568192436,
              352.3394492565977
            ],
            [
              584.7698973355366,
              352.3308099772032
            ],
            [
              584.3915023028344,
              352.2505497939023
            ],
            [
              583.9629698494865,
              352.1836790052387
            ],
            [
              583.5192066693894,
              352.09504711444873
            ],
            [
              582.8337791587355,
              351.95718471270874
            ],
            [
              582.8162933949743,
              351.9546557179394
            ],
            [
              582.7148919304562,
              351.9344030157513
            ],
            [
              582.3578083409725,
              351.8829180632063
            ],
            [
              582.3396159760325,
              351.8793457333557
            ],
            [
              581.8106469679161,
              351.8036583207622
            ],
            [
              580.9704209311219,
              351.64574638457225
            ],
            [
              579.3013519356834,
              351.42460936208766
            ],
            [
              578.9925911498055,
              351.37045296368746
            ],
            [
              578.7976834257635,
              351.347708895667
            ],
            [
              578.1661792648957,
              351.2403259459559
            ],
            [
              577.4667406716189,
              351.16152505162876
            ],
            [
              576.8377852166352,
              351.06082501653043
            ],
            [
              576.6249314339238,
              351.0386072323966
            ],
            [
              576.2888451689837,
              350.986162304553
            ],
            [
              575.7847052808062,
              350.9351962717484
            ],
            [
              574.5623404034153,
              350.75895351078685
            ],
            [
              574.551812505584,
              350.7577221052196
            ],
            [
              574.5308540126274,
              350.75585609722674
            ],
            [
              574.5096944766032,
              350.7527957299606
            ],
            [
              574.5044289986189,
              350.7521798483288
            ],
            [
              573.8787787728462,
              350.6966542720491
            ],
            [
              573.6347896592657,
              350.6738394940133
            ],
            [
              572.7125098659704,
              350.55164549967157
            ],
            [
              572.129299630154,
              350.5063470163406
            ],
            [
              572.1079014268947,
              350.503583783852
            ],
            [
              571.838177934729,
              350.4837353225489
            ],
            [
              570.5905085036163,
              350.3868276733816
            ],
            [
              569.44025289754,
              350.25723635351625
            ],
            [
              568.7982770805203,
              350.22158996808196
            ],
            [
              568.7920990551121,
              350.2210122772342
            ],
            [
              568.2985819931307,
              350.16949871985713
            ],
            [
              568.1787959843126,
              350.1636639258133
            ],
            [
              567.3302089422851,
              350.0843147912413
            ],
            [
              566.6126342267573,
              350.05086927309924
            ],
            [
              565.9297977845606,
              349.9900739544792
            ],
            [
              565.909659824344,
              349.98940619024296
            ],
            [
              565.7899867549414,
              349.97878537389846
            ],
            [
              565.0146044130894,
              349.95374199864176
            ],
            [
              564.1443020365771,
              349.88614480080236
            ],
            [
              563.5312589585508,
              349.872444261122
            ],
            [
              563.403366398533,
              349.86303288019985
            ],
            [
              562.0919244881175,
              349.8401630200829
            ],
            [
              561.0770440346769,
              349.79286034639364
            ],
            [
              560.4113451037846,
              349.755896710005
            ],
            [
              560.2908860597125,
              349.7562182236418
            ],
            [
              559.9106761396777,
              349.7384969780287
            ],
            [
              559.8938280250031,
              349.7381091758217
            ],
            [
              559.4948531198426,
              349.7406677962734
            ],
            [
              559.4843965617978,
              349.7401584557961
            ],
            [
              559.3620355539324,
              349.7411513717343
            ],
            [
              559.1359843165483,
              349.73072347282783
            ],
            [
              558.4542408005742,
              349.7375508309865
            ],
            [
              556.9432028322292,
              349.6874268363279
            ],
            [
              556.8436500785572,
              349.6898357107065
            ],
            [
              556.8219490455647,
              349.6891348086035
            ],
            [
              556.1277390649188,
              349.70698734347854
            ],
            [
              555.3516896960072,
              349.68964387194603
            ],
            [
              554.7191070669415,
              349.71159056729033
            ],
            [
              554.4761601176357,
              349.7073538849767
            ],
            [
              552.7784803953148,
              349.77626936121214
            ],
            [
              551.1838205516256,
              349.78052562017666
            ],
            [
              550.947869557974,
              349.79547948150366
            ],
            [
              550.7050167160746,
              349.7970368933577
            ],
            [
              550.3873610019161,
              349.818337045076
            ],
            [
              550.2600130772394,
              349.81961237791205
            ],
            [
              549.7844398988096,
              349.85226428864496
            ],
            [
              549.6561467731668,
              349.85390555488726
            ],
            [
              549.4556068313541,
              349.8686039255791
            ],
            [
              547.9199031456488,
              349.90576329204225
            ],
            [
              547.7106912898615,
              349.923442945009
            ],
            [
              547.706864337131,
              349.92354136020487
            ],
            [
              547.6076549092852,
              349.93215013536314
            ],
            [
              547.0824072253145,
              349.97653670581747
            ],
            [
              546.4368811642088,
              349.9989324580063
            ],
            [
              545.7963962009848,
              350.0596995342072
            ],
            [
              545.4341512615375,
              350.0744044766037
            ],
            [
              543.6091286396041,
              350.2605867154745
            ],
            [
              541.8812234519248,
              350.3700961274233
            ],
            [
              541.5776508634508,
              350.4090651641773
            ],
            [
              541.4499534479176,
              350.4176278129939
            ],
            [
              541.3416563295197,
              350.4319290550929
            ],
            [
              541.3275678727442,
              350.43289634057396
            ],
            [
              540.786472194054,
              350.50399931511714
            ],
            [
              540.4708306464962,
              350.5271339407092
            ],
            [
              540.3198267269587,
              350.54801520043924
            ],
            [
              538.8703004693201,
              350.67050883786624
            ],
            [
              538.022915847768,
              350.7972214123164
            ],
            [
              537.5181581056144,
              350.84511114266854
            ],
            [
              536.8824159745654,
              350.9468217293298
            ],
            [
              536.4020859494229,
              350.9958232695865
            ],
            [
              534.4796347634363,
              351.32022401305863
            ],
            [
              532.6454655362993,
              351.55567283398494
            ],
            [
              532.2827062484434,
              351.62821423932206
            ],
            [
              532.2695031423149,
              351.62995778356355
            ],
            [
              532.0324532537747,
              351.67825762767666
            ],
            [
              531.7769817352531,
              351.7293445704431
            ],
            [
              531.3729807308446,
              351.7852110004808
            ],
            [
              531.2673296740036,
              351.8074093414571
            ],
            [
              529.9305326258735,
              352.0073055765104
            ],
            [
              529.0917498995522,
              352.1932283748529
            ],
            [
              528.728634626159,
              352.2513221611218
            ],
            [
              528.1108636960802,
              352.39491141438697
            ],
            [
              527.5201419321909,
              352.49459174997907
            ],
            [
              525.5391303453162,
              352.9767351163009
            ],
            [
              523.6346303037012,
              353.3575802499868
            ],
            [
              522.8844756919989,
              353.5687305871272
            ],
            [
              522.5167955185052,
              353.6459838594092
            ],
            [
              522.4510096167169,
              353.6652007673614
            ],
            [
              521.2503347052759,
              353.9313398191393
            ],
            [
              520.4406194752225,
              354.1777156649776
            ],
            [
              520.2138430332212,
              354.2304255909049
            ],
            [
              519.6273604626039,
              354.41555589404993
            ],
            [
              518.9411960247368,
              354.5825562458403
            ],
            [
              516.949265396434,
              355.2393483975747
            ],
            [
              515.0192053684149,
              355.7826135048713
            ],
            [
              514.4117354078779,
              356.01215246003324
            ],
            [
              514.2946729765179,
              356.0477715943526
            ],
            [
              514.0676540814395,
              356.11408673317936
            ],
            [
              514.0352055063919,
              356.1267209768619
            ],
            [
              512.9893102360999,
              356.4449604298219
            ],
            [
              512.2301115338848,
              356.75058681433023
            ],
            [
              512.128048805241,
              356.7828041466736
            ],
            [
              511.58572799723873,
              357.0078483740663
            ],
            [
              510.82671068978294,
              357.2581164323396
            ],
            [
              508.98045961837647,
              358.0587810498078
            ],
            [
              508.7522981899081,
              358.150630722699
            ],
            [
              506.9766909099351,
              358.8215627297265
            ],
            [
              506.5133374084661,
              359.0519566689656
            ],
            [
              506.24866626485255,
              359.15850385413387
            ],
            [
              506.19685824344594,
              359.17867593151925
            ],
            [
              506.1904997839569,
              359.18191960970864
            ],
            [
              505.3118358610414,
              359.5356384413818
            ],
            [
              504.0624807367927,
              360.1915633895951
            ],
            [
              503.34128242521234,
              360.5043258189271
            ],
            [
              501.69728979094924,
              361.4333142085492
            ],
            [
              501.21733394362377,
              361.68529621765947
            ],
            [
              499.6847225998025,
              362.44735879772054
            ],
            [
              499.3545467046619,
              362.66327965849973
            ],
            [
              498.38076404693925,
              363.17452608231235
            ],
            [
              497.85066312405763,
              363.53856360781276
            ],
            [
              497.82553034138186,
              363.5520684869099
            ],
            [
              497.62664744998045,
              363.6924024489619
            ],
            [
              497.2883633621757,
              363.92471312213803
            ],
            [
              496.64606665654594,
              364.28766254769937
            ],
            [
              495.2328910618576,
              365.3362727283544
            ],
            [
              494.5496724567079,
              365.8054611407226
            ],
            [
              493.3130720546794,
              366.61414471569486
            ],
            [
              493.0994337113297,
              366.8013872021012
            ],
            [
              492.35027277412513,
              367.3158603562034
            ],
            [
              491.8808256884405,
              367.74671766654933
            ],
            [
              491.83087229034487,
              367.78196533527705
            ],
            [
              491.4933640839637,
              368.1023289161311
            ],
            [
              491.4435129286022,
              368.1480821764395
            ],
            [
              490.89147886029167,
              368.5577046934748
            ],
            [
              489.73637117216987,
              369.7148924261326
            ],
            [
              488.9132361296391,
              370.4703636203771
            ],
            [
              488.66056718798274,
              370.6918143212859
            ],
            [
              488.42550721320885,
              370.8935892984912
            ],
            [
              488.41207315106107,
              370.90960594333643
            ],
            [
              488.01511082148875,
              371.257522016972
            ],
            [
              487.89624561635304,
              371.4037548598711
            ],
            [
              487.3583855353937,
              371.8974014387572
            ],
            [
              486.9752444002254,
              372.39093871376286
            ],
            [
              486.90922170134667,
              372.4536076143399
            ],
            [
              486.63901338125504,
              372.8178277421664
            ],
            [
              486.2097367067254,
              373.24787743083914
            ],
            [
              485.33780423128167,
              374.5001817179046
            ],
            [
              484.5588647535544,
              375.5035604521109
            ],
            [
              484.29525527341013,
              375.8178465832782
            ],
            [
              484.2677805104694,
              375.8676412190267
            ],
            [
              483.91949798142736,
              376.29611264843135
            ],
            [
              483.86949655101864,
              376.391559345799
            ],
            [
              483.51981220636907,
              376.8419997781398
            ],
            [
              483.24629710412904,
              377.390949530697
            ],
            [
              483.17581869121625,
              377.4859490353275
            ],
            [
              483.00934756842355,
              377.84440428480127
            ],
            [
              482.7079155596969,
              378.27733298907583
            ],
            [
              482.14119747604934,
              379.60890445327794
            ],
            [
              481.5611160809897,
              380.7731382951474
            ],
            [
              481.4133906471979,
              381.0408725128265
            ],
            [
              481.3934134391266,
              381.10972052767835
            ],
            [
              481.30799652012126,
              381.28115382761746
            ],
            [
              481.12292926419826,
              381.63442488847977
            ],
            [
              481.11305717154454,
              381.6724006227302
            ],
            [
              480.91980638262606,
              382.0602584480905
            ],
            [
              480.7754589630433,
              382.6545424271314
            ],
            [
              480.7146078338725,
              382.78557059780474
            ],
            [
              480.64279279408527,
              383.12958426546453
            ],
            [
              480.46220716013903,
              383.55389166613253
            ],
            [
              480.21872250671026,
              384.9466482196066
            ],
            [
              479.90347083575347,
              386.2445516940677
            ],
            [
              479.84006932846336,
              386.46305409473206
            ],
            [
              479.83779107069415,
              386.5149578588787
            ],
            [
              479.6096753567089,
              387.4541191862919
            ],
            [
              479.6090717239501,
              388.081390707798
            ],
            [
              479.5737588869344,
              388.2505488480131
            ],
            [
              479.5848204881144,
              388.57263112293697
            ],
            [
              479.51398178338565,
              388.9778355941092
            ],
            [
              479.6068291762245,
              390.4117584389783
            ],
            [
              479.60548614958736,
              391.80737910247075
            ],
            [
              479.5979416059062,
              391.97926053792133
            ],
            [
              479.6052845217378,
              392.0169028839087
            ],
            [
              479.6044144209831,
              392.9210775061526
            ],
            [
              479.7563541773125,
              393.5672028887718
            ],
            [
              479.76348892784466,
              393.7749464737495
            ],
            [
              479.84364397775926,
              394.0690948867697
            ],
            [
              479.8680638892673,
              394.4462327675497
            ],
            [
              480.30565872745666,
              395.90312615984243
            ],
            [
              480.64423508876087,
              397.34292563210914
            ],
            [
              480.67166137456684,
              397.4835223330017
            ],
            [
              480.68396888031606,
              397.5118939910497
            ],
            [
              480.8838757355443,
              398.36199995689947
            ],
            [
              480.8854539464262,
              398.36534348381366
            ],
            [
              480.88624340547517,
              398.3687012084591
            ],
            [
              481.0119694770592,
              398.6333736212061
            ],
            [
              481.1904293362104,
              399.0114506867344
            ],
            [
              481.25639096544927,
              399.2535128971121
            ],
            [
              481.3906471140474,
              399.5154000561467
            ],
            [
              481.49337091046226,
              399.85740048022234
            ],
            [
              482.2717138663017,
              401.3022116685166
            ],
            [
              482.9691587810814,
              402.77978723090644
            ]
          ]
        ]
      }
    }
  ]
}