{
  "type": "FeatureCollection",
  "features": [
    {
      "type": "Feature",
      "properties": {
        "method": "Homography",
        "mode": "tmpl2img",
        "inside_ratio": 1.0
      },
      "geometry": {
        "type": "Polygon",
        "coordinates": [
          [
            [
              567.2735000177081,
              424.1090851075793
            ],
            [
              569.2271022476103,
              423.02042141153925
            ],
            [
              569.4867053991383,
              422.91493211900377
            ],
            [
              569.6435890090551,
              422.8199602773159
            ],
            [
              570.3640826994649,
              422.5115785602136
            ],
            [
              571.556772064942,
              421.7688426685591
            ],
            [
              573.7750346649265,
              420.6576487558386
            ],
            [
              574.227426030885,
              420.34071972147376
            ],
            [
              574.2908381697458,
              420.3083684424949
            ],
            [
              574.9909471141785,
              419.80846323492676
            ],
            [
              576.3551357159483,
              419.04825597132526
            ],
            [
              578.2388945897947,
              417.6166633777727
            ],
            [
              578.6155738472711,
              417.38863495062725
            ],
            [
              578.6977096217278,
              417.32189212428256
            ],
            [
              579.2525264968448,
              416.97638522331016
            ],
            [
              580.5001551284296,
              415.9462725128814
            ],
            [
              582.680176198202,
              414.41902857236335
            ],
            [
              583.1944866447444,
              413.95081470131186
            ],
            [
              583.3473982911136,
              413.8416297966684
            ],
            [
              583.9826687148656,
              413.2515906443808
            ],
            [
              585.2148217793898,
              412.3151962757241
            ],
            [
              586.9742700901593,
              410.60087730295305
            ],
            [
              587.3146641592056,
              410.3198287214455
            ],
            [
              587.4951322918403,
              410.1731818636488
            ],
            [
              587.5064987580878,
              410.16143923473834
            ],
            [
              587.8972192532319,
              409.8388383115704
            ],
            [
              589.1877328628786,
              408.49473067479875
            ],
            [
              591.3014134950377,
              406.5704948409673
            ],
            [
              591.6756048194285,
              406.1455273591289
            ],
            [
              592.0482529312345,
              405.80141661977984
            ],
            [
              592.8561898313793,
              404.8698270942809
            ],
            [
              593.7633681059242,
              403.98591767889496
            ],
            [
              593.8068952039057,
              403.9334166953866
            ],
            [
              593.8211041743552,
              403.9195722091537
            ],
            [
              595.3434207825976,
              402.08340182053746
            ],
            [
              596.2139289082062,
              401.17674216911746
            ],
            [
              597.532392691753,
              399.49399849873396
            ],
            [
              599.553205496393,
              397.19897006594573
            ],
            [
              599.7751592162261,
              396.89192757559033
            ],
            [
              600.3787768876074,
              396.19592780136423
            ],
            [
              601.2363571606624,
              394.9899752634631
            ],
            [
              601.451803282607,
              394.73351310625264
            ],
            [
              601.5270005427262,
              394.62496249866456
            ],
            [
              601.9732661865992,
              394.0866909221454
            ],
            [
              602.0652733374548,
              393.9520923831714
            ],
            [
              602.0871437941906,
              393.9257250239506
            ],
            [
              602.6366881190581,
              393.12206388462846
            ],
            [
              602.6681972107099,
              393.0835013875505
            ],
            [
              603.1173553294398,
              392.4191295798435
            ],
            [
              603.4030247803913,
              392.00136266637867
            ],
            [
              604.1226179775888,
              391.0829522307043
            ],
            [
              604.1442817895404,
              391.05255439483915
            ],
            [
              605.3511275105226,
              389.203674083008
            ],
            [
              606.4590928996975,
              387.6456232334494
            ],
            [
              607.3547651060934,
              386.40658373916216
            ],
            [
              607.4346404930772,
              386.27378186419844
            ],
            [
              608.2405436777581,
              385.1404990434421
            ],
            [
              609.0702245770577,
              383.73598129780606
            ],
            [
              609.1163809874107,
              383.66935245548086
            ],
            [
              609.2031680861959,
              383.5191537404687
            ],
            [
              609.7667479797235,
              382.6949667935087
            ],
            [
              610.1709456632549,
              381.9858180900743
            ],
            [
              610.2119211130798,
              381.92520929211094
            ],
            [
              610.9203780506193,
              380.6716160942032
            ],
            [
              611.2714419547667,
              380.13378832611573
            ],
            [
              612.2726240438191,
              378.31482855884565
            ],
            [
              615.5558507617482,
              372.7568481446661
            ],
            [
              616.3576327123168,
              371.131522585616
            ],
            [
              616.895808824778,
              370.1873140759812
            ],
            [
              617.1678741932836,
              369.61685997085885
            ],
            [
              617.2162266411938,
              369.5313017716625
            ],
            [
              617.7157179863444,
              368.4776149899901
            ],
            [
              617.7535798259651,
              368.40970746875183
            ],
            [
              618.1267181308566,
              367.61060213028185
            ],
            [
              618.4558691692315,
              366.9162515641253
            ],
            [
              619.0039255431557,
              365.7671122596722
            ],
            [
              622.2537219855611,
              359.17931464726706
            ],
            [
              622.9307605088607,
              357.53350598145244
            ],
            [
              623.4067614346599,
              356.5354492142905
            ],
            [
              623.4602219386426,
              356.4011365021249
            ],
            [
              623.4803827194571,
              356.3588231905531
            ],
            [
              623.5839539947058,
              356.0984561240849
            ],
            [
              623.6165873991238,
              356.0296153179185
            ],
            [
              624.0794292693133,
              354.86239808240003
            ],
            [
              624.1557463055574,
              354.69895908331415
            ],
            [
              624.8175427019822,
              353.000987575166
            ],
            [
              625.2751756905794,
              351.8469063517108
            ],
            [
              625.4248692893965,
              351.4705927155137
            ],
            [
              628.2705540545431,
              344.55303561135054
            ],
            [
              628.8254584122695,
              342.9218767508052
            ],
            [
              628.9662800109594,
              342.567866370454
            ],
            [
              629.2392381214862,
              341.88209385805885
            ],
            [
              629.2400278922337,
              341.87969358670006
            ],
            [
              629.2976057626065,
              341.7349490022034
            ],
            [
              629.7794220861215,
              340.2702899366161
            ],
            [
              629.87954645674,
              340.0134007642175
            ],
            [
              630.6013409848409,
              337.77176320056606
            ],
            [
              631.3004663900575,
              335.64651274147434
            ],
            [
              633.550638352636,
              329.0320612899226
            ],
            [
              633.9429264646325,
              327.6137772055394
            ],
            [
              634.3867505110766,
              326.2646097294438
            ],
            [
              634.770313208488,
              324.8244154793966
            ],
            [
              634.8739319977316,
              324.5026123051578
            ],
            [
              635.7389340660966,
              321.18745547496326
            ],
            [
              636.2196057900265,
              319.38263801573396
            ],
            [
              638.0465584812832,
              312.77744696968654
            ],
            [
              638.3312457466742,
              311.4735659349385
            ],
            [
              638.7131081734543,
              310.0436449492962
            ],
            [
              638.7365144818899,
              309.9321949707613
            ],
            [
              638.8105336412676,
              309.6542691754579
            ],
            [
              638.9951179875394,
              308.76671319610494
            ],
            [
              639.0163196457844,
              308.68650658461183
            ],
            [
              639.0703126710783,
              308.4198067720445
            ],
            [
              639.0957619359302,
              308.32227139350135
            ],
            [
              639.5902470553568,
              305.90509262357745
            ],
            [
              640.4005329692038,
              302.00891116296003
            ],
            [
              640.4709383998695,
              301.6736731755446
            ],
            [
              641.7194668756875,
              295.95535416748135
            ],
            [
              641.8760142304159,
              294.9993322363408
            ],
            [
              642.1763404952427,
              293.5769473737121
            ],
            [
              642.1914571912189,
              293.4813611401698
            ],
            [
              642.2261578309028,
              293.3161327977255
            ],
            [
              642.2293541186278,
              293.2956914711171
            ],
            [
              642.2631586963465,
              293.1347558632674
            ],
            [
              642.3149639585382,
              292.80355487972287
            ],
            [
              642.3790660208792,
              292.4953263117415
            ],
            [
              642.6278749244216,
              290.87040763208165
            ],
            [
              642.6605760941165,
              290.7088788981537
            ],
            [
              642.6735127885452,
              290.6217154307922
            ],
            [
              642.7275532877263,
              290.35478111987067
            ],
            [
              643.0696549658596,
              287.9852349900637
            ],
            [
              643.1173632099136,
              287.6736624706092
            ],
            [
              643.7892459989822,
              283.37818685350834
            ],
            [
              644.0796012136686,
              281.54220620024716
            ],
            [
              644.5392464014719,
              278.73519051575187
            ],
            [
              644.5768257949363,
              278.3981444945497
            ],
            [
              644.841247466252,
              276.7261474086597
            ],
            [
              644.8663709223932,
              276.49192049816975
            ],
            [
              644.9356244810937,
              276.04916920630126
            ],
            [
              645.0189912383192,
              275.2545293084192
            ],
            [
              645.0640406213219,
              274.96032125198195
            ],
            [
              645.2023603798677,
              273.58311831570234
            ],
            [
              645.239667558445,
              273.3317540233655
            ],
            [
              645.3490419206527,
              272.19720212614453
            ],
            [
              645.4319943886625,
              271.62263698338785
            ],
            [
              645.4359398871155,
              271.5886957140876
            ],
            [
              645.6720795358118,
              269.0293859139412
            ],
            [
              645.9072912698679,
              266.78738161190023
            ],
            [
              646.6702974182346,
              259.67384707951067
            ],
            [
              646.6905319930559,
              259.32164407997544
            ],
            [
              646.7491168797864,
              258.76322139494016
            ],
            [
              646.818208819399,
              257.49466328369607
            ],
            [
              646.8450005231367,
              257.2279073736481
            ],
            [
              646.8991318981126,
              256.1179538528401
            ],
            [
              646.9321192505458,
              255.77577253594316
            ],
            [
              647.0324610963328,
              253.56089813957558
            ],
            [
              647.2324450012688,
              249.88910652110457
            ],
            [
              647.6524238519527,
              242.5789548492133
            ],
            [
              647.6560575722561,
              242.11139516965613
            ],
            [
              647.6925038351256,
              241.4422259054766
            ],
            [
              647.6996208566617,
              239.7040804139689
            ],
            [
              647.7107394888743,
              239.47609498103287
            ],
            [
              647.708296532459,
              238.64298834671504
            ],
            [
              647.7277607107451,
              238.21334994616356
            ],
            [
              647.7147536009815,
              236.008305276021
            ],
            [
              647.7272975705816,
              232.9447703331873
            ],
            [
              647.7843898215046,
              225.5985707590632
            ],
            [
              647.7597404256828,
              225.0214555076522
            ],
            [
              647.7629012315765,
              224.24951172492126
            ],
            [
              647.6596730346826,
              222.06121129340357
            ],
            [
              647.6591432428658,
              221.88053959610937
            ],
            [
              647.6281341570246,
              221.32404822510466
            ],
            [
              647.6251286028793,
              220.81452833436273
            ],
            [
              647.4973226020915,
              218.61959812627774
            ],
            [
              647.3808607358671,
              216.15076151217514
            ],
            [
              647.0706006718073,
              208.8866558839038
            ],
            [
              647.0062210481269,
              208.2088985823419
            ],
            [
              646.9654689258855,
              207.3450078105895
            ],
            [
              646.7040859470562,
              204.7410100140563
            ],
            [
              646.6969502731743,
              204.61295267724074
            ],
            [
              646.6648877612563,
              204.32342762516225
            ],
            [
              646.631234885002,
              203.74547577455587
            ],
            [
              646.3852734226532,
              201.5648769894632
            ],
            [
              646.1959576587129,
              199.67884051383402
            ],
            [
              645.5228606731299,
              192.59280349457316
            ],
            [
              645.4077405608389,
              191.82631853493663
            ],
            [
              645.3131466836137,
              190.88393793719425
            ],
            [
              644.847599416306,
              187.91328158931776
            ],
            [
              644.8394443278985,
              187.83964099611504
            ],
            [
              644.8325125267601,
              187.79870203427816
            ],
            [
              644.7612715116463,
              187.16710686648145
            ],
            [
              644.3925046091657,
              185.00932237283612
            ],
            [
              644.1853100287342,
              183.68721409548382
            ],
            [
              643.1600826029032,
              176.8611140644256
            ],
            [
              642.9838445643487,
              176.02066494125356
            ],
            [
              642.8263399157688,
              175.01562803744395
            ],
            [
              642.16635251134,
              171.9833256105517
            ],
            [
              642.03826249568,
              171.23382600062948
            ],
            [
              641.5413530778674,
              169.1117749018822
            ],
            [
              641.3698853862804,
              168.32396911356568
            ],
            [
              640.007958752245,
              161.82917346825647
            ],
            [
              639.7610465930348,
              160.9321829303144
            ],
            [
              639.5325644506365,
              159.88242508614573
            ],
            [
              638.6794688980124,
              156.890101795289
            ],
            [
              638.4926733598221,
              156.0923916637328
            ],
            [
              637.8621935359614,
              154.0234216287452
            ],
            [
              637.7779777109279,
              153.7280256744954
            ],
            [
              636.0986010485976,
              147.62713141108034
            ],
            [
              635.7724590064574,
              146.69345573567563
            ],
            [
              635.4660586845017,
              145.61872405181134
            ],
            [
              634.4175387135003,
              142.71951095790257
            ],
            [
              634.1619869575903,
              141.88089740456294
            ],
            [
              633.387974252321,
              139.86718029180082
            ],
            [
              631.4701570422351,
              134.3768753089881
            ],
            [
              631.0573981794015,
              133.4285449262747
            ],
            [
              630.6673703894214,
              132.35009748888353
            ],
            [
              629.5268803206786,
              129.82193055468505
            ],
            [
              629.2354604034792,
              129.06375530734002
            ],
            [
              628.3437734819689,
              127.19388110752874
            ],
            [
              626.1664074553792,
              122.19129353552145
            ],
            [
              625.6609697719629,
              121.25222224429017
            ],
            [
              625.1829242809214,
              120.19252094857227
            ],
            [
              624.3747758113005,
              118.74738951218423
            ],
            [
              624.3488217493352,
              118.69142884370952
            ],
            [
              624.1669707351716,
              118.3757923868694
            ],
            [
              623.9749354677247,
              118.03239484013125
            ],
            [
              623.6572091678187,
              117.36612039286224
            ],
            [
              622.6453618081608,
              115.64941311938604
            ],
            [
              620.2363498879971,
              111.1736211298283
            ],
            [
              619.6336387245583,
              110.26928616151946
            ],
            [
              619.0645752148428,
              109.25168655195401
            ],
            [
              618.1639161777989,
              107.95636811555883
            ],
            [
              618.0833006553199,
              107.81644479428941
            ],
            [
              617.7790420385294,
              107.39318112599884
            ],
            [
              617.4751089270242,
              106.87752609347709
            ],
            [
              616.3400962817108,
              105.32750677946618
            ],
            [
              613.7337721593888,
              101.4168607094201
            ],
            [
              613.0307874785369,
              100.57395594116907
            ],
            [
              612.3691506458002,
              99.6223967468861
            ],
            [
              612.358209116492,
              99.6099036470173
            ],
            [
              612.3474205531566,
              99.59438764386974
            ],
            [
              611.3736812616561,
              98.48248361648477
            ],
            [
              611.2375098987269,
              98.29305137899807
            ],
            [
              610.9898274890777,
              98.02096266420784
            ],
            [
              610.7448665233151,
              97.68643403176792
            ],
            [
              610.6980491547166,
              97.63574103646145
            ],
            [
              610.6907085150068,
              97.62571635108864
            ],
            [
              610.5957589253644,
              97.52290667523467
            ],
            [
              610.5892595739314,
              97.51405639232233
            ],
            [
              610.175211256858,
              97.0675453657987
            ],
            [
              609.4658382118718,
              96.29944923106014
            ],
            [
              606.7168176777587,
              93.0032714063385
            ],
            [
              605.927861051884,
              92.26395112437744
            ],
            [
              605.1362808454785,
              91.36005289722192
            ],
            [
              604.064752525839,
              90.41349975031557
            ],
            [
              603.8753425696432,
              90.20542558136341
            ],
            [
              603.7058229534431,
              90.06261025447141
            ],
            [
              603.472251883646,
              89.80970378006967
            ],
            [
              603.35213710566,
              89.70952042546816
            ],
            [
              603.3365482751249,
              89.69270938088995
            ],
            [
              602.537799717201,
              89.03031131634673
            ],
            [
              601.985877197803,
              88.56997287686072
            ],
            [
              599.2475442061802,
              86.00391911294165
            ],
            [
              598.3908277011298,
              85.40133973571886
            ],
            [
              598.2763950961021,
              85.30025370708148
            ],
            [
              597.9270890696607,
              84.98581630228972
            ],
            [
              597.9000708213624,
              84.96782112457446
            ],
            [
              597.4747639097513,
              84.5921188793088
            ],
            [
              596.3157116370993,
              83.83665725358406
            ],
            [
              596.0648175685159,
              83.62528632670686
            ],
            [
              596.0370884805326,
              83.60830521667357
            ],
            [
              595.8291149729698,
              83.43484210082917
            ],
            [
              595.6833372967513,
              83.34594094062749
            ],
            [
              595.6572319924369,
              83.32429194626127
            ],
            [
              594.5429960819102,
              82.65051445537013
            ],
            [
              594.0680333142102,
              82.36086282844609
            ],
            [
              591.3914764622307,
              80.47828212458558
            ],
            [
              590.5140727857679,
              80.04846639760979
            ],
            [
              589.8709394437798,
              79.62011520795608
            ],
            [
              589.7915342026167,
              79.5842470670201
            ],
            [
              589.4317920362499,
              79.34976980631197
            ],
            [
              589.3291229232151,
              79.30465481892956
            ],
            [
              589.3116124539965,
              79.29326935052347
            ],
            [
              588.3409054239895,
              78.86822714406497
            ],
            [
              587.8281688991227,
              78.55553954251619
            ],
            [
              587.6569067600237,
              78.48650220148892
            ],
            [
              587.6189873266944,
              78.4635723529717
            ],
            [
              586.2366377461916,
              77.91397871858253
            ],
            [
              585.786090304707,
              77.732358907279
            ],
            [
              583.217152173852,
              76.47390736457173
            ],
            [
              583.2118314321503,
              76.47236083592699
            ],
            [
              583.1957355231168,
              76.46447589667308
            ],
            [
              582.3240595660255,
              76.21111415627674
            ],
            [
              581.4979668623346,
              75.83795982746318
            ],
            [
              581.3623987513629,
              75.80390712347078
            ],
            [
              581.0793550897548,
              75.67953173104496
            ],
            [
              581.0333181615499,
              75.66846355117075
            ],
            [
              580.9536685853224,
              75.63358749631706
            ],
            [
              580.0356274064483,
              75.41429450228958
            ],
            [
              579.539101334683,
              75.21414028271587
            ],
            [
              579.3432035408828,
              75.17329169467973
            ],
            [
              579.2923388863552,
              75.15306895885277
            ],
            [
              577.6787719654118,
              74.82622459115062
            ],
            [
              577.2564702396791,
              74.73816627809606
            ],
            [
              574.7742336276065,
              74.01667822617527
            ],
            [
              573.8926344051039,
              73.92761282617961
            ],
            [
              572.8835879614021,
              73.67415528717831
            ],
            [
              572.7065035904844,
              73.66358272314592
            ],
            [
              572.361205012937,
              73.58110106481651
            ],
            [
              571.5090125808099,
              73.53970698934263
            ],
            [
              571.0339512542291,
              73.44064724965995
            ],
            [
              570.8149181778689,
              73.4358812951896
            ],
            [
              570.7501851566577,
              73.42276896429593
            ],
            [
              568.9372805834082,
              73.39502566098813
            ],
            [
              568.5340636253554,
              73.38625203787346
            ],
            [
              566.1787295154876,
              73.1482994974212
            ],
            [
              565.2946616838341,
              73.22106951702227
            ],
            [
              564.105352779163,
              73.15006356417737
            ],
            [
              563.9341159770269,
              73.17176680385185
            ],
            [
              563.6109590792565,
              73.1560699020103
            ],
            [
              562.8355768941485,
              73.26225830757184
            ],
            [
              562.386633711668,
              73.25248972472212
            ],
            [
              562.1465861278764,
              73.29110607307554
            ],
            [
              562.0673141268544,
              73.28989295512494
            ],
            [
              560.084838483856,
              73.62277850274877
            ],
            [
              559.739538424387,
              73.67832677024757
            ],
            [
              557.5322886440448,
              73.860011482663
            ],
            [
              557.2666639821414,
              73.9298821165326
            ],
            [
              557.1598831428764,
              73.93911833657339
            ],
            [
              556.5459723622271,
              74.1081697839631
            ],
            [
              555.2424155156089,
              74.27338781159571
            ],
            [
              555.0779511551056,
              74.32466330492828
            ],
            [
              554.7812144126829,
              74.36530133113823
            ],
            [
              554.0912094891656,
              74.58697094252422
            ],
            [
              553.6724526239801,
              74.65433617376677
            ],
            [
              553.4140890874914,
              74.74289116283565
            ],
            [
              553.3199065917778,
              74.7587057287161
            ],
            [
              551.197162990795,
              75.50275019274979
            ],
            [
              550.9002144464389,
              75.60453032560552
            ],
            [
              548.8684046644498,
              76.13898309928547
            ],
            [
              548.3765529298907,
              76.35776731910764
            ],
            [
              548.1036910171398,
              76.43290478649494
            ],
            [
              547.6739822386983,
              76.63301848811098
            ],
            [
              546.3749901020577,
              77.03800873932278
            ],
            [
              546.2181542663636,
              77.11625302713018
            ],
            [
              545.9512663711416,
              77.20199290231353
            ],
            [
              545.3526860200062,
              77.5059647373086
            ],
            [
              544.9675994437297,
              77.63795448324126
            ],
            [
              544.6941432848945,
              77.78212854496103
            ],
            [
              544.5850249556329,
              77.82037569302874
            ],
            [
              542.3518181035103,
              79.01707068964262
            ],
            [
              542.1018096307812,
              79.14888244741077
            ],
            [
              540.2560211817348,
              79.96992130404243
            ],
            [
              539.6126628113182,
              80.37591461335126
            ],
            [
              539.5434581874856,
              80.40767140405298
            ],
            [
              539.4790280540177,
              80.44937667827311
            ],
            [
              539.111261202802,
              80.62064426594014
            ],
            [
              538.8577139841353,
              80.78832456306827
            ],
            [
              537.5837882572697,
              81.42387708727799
            ],
            [
              537.4353917026723,
              81.52653520428689
            ],
            [
              537.2774972537609,
              81.60671736407772
            ],
            [
              537.2771162145879,
              81.60344890714536
            ],
            [
              537.2618493697869,
              81.61262660365787
            ],
            [
              537.2511556054258,
              81.6200942134523
            ],
            [
              537.2008702658985,
              81.64563017850476
            ],
            [
              536.6971666589335,
              81.99836783728779
            ],
            [
              536.3486357026067,
              82.18212352166854
            ],
            [
              536.063772892549,
              82.38660729796649
            ],
            [
              535.9400854752995,
              82.45288692331377
            ],
            [
              533.6272734349483,
              84.1356057369108
            ],
            [
              533.4266780290268,
              84.27959963388562
            ],
            [
              531.7702512306416,
              85.32489293932308
            ],
            [
              531.1284660503148,
              85.85464994468035
            ],
            [
              530.9967929287058,
              85.93988123854457
            ],
            [
              530.8288564165683,
              86.08167903304785
            ],
            [
              530.266873185736,
              86.45144613382496
            ],
            [
              530.0680305699963,
              86.6231455897232
            ],
            [
              528.9494380053623,
              87.39696818089507
            ],
            [
              528.8458312328193,
              87.48965336658804
            ],
            [
              528.6721033472861,
              87.61097005293706
            ],
            [
              528.635887659648,
              87.64358586216527
            ],
            [
              528.6096704189378,
              87.66194548478153
            ],
            [
              528.2016760888121,
              88.03027571484641
            ],
            [
              527.8919577063778,
              88.2526016282346
            ],
            [
              527.5997669917268,
              88.52100252429392
            ],
            [
              527.4623121947616,
              88.62100968824112
            ],
            [
              526.5557793212578,
              89.46381841061128
            ],
            [
              526.5541609172213,
              89.46502917342724
            ],
            [
              526.5429182722007,
              89.47577540044547
            ],
            [
              525.1020832401555,
              90.81532785142515
            ],
            [
              524.9543797466201,
              90.95100550313109
            ],
            [
              523.4857499678318,
              92.16327549232098
            ],
            [
              522.8549245003157,
              92.81449695746899
            ],
            [
              522.6617659700622,
              92.97759105312173
            ],
            [
              522.448161697524,
              93.20285856812093
            ],
            [
              521.6348847053583,
              93.90511857679176
            ],
            [
              521.4480423824385,
              94.10761295045705
            ],
            [
              520.5518811617335,
              94.9093063833273
            ],
            [
              520.4823163295214,
              94.98668340593672
            ],
            [
              520.3194947215909,
              95.13332037040102
            ],
            [
              520.2597265204286,
              95.2001305289076
            ],
            [
              520.2566086334275,
              95.20294530343556
            ],
            [
              520.2474130172278,
              95.21222601374315
            ],
            [
              520.2477283399884,
              95.21354234861501
            ],
            [
              519.9420434878866,
              95.5552433372486
            ],
            [
              519.6732421577447,
              95.80215918447615
            ],
            [
              519.3781189889535,
              96.13692968051592
            ],
            [
              519.2281713419547,
              96.27633685317132
            ],
            [
              518.2293107446657,
              97.42229631893558
            ],
            [
              518.1916413918449,
              97.45830238481906
            ],
            [
              517.9737011061221,
              97.71554873640626
            ],
            [
              516.8541209878028,
              99.00000568448174
            ],
            [
              516.7628139169161,
              99.10357909601143
            ],
            [
              515.4761669466849,
              100.43182623933136
            ],
            [
              514.8653761985502,
              101.19968010011245
            ],
            [
              514.6138764189351,
              101.46491229652042
            ],
            [
              514.593916119967,
              101.48819286895666
            ],
            [
              514.358222551279,
              101.79135720929597
            ],
            [
              513.3217330243049,
              102.91467495807156
            ],
            [
              513.1493653285825,
              103.14313110209817
            ],
            [
              512.4697490557829,
              103.89906886607454
            ],
            [
              512.4317915167561,
              103.95036172721547
            ],
            [
              512.2815723189738,
              104.11827992149045
            ],
            [
              511.97274665882645,
              104.53715179203178
            ],
            [
              511.7668721771265,
              104.77068378697872
            ],
            [
              511.4734480522544,
              105.1730723763672
            ],
            [
              511.31278568214003,
              105.35739495785143
            ],
            [
              510.36830998557974,
              106.66705771312046
            ],
            [
              510.19567035185366,
              106.86918675023449
            ],
            [
              510.174139847392,
              106.89719698608786
            ],
            [
              509.00663637487446,
              108.55523039903505
            ],
            [
              508.9598373621313,
              108.6201245241404
            ],
            [
              508.9275539346832,
              108.66439655810441
            ],
            [
              507.8135795794725,
              110.06482626679265
            ],
            [
              507.2654906665044,
              110.89081567435144
            ],
            [
              506.9998048357451,
              111.22926557140602
            ],
            [
              506.8886042880264,
              111.39926423000868
            ],
            [
              506.7512247633752,
              111.57597067645322
            ],
            [
              506.5388475821392,
              111.9047113283872
            ],
            [
              505.40980392291385,
              113.40114579522177
            ],
            [
              505.2545779325484,
              113.64908902496428
            ],
            [
              504.7797167455486,
              114.2907794391153
            ],
            [
              504.77005746067306,
              114.30643034171602
            ],
            [
              504.63394598384497,
              114.49104346253694
            ],
            [
              504.39157670119295,
              114.88483082278069
            ],
            [
              504.2453440734948,
              115.08536764232687
            ],
            [
              503.95840298832024,
              115.55539278581828
            ],
            [
              503.78932923932354,
              115.78983988992995
            ],
            [
              501.517766735548,
              119.55283924777868
            ],
            [
              500.56790865445157,
              120.9843090240993
            ],
            [
              500.27237987987314,
              121.51386616303822
            ],
            [
              499.711897510796,
              122.37070772464034
            ],
            [
              499.34476898117947,
              123.03901915978099
            ],
            [
              499.28205473484246,
              123.13602175442821
            ],
            [
              499.27555695384876,
              123.14700092547636
            ],
            [
              499.23104183364705,
              123.21591293452009
            ],
            [
              499.2171320487121,
              123.23941599499038
            ],
            [
              499.00245481743616,
              123.6356356997905
            ],
            [
              497.9786963378482,
              125.27089010088923
            ],
            [
              497.8631745188283,
              125.49179484840684
            ],
            [
              497.4496348522171,
              126.16368978449975
            ],
            [
              497.26989568622986,
              126.51153244911114
            ],
            [
              497.17865627564197,
              126.66098757863854
            ],
            [
              496.9853914073348,
              127.03716318980071
            ],
            [
              496.9175731919094,
              127.14863581662172
            ],
            [
              496.83671162128184,
              127.30732866199169
            ],
            [
              496.72840389645313,
              127.48674784958737
            ],
            [
              494.61466337179877,
              131.64958307170298
            ],
            [
              494.532893472067,
              131.7984349168702
            ],
            [
              493.8063178649464,
              133.10038360275118
            ],
            [
              493.73864979220497,
              133.2442559051939
            ],
            [
              492.92443592665023,
              134.72643011149114
            ],
            [
              492.5253116672239,
              135.59019525763557
            ],
            [
              492.3456459368266,
              135.9217958761113
            ],
            [
              492.33111953978766,
              135.95377857228303
            ],
            [
              492.3152263107823,
              135.9831238974064
            ],
            [
              491.9125742294484,
              136.87073491209844
            ],
            [
              491.79088856054113,
              137.10342638285138
            ],
            [
              491.6093112017207,
              137.44558059596412
            ],
            [
              491.5943321815879,
              137.479288169299
            ],
            [
              491.1044589351475,
              138.41604043611255
            ],
            [
              491.02755624902665,
              138.59210471215917
            ],
            [
              490.7983989223543,
              139.03558454406445
            ],
            [
              490.6758544772622,
              139.31820491097298
            ],
            [
              490.63368304867936,
              139.40028844253516
            ],
            [
              490.404519175274,
              139.9306664653193
            ],
            [
              490.21555988859507,
              140.30150376955655
            ],
            [
              488.63155144672436,
              144.01688014652967
            ],
            [
              486.7029671252595,
              148.1906277422762
            ],
            [
              486.29854430272854,
              149.2356694948756
            ],
            [
              486.0675046054759,
              149.74434844825117
            ],
            [
              486.0414972759018,
              149.81300645006627
            ],
            [
              486.0124680913465,
              149.8769987281512
            ],
            [
              485.5994773106616,
              150.9696238674587
            ],
            [
              485.37999597779424,
              151.46352687655593
            ],
            [
              485.26071777398766,
              151.78600354989106
            ],
            [
              484.74494177587803,
              152.96684131196128
            ],
            [
              484.71552305403094,
              153.04803247427222
            ],
            [
              484.6348212051583,
              153.23390034645263
            ],
            [
              484.3258109010923,
              154.08851603748568
            ],
            [
              484.16998747826096,
              154.4522594632039
            ],
            [
              482.9229929422528,
              157.9582042116062
            ],
            [
              481.108806507307,
              162.64612107963472
            ],
            [
              480.7149741859477,
              163.87475127225935
            ],
            [
              480.44706791187315,
              164.5820099471347
            ],
            [
              480.41303326813824,
              164.69109032549048
            ],
            [
              480.3740774821319,
              164.79415333099237
            ],
            [
              479.9771538841727,
              166.07047507994304
            ],
            [
              479.82221348021517,
              166.4893669180456
            ],
            [
              479.71870936724696,
              166.83016642623596
            ],
            [
              479.212799420865,
              168.2293384691311
            ],
            [
              479.21123158873917,
              168.2341127459937
            ],
            [
              479.202986811244,
              168.26178741704643
            ],
            [
              479.19398528341924,
              168.2866302539098
            ],
            [
              479.17989356961516,
              168.3339082203518
            ],
            [
              479.1641955541493,
              168.3773443119674
            ],
            [
              478.89655953694097,
              169.27858505095867
            ],
            [
              478.7463996391702,
              169.70076196500614
            ],
            [
              477.75970215520493,
              173.09424964122394
            ],
            [
              476.1983793511726,
              177.96507469399398
            ],
            [
              475.8313817027213,
              179.37519544222593
            ],
            [
              475.5433506806306,
              180.29832932635665
            ],
            [
              475.5050947769192,
              180.45053797054578
            ],
            [
              475.45982331758313,
              180.59610993567037
            ],
            [
              475.1196598571096,
              181.95606915011408
            ],
            [
              475.0688522971565,
              182.1265294751092
            ],
            [
              474.7834895622697,
              183.08201684096983
            ],
            [
              474.7809922250353,
              183.09230546368707
            ],
            [
              474.6681409461293,
              183.47092363970341
            ],
            [
              474.60863337973893,
              183.71779909580823
            ],
            [
              474.48710920473303,
              184.12702106235872
            ],
            [
              474.19518289127126,
              185.35348044946494
            ],
            [
              474.06805074774235,
              185.79071817362927
            ],
            [
              473.31928038398155,
              189.0274812432421
            ],
            [
              472.02256849920104,
              194.00985739985416
            ],
            [
              472.01514412940065,
              194.04619612704514
            ],
            [
              472.00832237516084,
              194.07240748934024
            ],
            [
              471.6908708498092,
              195.62617875526595
            ],
            [
              471.4093082010063,
              196.74643118364406
            ],
            [
              471.3709258870488,
              196.9433499650344
            ],
            [
              471.3232921936662,
              197.1337874686638
            ],
            [
              471.1288523660015,
              198.13852694038982
            ],
            [
              471.0263652730927,
              198.56075707340418
            ],
            [
              471.0095627902077,
              198.64904645232556
            ],
            [
              470.8550169465011,
              199.29020148466157
            ],
            [
              470.7697131479088,
              199.7447817067756
            ],
            [
              470.575926509781,
              200.55893045069615
            ],
            [
              470.28990509808335,
              202.12277791115045
            ],
            [
              470.1867035306789,
              202.56889468906587
            ],
            [
              469.6615629155852,
              205.55829457594555
            ],
            [
              469.66093055670973,
              205.56175205419373
            ],
            [
              468.61176647183737,
              210.6969014491334
            ],
            [
              468.3399715394527,
              212.49352855059206
            ],
            [
              468.09114073979606,
              213.7701440744887
            ],
            [
              468.05694450664373,
              214.01216310284417
            ],
            [
              468.01117720775056,
              214.2486589497212
            ],
            [
              467.9038500407356,
              215.01684120789312
            ],
            [
              467.7921995474773,
              215.61182181680462
            ],
            [
              467.70169624510737,
              216.27403958680932
            ],
            [
              467.47389700935867,
              217.5195521314713
            ],
            [
              467.22599737498325,
              219.42292271987074
            ],
            [
              467.1469425690495,
              219.87294776286683
            ],
            [
              466.82820488642466,
              222.4771689467694
            ],
            [
              466.81932145049433,
              222.54537586732775
            ],
            [
              466.0324527149558,
              227.74675943687237
            ],
            [
              465.8293838692553,
              229.77741006774906
            ],
            [
              465.6276296553432,
              231.20529712730598
            ],
            [
              465.60207159388926,
              231.49156437773505
            ],
            [
              465.5625994416789,
              231.7740819160887
            ],
            [
              465.5256742563144,
              232.19611526061058
            ],
            [
              465.5125851462194,
              232.2918890176735
            ],
            [
              465.43735039332716,
              233.1561340101155
            ],
            [
              465.2170003611011,
              234.84797906474745
            ],
            [
              465.0406353805304,
              237.08236509594266
            ],
            [
              464.98550241640737,
              237.5328246460126
            ],
            [
              464.82520691343456,
              239.8116504456117
            ],
            [
              464.82245631943334,
              239.84649800315702
            ],
            [
              464.30093579793834,
              245.06160607313413
            ],
            [
              464.18973081625876,
              247.3107184198369
            ],
            [
              464.04951900734756,
              248.88118373448575
            ],
            [
              464.03710674255194,
              249.20957423588698
            ],
            [
              464.0084765618725,
              249.5368005120516
            ],
            [
              463.97086743047544,
              250.5881559052268
            ],
            [
              463.909716749557,
              251.3342590064915
            ],
            [
              463.90570960424725,
              251.46085618296104
            ],
            [
              463.83336912355696,
              252.3773451538296
            ],
            [
              463.7622363107969,
              254.92327109839755
            ],
            [
              463.7306484247136,
              255.3723372818861
            ],
            [
              463.69466085538653,
              257.32347094737685
            ],
            [
              463.43988979459976,
              262.47619638951
            ],
            [
              463.4432397753379,
              264.92147487557986
            ],
            [
              463.3789575231597,
              266.6221863397236
            ],
            [
              463.3841652347076,
              266.98929293248835
            ],
            [
              463.3709539033885,
              267.3586129331127
            ],
            [
              463.3817622554515,
              268.01385084417325
            ],
            [
              463.36112758027696,
              268.665759225424
            ],
            [
              463.36812178589446,
              269.02908746243156
            ],
            [
              463.34277152071184,
              269.9364028814486
            ],
            [
              463.40987972698747,
              272.763414717201
            ],
            [
              463.40162610791424,
              273.2109001781269
            ],
            [
              463.45679595710374,
              274.8166480670964
            ],
            [
              463.4636531927566,
              279.82200542839877
            ],
            [
              463.58866953109015,
              282.1613710493715
            ],
            [
              463.5981909199864,
              282.9722699202217
            ],
            [
              463.61460810914184,
              283.23387513944823
            ],
            [
              463.6290163151151,
              284.24955109493226
            ],
            [
              463.65619220462196,
              284.6506984753702
            ],
            [
              463.66291394402435,
              285.0581924632171
            ],
            [
              463.68187166755655,
              285.32746323717384
            ],
            [
              463.69232121270335,
              285.8702861151521
            ],
            [
              463.7351959345575,
              286.4677412106844
            ],
            [
              463.7561686017589,
              287.35123939529
            ],
            [
              463.76505974075445,
              287.4664628468869
            ],
            [
              463.76536581696587,
              287.47935624718053
            ],
            [
              463.99338396277,
              290.434328191372
            ],
            [
              464.00819525016647,
              290.86541861163505
            ],
            [
              464.121984659372,
              292.1410192520273
            ],
            [
              464.3778524839271,
              296.9289405764577
            ],
            [
              464.60785874349847,
              299.06116126783644
            ],
            [
              464.63925204061115,
              299.56140831370925
            ],
            [
              464.7041712992136,
              300.1200750504321
            ],
            [
              464.8032977597432,
              301.5832955999628
            ],
            [
              464.842718715688,
              301.9009638735923
            ],
            [
              464.90579432788803,
              302.7799164190808
            ],
            [
              465.0082721071474,
              303.58664106009405
            ],
            [
              465.0845970454491,
              304.57576431851334
            ],
            [
              465.52617125226567,
              307.8822145854606
            ],
            [
              465.5502647651244,
              308.15230738818053
            ],
            [
              465.67757801902457,
              309.0159287759052
            ],
            [
              465.69899763757957,
              309.176316095666
            ],
            [
              466.1791175020808,
              313.62715804793595
            ],
            [
              466.4946943483822,
              315.52853304297787
            ],
            [
              466.51900187645475,
              315.7377129948337
            ],
            [
              466.6418386993392,
              316.4463891148537
            ],
            [
              466.99513512816804,
              319.2276060453426
            ],
            [
              467.15801045048823,
              320.1012144040214
            ],
            [
              467.3020224149929,
              321.17955727633114
            ],
            [
              468.00031705650906,
              324.7720818056201
            ],
            [
              468.0176434698375,
              324.88961443224736
            ],
            [
              468.08910982304064,
              325.2288949800144
            ],
            [
              468.1957528938419,
              325.77754282123095
            ],
            [
              468.8549008021599,
              329.7489601341346
            ],
            [
              469.3987173906299,
              332.1196115705381
            ],
            [
              469.94488411358975,
              335.04906587717795
            ],
            [
              470.177415798693,
              335.9726269177921
            ],
            [
              470.4004784202295,
              337.1202197701058
            ],
            [
              471.5824618638473,
              341.6391758533977
            ],
            [
              472.38341191996994,
              345.1307453298334
            ],
            [
              473.00064437655163,
              347.1858253348821
            ],
            [
              473.7305098372664,
              350.0846789004066
            ],
            [
              474.0410210632489,
              351.038733106576
            ],
            [
              474.35324023427637,
              352.23240864393784
            ],
            [
              475.826162795942,
              356.59340969969196
            ],
            [
              476.733675365709,
              359.61497947729873
            ],
            [
              477.40071016105395,
              361.36146944285866
            ],
            [
              478.3185074514393,
              364.1814266362552
            ],
            [
              478.7141894309061,
              365.1442239325271
            ],
            [
              479.12414420471276,
              366.35801021567477
            ],
            [
              480.88407509092315,
              370.4819260352377
            ],
            [
              481.8657187071356,
              373.0521528622845
            ],
            [
              482.5606056445549,
              374.50355623226295
            ],
            [
              483.66662529837043,
              377.1947900705678
            ],
            [
              484.1533506486034,
              378.1425775396702
            ],
            [
              484.66784953166064,
              379.348164702013
            ],
            [
              486.70408343669135,
              383.1579966994969
            ],
            [
              487.7308941652167,
              385.30268595979953
            ],
            [
              487.7389277862059,
              385.3177015866081
            ],
            [
              488.42266863373726,
              386.4561081293357
            ],
            [
              489.7242218491186,
              388.99058846261534
            ],
            [
              490.30637165409274,
              389.8979458186693
            ],
            [
              490.93024116939137,
              391.0652174351472
            ],
            [
              493.2674416821897,
              394.55116923327734
            ],
            [
              494.10551253300304,
              395.9610967002802
            ],
            [
              494.2384532242748,
              396.13920261264127
            ],
            [
              494.5315288060074,
              396.62716403976975
            ],
            [
              495.1142019170616,
              397.39158425801304
            ],
            [
              496.4327520469352,
              399.4467187775533
            ],
            [
              497.11306063863026,
              400.2869382621648
            ],
            [
              497.84897234632535,
              401.38455600041254
            ],
            [
              500.31318386005535,
              404.2777599777873
            ],
            [
              501.1979328828036,
              405.4630933047395
            ],
            [
              501.539356827566,
              405.82087029470455
            ],
            [
              501.97871153423733,
              406.3972683031218
            ],
            [
              502.4321377280734,
              406.85629849874323
            ],
            [
              503.7263786967498,
              408.45475909883186
            ],
            [
              504.5058000861887,
              409.2002651578552
            ],
            [
              505.3541412851306,
              410.19629334671856
            ],
            [
              507.90440950402757,
              412.4907873348291
            ],
            [
              508.827150259846,
              413.45772423288287
            ],
            [
              509.4044012080898,
              413.9147338356709
            ],
            [
              510.0005351968117,
              414.5182355856594
            ],
            [
              510.30218784326064,
              414.7444319613083
            ],
            [
              511.5327010966262,
              415.92140131127144
            ],
            [
              512.4073288641365,
              416.54209508533603
            ],
            [
              513.3739293148453,
              417.41175220871366
            ],
            [
              515.9735738232399,
              419.11554810275516
            ],
            [
              516.9171908628753,
              419.86260975725736
            ],
            [
              517.7233064301694,
              420.31466474432875
            ],
            [
              517.859018696384,
              420.41097515414214
            ],
            [
              518.5100880393666,
              420.89918411701086
            ],
            [
              518.6433098433297,
              420.9675600809613
            ],
            [
              519.7735897845666,
              421.76968156468564
            ],
            [
              520.7357435888661,
              422.2366538027349
            ],
            [
              521.8161716010983,
              422.9447617018138
            ],
            [
              524.4257380207691,
              424.0732667973002
            ],
            [
              525.3869770845229,
              424.6123122272456
            ],
            [
              526.2455726225246,
              424.9107971507058
            ],
            [
              528.3661132236316,
              425.9399814517644
            ],
            [
              529.4107153286142,
              426.2290165994628
            ],
            [
              530.598376206646,
              426.74261968023643
            ],
            [
              533.1781026458773,
              427.3208442591304
            ],
            [
              534.1512993017003,
              427.6591694850645
            ],
            [
              535.0615852853143,
              427.792578481109
            ],
            [
              537.2235396147989,
              428.3907782991251
            ],
            [
              538.3433564472923,
              428.47859364647996
            ],
            [
              539.6294750923871,
              428.7668666202563
            ],
            [
              542.1421296381905,
              428.8302834774709
            ],
            [
              543.1218501292366,
              428.97386860281455
            ],
            [
              544.0821227019898,
              428.92862416731305
            ],
            [
              546.2563949322595,
              429.0991292585843
            ],
            [
              547.4347999857567,
              428.9638651195758
            ],
            [
              548.8157989961608,
              428.99872013659336
            ],
            [
              550.8192059544525,
              428.66082733863743
            ],
            [
              550.8615543134259,
              428.6601558973162
            ],
            [
              551.0137039344128,
              428.6280234860512
            ],
            [
              551.2275329045877,
              428.59195928608796
            ],
            [
              552.2083013769327,
              428.5457491607727
            ],
            [
              553.267076722291,
              428.2944027059994
            ],
            [
              555.4733070928245,
              428.0411588399821
            ],
            [
              556.6679254914769,
              427.6743876137118
            ],
            [
              558.062252686084,
              427.4392216554427
            ],
            [
              560.0562557716352,
              426.7183309538621
            ],
            [
              560.2030495864377,
              426.68732963286845
            ],
            [
              560.4367350451847,
              426.5923719501314
            ],
            [
              561.3194029559318,
              426.3828322672429
            ],
            [
              562.4478742631986,
              425.8998302311942
            ],
            [
              564.6753535150282,
              425.2159505106416
            ],
            [
              565.8773518156721,
              424.6138337031169
            ],
            [
              567.2735000177081,
              424.1090851075793
            ]
          ]
        ]
      }
    }
  ]
}