{
  "type": "FeatureCollection",
  "features": [
    {
      "type": "Feature",
      "properties": {
        "method": "Homography",
        "mode": "tmpl2img",
        "inside_ratio": 1.0
      },
      "geometry": {
        "type": "Polygon",
        "coordinates": [
          [
            [
              456.99699472168163,
              154.52279411924223
            ],
            [
              456.808374136306,
              154.64994099941308
            ],
            [
              456.67514136731523,
              154.7530836819064
            ],
            [
              456.00371986949347,
              155.21308572695452
            ],
            [
              455.17849454186063,
              155.86405398207154
            ],
            [
              453.8070154449262,
              156.84930080466705
            ],
            [
              453.66471267812244,
              156.9668318303423
            ],
            [
              453.3079997742627,
              157.22506786986358
            ],
            [
              453.1124887994316,
              157.38857930272155
            ],
            [
              452.69601240594403,
              157.6944095129895
            ],
            [
              451.64150231567294,
              158.58734160413502
            ],
            [
              451.41061623283025,
              158.76257244681955
            ],
            [
              450.7328113700446,
              159.35336228317493
            ],
            [
              450.43991527291814,
              159.58010897153326
            ],
            [
              450.22811357211276,
              159.76909755514285
            ],
            [
              449.5606971379056,
              160.2955803193768
            ],
            [
              448.8560154527508,
              160.93844200866047
            ],
            [
              447.5501635421597,
              162.01697419656765
            ],
            [
              447.35213192308646,
              162.20613088760166
            ],
            [
              446.86960672117186,
              162.6096805462624
            ],
            [
              446.7237280195534,
              162.75158671331664
            ],
            [
              446.38254954999167,
              163.04048788845546
            ],
            [
              445.4459862542645,
              163.96147697290812
            ],
            [
              445.3883994584625,
              164.01167090856237
            ],
            [
              445.1343110592313,
              164.26796928777213
            ],
            [
              444.62620805557356,
              164.76762299220906
            ],
            [
              444.349137206109,
              165.01485059803645
            ],
            [
              444.0692148771156,
              165.30530831031433
            ],
            [
              443.423548386463,
              165.89433206337233
            ],
            [
              442.8420281311378,
              166.5141111661801
            ],
            [
              441.6302965317176,
              167.67153815102367
            ],
            [
              441.390587691879,
              167.9394962149152
            ],
            [
              440.8054427494309,
              168.50870662757913
            ],
            [
              440.70672464877134,
              168.62192889000013
            ],
            [
              440.44276365832036,
              168.88150044489973
            ],
            [
              438.8879097009877,
              170.68162128094082
            ],
            [
              438.6673639762322,
              170.91046764306586
            ],
            [
              438.33695422697684,
              171.31557876230062
            ],
            [
              437.73211993447904,
              171.9602057580418
            ],
            [
              437.27277186856946,
              172.54258868398804
            ],
            [
              436.1838365539981,
              173.7598529232999
            ],
            [
              435.9208292649821,
              174.11099218729163
            ],
            [
              435.2671027981526,
              174.86076744725762
            ],
            [
              435.2105643446503,
              174.9390410637207
            ],
            [
              435.0220605192488,
              175.15727999360809
            ],
            [
              433.7067139995787,
              176.99265640616525
            ],
            [
              433.5357139394477,
              177.20231736775807
            ],
            [
              433.22374730013934,
              177.6665667978058
            ],
            [
              433.1487386115494,
              177.7712306074612
            ],
            [
              432.635942327388,
              178.4213776801108
            ],
            [
              432.2937825089728,
              178.95343793518265
            ],
            [
              431.3548089556735,
              180.20705521569928
            ],
            [
              431.09112725634543,
              180.64211956551347
            ],
            [
              430.41398933157257,
              181.5795706440805
            ],
            [
              430.39190807054945,
              181.61799012878402
            ],
            [
              430.2728195804193,
              181.78416094576542
            ],
            [
              429.22818081646744,
              183.61252136156895
            ],
            [
              429.0998673977375,
              183.80346944384343
            ],
            [
              428.8608954089493,
              184.25535611323352
            ],
            [
              428.6752721647139,
              184.5802398948006
            ],
            [
              428.28821368363805,
              185.1821177982964
            ],
            [
              428.0541034232686,
              185.65308848251664
            ],
            [
              427.28877724073106,
              186.91584634113804
            ],
            [
              427.06957041820476,
              187.39059081629213
            ],
            [
              426.3474002036807,
              188.65455638913096
            ],
            [
              425.59525493633487,
              190.43055431971567
            ],
            [
              425.5030792871788,
              190.60485486138822
            ],
            [
              425.33408764752033,
              191.04723381581843
            ],
            [
              425.1113695839999,
              191.57312533848705
            ],
            [
              424.83788395139874,
              192.12330932148927
            ],
            [
              424.69867710220853,
              192.52532380459942
            ],
            [
              424.1251283292979,
              193.7674799930926
            ],
            [
              423.9665766718415,
              194.27625986743425
            ],
            [
              423.38827392285555,
              195.64177332611905
            ],
            [
              422.9374393830547,
              197.32107526416704
            ],
            [
              422.8777512561226,
              197.4773242433368
            ],
            [
              422.7813292965052,
              197.90256569526355
            ],
            [
              422.7776968803415,
              197.9160959884472
            ],
            [
              422.58112703100534,
              198.64058179931772
            ],
            [
              422.4202607032734,
              199.10514653858516
            ],
            [
              422.35931116802266,
              199.4338492243816
            ],
            [
              421.98817349837975,
              200.62480099328653
            ],
            [
              421.92016785630125,
              201.07663974621659
            ],
            [
              421.57377984716913,
              202.35330144437734
            ],
            [
              421.5650305021616,
              202.4331256730816
            ],
            [
              421.52265662885327,
              202.5909630198076
            ],
            [
              421.3677263230095,
              204.13685696349336
            ],
            [
              421.3362081523339,
              204.27585883312636
            ],
            [
              421.31300137738685,
              204.68290224203545
            ],
            [
              421.2549598420122,
              205.26204043921942
            ],
            [
              421.2207522175569,
              205.57413205692217
            ],
            [
              421.14693553150784,
              205.97222767588778
            ],
            [
              421.1449709741343,
              206.22715346563572
            ],
            [
              420.97786030882986,
              207.33745949773535
            ],
            [
              420.9881245616148,
              207.69649929600615
            ],
            [
              420.8581322685463,
              208.88247773456334
            ],
            [
              420.87226723637633,
              209.0805456576396
            ],
            [
              420.8458039303453,
              209.34459641455922
            ],
            [
              420.9687156458018,
              210.72162318154076
            ],
            [
              420.9616305937286,
              210.8458939497957
            ],
            [
              421.01483068715476,
              211.23826755548103
            ],
            [
              421.07179791915854,
              211.87649315517496
            ],
            [
              421.09854647514874,
              212.25131048723833
            ],
            [
              421.0961605501255,
              212.56091397782455
            ],
            [
              421.13246723180697,
              212.74555296107633
            ],
            [
              421.16115673147465,
              213.74910113733415
            ],
            [
              421.2246617135345,
              214.01851531128708
            ],
            [
              421.30093310895194,
              215.08727733918158
            ],
            [
              421.38498981537947,
              215.38530126716384
            ],
            [
              421.4164801517707,
              215.73809950083026
            ],
            [
              421.57255077563696,
              216.2383243726972
            ],
            [
              421.57389939588603,
              216.25136503063663
            ],
            [
              421.6121812796965,
              216.36534484158418
            ],
            [
              421.7851561875834,
              216.91974994990557
            ],
            [
              421.8002887059247,
              217.03135879126236
            ],
            [
              421.938730346681,
              217.4119733559649
            ],
            [
              422.12492543297157,
              218.00875070502667
            ],
            [
              422.26519218195585,
              218.50606792429525
            ],
            [
              422.30498041765975,
              218.7084124802933
            ],
            [
              422.35258682405225,
              218.81592653796093
            ],
            [
              422.3702226560758,
              218.87845456403386
            ],
            [
              422.5652798106241,
              219.7059669963739
            ],
            [
              422.6564681122471,
              219.8933408098123
            ],
            [
              422.9190203992063,
              220.8242226774488
            ],
            [
              423.0957879965914,
              221.15218245327117
            ],
            [
              423.10742958737393,
              221.19157419119082
            ],
            [
              423.131190887219,
              221.23395090902198
            ],
            [
              423.2493346970499,
              221.6126158407552
            ],
            [
              423.5416566146263,
              222.11013093794926
            ],
            [
              423.5808491345923,
              222.22682206103866
            ],
            [
              423.8410231697578,
              222.64190526651703
            ],
            [
              423.8562184462182,
              222.68368130660716
            ],
            [
              424.09576640412547,
              223.05319394212907
            ],
            [
              424.3939624703086,
              223.56070650253906
            ],
            [
              424.7277632422917,
              224.18001246119982
            ],
            [
              424.7643553772856,
              224.26265194630142
            ],
            [
              424.79199440099165,
              224.29918156642827
            ],
            [
              424.8810197061288,
              224.46435165162006
            ],
            [
              425.1738277516456,
              225.0660139166213
            ],
            [
              425.2682701546989,
              225.1828236577521
            ],
            [
              425.6884781321661,
              225.9624422990788
            ],
            [
              425.95260146194715,
              226.2657513803884
            ],
            [
              426.0077340699694,
              226.36407676610955
            ],
            [
              426.10265691314345,
              226.46880620596795
            ],
            [
              426.3118598314077,
              226.824857545092
            ],
            [
              426.75498142941996,
              227.2908516315486
            ],
            [
              426.87857399978907,
              227.48803195451848
            ],
            [
              427.84092161209776,
              228.43422567009094
            ],
            [
              428.6259494140781,
              229.33572142821413
            ],
            [
              428.9265208775897,
              229.70747896197375
            ],
            [
              429.00246636310766,
              229.76809902241655
            ],
            [
              429.5450964416692,
              230.39123455061699
            ],
            [
              429.8975537931513,
              230.65575859036448
            ],
            [
              430.02392051468155,
              230.79518041464667
            ],
            [
              430.22336841788706,
              230.93826541917656
            ],
            [
              430.5254647251092,
              231.25595495030657
            ],
            [
              431.12482751922096,
              231.66300817247665
            ],
            [
              431.3760002385866,
              231.90996472493393
            ],
            [
              432.5570648406597,
              232.65175783131775
            ],
            [
              433.529166522142,
              233.38133337498823
            ],
            [
              433.72272127905234,
              233.53582973484802
            ],
            [
              433.76233074554045,
              233.5563262983476
            ],
            [
              434.38817126735063,
              234.0260281285663
            ],
            [
              434.82533941381183,
              234.23974430262248
            ],
            [
              435.04705155659576,
              234.3988017930419
            ],
            [
              435.3790487407663,
              234.55223398545454
            ],
            [
              435.77063669357716,
              234.81817831753645
            ],
            [
              436.5224435031564,
              235.14229945869153
            ],
            [
              436.93760684574573,
              235.4030517537016
            ],
            [
              438.25146807513516,
              235.9146584408314
            ],
            [
              440.0871793217883,
              236.8120732855777
            ],
            [
              440.6013909274275,
              236.96573460968062
            ],
            [
              440.9372076547895,
              237.12093200045342
            ],
            [
              441.42240091715274,
              237.25478336864262
            ],
            [
              441.8954954278615,
              237.45874525183444
            ],
            [
              441.89905522742623,
              237.459632031354
            ],
            [
              441.929170532243,
              237.47261547805314
            ],
            [
              442.7600475048921,
              237.67958211952927
            ],
            [
              442.8478871970298,
              237.7149427704691
            ],
            [
              442.91351490690187,
              237.73002088663554
            ],
            [
              443.39367971634397,
              237.9169930888193
            ],
            [
              444.7525887848537,
              238.2062327865975
            ],
            [
              446.4904505993742,
              238.72555624135163
            ],
            [
              447.0708688437829,
              238.81303905510376
            ],
            [
              447.5330562965639,
              238.94054375830373
            ],
            [
              448.1382174971275,
              239.019253114413
            ],
            [
              448.75900271737027,
              239.17388711721122
            ],
            [
              449.57307336296907,
              239.26006964462815
            ],
            [
              449.63621820351426,
              239.27457731589757
            ],
            [
              449.8756615086527,
              239.29666336851398
            ],
            [
              450.55286628420157,
              239.44080436304236
            ],
            [
              451.87585204877445,
              239.53726413738985
            ],
            [
              453.4347343633525,
              239.77222472400655
            ],
            [
              454.0684051716863,
              239.79055380756373
            ],
            [
              454.662260812662,
              239.86779272354903
            ],
            [
              455.37884670004064,
              239.87470453232984
            ],
            [
              456.11125697117666,
              239.95224199006614
            ],
            [
              456.87517421643577,
              239.94229263697832
            ],
            [
              456.9090026767413,
              239.94541294620336
            ],
            [
              457.27190407668627,
              239.93712557799995
            ],
            [
              457.34674790598143,
              239.9361508026707
            ],
            [
              458.2152827011799,
              239.99947625378357
            ],
            [
              459.4338059742245,
              239.945749341838
            ],
            [
              460.75455024145293,
              239.98395219371824
            ],
            [
              461.4274855230533,
              239.93304650596346
            ],
            [
              462.15150357606586,
              239.9400300014894
            ],
            [
              462.97036196772365,
              239.8629081546204
            ],
            [
              463.8030608617609,
              239.85206298079564
            ],
            [
              464.49047548980167,
              239.77227926101116
            ],
            [
              464.4929563108466,
              239.7722226079454
            ],
            [
              464.52555679862405,
              239.76820760295283
            ],
            [
              465.17807544458395,
              239.69247403157345
            ],
            [
              466.1845721135938,
              239.6480957590286
            ],
            [
              467.24565293964673,
              239.49291827678275
            ],
            [
              468.2904053021197,
              239.41388565804047
            ],
            [
              468.9885711766018,
              239.29610025014097
            ],
            [
              469.83513686614384,
              239.21636887028976
            ],
            [
              470.74333963117294,
              239.04655021754945
            ],
            [
              471.66142770180284,
              238.9399937400287
            ],
            [
              473.14943178718306,
              238.6295217147012
            ],
            [
              474.27774138891556,
              238.4645123780958
            ],
            [
              475.14495578972,
              238.25747562050523
            ],
            [
              475.8952675322355,
              238.1308928443088
            ],
            [
              476.60538968950345,
              237.95044538112654
            ],
            [
              477.5618383491321,
              237.77160555696997
            ],
            [
              478.543805853229,
              237.5039856640211
            ],
            [
              479.5300924744236,
              237.29819697846273
            ],
            [
              481.10200633972244,
              236.83530316867873
            ],
            [
              482.33215900271495,
              236.5416193709388
            ],
            [
              482.9849866236609,
              236.3293410808039
            ],
            [
              483.4390284711688,
              236.2139655799537
            ],
            [
              483.47345038635655,
              236.2020578633791
            ],
            [
              483.4664528443616,
              236.21877075695755
            ],
            [
              484.233885335715,
              235.95324344939084
            ],
            [
              485.19903487069604,
              235.6902070310178
            ],
            [
              486.23763788311294,
              235.32297345186606
            ],
            [
              487.27383611597656,
              235.01783602780156
            ],
            [
              488.8998773583903,
              234.40601116767436
            ],
            [
              490.20962660286176,
              233.98012335104966
            ],
            [
              491.1514537628648,
              233.5956410839353
            ],
            [
              491.3986905033372,
              233.51230946241253
            ],
            [
              491.6129367755896,
              233.42235288008536
            ],
            [
              492.63518642135494,
              233.06090159242777
            ],
            [
              492.80276970100243,
              232.98845785585488
            ],
            [
              492.9579665477772,
              232.93476062342077
            ],
            [
              493.75477077472686,
              232.5792773752477
            ],
            [
              494.78047192347304,
              232.1933403857718
            ],
            [
              496.4316539368136,
              231.44010403858772
            ],
            [
              497.7978379219182,
              230.88238651015809
            ],
            [
              498.60802775411133,
              230.4852913812578
            ],
            [
              498.9320178157302,
              230.34925616185873
            ],
            [
              499.0813526652573,
              230.27432067424502
            ],
            [
              499.7802469663833,
              229.972199157414
            ],
            [
              500.879252314442,
              229.4111982434512
            ],
            [
              501.9157420015112,
              228.93837229242234
            ],
            [
              501.96946842987194,
              228.91440298525865
            ],
            [
              502.13162067687585,
              228.82588935656585
            ],
            [
              503.44031391835506,
              228.1243100616484
            ],
            [
              504.22595335493173,
              227.74600227377653
            ],
            [
              504.4283760390604,
              227.63258716231428
            ],
            [
              505.0097715045641,
              227.34763010886883
            ],
            [
              505.68781678571935,
              226.95922971022648
            ],
            [
              506.0789968458168,
              226.76293749416493
            ],
            [
              506.1598968907676,
              226.7156277088197
            ],
            [
              506.5647322297806,
              226.5089744877123
            ],
            [
              507.65728297946004,
              225.86458510322757
            ],
            [
              508.66816192274143,
              225.32333613808763
            ],
            [
              508.68863972299516,
              225.3107273206309
            ],
            [
              508.7600302372411,
              225.2724554742863
            ],
            [
              509.66103529245873,
              224.7158272274316
            ],
            [
              510.3737413634663,
              224.32678420334446
            ],
            [
              510.659893233936,
              224.14113945097648
            ],
            [
              510.74786549471185,
              224.09184960085622
            ],
            [
              511.2027140249772,
              223.80016593421146
            ],
            [
              511.78164059311337,
              223.46854308232028
            ],
            [
              512.3006870380144,
              223.12687509911615
            ],
            [
              512.4096260127739,
              223.06358664996677
            ],
            [
              512.4357009170913,
              223.04626129122997
            ],
            [
              512.5714916493112,
              222.96617155042765
            ],
            [
              512.7789688290057,
              222.844840334337
            ],
            [
              512.7917983644004,
              222.83623405454645
            ],
            [
              512.937844167337,
              222.75009584532805
            ],
            [
              513.637448589273,
              222.27995863848193
            ],
            [
              513.7390222947258,
              222.2191646819736
            ],
            [
              514.0135205157115,
              222.0320328771727
            ],
            [
              514.9180220469981,
              221.47510319927306
            ],
            [
              515.0033104593138,
              221.41544478993092
            ],
            [
              515.1045092324824,
              221.352925611637
            ],
            [
              515.1495279315792,
              221.32127309492347
            ],
            [
              515.1781703364314,
              221.30357881836662
            ],
            [
              515.3767971295941,
              221.16392217364051
            ],
            [
              515.4270233286312,
              221.1327851071414
            ],
            [
              516.0596295322241,
              220.68554023032442
            ],
            [
              516.8354900113004,
              220.187999149539
            ],
            [
              517.5148813080647,
              219.6945748535647
            ],
            [
              517.5883907889606,
              219.64618643605257
            ],
            [
              518.0732570143216,
              219.3316231581993
            ],
            [
              518.4499041580444,
              219.0501496500499
            ],
            [
              518.4898027301047,
              219.02363921435617
            ],
            [
              518.5453883591389,
              218.98180181954558
            ],
            [
              518.8650573539943,
              218.76698286808613
            ],
            [
              518.9195213173994,
              218.72564886331807
            ],
            [
              518.9911265880851,
              218.6776147783008
            ],
            [
              519.476103446434,
              218.30806337734035
            ],
            [
              519.6425761939261,
              218.19457504369487
            ],
            [
              519.9867921289219,
              217.92954815607612
            ],
            [
              520.711409745542,
              217.4226852280917
            ],
            [
              520.8234715258693,
              217.33430654630794
            ],
            [
              521.045117809287,
              217.17846464922283
            ],
            [
              521.2470920744744,
              217.01806742890017
            ],
            [
              521.374411267913,
              216.9280543106907
            ],
            [
              521.8699768824124,
              216.53158177740121
            ],
            [
              522.4632314416407,
              216.10071636211958
            ],
            [
              523.1742825531362,
              215.51955773439252
            ],
            [
              523.7089232463205,
              215.1200135084053
            ],
            [
              523.9843318381311,
              214.88809577299386
            ],
            [
              524.0864198275696,
              214.8112576478598
            ],
            [
              524.1638794722456,
              214.74557999886585
            ],
            [
              524.3254940284612,
              214.6229268458471
            ],
            [
              524.4366771957714,
              214.52811605185383
            ],
            [
              524.6912176092676,
              214.33415676330483
            ],
            [
              524.7089520015106,
              214.3188900377715
            ],
            [
              524.7123796216916,
              214.31627823438262
            ],
            [
              524.9891988521345,
              214.07797665788786
            ],
            [
              525.0724528933979,
              214.0138757340348
            ],
            [
              525.4705235560605,
              213.66936091180338
            ],
            [
              526.0311426755738,
              213.2272228463532
            ],
            [
              526.1229321145731,
              213.14593456862866
            ],
            [
              526.4221808033642,
              212.90828717418466
            ],
            [
              526.4338444818887,
              212.89786711647017
            ],
            [
              526.4497723006778,
              212.88521820387908
            ],
            [
              526.6389386511853,
              212.71621949581058
            ],
            [
              526.8139271236652,
              212.5762216409347
            ],
            [
              527.1861251646413,
              212.24058536650557
            ],
            [
              527.6174707425424,
              211.88803658333595
            ],
            [
              528.2936224037292,
              211.26805660349982
            ],
            [
              528.5529029379356,
              211.05109635525096
            ],
            [
              528.629209181628,
              210.9796182957174
            ],
            [
              528.7748783165866,
              210.85731942492467
            ],
            [
              528.8076955908156,
              210.82640840427962
            ],
            [
              528.8456691956684,
              210.7944313610598
            ],
            [
              528.8735073466398,
              210.76808232032448
            ],
            [
              528.9328514164287,
              210.718110608362
            ],
            [
              529.0962330901235,
              210.56346180067266
            ],
            [
              529.1883000344105,
              210.4853986947037
            ],
            [
              529.2800847869797,
              210.3979286281747
            ],
            [
              529.3093262302497,
              210.37299315888623
            ],
            [
              529.4564340677975,
              210.23232911103736
            ],
            [
              529.8880860914047,
              209.86073875021196
            ],
            [
              530.4669565906215,
              209.29888776363964
            ],
            [
              530.8703960119981,
              208.94160378755848
            ],
            [
              530.9275686628798,
              208.88481433624563
            ],
            [
              531.3286310789955,
              208.5265104941748
            ],
            [
              531.5388790356692,
              208.3154113141176
            ],
            [
              531.7391745113059,
              208.13479126826422
            ],
            [
              532.0030317580766,
              207.8668085274744
            ],
            [
              532.2940746662924,
              207.59994417332962
            ],
            [
              532.8760142548948,
              207.00152461460084
            ],
            [
              533.0659451916091,
              206.82361132539737
            ],
            [
              533.1417778492159,
              206.74407952960357
            ],
            [
              533.3510934003691,
              206.54692246902178
            ],
            [
              533.4497002038474,
              206.44269058300205
            ],
            [
              533.5670705700226,
              206.33159374590508
            ],
            [
              533.7386702590131,
              206.14893566425127
            ],
            [
              533.7937452025683,
              206.0964497246778
            ],
            [
              534.0561339539393,
              205.815236678846
            ],
            [
              534.5401815300811,
              205.34542070348084
            ],
            [
              535.0153594109005,
              204.82485583715868
            ],
            [
              535.055712288172,
              204.78433958463677
            ],
            [
              535.2303364597575,
              204.61088583118158
            ],
            [
              535.2471354361123,
              204.5921414286453
            ],
            [
              535.7128942913304,
              204.12449687221363
            ],
            [
              535.9353921381312,
              203.87296441174556
            ],
            [
              536.1525678561901,
              203.6523930805829
            ],
            [
              536.3237429579337,
              203.45615954664055
            ],
            [
              536.4961500228876,
              203.27887007922317
            ],
            [
              536.9888305834139,
              202.70936649013092
            ],
            [
              537.1208584894547,
              202.57089822601202
            ],
            [
              537.1938813922524,
              202.48492039783756
            ],
            [
              537.4517501499814,
              202.2123413666257
            ],
            [
              537.5775299634491,
              202.0626884602018
            ],
            [
              537.7096494739734,
              201.9220547767526
            ],
            [
              537.8833764205231,
              201.7134201736134
            ],
            [
              537.9038081537425,
              201.6915226269345
            ],
            [
              537.9104443967443,
              201.69773774105772
            ],
            [
              538.2557764795556,
              201.27880344964413
            ],
            [
              538.5646393255302,
              200.94121423849288
            ],
            [
              538.5981789164256,
              200.8998205351383
            ],
            [
              538.6755067313451,
              200.81510669372543
            ],
            [
              539.0335704037861,
              200.3704927549408
            ],
            [
              539.6104452406023,
              199.71833926594695
            ],
            [
              539.8369273048615,
              199.42867790490558
            ],
            [
              540.0629339937194,
              199.16958595287647
            ],
            [
              540.1571907639782,
              199.04696809464255
            ],
            [
              540.2320968266453,
              198.9603820286353
            ],
            [
              540.6415279719819,
              198.425630039933
            ],
            [
              540.7263489825625,
              198.32576101262924
            ],
            [
              540.794867312299,
              198.2346983246879
            ],
            [
              541.0863301344895,
              197.8879156633657
            ],
            [
              541.2301252542235,
              197.69419558811376
            ],
            [
              541.3708173291116,
              197.52523368673639
            ],
            [
              541.5382602245957,
              197.29690568766551
            ],
            [
              541.5477158792083,
              197.28546965999413
            ],
            [
              541.5491577953363,
              197.2834886887113
            ],
            [
              541.714704993113,
              197.08265765838502
            ],
            [
              541.9050345571632,
              196.81858406831074
            ],
            [
              542.1123107126327,
              196.56276915036213
            ],
            [
              542.2062578424465,
              196.43091114638634
            ],
            [
              542.3062141729663,
              196.30679361858589
            ],
            [
              542.5661232225682,
              195.93814717941402
            ],
            [
              543.0334480779322,
              195.340457670998
            ],
            [
              543.2562589494564,
              195.0154157469339
            ],
            [
              543.4835032548154,
              194.71979549660887
            ],
            [
              543.8469966458276,
              194.17833702507997
            ],
            [
              543.8943239590562,
              194.11543776334526
            ],
            [
              543.9571580891707,
              194.02035041892233
            ],
            [
              544.2676650851835,
              193.6020369271715
            ],
            [
              544.4207522228137,
              193.3662902477531
            ],
            [
              544.5642867814687,
              193.17056406611658
            ],
            [
              544.799442462806,
              192.80272509970035
            ],
            [
              545.0028069759518,
              192.52056611221838
            ],
            [
              545.0755419851,
              192.40377289712532
            ],
            [
              545.1979939685173,
              192.23190735798838
            ],
            [
              545.3345653715667,
              192.01147997854943
            ],
            [
              545.4479122866395,
              191.85071244584086
            ],
            [
              545.6274397123752,
              191.55627951984073
            ],
            [
              545.9968150476371,
              191.01742578773786
            ],
            [
              546.1937312090331,
              190.68561520737003
            ],
            [
              546.3561615567245,
              190.4438657172073
            ],
            [
              546.3700568263595,
              190.41999549063976
            ],
            [
              546.4302762226525,
              190.33029289059374
            ],
            [
              546.7393436759786,
              189.7957731914306
            ],
            [
              547.0106513690926,
              189.37797265807433
            ],
            [
              547.1647912963862,
              189.1027614619455
            ],
            [
              547.3058777320852,
              188.88206898966723
            ],
            [
              547.5571889645306,
              188.42414702931515
            ],
            [
              547.837690500088,
              187.9714152199277
            ],
            [
              547.99972603488,
              187.6656249283295
            ],
            [
              548.1181854092497,
              187.4713463100935
            ],
            [
              548.2337674351353,
              187.2480832173129
            ],
            [
              548.5169843302069,
              186.77085289930653
            ],
            [
              548.6639856252064,
              186.4793306752333
            ],
            [
              548.7742996339433,
              186.2898258688509
            ],
            [
              548.8204010369836,
              186.1966683922538
            ],
            [
              548.9207306124887,
              186.02315243663224
            ],
            [
              549.1306616218037,
              185.5927719789978
            ],
            [
              549.331231332824,
              185.23466210410993
            ],
            [
              549.4786797407015,
              184.92293932573082
            ],
            [
              549.6124333110354,
              184.6792228131969
            ],
            [
              549.8129706062831,
              184.24370524297132
            ],
            [
              550.0482163911234,
              183.79975399958602
            ],
            [
              550.2192480047657,
              183.41284560814535
            ],
            [
              550.3354434183425,
              183.1883976699548
            ],
            [
              550.4021382077558,
              183.03235351325432
            ],
            [
              550.6109688101724,
              182.61821592575356
            ],
            [
              550.7155726300394,
              182.36707988333944
            ],
            [
              550.7844544036349,
              182.22788992840134
            ],
            [
              550.849119666282,
              182.06975381210663
            ],
            [
              550.9728226617856,
              181.8161497733877
            ],
            [
              551.1046363722174,
              181.48548126158488
            ],
            [
              551.2456045892225,
              181.18745834698345
            ],
            [
              551.3790954251449,
              180.84246820659553
            ],
            [
              551.500986197058,
              180.5777514976623
            ],
            [
              551.6548143461657,
              180.1653017644229
            ],
            [
              551.8464270260819,
              179.7318348036288
            ],
            [
              551.9521718561139,
              179.43379417441892
            ],
            [
              551.9774122126596,
              179.37591353582215
            ],
            [
              552.0290989430648,
              179.2257935380909
            ],
            [
              552.118049991589,
              179.017676959907
            ],
            [
              552.1495725132592,
              178.9242892094865
            ],
            [
              552.2956333585265,
              178.57362187555682
            ],
            [
              552.3651233862636,
              178.3624319712301
            ],
            [
              552.402488391447,
              178.27105745942876
            ],
            [
              552.4730506546204,
              178.05267057125232
            ],
            [
              552.6042351109753,
              177.7235806092609
            ],
            [
              552.6774090169324,
              177.4871413393946
            ],
            [
              552.7696316932701,
              177.24880352514194
            ],
            [
              552.8823419829447,
              176.87400918066857
            ],
            [
              552.9881331731139,
              176.59035792166884
            ],
            [
              553.0990784777855,
              176.20125059692234
            ],
            [
              553.2486382110019,
              175.77971814962922
            ],
            [
              553.3627263310705,
              175.35237885526146
            ],
            [
              553.4036777812568,
              175.2334386251303
            ],
            [
              553.4279629991066,
              175.13696493113247
            ],
            [
              553.4836795627034,
              174.97190058158503
            ],
            [
              553.492487052607,
              174.93621625944695
            ],
            [
              553.5871598310991,
              174.64849245671442
            ],
            [
              553.628577752139,
              174.4763685130232
            ],
            [
              553.6435912158753,
              174.42990254837522
            ],
            [
              553.7082541482634,
              174.15627814416703
            ],
            [
              553.8318262609575,
              173.75699236436654
            ],
            [
              553.8643521545362,
              173.60854105363097
            ],
            [
              553.9183950462342,
              173.42883279251274
            ],
            [
              554.0038981875932,
              173.02786730062337
            ],
            [
              554.0895788267385,
              172.72736819993492
            ],
            [
              554.1611887419831,
              172.36158224067304
            ],
            [
              554.2702062813983,
              171.95323579460177
            ],
            [
              554.3669458388741,
              171.4078700515857
            ],
            [
              554.3726220551642,
              171.38428092134913
            ],
            [
              554.4110880419998,
              171.23147373362607
            ],
            [
              554.4142707956325,
              171.21119774192977
            ],
            [
              554.5006630068254,
              170.85217035180742
            ],
            [
              554.5208198163915,
              170.71786623480057
            ],
            [
              554.5219420140603,
              170.71311759974085
            ],
            [
              554.5446443856908,
              170.55912396302097
            ],
            [
              554.5710882353819,
              170.3829295175913
            ],
            [
              554.671239527325,
              169.92582937597248
            ],
            [
              554.679725346739,
              169.8585876111728
            ],
            [
              554.7058858524114,
              169.73590837553505
            ],
            [
              554.7580986787098,
              169.31254534324972
            ],
            [
              554.8198140146906,
              168.9973012419698
            ],
            [
              554.8553340883072,
              168.65459902694238
            ],
            [
              554.9252345046694,
              168.26053796751816
            ],
            [
              554.9714689270631,
              167.7152069752951
            ],
            [
              555.0499258078621,
              167.19245152315202
            ],
            [
              555.0752664761566,
              166.74081862399498
            ],
            [
              555.1447905813675,
              166.17708863489474
            ],
            [
              555.1579181401084,
              165.73522937952973
            ],
            [
              555.1919000538514,
              165.40736752777914
            ],
            [
              555.1942637557429,
              165.08736134220177
            ],
            [
              555.2263783578272,
              164.70857240287023
            ],
            [
              555.2197407647031,
              164.16593223881063
            ],
            [
              555.2472275264352,
              163.67605068775046
            ],
            [
              555.2304116237262,
              163.29517808622657
            ],
            [
              555.2463550745251,
              162.7585389870441
            ],
            [
              555.2148360431019,
              162.30221350721894
            ],
            [
              555.2173349332663,
              161.96390506303408
            ],
            [
              555.1891628873121,
              161.66611278757813
            ],
            [
              555.184727434819,
              161.30350323555922
            ],
            [
              555.1186545575553,
              160.7304152236614
            ],
            [
              555.113862097931,
              160.5913708029222
            ],
            [
              555.1117572196214,
              160.57615461494476
            ],
            [
              555.1017539594749,
              160.33959749580274
            ],
            [
              555.0991308041638,
              160.32172681556364
            ],
            [
              555.0945508952415,
              160.2179939469251
            ],
            [
              555.051344366363,
              159.93521761713126
            ],
            [
              555.0203088518726,
              159.4858923871363
            ],
            [
              554.9955635352802,
              159.34429376436026
            ],
            [
              554.9937279902492,
              159.31914786978928
            ],
            [
              554.9386196161582,
              159.01774813053137
            ],
            [
              554.9059828197087,
              158.67276126328565
            ],
            [
              554.8495887530337,
              158.3966529694967
            ],
            [
              554.8097465203211,
              158.0510784027439
            ],
            [
              554.6881777396826,
              157.5140939930231
            ],
            [
              554.6717968418843,
              157.3956763064334
            ],
            [
              554.6665644298599,
              157.37479671003456
            ],
            [
              554.6342071484264,
              157.15435736834945
            ],
            [
              554.6249039497558,
              157.11855781774642
            ],
            [
              554.6206758730336,
              157.09004000743786
            ],
            [
              554.6109699610806,
              157.05307315209208
            ],
            [
              554.591305012856,
              156.9243708001695
            ],
            [
              554.5387539201865,
              156.7303198377987
            ],
            [
              554.4748361719613,
              156.3645671877136
            ],
            [
              554.416948827695,
              156.16461660194238
            ],
            [
              554.4052032150753,
              156.10037728007788
            ],
            [
              554.3294544366603,
              155.85004820948942
            ],
            [
              554.2660526016626,
              155.53962951625803
            ],
            [
              554.1834540055391,
              155.2846665444204
            ],
            [
              554.109262643609,
              154.95695408006557
            ],
            [
              553.9356563716915,
              154.45815612657887
            ],
            [
              553.9103553996122,
              154.35719425984527
            ],
            [
              553.9003705566794,
              154.3304877365844
            ],
            [
              553.8474757320315,
              154.12694366331496
            ],
            [
              553.8323727701116,
              154.08763416373702
            ],
            [
              553.819566470426,
              154.03885887809827
            ],
            [
              553.7932397418273,
              153.97107338740483
            ],
            [
              553.7760133806084,
              153.90661607844245
            ],
            [
              553.76983822096,
              153.89101005672475
            ],
            [
              553.7454258934985,
              153.8008647258178
            ],
            [
              553.6994487360738,
              153.68627586215084
            ],
            [
              553.6165839377504,
              153.4000498281996
            ],
            [
              553.5121390863849,
              153.1490437010795
            ],
            [
              553.4822121161707,
              153.05014321984532
            ],
            [
              553.3936845996168,
              152.8468290477708
            ],
            [
              553.3041151583349,
              152.57034867150654
            ],
            [
              553.1970472223486,
              152.33601659756977
            ],
            [
              553.0894886881173,
              152.02698411756992
            ],
            [
              552.867597621154,
              151.56812336049975
            ],
            [
              552.83529367815,
              151.48171979753016
            ],
            [
              552.8187064234609,
              151.44929626382014
            ],
            [
              552.7472041850941,
              151.26319255619316
            ],
            [
              552.725255534819,
              151.22125077813536
            ],
            [
              552.6993220726264,
              151.1544778612615
            ],
            [
              552.650598789544,
              151.06243948261175
            ],
            [
              552.6205311841234,
              150.98645185964176
            ],
            [
              552.6036112583205,
              150.95512025402718
            ],
            [
              552.5630487075159,
              150.8540262137488
            ],
            [
              552.5386465778981,
              150.80950679584117
            ],
            [
              552.4506996516303,
              150.5981491552635
            ],
            [
              552.2864330181962,
              150.30389158253965
            ],
            [
              552.2302845531816,
              150.17493982694867
            ],
            [
              552.1363158155482,
              150.0144682446226
            ],
            [
              552.025152498082,
              149.77117289679248
            ],
            [
              551.8950843500085,
              149.55700961007042
            ],
            [
              551.7550774360924,
              149.26748160249707
            ],
            [
              551.489891665485,
              148.85146220832303
            ],
            [
              551.4819337565566,
              148.83585954722219
            ],
            [
              551.481010778523,
              148.8344681536905
            ],
            [
              551.450865962053,
              148.77554330499535
            ],
            [
              551.4256231023409,
              148.7377771085027
            ],
            [
              551.3375381162739,
              148.56945509828503
            ],
            [
              551.3077067022194,
              148.5257136585623
            ],
            [
              551.264154915049,
              148.44344424596946
            ],
            [
              551.1865422131056,
              148.33105150993555
            ],
            [
              551.1403882955495,
              148.24558563028467
            ],
            [
              551.1260917904116,
              148.2253246448498
            ],
            [
              550.9808953717704,
              147.96522833178176
            ],
            [
              550.7435950560695,
              147.63610167670345
            ],
            [
              550.6533149226323,
              147.48192916964098
            ],
            [
              550.560784472067,
              147.3600224800905
            ],
            [
              550.432634969577,
              147.1490183330216
            ],
            [
              550.2807876454759,
              146.95463825455178
            ],
            [
              550.1092028602505,
              146.68545865931114
            ],
            [
              549.8031598504099,
              146.31038707954
            ],
            [
              549.7599083742622,
              146.24567793940403
            ],
            [
              549.7237783577945,
              146.20321878547895
            ],
            [
              549.621209968595,
              146.0528240034864
            ],
            [
              549.5824266644173,
              146.00809494590027
            ],
            [
              549.5168158285516,
              145.91308238774997
            ],
            [
              549.4304944733044,
              145.81488032132802
            ],
            [
              549.2095360926838,
              145.5084193184719
            ],
            [
              548.8859560805165,
              145.15347551610722
            ],
            [
              548.753671266695,
              144.9791933891831
            ],
            [
              548.6690629368672,
              144.89146607037043
            ],
            [
              548.5286255119046,
              144.7116918277487
            ],
            [
              548.35599141268,
              144.53680710981004
            ],
            [
              548.1536681374832,
              144.28884944368787
            ],
            [
              547.8123395778962,
              143.95694044661386
            ],
            [
              547.7639480677757,
              143.90007187090833
            ],
            [
              547.714547089854,
              143.85385629012626
            ],
            [
              547.5996506406011,
              143.72134540679022
            ],
            [
              547.5507755187186,
              143.67644904774465
            ],
            [
              547.4587121850894,
              143.57171471428885
            ],
            [
              547.3745672077881,
              143.49559155182737
            ],
            [
              547.137753255062,
              143.2358238230696
            ],
            [
              546.7440079544662,
              142.89071999817406
            ],
            [
              546.7345560418289,
              142.8807284333883
            ],
            [
              546.7303256566865,
              142.87715877532668
            ],
            [
              546.6781224799689,
              142.82232293014948
            ],
            [
              546.6538990369382,
              142.80201546577953
            ],
            [
              546.5323356889656,
              142.6759708244841
            ],
            [
              546.4617942556401,
              142.61791543649076
            ],
            [
              546.3139124812253,
              142.46810573769062
            ],
            [
              546.121276359674,
              142.31254509502372
            ],
            [
              545.8890423547641,
              142.08671999633057
            ],
            [
              545.5173484494137,
              141.79833400033164
            ],
            [
              545.4633404657985,
              141.7478084756447
            ],
            [
              545.3981610047517,
              141.6990717974977
            ],
            [
              545.2731295373857,
              141.5842187304338
            ],
            [
              545.2129154490486,
              141.54001709818363
            ],
            [
              545.0900560493404,
              141.42887028534207
            ],
            [
              545.0112485220759,
              141.37201766232369
            ],
            [
              544.7655862689238,
              141.1567033891965
            ],
            [
              544.5620590184445,
              141.01395696859166
            ],
            [
              544.5224335976914,
              140.9797436350844
            ],
            [
              544.3076175191185,
              140.83284381508534
            ],
            [
              544.2912509329069,
              140.81903346107856
            ],
            [
              544.2774010043013,
              140.80970375902933
            ],
            [
              544.2227651559202,
              140.76390037991888
            ],
            [
              544.1493978903567,
              140.7148201653088
            ],
            [
              543.9890802325156,
              140.58287921387847
            ],
            [
              543.938460494117,
              140.54984225333425
            ],
            [
              543.7881750712269,
              140.42848133316883
            ],
            [
              543.5761368502143,
              140.29220696294206
            ],
            [
              543.3148302994373,
              140.08946715789628
            ],
            [
              542.917991134455,
              139.84457286826222
            ],
            [
              542.85743914705,
              139.7992962938017
            ],
            [
              542.7738823187872,
              139.74958485140556
            ],
            [
              542.6409278490459,
              139.65198635344672
            ],
            [
              542.5679867616676,
              139.6094215675573
            ],
            [
              542.4100477695611,
              139.49548262936776
            ],
            [
              542.3395423406954,
              139.4551666850832
            ],
            [
              542.0921570858474,
              139.28165989640672
            ],
            [
              541.8062349980382,
              139.12229847541738
            ],
            [
              541.6935464087027,
              139.04523751425106
            ],
            [
              541.4913259784224,
              138.93666012509306
            ],
            [
              541.4601414774696,
              138.915798750642
            ],
            [
              541.3261113175439,
              138.8448931681621
            ],
            [
              541.1226852122074,
              138.7121271676185
            ],
            [
              541.0971174668169,
              138.69897153757591
            ],
            [
              540.9501878164206,
              138.60454164904166
            ],
            [
              540.7191877788691,
              138.48766449498754
            ],
            [
              540.4296821540054,
              138.3090070422909
            ],
            [
              540.0132199226701,
              138.10715164107967
            ],
            [
              539.9448052698988,
              138.06644891047964
            ],
            [
              539.8402186050472,
              138.01763192312052
            ],
            [
              539.7015521643126,
              137.93671309434825
            ],
            [
              539.6143250310913,
              137.89685109176833
            ],
            [
              539.4171027277508,
              137.7840767491272
            ],
            [
              539.3577280366368,
              137.75759961057543
            ],
            [
              539.1158850409026,
              137.62280609479285
            ],
            [
              538.7371622662399,
              137.45787825933775
            ],
            [
              538.5337344033619,
              137.34865256832953
            ],
            [
              538.2249462966587,
              137.22112432181936
            ],
            [
              538.0511559528157,
              137.13170222245537
            ],
            [
              537.9947434734254,
              137.10920023076446
            ],
            [
              537.7980731952341,
              137.00969261749515
            ],
            [
              537.5484203135326,
              136.91248601098246
            ],
            [
              537.231652406024,
              136.75895152874185
            ],
            [
              536.8013897552597,
              136.5992248082026
            ],
            [
              536.7234657907105,
              136.56285293232523
            ],
            [
              536.5951882596909,
              136.51713318373146
            ],
            [
              536.4529979055445,
              136.45215349158138
            ],
            [
              536.349729306438,
              136.41623348903767
            ],
            [
              536.1091315317848,
              136.30894298369327
            ],
            [
              536.0636330057675,
              136.29359814878075
            ],
            [
              535.8347514378827,
              136.19392381152664
            ],
            [
              535.3533147956036,
              136.03515205799746
            ],
            [
              535.040648474838,
              135.90602212467638
            ],
            [
              534.7740816674063,
              135.824532263987
            ],
            [
              534.6780854443701,
              135.78624098098783
            ],
            [
              534.5837812606433,
              135.7581532434363
            ],
            [
              534.3296139618982,
              135.659188871672
            ],
            [
              534.0615183564267,
              135.58210033211466
            ],
            [
              533.7185198573313,
              135.45476874682896
            ],
            [
              533.2805717442803,
              135.33576157048495
            ],
            [
              533.191232171516,
              135.3039198069759
            ],
            [
              533.0917708973561,
              135.2781330894401
            ],
            [
              533.0334142317572,
              135.25754466417763
            ],
            [
              532.976843402598,
              135.2430397855222
            ],
            [
              532.893074526305,
              135.21390238775106
            ],
            [
              532.7717939209391,
              135.18339235219162
            ],
            [
              532.4838865761355,
              135.0862927082395
            ],
            [
              532.454970502279,
              135.07931453885146
            ],
            [
              532.2466256727586,
              135.01060503272723
            ],
            [
              531.8163953914177,
              134.90900944284064
            ],
            [
              531.767836286477,
              134.8935152618355
            ],
            [
              531.6415066800023,
              134.86525861914038
            ],
            [
              531.4496418176317,
              134.80574257097427
            ],
            [
              531.4210094882129,
              134.79949322260526
            ],
            [
              531.2118854799063,
              134.73556370914628
            ],
            [
              531.0019717942245,
              134.69134029544279
            ],
            [
              530.9990923232324,
              134.6904826683218
            ],
            [
              530.9144553330639,
              134.67290282836964
            ],
            [
              530.8586818434809,
              134.66115278884473
            ],
            [
              530.5426395131627,
              134.5702775891583
            ],
            [
              530.3326869635665,
              134.52897512334792
            ],
            [
              530.3246939823066,
              134.52671570924306
            ],
            [
              530.2513492223928,
              134.51260647948388
            ],
            [
              529.8881832435185,
              134.41392045618076
            ],
            [
              529.4489391238639,
              134.33367832785916
            ],
            [
              529.346093751322,
              134.30701423579
            ],
            [
              529.2857338971337,
              134.29663160524765
            ],
            [
              529.1912921629335,
              134.27241654750503
            ],
            [
              529.0660958020561,
              134.25116595834533
            ],
            [
              529.0198069016438,
              134.2395212605515
            ],
            [
              528.8920078536453,
              134.218437695932
            ],
            [
              528.6903426953094,
              134.1708160114308
            ],
            [
              528.5393905711148,
              134.13438750121
            ],
            [
              528.5297577284698,
              134.13289509990994
            ],
            [
              528.3496670269453,
              134.09036805834964
            ],
            [
              527.8144451440157,
              134.00924462987481
            ],
            [
              527.6977098103289,
              133.98313397611605
            ],
            [
              527.6517975712134,
              133.97681763810616
            ],
            [
              527.4749060207758,
              133.9382089414187
            ],
            [
              527.3544011108115,
              133.92194237026385
            ],
            [
              527.2984094492576,
              133.90993122649618
            ],
            [
              527.2837875300864,
              133.90801451844015
            ],
            [
              527.0455102107354,
              133.85781561675557
            ],
            [
              526.705025057419,
              133.81533110170588
            ],
            [
              526.4355032429178,
              133.76230999979708
            ],
            [
              526.4044039131078,
              133.75879705006614
            ],
            [
              526.3862307923029,
              133.75522416787973
            ],
            [
              526.3848296688875,
              133.75506311819387
            ],
            [
              526.3834955785178,
              133.7548008333513
            ],
            [
              526.3433063953121,
              133.75029029792668
            ],
            [
              526.207286329428,
              133.73465570867035
            ],
            [
              526.2020291756513,
              133.73364439728897
            ],
            [
              526.1162192992747,
              133.72418816770772
            ],
            [
              526.1064580161703,
              133.72306617404527
            ],
            [
              525.7391495467481,
              133.65596541613516
            ],
            [
              525.3052420568733,
              133.61193849736554
            ],
            [
              525.1867023608119,
              133.59154822496615
            ],
            [
              525.1720371971198,
              133.59019595087975
            ],
            [
              525.0370266421165,
              133.56727951930972
            ],
            [
              524.8333730943618,
              133.54886707274264
            ],
            [
              524.8319297414854,
              133.548628956545
            ],
            [
              524.80926553438,
              133.5466874929396
            ],
            [
              524.69378115,
              133.53624647641763
            ],
            [
              524.1428184828748,
              133.45273722176123
            ],
            [
              523.5592923161515,
              133.40965281072
            ],
            [
              523.1879290759423,
              133.35952367844735
            ],
            [
              523.0289528993573,
              133.3502713303898
            ],
            [
              522.9713337316958,
              133.34271834630187
            ],
            [
              522.8759895509235,
              133.3375577978852
            ],
            [
              522.5407022543236,
              133.2957218527353
            ],
            [
              522.2883456606826,
              133.28419990805253
            ],
            [
              522.0386788924264,
              133.2555023967873
            ],
            [
              521.8998279070444,
              133.24996457173185
            ],
            [
              521.8634052394676,
              133.2458503029999
            ],
            [
              521.8422269129119,
              133.24512256790894
            ],
            [
              521.7243307101003,
              133.23189077376168
            ],
            [
              521.4825955624262,
              133.2240693072144
            ],
            [
              521.2711343838107,
              133.20261315734058
            ],
            [
              520.894985828062,
              133.19279497924617
            ],
            [
              520.5705596621976,
              133.1634634035921
            ],
            [
              520.1249837225503,
              133.15608206868552
            ],
            [
              519.6264107794734,
              133.11927014346546
            ],
            [
              519.0479655537606,
              133.1185795051158
            ],
            [
              518.589409568001,
              133.0918917354477
            ],
            [
              518.3883523951544,
              133.09466233608478
            ],
            [
              518.3291852266893,
              133.09145988539422
            ],
            [
              518.1705992094834,
              133.09432269885133
            ],
            [
              518.1156641031653,
              133.09157049696984
            ],
            [
              518.0839354131225,
              133.09223748851431
            ],
            [
              517.6985529714693,
              133.07464193013809
            ],
            [
              517.585077197075,
              133.07787839946275
            ],
            [
              517.3859193064968,
              133.06993534055397
            ],
            [
              517.0471805123924,
              133.0803539527594
            ],
            [
              516.954752770105,
              133.07717792695567
            ],
            [
              516.949314134123,
              133.07739262663966
            ],
            [
              516.7161569264632,
              133.06984870380873
            ],
            [
              516.5143623682975,
              133.07845254557293
            ],
            [
              516.4857955009173,
              133.07770689711342
            ],
            [
              516.1919638889532,
              133.09092833394172
            ],
            [
              515.7938055353152,
              133.08433251066822
            ],
            [
              515.2365320758191,
              133.11402881991376
            ],
            [
              514.8028960389375,
              133.11351107741297
            ],
            [
              514.7490050687741,
              133.11719305204102
            ],
            [
              514.7115664375177,
              133.11712716228544
            ],
            [
              514.1943730809647,
              133.1524560551705
            ],
            [
              513.6823690295372,
              133.1595115545177
            ],
            [
              513.43604948501,
              133.17979134797883
            ],
            [
              513.3751999429079,
              133.1808898110775
            ],
            [
              513.2181960923047,
              133.19452368385592
            ],
            [
              513.2095217606345,
              133.19470603320136
            ],
            [
              513.146160655151,
              133.200337886711
            ],
            [
              512.428892591056,
              133.22239894950366
            ],
            [
              512.1872299493245,
              133.2461555552883
            ],
            [
              512.1326727351893,
              133.24801048637636
            ],
            [
              511.84509113858223,
              133.27753457822723
            ],
            [
              511.3611282456754,
              133.29816912946836
            ],
            [
              510.99456900128666,
              133.340076992715
            ],
            [
              510.71151405822246,
              133.3551605876342
            ],
            [
              510.03580452157155,
              133.43652316726207
            ],
            [
              509.48946336270956,
              133.4738431135355
            ],
            [
              508.9128259093301,
              133.55219395234818
            ],
            [
              508.47308372551055,
              133.58839847148815
            ],
            [
              508.1789198729528,
              133.6321234662688
            ],
            [
              508.11600673100844,
              133.6375867066309
            ],
            [
              508.1091788534704,
              133.63840676703654
            ],
            [
              508.10928949504734,
              133.64247343920053
            ],
            [
              508.0186326762616,
              133.6559488165914
            ],
            [
              507.1747135732811,
              133.7389101435887
            ],
            [
              506.8791092795288,
              133.78735894205815
            ],
            [
              506.76067542544166,
              133.79951775899153
            ],
            [
              506.3135649743327,
              133.8752452625682
            ],
            [
              505.6688198798181,
              133.9489574650676
            ],
            [
              505.4584066534276,
              133.98769031576384
            ],
            [
              505.33229929555966,
              134.00287497631638
            ],
            [
              504.6164253980222,
              134.13596904702325
            ],
            [
              503.9681514778352,
              134.22405351869617
            ],
            [
              503.3318289572477,
              134.3526029648918
            ],
            [
              502.9721882734721,
              134.40606054264927
            ],
            [
              502.538631338143,
              134.49875233344798
            ],
            [
              501.63505467578824,
              134.64684627031104
            ],
            [
              501.2837549427435,
              134.72714876027808
            ],
            [
              501.0935480798331,
              134.7593642695688
            ],
            [
              500.4716820887811,
              134.90564619402792
            ],
            [
              499.65509749117655,
              135.05596302459654
            ],
            [
              498.8995740553134,
              135.24723619649785
            ],
            [
              498.44910638247603,
              135.33702844657432
            ],
            [
              498.41721412524475,
              135.345450136685
            ],
            [
              498.16016162498875,
              135.39737970931836
            ],
            [
              497.46720038152716,
              135.58299290018505
            ],
            [
              497.19596034324866,
              135.64098234248246
            ],
            [
              496.7863681576288,
              135.75519211818084
            ],
            [
              495.8274407791462,
              135.97439028130643
            ],
            [
              495.4196656312891,
              136.0940351724354
            ],
            [
              495.1504027592918,
              136.15737404555227
            ],
            [
              494.649781066986,
              136.30823138830075
            ],
            [
              494.5734632453575,
              136.32643101166684
            ],
            [
              494.44780991431645,
              136.36566475950747
            ],
            [
              493.7443020902307,
              136.54215157807718
            ],
            [
              493.5823707680945,
              136.593373576373
            ],
            [
              493.3439840970258,
              136.65372507911982
            ],
            [
              492.8100249337514,
              136.82612331151174
            ],
            [
              492.4913356964289,
              136.91027859657356
            ],
            [
              492.40174388073,
              136.93980116785758
            ],
            [
              492.0883685268931,
              137.023740349037
            ],
            [
              491.3440713513526,
              137.27271007716024
            ],
            [
              491.16778336552557,
              137.32186582775086
            ],
            [
              490.78472349776746,
              137.4539688267387
            ],
            [
              489.77671367680864,
              137.74972796242844
            ],
            [
              489.3129174730706,
              137.91644188492444
            ],
            [
              488.9583857712107,
              138.0232764693734
            ],
            [
              488.3350582409433,
              138.25319966672933
            ],
            [
              487.5838277219932,
              138.49082835927814
            ],
            [
              487.2175554987239,
              138.63175174083432
            ],
            [
              486.76977127257356,
              138.77632685891345
            ],
            [
              486.4724831471958,
              138.89362944227506
            ],
            [
              486.30673898021064,
              138.94824597110218
            ],
            [
              486.1549130430182,
              139.00849972634362
            ],
            [
              485.7845464799273,
              139.13238849758943
            ],
            [
              484.99674675136254,
              139.4500251892701
            ],
            [
              484.91976459064233,
              139.47657345275465
            ],
            [
              484.5652493031252,
              139.62301554149693
            ],
            [
              483.51663867187926,
              139.9999440072707
            ],
            [
              482.9988156182354,
              140.22154841774173
            ],
            [
              482.5544525221831,
              140.3854580460962
            ],
            [
              481.811061099191,
              140.71190258147476
            ],
            [
              480.9707119691773,
              141.03522723883276
            ],
            [
              480.59211867803884,
              141.2085219382189
            ],
            [
              480.2840498160203,
              141.32920546700433
            ],
            [
              480.19483772275623,
              141.3706339468354
            ],
            [
              479.9793170674471,
              141.455673097332
            ],
            [
              479.7598874427287,
              141.55878730304997
            ],
            [
              479.71767234754026,
              141.57852012010693
            ],
            [
              479.2911984573329,
              141.75047214124
            ],
            [
              479.257890620958,
              141.76630595101065
            ],
            [
              479.25161984578585,
              141.7688343705539
            ],
            [
              478.0635291835439,
              142.33362363952185
            ],
            [
              477.0915960044123,
              142.74956626251586
            ],
            [
              476.523625478004,
              143.0337674985646
            ],
            [
              475.987227087307,
              143.2693154454642
            ],
            [
              475.1477883057425,
              143.70057242434706
            ],
            [
              474.204953605776,
              144.13213912065578
            ],
            [
              473.92355861036083,
              144.28290234805453
            ],
            [
              473.56596886132695,
              144.44896054894832
            ],
            [
              473.49798560301025,
              144.4858199888801
            ],
            [
              473.42712866353423,
              144.51894100916633
            ],
            [
              473.2116552422253,
              144.63592769859332
            ],
            [
              473.03441608416705,
              144.71921579166064
            ],
            [
              472.96659719097124,
              144.7565805615266
            ],
            [
              472.6210747947613,
              144.92083346559158
            ],
            [
              471.3690016289851,
              145.61303948742426
            ],
            [
              470.558259610131,
              146.0187187844388
            ],
            [
              470.54721014727113,
              146.02466677334905
            ],
            [
              469.9323615763851,
              146.37996873563844
            ],
            [
              469.3188290827876,
              146.69516762261614
            ],
            [
              468.39010000531795,
              147.24756800155689
            ],
            [
              467.3531009312572,
              147.8031618456608
            ],
            [
              467.1803312294869,
              147.9105061818156
            ],
            [
              466.8478734067797,
              148.09100705202644
            ],
            [
              466.84310119648666,
              148.0939923258686
            ],
            [
              466.76964002628466,
              148.13382180238247
            ],
            [
              466.4756781525532,
              148.31830310122217
            ],
            [
              465.925368087649,
              148.6225408656078
            ],
            [
              464.7129655225114,
              149.3960961981164
            ],
            [
              464.0923096953018,
              149.75475399412738
            ],
            [
              463.41806114426055,
              150.20158619686174
            ],
            [
              463.33643328593524,
              150.24945442059567
            ],
            [
              463.28608068679983,
              150.2833965053096
            ],
            [
              462.6264907737441,
              150.67571513380602
            ],
            [
              461.68641835109355,
              151.31977439957862
            ],
            [
              460.70036417743273,
              151.93660424397
            ],
            [
              460.50321325696706,
              152.05909698698372
            ],
            [
              460.4941500368116,
              152.06560226422712
            ],
            [
              460.2762967364015,
              152.20188120405075
            ],
            [
              460.1996540299959,
              152.2569399965078
            ],
            [
              459.9821016016147,
              152.39346911181488
            ],
            [
              459.73664487670345,
              152.57116319529285
            ],
            [
              459.24973288084925,
              152.88183011541045
            ],
            [
              458.1025835244913,
              153.72421382393986
            ],
            [
              457.6816933302062,
              154.00314255479682
            ],
            [
              456.99699472168163,
              154.52279411924223
            ]
          ]
        ]
      }
    }
  ]
}