{
  "type": "FeatureCollection",
  "features": [
    {
      "type": "Feature",
      "properties": {
        "method": "Homography",
        "mode": "tmpl2img",
        "inside_ratio": 1.0
      },
      "geometry": {
        "type": "Polygon",
        "coordinates": [
          [
            [
              377.50863334519033,
              373.2529046548545
            ],
            [
              378.24396170754113,
              373.28316180343813
            ],
            [
              379.4460334464175,
              373.3969056252273
            ],
            [
              380.08564865413626,
              373.4151978745254
            ],
            [
              380.6657591578907,
              373.46516616599655
            ],
            [
              380.8000664205017,
              373.4686370544799
            ],
            [
              380.8425018171991,
              373.47224091997896
            ],
            [
              383.79497844223914,
              373.5473776981503
            ],
            [
              384.34411054350124,
              373.585405822798
            ],
            [
              385.8336272578374,
              373.59925871984376
            ],
            [
              386.07560537444,
              373.6054167554141
            ],
            [
              386.6420738813646,
              373.62872569147527
            ],
            [
              388.28761488732795,
              373.71599505439485
            ],
            [
              388.6830963016965,
              373.71270928547256
            ],
            [
              390.4091912117856,
              373.78373430346596
            ],
            [
              391.9511705384198,
              373.75681386722124
            ],
            [
              392.7769867331085,
              373.7781553484242
            ],
            [
              393.81351646738847,
              373.8077988904713
            ],
            [
              393.8381843381389,
              373.8077025313221
            ],
            [
              396.9576637952161,
              373.70271518421833
            ],
            [
              397.54195002725163,
              373.70814919979296
            ],
            [
              399.037295034223,
              373.63310172699255
            ],
            [
              399.73870767511437,
              373.62085620985283
            ],
            [
              401.879660885171,
              373.6030685787091
            ],
            [
              402.2558622243526,
              373.57691080968306
            ],
            [
              403.4283293312252,
              373.55644145224835
            ],
            [
              405.1116217604144,
              373.4282904198002
            ],
            [
              407.08603527019903,
              373.3618407318557
            ],
            [
              407.6703046554236,
              373.3071848019226
            ],
            [
              407.91597642618115,
              373.2985531087581
            ],
            [
              408.06356506278496,
              373.2840824041199
            ],
            [
              408.28969052583705,
              373.275848754093
            ],
            [
              410.3585684263481,
              373.0649164901434
            ],
            [
              410.7905337084753,
              373.0432372772448
            ],
            [
              412.1705632027139,
              372.8908849053607
            ],
            [
              412.6790829479504,
              372.85217069905525
            ],
            [
              415.4813800851086,
              372.6573233298002
            ],
            [
              415.8128161839009,
              372.61359590204194
            ],
            [
              416.43917014582865,
              372.56591083822576
            ],
            [
              418.29975141754784,
              372.3128450125357
            ],
            [
              418.3639185323599,
              372.30684245032984
            ],
            [
              419.55515308003737,
              372.1999855841668
            ],
            [
              419.6360806152322,
              372.18783706784393
            ],
            [
              420.2873784738983,
              372.1269109077
            ],
            [
              420.3005832968969,
              372.1248634901661
            ],
            [
              420.44054979027493,
              372.11179270544704
            ],
            [
              421.16765924106693,
              371.99925803820105
            ],
            [
              421.76240848200354,
              371.94094433059485
            ],
            [
              422.3980688522567,
              371.83743028564993
            ],
            [
              422.6912642779061,
              371.8075375718804
            ],
            [
              425.31838011824044,
              371.3618725101816
            ],
            [
              425.3952491690208,
              371.3493547778426
            ],
            [
              428.9456950091498,
              370.8809330683182
            ],
            [
              429.20986350627885,
              370.8289127779854
            ],
            [
              429.3125567566882,
              370.8149450182326
            ],
            [
              430.10062276437634,
              370.65862922277313
            ],
            [
              430.178554852672,
              370.6477775226908
            ],
            [
              430.3124999523863,
              370.62069319979963
            ],
            [
              430.3440099070435,
              370.6162877359381
            ],
            [
              430.8481541751723,
              370.5141673510287
            ],
            [
              431.3587984859916,
              370.4394184170424
            ],
            [
              431.36057140013696,
              370.4390519337367
            ],
            [
              431.44662525269376,
              370.426455230622
            ],
            [
              431.65105304775807,
              370.3841976959515
            ],
            [
              432.39699550211526,
              370.27221981273885
            ],
            [
              432.5836366072823,
              370.2324082017906
            ],
            [
              433.43839109496173,
              370.10011792314896
            ],
            [
              433.5014022967971,
              370.0863111641831
            ],
            [
              433.5614295518004,
              370.07700400231187
            ],
            [
              434.57529734734743,
              369.85443081503644
            ],
            [
              435.39265475335185,
              369.72132833575404
            ],
            [
              436.50603622898694,
              369.46399371310883
            ],
            [
              436.8446724427998,
              369.4065473200707
            ],
            [
              438.834355672016,
              368.9336494054888
            ],
            [
              442.12441459404357,
              368.2857681395545
            ],
            [
              443.2438825035496,
              367.9878288827564
            ],
            [
              443.512283746062,
              367.9323473137855
            ],
            [
              444.0524811707656,
              367.7860383230545
            ],
            [
              444.940576786306,
              367.59660246913296
            ],
            [
              445.21286724092647,
              367.52014246857135
            ],
            [
              446.11881938795995,
              367.3216339087487
            ],
            [
              446.1383577850863,
              367.31600595567033
            ],
            [
              446.2622806767662,
              367.28880131114033
            ],
            [
              447.6495749895449,
              366.8883999883566
            ],
            [
              448.64897745442005,
              366.65740920775863
            ],
            [
              451.44190737272794,
              365.8059767581645
            ],
            [
              454.87019091460786,
              364.8935609203391
            ],
            [
              456.27021657975183,
              364.415204626106
            ],
            [
              457.0565888359056,
              364.1943888680527
            ],
            [
              457.37580079019443,
              364.0812136254226
            ],
            [
              458.5086917704548,
              363.75423827283646
            ],
            [
              458.53169385237476,
              363.74585609336407
            ],
            [
              458.5382290679951,
              363.74396989518823
            ],
            [
              460.23957379775675,
              363.12398369208654
            ],
            [
              461.37564662808904,
              362.7776487316213
            ],
            [
              463.7557369658355,
              361.85757594726846
            ],
            [
              467.03856920769437,
              360.73590832009734
            ],
            [
              468.16164589801707,
              360.2571380522778
            ],
            [
              468.6185568485181,
              360.09514221537796
            ],
            [
              468.95351053915107,
              359.94872429697955
            ],
            [
              469.20640588765633,
              359.8581565809668
            ],
            [
              469.229461192367,
              359.8479832116642
            ],
            [
              470.19836439953616,
              359.4949056665474
            ],
            [
              472.22306457365795,
              358.58435662250133
            ],
            [
              473.42125300451266,
              358.1211722852242
            ],
            [
              475.40524415553995,
              357.16917486361393
            ],
            [
              476.46882249219215,
              356.7157688856629
            ],
            [
              477.89020629834,
              356.1144953246478
            ],
            [
              477.9423087757024,
              356.0876181737175
            ],
            [
              478.4900873317279,
              355.8540988706899
            ],
            [
              479.3431669467858,
              355.4071058385094
            ],
            [
              479.5045416084388,
              355.3365643197812
            ],
            [
              479.7525253356774,
              355.2045825252987
            ],
            [
              480.0667431227148,
              355.06593098158885
            ],
            [
              480.170127004087,
              355.0104002454358
            ],
            [
              481.14516544596876,
              354.5719055327361
            ],
            [
              483.1553592864836,
              353.4691257101332
            ],
            [
              483.87629724562635,
              353.12663185258526
            ],
            [
              484.1039632094715,
              352.9951854250196
            ],
            [
              484.64104878758496,
              352.7374705227724
            ],
            [
              486.064070686245,
              351.89799357775
            ],
            [
              488.12798767663344,
              350.83331851312516
            ],
            [
              488.2920710130612,
              350.7306614199357
            ],
            [
              488.5077213933604,
              350.61874886984435
            ],
            [
              488.6353896385354,
              350.5382064728308
            ],
            [
              489.0923753216163,
              350.298757056223
            ],
            [
              489.8726090143125,
              349.7988918225939
            ],
            [
              490.12882657424956,
              349.661269308027
            ],
            [
              490.3015342421265,
              349.5487786316879
            ],
            [
              491.25856934812583,
              349.0237551323925
            ],
            [
              493.03393548143305,
              347.8393293029842
            ],
            [
              493.64767831123885,
              347.484975489785
            ],
            [
              494.1946295092416,
              347.1015693705907
            ],
            [
              494.899256658392,
              346.68589182753163
            ],
            [
              495.79326370277084,
              346.0376154730263
            ],
            [
              497.4815404165378,
              344.9813620855285
            ],
            [
              497.66642277103693,
              344.8407751728844
            ],
            [
              497.9356253424535,
              344.6709426483148
            ],
            [
              498.22977316216395,
              344.4447833697402
            ],
            [
              498.7222020571277,
              344.12930342195654
            ],
            [
              499.2066161482506,
              343.7485805348525
            ],
            [
              499.2849833615252,
              343.697537168146
            ],
            [
              499.512344706826,
              343.51729393458544
            ],
            [
              500.4271427633783,
              342.90699140231266
            ],
            [
              501.95324530693597,
              341.66287432036984
            ],
            [
              502.4679300393167,
              341.30208660006616
            ],
            [
              503.2615240063743,
              340.6221138899419
            ],
            [
              504.07128432126115,
              340.03492784005715
            ],
            [
              504.5347249587537,
              339.61803013447235
            ],
            [
              505.85062046936537,
              338.6174063177956
            ],
            [
              506.0448668476394,
              338.4360495581167
            ],
            [
              506.34982209883856,
              338.2015808488977
            ],
            [
              506.76607118686394,
              337.80726379785693
            ],
            [
              507.2674146137556,
              337.4132353820607
            ],
            [
              507.77975240367397,
              336.91295955370435
            ],
            [
              508.5497476653766,
              336.2852400979263
            ],
            [
              509.81814430464254,
              335.00422482006775
            ],
            [
              510.24185076458525,
              334.6411817000161
            ],
            [
              511.1894510544659,
              333.632844834557
            ],
            [
              511.2250391741955,
              333.5996182378383
            ],
            [
              512.0457817850415,
              332.8613020789586
            ],
            [
              512.0584619824228,
              332.84850922209625
            ],
            [
              512.1962445837645,
              332.69285916398246
            ],
            [
              513.1456727867924,
              331.80643222524986
            ],
            [
              513.3371387400982,
              331.5824237820785
            ],
            [
              513.658060798668,
              331.2784110085212
            ],
            [
              514.144920373381,
              330.69764664615917
            ],
            [
              514.6287168475784,
              330.2252401857082
            ],
            [
              514.9681575013235,
              329.8029767389642
            ],
            [
              515.5370610789234,
              329.2284134265328
            ],
            [
              515.5463351479877,
              329.2165048119001
            ],
            [
              515.5750537466895,
              329.1875005026671
            ],
            [
              516.5812940725407,
              327.8954108701615
            ],
            [
              516.8858892880016,
              327.57129258097603
            ],
            [
              517.6254191062409,
              326.5652863111726
            ],
            [
              517.7656528917054,
              326.4012177056607
            ],
            [
              518.3236456422802,
              325.7708652285423
            ],
            [
              518.4026462644372,
              325.6559578237905
            ],
            [
              519.2891349621407,
              324.61879717127044
            ],
            [
              519.4651563204493,
              324.3512510983562
            ],
            [
              519.7807637392474,
              323.9747697660504
            ],
            [
              520.2009267360309,
              323.3187332788194
            ],
            [
              520.3927295404862,
              323.0826116976062
            ],
            [
              520.4674057573766,
              322.9619236785916
            ],
            [
              520.7212372625462,
              322.64615782943736
            ],
            [
              520.8996315571209,
              322.35033485785095
            ],
            [
              521.3509084334897,
              321.7708607915147
            ],
            [
              522.1341977949995,
              320.431849202628
            ],
            [
              522.3293608985664,
              320.1663625366758
            ],
            [
              522.8725049036685,
              319.17220498006003
            ],
            [
              523.1431364891481,
              318.76085479735644
            ],
            [
              523.4015858128763,
              318.3849369851067
            ],
            [
              523.4380154129544,
              318.3126495408539
            ],
            [
              524.2165480181695,
              317.1293082511296
            ],
            [
              524.3641346878616,
              316.81835999212143
            ],
            [
              524.6521921948586,
              316.36859112513594
            ],
            [
              524.9467383487984,
              315.72264724655014
            ],
            [
              525.059755115637,
              315.5399951214944
            ],
            [
              525.2005324827275,
              315.21835064686695
            ],
            [
              525.4758421311052,
              314.76181744619964
            ],
            [
              525.5365976685646,
              314.6155403332121
            ],
            [
              525.8533657239585,
              314.07403406744737
            ],
            [
              526.4037570381785,
              312.70868709006936
            ],
            [
              526.5154483125926,
              312.50425010206925
            ],
            [
              526.8246531234532,
              311.6645768671196
            ],
            [
              526.9055743977578,
              311.46383674925823
            ],
            [
              527.1656683208097,
              310.91584855546813
            ],
            [
              527.2408860233726,
              310.76659367840034
            ],
            [
              527.2508510554997,
              310.7363782611131
            ],
            [
              527.8774461285951,
              309.41621399766194
            ],
            [
              527.9834781153143,
              309.0630340184875
            ],
            [
              528.2213723553109,
              308.5413285878868
            ],
            [
              528.3964661774493,
              307.916364287692
            ],
            [
              528.4515883229212,
              307.7904226403569
            ],
            [
              528.5761608864276,
              307.3196394231157
            ],
            [
              529.0356303531584,
              306.17984082640663
            ],
            [
              529.349015090674,
              304.8094468537413
            ],
            [
              529.4019625896608,
              304.66566319906826
            ],
            [
              529.5251185473765,
              304.03936750164553
            ],
            [
              529.631985282053,
              303.572052053429
            ],
            [
              530.2360038708209,
              301.5601377321718
            ],
            [
              530.2874279570032,
              301.166933663585
            ],
            [
              530.4527587178477,
              300.576816765158
            ],
            [
              530.5174878669105,
              299.9829985463016
            ],
            [
              530.5355140325784,
              299.91487426575236
            ],
            [
              530.5628184171136,
              299.6297451392613
            ],
            [
              530.5797675158614,
              299.56447479538673
            ],
            [
              530.5988948715896,
              299.3438720721882
            ],
            [
              530.8666166830463,
              298.17315661339484
            ],
            [
              530.9449358235563,
              296.8190472862391
            ],
            [
              530.96184671344,
              296.7330488679098
            ],
            [
              530.9729651763172,
              296.33443001701755
            ],
            [
              531.0154111473503,
              295.60055468471853
            ],
            [
              531.271427338063,
              293.6429776951366
            ],
            [
              531.2554530874056,
              293.2129853591886
            ],
            [
              531.3266208529574,
              292.5600999685538
            ],
            [
              531.2928242122562,
              292.0065769826799
            ],
            [
              531.2938970416143,
              291.99537384077047
            ],
            [
              531.2825781891286,
              291.83876712934625
            ],
            [
              531.2689614477341,
              291.61575149225496
            ],
            [
              531.2835714767544,
              291.4472487344637
            ],
            [
              531.2668966816115,
              291.25246167254653
            ],
            [
              531.3312553830999,
              290.13972323594015
            ],
            [
              531.1824884691183,
              288.8226062013567
            ],
            [
              531.1834128594454,
              288.78946498244954
            ],
            [
              531.1602148156693,
              288.6254050388154
            ],
            [
              531.0481720566236,
              287.63342757162326
            ],
            [
              530.9780836813823,
              285.7467998446947
            ],
            [
              530.8823776377782,
              285.28426349862536
            ],
            [
              530.8391485839095,
              284.57625600186105
            ],
            [
              530.6121549606299,
              283.60407889111224
            ],
            [
              530.5926004297861,
              283.3756521202635
            ],
            [
              530.5479119667882,
              283.204344058232
            ],
            [
              530.4305150905606,
              282.16496358479594
            ],
            [
              529.7380444916754,
              279.75383248077
            ],
            [
              529.3653719718263,
              277.95274888000193
            ],
            [
              529.178249051983,
              277.4628909438664
            ],
            [
              529.0022797722229,
              276.709242874333
            ],
            [
              528.5967766738528,
              275.72489223970643
            ],
            [
              528.5215613500835,
              275.4365629823207
            ],
            [
              528.4549354963109,
              275.2861424249952
            ],
            [
              528.181146018127,
              274.33282783250803
            ],
            [
              527.1078568291032,
              272.0429345744126
            ],
            [
              526.4573462368929,
              270.340001676636
            ],
            [
              526.1679573785065,
              269.82898213616465
            ],
            [
              525.8432636037073,
              269.04079451305944
            ],
            [
              525.2544218887791,
              268.0603732484017
            ],
            [
              525.1011595079648,
              267.7143542267613
            ],
            [
              525.0170839376474,
              267.58221066392076
            ],
            [
              524.6151611054322,
              266.72469677747216
            ],
            [
              523.1948494049248,
              264.5788965633035
            ],
            [
              522.2921087390928,
              262.9847850181402
            ],
            [
              521.8906238587606,
              262.4596506177907
            ],
            [
              521.4039800812044,
              261.649388885759
            ],
            [
              520.631311038024,
              260.68898764377957
            ],
            [
              520.3773364799606,
              260.2898098226339
            ],
            [
              520.2789104346493,
              260.17350972835294
            ],
            [
              519.7790779103177,
              259.4183651094859
            ],
            [
              518.0498256768669,
              257.43596143570693
            ],
            [
              516.9209976957205,
              255.95947643214768
            ],
            [
              516.3987829405153,
              255.42809971591294
            ],
            [
              515.740042989254,
              254.6093084456972
            ],
            [
              514.7872498391725,
              253.68457031257384
            ],
            [
              514.4102802474937,
              253.2391435059726
            ],
            [
              514.2994715440349,
              253.1365795022329
            ],
            [
              513.7329506643831,
              252.48712359790954
            ],
            [
              511.7361256611806,
              250.68363876514823
            ],
            [
              510.407598440402,
              249.3318032895039
            ],
            [
              509.7573865970565,
              248.8028115132545
            ],
            [
              508.919718637779,
              247.98980870696298
            ],
            [
              507.79441910464163,
              247.11553420656907
            ],
            [
              507.27324336136013,
              246.63313644167314
            ],
            [
              507.1511809652263,
              246.54262580462537
            ],
            [
              506.5492265391514,
              245.99895488919617
            ],
            [
              504.32845589803645,
              244.3860053245826
            ],
            [
              502.8266103490722,
              243.16415132002527
            ],
            [
              502.04266311992586,
              242.64684525594961
            ],
            [
              501.0226960651292,
              241.8544062999373
            ],
            [
              499.7360348119755,
              241.04421168676058
            ],
            [
              499.05120854591644,
              240.5364053223611
            ],
            [
              498.91848923703924,
              240.45673716475702
            ],
            [
              498.31146306490683,
              240.01585300412927
            ],
            [
              495.9116116623001,
              238.60112638570504
            ],
            [
              494.26260364478264,
              237.5129895628882
            ],
            [
              493.3408643310761,
              237.0172522510602
            ],
            [
              492.138746047991,
              236.26029329627542
            ],
            [
              490.70491946331094,
              235.52633196058068
            ],
            [
              489.83944260993746,
              235.00680735685378
            ],
            [
              489.69643130364227,
              234.9372407458799
            ],
            [
              489.11294481020667,
              234.5932720014526
            ],
            [
              486.578178379472,
              233.38008965581332
            ],
            [
              484.8087005003199,
              232.4284147146322
            ],
            [
              483.7469354626419,
              231.96461028142699
            ],
            [
              482.36630629267955,
              231.25788016460925
            ],
            [
              480.87109995174376,
              230.6392146797696
            ],
            [
              480.75425530607043,
              230.58102041197174
            ],
            [
              480.6808615204984,
              230.55169493111268
            ],
            [
              479.74197921906307,
              230.09498376957052
            ],
            [
              479.5914944217166,
              230.03614382735427
            ],
            [
              479.05102671148074,
              229.77746678457163
            ],
            [
              476.4199615018296,
              228.76401232948453
            ],
            [
              474.5652138008676,
              227.95381405052123
            ],
            [
              473.3631409188422,
              227.53267681393766
            ],
            [
              471.81102872819815,
              226.89046562563377
            ],
            [
              470.14457737250297,
              226.34177992756128
            ],
            [
              469.792623013637,
              226.2011517976497
            ],
            [
              469.7453527767323,
              226.18627715830576
            ],
            [
              469.7347277220572,
              226.18212273464346
            ],
            [
              469.59691211283604,
              226.12752528392832
            ],
            [
              469.58759524482355,
              226.1245935581945
            ],
            [
              468.8700691631855,
              225.84403901759845
            ],
            [
              468.71596920689547,
              225.79652779714814
            ],
            [
              468.2425326256497,
              225.61416575963068
            ],
            [
              465.556185103071,
              224.79756827972247
            ],
            [
              463.6382746999372,
              224.12564272574056
            ],
            [
              462.29767692758816,
              223.75815692914352
            ],
            [
              461.51175503647954,
              223.49938903893585
            ],
            [
              461.25949288100094,
              223.4152037148809
            ],
            [
              461.24339710804736,
              223.4110311299038
            ],
            [
              460.58432211029555,
              223.19402808088515
            ],
            [
              458.9675038956387,
              222.78278437719885
            ],
            [
              458.38336407894474,
              222.5989739241481
            ],
            [
              458.2182710334144,
              222.5590225723105
            ],
            [
              458.143018308032,
              222.53534261590113
            ],
            [
              458.1228288829031,
              222.5305111327947
            ],
            [
              457.34063348800635,
              222.28934910564251
            ],
            [
              457.1841968547399,
              222.2526464302804
            ],
            [
              456.79693226181445,
              222.13492551443693
            ],
            [
              456.4981424640842,
              222.06578214057237
            ],
            [
              456.4749081423373,
              222.05876252302897
            ],
            [
              455.28194404365377,
              221.78433992698172
            ],
            [
              454.0958271447487,
              221.50985892124552
            ],
            [
              452.1384769314496,
              220.97330842327403
            ],
            [
              450.7054672595939,
              220.67923266992122
            ],
            [
              449.6546614527142,
              220.40682720449698
            ],
            [
              449.53997320023404,
              220.38485701305675
            ],
            [
              448.8019194484043,
              220.19713030657334
            ],
            [
              447.38019817496513,
              219.93229565225352
            ],
            [
              446.82556625048886,
              219.79713855608213
            ],
            [
              446.7497185477679,
              219.78371381281184
            ],
            [
              446.647138878876,
              219.75889025692098
            ],
            [
              446.3833756686892,
              219.71257427376042
            ],
            [
              445.68973191187763,
              219.5484611609115
            ],
            [
              445.6193742894125,
              219.53642104472155
            ],
            [
              445.5145852869432,
              219.51158807505058
            ],
            [
              445.4662954324875,
              219.50342891777177
            ],
            [
              445.27475056750694,
              219.4584892585056
            ],
            [
              445.117739727898,
              219.43222688852188
            ],
            [
              444.83183927416076,
              219.36606625616534
            ],
            [
              444.610689189866,
              219.32958587084525
            ],
            [
              444.5541569100825,
              219.31658151053188
            ],
            [
              442.12254284029655,
              218.9178838010515
            ],
            [
              440.1795619853634,
              218.5191540716681
            ],
            [
              438.7301945292053,
              218.31408776140546
            ],
            [
              437.61470679413895,
              218.1003999725351
            ],
            [
              437.3923361442305,
              218.07178189490716
            ],
            [
              436.5824953738813,
              217.92092679800143
            ],
            [
              435.4119913795604,
              217.77698096546604
            ],
            [
              434.6589801125951,
              217.64370095075427
            ],
            [
              434.3557063793687,
              217.60889897059846
            ],
            [
              433.62246844752565,
              217.4834218781938
            ],
            [
              433.3035280977521,
              217.44838168758807
            ],
            [
              432.9531364505367,
              217.3891787640866
            ],
            [
              432.8182558890564,
              217.37495749229456
            ],
            [
              432.7962032024192,
              217.3712688564207
            ],
            [
              432.64079476053956,
              217.3550609123565
            ],
            [
              432.467394124428,
              217.32645716101362
            ],
            [
              432.33138659303387,
              217.3124844831811
            ],
            [
              432.23971724009857,
              217.2974539890387
            ],
            [
              429.7459216076438,
              217.0429320647565
            ],
            [
              427.87716497055754,
              216.77852773670554
            ],
            [
              426.4278758787422,
              216.6607063993688
            ],
            [
              425.2555061847542,
              216.50982782378668
            ],
            [
              424.9191654119966,
              216.4865978682179
            ],
            [
              424.0463537663734,
              216.37926154165604
            ],
            [
              423.1483815407639,
              216.32280969261328
            ],
            [
              422.19745986348966,
              216.213687293565
            ],
            [
              421.9303261195663,
              216.19887166045524
            ],
            [
              421.2765310871653,
              216.12704286058934
            ],
            [
              420.7030328811185,
              216.09757639795401
            ],
            [
              420.0969762992792,
              216.03367619411281
            ],
            [
              419.66963235427625,
              216.0145252069631
            ],
            [
              419.6513549392926,
              216.01265977630229
            ],
            [
              419.1151411997806,
              215.9896762460734
            ],
            [
              417.0172710408688,
              215.89566231437595
            ],
            [
              415.34763651860726,
              215.75992778536371
            ],
            [
              413.91390163126454,
              215.72650034413576
            ],
            [
              412.69341752508035,
              215.64220550434126
            ],
            [
              412.6652633802982,
              215.64107833663527
            ],
            [
              412.2259268359081,
              215.63615954175492
            ],
            [
              411.31420101452414,
              215.57884306027537
            ],
            [
              410.6995158790945,
              215.5759942898007
            ],
            [
              409.5586222280663,
              215.51271863805994
            ],
            [
              409.3295964083592,
              215.5132067566884
            ],
            [
              408.76574898219303,
              215.4842361532185
            ],
            [
              407.93842523730456,
              215.4888030120199
            ],
            [
              407.0740997191037,
              215.4500691371481
            ],
            [
              403.9589612083601,
              215.49440151690277
            ],
            [
              402.7069516457083,
              215.46521099050545
            ],
            [
              401.26996570135265,
              215.5134970265771
            ],
            [
              399.92681969569105,
              215.49845921608522
            ],
            [
              399.82987537315245,
              215.50292206454245
            ],
            [
              399.7685840552297,
              215.50217281855902
            ],
            [
              399.31597174493544,
              215.52323702823142
            ],
            [
              398.5060154419763,
              215.51948326964543
            ],
            [
              398.1750554060804,
              215.53698023028969
            ],
            [
              396.85924564413176,
              215.53978459208517
            ],
            [
              396.66944449303344,
              215.551008217903
            ],
            [
              396.20307455987967,
              215.55358259782165
            ],
            [
              395.12920514651876,
              215.62006016659134
            ],
            [
              394.01137177132955,
              215.63596835606987
            ],
            [
              390.8935465252749,
              215.8615979529575
            ],
            [
              390.87883284534416,
              215.86202211450055
            ],
            [
              390.86633154369633,
              215.86308308634628
            ],
            [
              390.6671840146087,
              215.8697749018162
            ],
            [
              390.37416965303964,
              215.87877138051644
            ],
            [
              390.35867574485565,
              215.8801414899527
            ],
            [
              390.0697122654768,
              215.8898513281316
            ],
            [
              388.66725968583006,
              216.01679498522918
            ],
            [
              387.2166385327422,
              216.08357457789765
            ],
            [
              387.1682563954464,
              216.0885818439193
            ],
            [
              386.7221427133535,
              216.1093436126988
            ],
            [
              386.09348240651326,
              216.17570027012485
            ],
            [
              385.74001887418615,
              216.1943869296716
            ],
            [
              385.6834704891757,
              216.20064843761128
            ],
            [
              384.2142973011515,
              216.28752594090014
            ],
            [
              384.06405391976875,
              216.30504508417815
            ],
            [
              383.69966843775285,
              216.32760225978384
            ],
            [
              382.52374655137595,
              216.4673004683622
            ],
            [
              381.25518885435423,
              216.55910297145786
            ],
            [
              378.6463930975173,
              216.90017594394857
            ],
            [
              378.5265140055389,
              216.91034995183324
            ],
            [
              378.2250631268735,
              216.9531036442025
            ],
            [
              377.66559548941956,
              217.00257675830093
            ],
            [
              376.1912272693507,
              217.21959669631354
            ],
            [
              376.09224130181036,
              217.23135611885382
            ],
            [
              373.82830776534604,
              217.47031992883345
            ],
            [
              373.2559997548548,
              217.56531923194046
            ],
            [
              371.7360589617699,
              217.74255206760887
            ],
            [
              371.62497491697906,
              217.76206238296334
            ],
            [
              371.3640768855348,
              217.79305677811664
            ],
            [
              370.091388411911,
              218.0186540272447
            ],
            [
              368.700028759614,
              218.2005598629807
            ],
            [
              366.7950319301818,
              218.56437612555618
            ],
            [
              366.52706405992046,
              218.60160773447788
            ],
            [
              366.0839926534961,
              218.6925645860715
            ],
            [
              365.80832012995023,
              218.7479108807274
            ],
            [
              365.18534630670445,
              218.83960964271992
            ],
            [
              363.6353833442831,
              219.1622772295568
            ],
            [
              361.2067743163414,
              219.56541008973218
            ],
            [
              360.7123372475728,
              219.6787102931519
            ],
            [
              359.5333495799939,
              219.88578252606823
            ],
            [
              359.46033071465604,
              219.90311941022563
            ],
            [
              359.30149982608054,
              219.9312738347258
            ],
            [
              357.9490105633598,
              220.25378913801651
            ],
            [
              356.4533065446067,
              220.53943866646375
            ],
            [
              354.83705234804694,
              220.9505932939255
            ],
            [
              354.54516339472923,
              221.00919533307425
            ],
            [
              353.7145062459663,
              221.2275817240399
            ],
            [
              353.0436372623061,
              221.3672416264258
            ],
            [
              351.9961638625369,
              221.65291386006604
            ],
            [
              351.2319197774049,
              221.8511469806548
            ],
            [
              348.9726976886454,
              222.36884748976127
            ],
            [
              348.5606803564922,
              222.49102562842535
            ],
            [
              347.71084000991453,
              222.6928033960686
            ],
            [
              347.6741162854005,
              222.70394584955926
            ],
            [
              347.6131449005354,
              222.71848511817126
            ],
            [
              346.2527063872341,
              223.13176375689997
            ],
            [
              345.2752038867098,
              223.3767337413199
            ],
            [
              345.17541267955033,
              223.40839223855147
            ],
            [
              344.6219271216541,
              223.54919196476283
            ],
            [
              344.61758211460557,
              223.55059328693412
            ],
            [
              344.5361695472308,
              223.57130360941824
            ],
            [
              343.3729362711016,
              223.94646297015845
            ],
            [
              343.1146772715661,
              224.0143613213984
            ],
            [
              342.04851977900375,
              224.3658855740598
            ],
            [
              341.3460126632402,
              224.55747686120054
            ],
            [
              339.75825635327806,
              225.10126480161804
            ],
            [
              337.2359823005932,
              225.84921088277318
            ],
            [
              336.9088422369608,
              225.97026937836137
            ],
            [
              336.3684529549995,
              226.13423048315425
            ],
            [
              335.2701407717912,
              226.55081362251573
            ],
            [
              334.1070085954195,
              226.91981423728572
            ],
            [
              333.8847722201953,
              227.00653151617206
            ],
            [
              333.22232571969215,
              227.22017998269817
            ],
            [
              333.1392144914157,
              227.25320339515727
            ],
            [
              333.1212808487599,
              227.25898722939985
            ],
            [
              332.37735899608606,
              227.55457729207077
            ],
            [
              332.18266908606535,
              227.61876876996877
            ],
            [
              330.9104607021442,
              228.13153118707024
            ],
            [
              330.1927572680541,
              228.37733620753212
            ],
            [
              328.6141974304989,
              229.03971067688425
            ],
            [
              326.1006638213803,
              229.96984620951463
            ],
            [
              325.293008819049,
              230.33507916585702
            ],
            [
              324.50762374110803,
              230.63297095507713
            ],
            [
              324.09539309923196,
              230.8263756732062
            ],
            [
              323.52454531778454,
              231.04912213501046
            ],
            [
              323.21579247601323,
              231.19483602640418
            ],
            [
              322.421100544839,
              231.51059908255812
            ],
            [
              321.8788093137753,
              231.7717299585931
            ],
            [
              321.8366836293203,
              231.7887086769004
            ],
            [
              320.98855833723303,
              232.2004147760364
            ],
            [
              320.35770501002423,
              232.504191183518
            ],
            [
              319.6783841688651,
              232.78923883960266
            ],
            [
              318.1296681001684,
              233.57444263227703
            ],
            [
              315.66437310954683,
              234.6892837155106
            ],
            [
              314.7343053939845,
              235.19761857698177
            ],
            [
              313.6140312653,
              235.72632465066349
            ],
            [
              313.31586432297973,
              235.89506664331833
            ],
            [
              312.4242064706015,
              236.32442891725717
            ],
            [
              310.4385576673751,
              237.47385919015488
            ],
            [
              309.8911886872151,
              237.75137694043565
            ],
            [
              308.5803283564464,
              238.54953028589983
            ],
            [
              308.2217478437693,
              238.75710138099097
            ],
            [
              306.01786969786355,
              239.96164603214635
            ],
            [
              305.3294796527287,
              240.41481136361656
            ],
            [
              304.4556328494741,
              240.90934858395514
            ],
            [
              304.17271724419686,
              241.100959136418
            ],
            [
              303.2141511746773,
              241.6558431909743
            ],
            [
              301.3441577810332,
              242.9554716494165
            ],
            [
              300.91285741540065,
              243.218080732663
            ],
            [
              299.8982763252396,
              243.9603461553094
            ],
            [
              299.0858218957588,
              244.52499461948403
            ],
            [
              297.24463243803547,
              245.73704473091288
            ],
            [
              296.770500245079,
              246.1142665051291
            ],
            [
              296.12313231756156,
              246.55271006895344
            ],
            [
              295.85971280015804,
              246.76711119856824
            ],
            [
              294.8676246357483,
              247.45660348026345
            ],
            [
              293.15014880555304,
              248.89726226193753
            ],
            [
              292.818121699284,
              249.14017260469103
            ],
            [
              292.05404479915467,
              249.81669986605468
            ],
            [
              290.8971262481905,
              250.7871501284786
            ],
            [
              289.42049529780434,
              251.96196456895012
            ],
            [
              289.12902977425483,
              252.24531591954596
            ],
            [
              288.68362894981925,
              252.60783438754768
            ],
            [
              288.443713662515,
              252.84512982430033
            ],
            [
              287.45413350569015,
              253.67521273902983
            ],
            [
              285.92400532379105,
              255.2443457189697
            ],
            [
              285.6744454322643,
              255.4653104804087
            ],
            [
              285.1161279905532,
              256.072816811992
            ],
            [
              283.73446179732514,
              257.48970332954826
            ],
            [
              282.6133171406434,
              258.579636193022
            ],
            [
              282.46935716858155,
              258.75424695279906
            ],
            [
              282.1972662592509,
              259.0233666570538
            ],
            [
              281.9848554310043,
              259.2839092554199
            ],
            [
              281.03570790166157,
              260.257251690866
            ],
            [
              280.4417702017215,
              261.01926552687684
            ],
            [
              280.4283279129412,
              261.03336871588596
            ],
            [
              280.3440404852093,
              261.1446513984527
            ],
            [
              279.72478312888745,
              261.9391500026329
            ],
            [
              279.54173795715025,
              262.1383218222628
            ],
            [
              279.53783911371056,
              262.1430677735079
            ],
            [
              279.52187691012534,
              262.1649919837991
            ],
            [
              279.50274953750073,
              262.18578131678356
            ],
            [
              279.4988506973294,
              262.1905272640467
            ],
            [
              279.06265166168447,
              262.78865549676635
            ],
            [
              277.6694864683118,
              264.57606712816045
            ],
            [
              276.88267554961453,
              265.53039943556956
            ],
            [
              276.8481091987312,
              265.5846295223401
            ],
            [
              276.7169776083534,
              265.74547520786876
            ],
            [
              276.5363257527638,
              266.0298966186184
            ],
            [
              275.6666274060088,
              267.1457075419741
            ],
            [
              275.1675207440812,
              267.9790870751309
            ],
            [
              275.13252292648343,
              268.0252938598277
            ],
            [
              274.9434466918276,
              268.35323301086987
            ],
            [
              274.66275438014026,
              268.82191685245186
            ],
            [
              274.48901851308256,
              269.06014829870975
            ],
            [
              274.1033046140337,
              269.7560538224801
            ],
            [
              273.00775374519606,
              271.5853415103924
            ],
            [
              272.2882438673652,
              272.7181503256321
            ],
            [
              272.20438971005103,
              272.89807698136514
            ],
            [
              272.1909536066754,
              272.9192670252136
            ],
            [
              272.1313091182738,
              273.04877822589873
            ],
            [
              271.39315935156924,
              274.28129815579786
            ],
            [
              271.0087164164743,
              275.177740111825
            ],
            [
              270.96021649818476,
              275.2618597372026
            ],
            [
              270.7407295427353,
              275.8026304540371
            ],
            [
              270.7024695158745,
              275.8918449776558
            ],
            [
              270.5566841910744,
              276.1548710523431
            ],
            [
              270.23950900043786,
              276.97137380269726
            ],
            [
              269.4722998625951,
              278.7603479193451
            ],
            [
              268.9488581493162,
              279.8835017374138
            ],
            [
              268.8824959506279,
              280.101660535769
            ],
            [
              268.8461721163523,
              280.180247329207
            ],
            [
              268.8446731405864,
              280.18533322095914
            ],
            [
              268.7986501605669,
              280.28526687049924
            ],
            [
              268.75549267576537,
              280.4317950393039
            ],
            [
              268.25330411596605,
              281.60279560594284
            ],
            [
              268.00117082800404,
              282.5523396883857
            ],
            [
              267.94947850295466,
              282.679698945849
            ],
            [
              267.8300827339024,
              283.1739496394435
            ],
            [
              267.7362790559099,
              283.4154280505296
            ],
            [
              267.5167157080457,
              284.3768171148884
            ],
            [
              267.06815039472616,
              286.0661320890401
            ],
            [
              266.7286942354053,
              287.1820587653518
            ],
            [
              266.6905209326991,
              287.4427811884016
            ],
            [
              266.5885909357342,
              287.7888536222177
            ],
            [
              266.56650774737227,
              287.95533843358356
            ],
            [
              266.50539364367995,
              288.18549660107055
            ],
            [
              266.44248491879455,
              288.410681639202
            ],
            [
              266.43985969634764,
              288.4323000770637
            ],
            [
              266.27654398264536,
              289.04735360993635
            ],
            [
              266.1718330363049,
              290.0384396433365
            ],
            [
              266.1294703270916,
              290.2138043030698
            ],
            [
              266.1000655095848,
              290.57981967437115
            ],
            [
              266.0540977274378,
              290.7810960872751
            ],
            [
              265.9736345375571,
              291.914382616093
            ],
            [
              265.81245465616695,
              293.43994546214105
            ],
            [
              265.64947701996846,
              294.5530774470027
            ],
            [
              265.6524596409968,
              294.84633279918836
            ],
            [
              265.58377925603736,
              295.36411314627924
            ],
            [
              265.58648141258607,
              295.45978282053954
            ],
            [
              265.54365372814067,
              295.81246441454874
            ],
            [
              265.54823866759733,
              295.9407420380889
            ],
            [
              265.48353306891426,
              296.5531786302866
            ],
            [
              265.5382745825478,
              297.572691324724
            ],
            [
              265.5201830983118,
              297.7978844012964
            ],
            [
              265.53920669823725,
              298.03309626367496
            ],
            [
              265.5280655949632,
              298.1900135108881
            ],
            [
              265.6423068326763,
              299.51020076839234
            ],
            [
              265.71335203067287,
              300.8333552892954
            ],
            [
              265.72455512883135,
              301.93485912159537
            ],
            [
              265.7727041405199,
              302.22084620278673
            ],
            [
              265.79530578363233,
              302.85319589646576
            ],
            [
              265.79787320506574,
              302.9440952827741
            ],
            [
              265.79871146263946,
              302.94848012271535
            ],
            [
              265.80823834948825,
              303.21502375181245
            ],
            [
              265.853770182198,
              303.4485202435389
            ],
            [
              265.8860953297263,
              304.050547773823
            ],
            [
              266.1098505693309,
              305.0886592611024
            ],
            [
              266.13217915432637,
              305.3647346665356
            ],
            [
              266.15805908923267,
              305.4703038864553
            ],
            [
              266.1675092661972,
              305.57951141485387
            ],
            [
              266.54460698901283,
              307.10570983046745
            ],
            [
              266.77539174891507,
              308.1764347474761
            ],
            [
              266.9586777676898,
              309.2650849957609
            ],
            [
              267.0300199868897,
              309.4805682957634
            ],
            [
              267.2396007457774,
              310.55534102123045
            ],
            [
              267.3609058861256,
              310.89292510936457
            ],
            [
              267.48661791297286,
              311.4761655259593
            ],
            [
              267.875048553375,
              312.49030296055025
            ],
            [
              267.9729330467244,
              312.8864632914839
            ],
            [
              268.69686204127936,
              314.6361823127394
            ],
            [
              268.84629268241866,
              315.0266571648771
            ],
            [
              269.0997268583952,
              315.7319475173929
            ],
            [
              269.34777980484733,
              316.4811710217851
            ],
            [
              269.4224127770804,
              316.62996083571
            ],
            [
              269.8321348887418,
              317.7701900548584
            ],
            [
              270.060307931749,
              318.1989812701753
            ],
            [
              270.2775059246539,
              318.76653792063615
            ],
            [
              270.77045323948374,
              319.6480025176834
            ],
            [
              270.9358065153309,
              320.0476574205251
            ],
            [
              272.03795063188437,
              321.9154405226977
            ],
            [
              272.65945798665376,
              323.08340011368944
            ],
            [
              272.8787810467344,
              323.52064703452476
            ],
            [
              272.93896009850783,
              323.6086508122111
            ],
            [
              273.5710657714839,
              324.79652715445513
            ],
            [
              273.92758050682795,
              325.29342512337416
            ],
            [
              274.2370742848411,
              325.84684695999016
            ],
            [
              274.80500323286964,
              326.60471301738556
            ],
            [
              275.0383702543073,
              327.0001957611718
            ],
            [
              275.23712290508445,
              327.25484308701357
            ],
            [
              275.25486451720553,
              327.28458023802955
            ],
            [
              275.61905057908325,
              327.74417925675897
            ],
            [
              276.44758082023907,
              328.80571483620713
            ],
            [
              277.4122684902985,
              330.1502633117056
            ],
            [
              277.52940757896556,
              330.32156349033136
            ],
            [
              277.5602130392326,
              330.35646333260166
            ],
            [
              278.4322724718965,
              331.5719097585343
            ],
            [
              278.72881291705926,
              331.8940261618624
            ],
            [
              278.7754782475559,
              331.9582407845758
            ],
            [
              278.98288492456555,
              332.17983775254675
            ],
            [
              279.3425811287189,
              332.6598300914613
            ],
            [
              279.9510734183148,
              333.29448526414427
            ],
            [
              280.25346871986466,
              333.6819223855728
            ],
            [
              280.6064072786564,
              334.0381714908834
            ],
            [
              280.6605472556219,
              334.1064955781976
            ],
            [
              281.3942099037036,
              334.83336366625167
            ],
            [
              281.9673483930687,
              335.4118781667715
            ],
            [
              284.38214548984496,
              338.03494617739165
            ],
            [
              284.8193437410121,
              338.41561374598956
            ],
            [
              284.9448731917035,
              338.5497316348952
            ],
            [
              285.1913086351971,
              338.7600309141545
            ],
            [
              285.557504974877,
              339.1419723210922
            ],
            [
              285.59118133800615,
              339.17015030950193
            ],
            [
              285.5985721873223,
              339.17785912146695
            ],
            [
              286.1811799184417,
              339.6652352269557
            ],
            [
              286.5444210344993,
              340.0318835270327
            ],
            [
              287.08764069407096,
              340.47406673855784
            ],
            [
              287.1907028713415,
              340.57617444152356
            ],
            [
              288.2110927278168,
              341.38856167543406
            ],
            [
              288.5596244405804,
              341.6722680350138
            ],
            [
              291.3774902486968,
              344.125777679598
            ],
            [
              291.9765135704667,
              344.55028448852914
            ],
            [
              292.20582069899456,
              344.7459670704583
            ],
            [
              292.4883347268833,
              344.94143803570216
            ],
            [
              292.88615955358887,
              345.2742353954987
            ],
            [
              293.4852131991054,
              345.6817191245435
            ],
            [
              293.86494207717766,
              345.99082011503725
            ],
            [
              294.6311048569703,
              346.4998785531297
            ],
            [
              294.79480397148484,
              346.63020822074503
            ],
            [
              296.05154571198057,
              347.4436563274272
            ],
            [
              296.1767645296447,
              347.52685496017205
            ],
            [
              299.3654900616183,
              349.7865928550966
            ],
            [
              300.14409282014515,
              350.23844376444856
            ],
            [
              300.50066158854963,
              350.48515307604606
            ],
            [
              300.77126699843404,
              350.6377834010898
            ],
            [
              301.18210760246893,
              350.9172422820013
            ],
            [
              301.77700057930565,
              351.247797156288
            ],
            [
              302.15912755585134,
              351.5016922383219
            ],
            [
              303.17654753072935,
              352.05543856781003
            ],
            [
              303.41175889958953,
              352.2076832466577
            ],
            [
              304.7946065827107,
              352.93730252081406
            ],
            [
              308.2837429263142,
              354.9621726005185
            ],
            [
              309.2558341179485,
              355.4233574879524
            ],
            [
              309.7612166323393,
              355.7084097988986
            ],
            [
              310.00958954286955,
              355.822271079859
            ],
            [
              310.4193718046352,
              356.04996837886347
            ],
            [
              310.9904105715811,
              356.3082526316499
            ],
            [
              311.3615176781838,
              356.5102333310721
            ],
            [
              312.65327862896623,
              357.08370176939985
            ],
            [
              312.9699939910347,
              357.25080739890177
            ],
            [
              314.36624983466675,
              357.84786921829055
            ],
            [
              318.0603871317825,
              359.6004622962
            ],
            [
              319.2356454462252,
              360.051760282655
            ],
            [
              319.9089410192592,
              360.3604183252938
            ],
            [
              320.1258854421619,
              360.4402826047278
            ],
            [
              320.52095683773086,
              360.61897576201886
            ],
            [
              321.0497569030181,
              360.81126086646486
            ],
            [
              321.39725449397207,
              360.96553004505427
            ],
            [
              322.98038478854284,
              361.5314141155327
            ],
            [
              323.38764575850354,
              361.7055655626366
            ],
            [
              324.7777426302978,
              362.17991991290125
            ],
            [
              328.6143307400554,
              363.65316580916317
            ],
            [
              329.9978771894656,
              364.0744829998805
            ],
            [
              330.85520066414705,
              364.3900915812267
            ],
            [
              331.0327775213894,
              364.4413401502646
            ],
            [
              331.4001887446616,
              364.5749401818872
            ],
            [
              331.87006093286215,
              364.70899598551273
            ],
            [
              332.18234786676385,
              364.82062179542027
            ],
            [
              334.0670792224696,
              365.3497977199965
            ],
            [
              334.5728805563939,
              365.5223965280231
            ],
            [
              336.0273318579307,
              365.9105709053816
            ],
            [
              339.8555994490764,
              367.0763539172166
            ],
            [
              341.44773768833846,
              367.4470910878997
            ],
            [
              342.50168728997676,
              367.7512602784324
            ],
            [
              342.63332839761466,
              367.779785246772
            ],
            [
              342.9611189836138,
              367.8733047857676
            ],
            [
              342.98558613492156,
              367.878549039194
            ],
            [
              342.9925460987206,
              367.88053378145423
            ],
            [
              343.36431154307024,
              367.96018115439745
            ],
            [
              343.6240642534879,
              368.0331119093728
            ],
            [
              345.3282827527654,
              368.3928752758323
            ],
            [
              345.64305396320117,
              368.47688367026535
            ],
            [
              346.31629831184176,
              368.612285702567
            ],
            [
              346.34906195833406,
              368.62096301946457
            ],
            [
              346.72373499225034,
              368.6942288405627
            ],
            [
              347.309690605835,
              368.8120754754101
            ],
            [
              351.68581606561446,
              369.8310776773074
            ],
            [
              352.5149650031552,
              369.96650427068596
            ],
            [
              352.55135048658514,
              369.9748142557404
            ],
            [
              353.4029977205746,
              370.1134368087555
            ],
            [
              354.74098752751144,
              370.40336233099265
            ],
            [
              354.82159324084176,
              370.41546149029267
            ],
            [
              355.0990744774723,
              370.4749364126885
            ],
            [
              355.1095567249741,
              370.4764933547428
            ],
            [
              355.12636769633986,
              370.480094952811
            ],
            [
              355.42695771531334,
              370.524722396889
            ],
            [
              355.6214509469362,
              370.5657802423431
            ],
            [
              357.1199645737894,
              370.7851050825646
            ],
            [
              357.19787383437426,
              370.80077409224646
            ],
            [
              357.8328410303381,
              370.88944281571213
            ],
            [
              358.29787618166387,
              370.9575061008439
            ],
            [
              358.6232847636491,
              371.0211384543744
            ],
            [
              359.6573166438321,
              371.1564759712605
            ],
            [
              360.66208894089186,
              371.3035360443669
            ],
            [
              361.4500185023553,
              371.445328586487
            ],
            [
              361.4661732637957,
              371.4477223322671
            ],
            [
              361.4853963579097,
              371.44995333985327
            ],
            [
              361.4863710727065,
              371.4500977688947
            ],
            [
              361.6903804314153,
              371.4738512757859
            ],
            [
              361.6883286037747,
              371.4787881132209
            ],
            [
              361.70448554066735,
              371.4811821728772
            ],
            [
              361.99342039079573,
              371.5146397931098
            ],
            [
              365.3531675656415,
              372.06339417713644
            ],
            [
              366.5597418901401,
              372.1775640477862
            ],
            [
              366.66436046375304,
              372.19309636505534
            ],
            [
              367.4573186131184,
              372.3121217612342
            ],
            [
              367.47846085721744,
              372.31396271952974
            ],
            [
              367.7240033987729,
              372.350417476343
            ],
            [
              367.9446462765905,
              372.3694227306159
            ],
            [
              368.0660061140869,
              372.3871851496476
            ],
            [
              370.898022354052,
              372.62769676051545
            ],
            [
              371.32879967337726,
              372.6840783226773
            ],
            [
              372.5918233165963,
              372.7715443812507
            ],
            [
              373.4932233727335,
              372.8480966186614
            ],
            [
              374.3642979968101,
              372.949518814256
            ],
            [
              374.40329748410676,
              372.9516590891527
            ],
            [
              374.8493795677883,
              373.00331379588374
            ],
            [
              375.2368495955256,
              373.0238628204033
            ],
            [
              377.50863334519033,
              373.2529046548545
            ]
          ]
        ]
      }
    }
  ]
}