{
  "type": "FeatureCollection",
  "features": [
    {
      "type": "Feature",
      "properties": {
        "method": "Homography",
        "mode": "tmpl2img",
        "inside_ratio": 1.0
      },
      "geometry": {
        "type": "Polygon",
        "coordinates": [
          [
            [
              612.9917082423386,
              314.7612152567434
            ],
            [
              613.0014529003578,
              314.3067408730753
            ],
            [
              613.1553107306015,
              311.9457727868651
            ],
            [
              613.1718447623724,
              310.14639104570955
            ],
            [
              613.2506236660754,
              308.5502602124665
            ],
            [
              613.2465019483245,
              307.63619287249486
            ],
            [
              613.2689658572496,
              307.1253148940468
            ],
            [
              613.229771177108,
              303.9258341156171
            ],
            [
              613.2295185574035,
              303.8698110135787
            ],
            [
              613.2327291197281,
              303.52040880534366
            ],
            [
              613.2512082629112,
              302.658572792649
            ],
            [
              613.2459404919563,
              302.4960501845735
            ],
            [
              613.2522693784616,
              302.2007123854601
            ],
            [
              613.2464938854113,
              302.02240345666365
            ],
            [
              613.2697733920302,
              299.4889185992522
            ],
            [
              613.203165135356,
              298.02545100147904
            ],
            [
              613.1970273157814,
              296.66427569683407
            ],
            [
              613.1727395721675,
              296.23110879399337
            ],
            [
              613.170851331838,
              295.91892195158476
            ],
            [
              613.1684805272263,
              295.8798074186284
            ],
            [
              613.1682081140334,
              295.83497837134115
            ],
            [
              613.1211425688018,
              295.0584280513093
            ],
            [
              613.1117312777234,
              294.29017978919995
            ],
            [
              612.8896008128592,
              291.00391187331735
            ],
            [
              612.8459346968525,
              289.65579175346693
            ],
            [
              612.7954268173836,
              289.0669247380789
            ],
            [
              612.6837290111838,
              286.61278273990405
            ],
            [
              612.5692778548203,
              285.468493412061
            ],
            [
              612.5114382855728,
              284.436936612754
            ],
            [
              612.4334895109326,
              283.71260810249817
            ],
            [
              612.3816766460652,
              282.85773015304244
            ],
            [
              612.2783891317316,
              281.96145414919897
            ],
            [
              612.2179395156361,
              281.06714352868426
            ],
            [
              611.8601520582891,
              278.16263689892077
            ],
            [
              611.7422397791008,
              276.78790779441977
            ],
            [
              611.5973116837085,
              275.7507190195679
            ],
            [
              611.36534021039,
              273.43145471773335
            ],
            [
              611.2421063363945,
              272.6385440502398
            ],
            [
              611.2254835641805,
              272.4773831306183
            ],
            [
              611.2221648916044,
              272.4565369039229
            ],
            [
              611.1682518037035,
              271.9555567815855
            ],
            [
              611.025875473485,
              271.06624920701717
            ],
            [
              610.9048293475014,
              269.9991347669537
            ],
            [
              610.8890438226963,
              269.90542908562435
            ],
            [
              610.854964651903,
              269.60970754366195
            ],
            [
              610.6821236865052,
              268.5994419194799
            ],
            [
              610.5568919688244,
              267.58281501774377
            ],
            [
              610.1076017082155,
              265.08949794797684
            ],
            [
              609.915717120787,
              263.7162615191479
            ],
            [
              609.6207490932667,
              262.2064168101844
            ],
            [
              609.2895798077767,
              260.07560934068596
            ],
            [
              609.1957154801215,
              259.6347483236076
            ],
            [
              609.1472770739309,
              259.3321935278108
            ],
            [
              609.091151207163,
              259.07058414968344
            ],
            [
              609.0756189833759,
              258.9730185567217
            ],
            [
              608.9503523862496,
              258.39701209891297
            ],
            [
              608.6797012472477,
              256.79037882709775
            ],
            [
              608.6057330639012,
              256.4628164179466
            ],
            [
              608.5652562829083,
              256.2262272487334
            ],
            [
              608.3097101776084,
              255.11217585585277
            ],
            [
              608.1059594133783,
              253.9814697111399
            ],
            [
              607.6107135570688,
              251.9177033359846
            ],
            [
              607.348468295768,
              250.5753557480876
            ],
            [
              606.8432706405292,
              248.58580938668112
            ],
            [
              606.4401273569341,
              246.69233012279932
            ],
            [
              606.4356242846065,
              246.6737793420433
            ],
            [
              606.2668471134788,
              246.0575983821232
            ],
            [
              606.1351508775259,
              245.45202687205497
            ],
            [
              606.0527918892026,
              245.1573128401036
            ],
            [
              605.6986510292462,
              243.58902728818114
            ],
            [
              605.5404021135382,
              243.03749015516496
            ],
            [
              605.5641837092143,
              243.14116609783005
            ],
            [
              605.5620025839313,
              243.133564527014
            ],
            [
              605.498986331912,
              242.85884563337882
            ],
            [
              605.14821831587,
              241.65610333870546
            ],
            [
              604.8526753446035,
              240.42452989136603
            ],
            [
              604.3574210668969,
              238.79614998721704
            ],
            [
              604.0319391061036,
              237.51435177603153
            ],
            [
              603.258002385678,
              235.07274290542293
            ],
            [
              602.8066699661887,
              233.42499373634504
            ],
            [
              602.7301366617509,
              233.2000296402608
            ],
            [
              602.6956873064307,
              233.0746309253236
            ],
            [
              602.6107077629231,
              232.82677107617747
            ],
            [
              602.467275953107,
              232.3268752707681
            ],
            [
              602.3991916393309,
              232.08324184312144
            ],
            [
              602.3886841827947,
              232.05296325383512
            ],
            [
              601.9587229541785,
              230.55444061120747
            ],
            [
              601.7368818349338,
              229.9270795508465
            ],
            [
              601.7667645269981,
              230.02954781159502
            ],
            [
              601.7136038293079,
              229.87921399846945
            ],
            [
              601.6538079231866,
              229.6741808652992
            ],
            [
              601.6214421693395,
              229.5842226160213
            ],
            [
              601.6064192666762,
              229.53271217837573
            ],
            [
              601.1772540914527,
              228.33986474618172
            ],
            [
              600.7968588828854,
              227.0891377133468
            ],
            [
              600.3467182291391,
              225.88824883257834
            ],
            [
              599.9686923933186,
              224.69565619586905
            ],
            [
              599.0105222160227,
              222.21700367610882
            ],
            [
              598.5664853844021,
              220.96127877491668
            ],
            [
              598.405308480759,
              220.48751095971022
            ],
            [
              598.3618912491515,
              220.3826917479813
            ],
            [
              597.4692877495854,
              217.85843168337658
            ],
            [
              597.1748303847338,
              217.17101491873765
            ],
            [
              597.2104111082925,
              217.26991536817368
            ],
            [
              597.1109286752124,
              217.03767595936012
            ],
            [
              596.9915512768314,
              216.70587125726766
            ],
            [
              596.3770830420845,
              215.29802393906206
            ],
            [
              595.9526363179716,
              214.16568153183414
            ],
            [
              595.5904848138894,
              213.36984424095593
            ],
            [
              595.1740698367777,
              212.29263681295282
            ],
            [
              594.0614364126063,
              209.90273275991964
            ],
            [
              592.2536424251331,
              205.68240057467443
            ],
            [
              591.8791435135025,
              204.9548332972662
            ],
            [
              591.9197297452334,
              205.04782710070546
            ],
            [
              591.8116110337683,
              204.83778017095534
            ],
            [
              591.6339981649161,
              204.43084001204593
            ],
            [
              590.804349145076,
              202.8521874002724
            ],
            [
              590.3502021366332,
              201.85418761076775
            ],
            [
              590.1151108069415,
              201.42614078037488
            ],
            [
              589.6776139397476,
              200.4864103054468
            ],
            [
              588.4117817702218,
              198.2185281573253
            ],
            [
              586.3502831812627,
              194.2134993864989
            ],
            [
              585.89039136876,
              193.4695749151873
            ],
            [
              585.9350088419876,
              193.55447599101828
            ],
            [
              585.8215790347538,
              193.37099371416542
            ],
            [
              585.5754721685124,
              192.9027026201239
            ],
            [
              584.5058045562492,
              191.2128940203305
            ],
            [
              584.0371414693011,
              190.35956714883812
            ],
            [
              583.9627668977951,
              190.24761254243322
            ],
            [
              583.5241090327306,
              189.46170713946228
            ],
            [
              582.1085757701816,
              187.3520814238578
            ],
            [
              579.8137018989125,
              183.63987610739176
            ],
            [
              579.2655841148027,
              182.90679613535744
            ],
            [
              579.3130043043136,
              182.98171055585593
            ],
            [
              579.1980666480791,
              182.8279891585346
            ],
            [
              578.874604952498,
              182.31700018531353
            ],
            [
              577.7386510340614,
              180.83940818447059
            ],
            [
              576.7740996989475,
              179.4018988341838
            ],
            [
              575.2150490083246,
              177.48940912710603
            ],
            [
              572.7145647631685,
              174.14513719563035
            ],
            [
              572.0782833943709,
              173.45279346496204
            ],
            [
              572.1270717810057,
              173.516256597806
            ],
            [
              572.0147281312828,
              173.39401576373652
            ],
            [
              571.6070539952001,
              172.86373365223517
            ],
            [
              570.4653445550289,
              171.66293989609719
            ],
            [
              569.5037601524292,
              170.48336293715295
            ],
            [
              569.4984431197084,
              170.4774854471036
            ],
            [
              567.8164140521695,
              168.81541342410762
            ],
            [
              565.139157548491,
              165.90226548890314
            ],
            [
              564.4179434658212,
              165.28229600164087
            ],
            [
              564.4665276171506,
              165.33339550477672
            ],
            [
              564.3609575609519,
              165.2426463172085
            ],
            [
              563.8648029307917,
              164.72081531447293
            ],
            [
              562.71606045107,
              163.77557482006316
            ],
            [
              561.7491248174392,
              162.82011174530518
            ],
            [
              559.9506180234929,
              161.44209718900225
            ],
            [
              557.1880268348746,
              159.06732070603044
            ],
            [
              556.3884148808085,
              158.5519769642038
            ],
            [
              556.4351691356899,
              158.59044926341653
            ],
            [
              556.3403811561318,
              158.52935962787782
            ],
            [
              555.7545860136369,
              158.04733924481116
            ],
            [
              554.6286233899787,
              157.36438889328923
            ],
            [
              553.6710515230818,
              156.63069804723327
            ],
            [
              551.7740249192618,
              155.5780381967952
            ],
            [
              548.9738077182473,
              153.773319791831
            ],
            [
              548.1056095082722,
              153.3942046094777
            ],
            [
              548.1489508282907,
              153.420493536075
            ],
            [
              548.0685238741252,
              153.3853738031879
            ],
            [
              547.3954370458819,
              152.9771143491751
            ],
            [
              546.3128380894133,
              152.5476262352541
            ],
            [
              545.3811787844523,
              152.03064859105066
            ],
            [
              543.4076765670125,
              151.34276326436876
            ],
            [
              540.6183007607827,
              150.12472951899178
            ],
            [
              539.6944021319646,
              149.9114841536768
            ],
            [
              539.7328898420348,
              149.92675310862572
            ],
            [
              539.6697268820039,
              149.91217449573097
            ],
            [
              538.9154443295116,
              149.61293590059267
            ],
            [
              537.894715161127,
              149.4211615432452
            ],
            [
              537.0041762272198,
              149.11075466350488
            ],
            [
              534.9801177353497,
              148.8233785249696
            ],
            [
              532.2489352955997,
              148.1929933517988
            ],
            [
              531.2849211956843,
              148.17202461996712
            ],
            [
              531.3173522296104,
              148.17811777365606
            ],
            [
              531.2734681440866,
              148.177163202799
            ],
            [
              530.4478751307754,
              148.02205098061097
            ],
            [
              529.5120810162031,
              148.0470258236827
            ],
            [
              528.6686870645358,
              147.92728061964522
            ],
            [
              526.6233913066753,
              148.0706294534927
            ],
            [
              523.9948222686769,
              148.0134541909613
            ],
            [
              523.0084483467339,
              148.2067942654786
            ],
            [
              523.0339395020576,
              148.20614740683496
            ],
            [
              522.9526169114878,
              148.2220873934071
            ],
            [
              522.0174146069901,
              148.24704644201063
            ],
            [
              521.218454640307,
              148.4494457519093
            ],
            [
              520.5032801441106,
              148.49957025328985
            ],
            [
              518.4687378125668,
              149.09662717107858
            ],
            [
              515.9826472371385,
              149.58392810880753
            ],
            [
              514.9931924990677,
              150.00831075457089
            ],
            [
              515.0112421884171,
              150.00381774527142
            ],
            [
              514.9081997840342,
              150.0480129911517
            ],
            [
              513.8782297517944,
              150.30893372866686
            ],
            [
              513.2184733398395,
              150.6373701062713
            ],
            [
              512.6323576405607,
              150.8093716554476
            ],
            [
              510.64228906450796,
              151.87443746051142
            ],
            [
              508.3326749602147,
              152.86504380819187
            ],
            [
              507.3602213154124,
              153.53126169591005
            ],
            [
              507.37074528139436,
              153.52610723980519
            ],
            [
              507.2514152492948,
              153.60785877262438
            ],
            [
              506.1526461301208,
              154.15484208767472
            ],
            [
              505.630753433531,
              154.55656374281796
            ],
            [
              505.17228945636055,
              154.80192931002372
            ],
            [
              504.4649945274358,
              155.37096285579773
            ],
            [
              504.37211401998394,
              155.4230435957171
            ],
            [
              503.6823006385547,
              156.00065643997144
            ],
            [
              503.2610500605114,
              156.33956132997605
            ],
            [
              501.1551274074478,
              157.78230705787385
            ],
            [
              500.2202864855208,
              158.69453348031465
            ],
            [
              500.22362070406666,
              158.6920093201758
            ],
            [
              500.1295642714449,
              158.7837903684595
            ],
            [
              499.269198662464,
              159.43510917605596
            ],
            [
              499.20723147752807,
              159.5010051746408
            ],
            [
              498.9561190908043,
              159.69429640918588
            ],
            [
              498.5651573690139,
              160.11750509793762
            ],
            [
              498.2280228501604,
              160.3887368611276
            ],
            [
              497.5818972632153,
              161.10880806404936
            ],
            [
              497.40165708335155,
              161.25973155399643
            ],
            [
              496.38231515536717,
              162.43966142013417
            ],
            [
              494.54272454215175,
              164.23475096371303
            ],
            [
              494.54064670380893,
              164.23750255847378
            ],
            [
              494.53829086352494,
              164.23980140700203
            ],
            [
              493.68664690075354,
              165.36759923622597
            ],
            [
              493.68978925918657,
              165.36425762971118
            ],
            [
              493.6744399201214,
              165.38458412006278
            ],
            [
              492.74756377013813,
              166.3702256257018
            ],
            [
              492.6180946133606,
              166.55508834577907
            ],
            [
              492.3887854630919,
              166.8033111752633
            ],
            [
              492.1168527566352,
              167.19929767071517
            ],
            [
              491.89036625552285,
              167.45170433993195
            ],
            [
              491.3166586558534,
              168.30336547390235
            ],
            [
              491.0642277499531,
              168.5955645455191
            ],
            [
              489.9717267765491,
              170.28104284953557
            ],
            [
              488.4575253539445,
              172.2789819126964
            ],
            [
              488.4257474713499,
              172.33439664889934
            ],
            [
              488.36412121638483,
              172.41600581847788
            ],
            [
              487.7260446960218,
              173.54020879406724
            ],
            [
              486.91540707160965,
              174.69767888170077
            ],
            [
              486.7365831276586,
              175.03400848124002
            ],
            [
              486.53317107030813,
              175.33021568916305
            ],
            [
              486.3642322384155,
              175.6551751781515
            ],
            [
              486.2340775755979,
              175.8483880060678
            ],
            [
              485.74070665563596,
              176.8085359969788
            ],
            [
              485.4353857904721,
              177.2795760294383
            ],
            [
              484.4877821095209,
              179.20147821251652
            ],
            [
              483.16377067730906,
              181.5103087025859
            ],
            [
              483.04311844538717,
              181.78678662981864
            ],
            [
              483.027994907793,
              181.8133161104292
            ],
            [
              483.02037916506555,
              181.83094356225857
            ],
            [
              482.9655111749476,
              181.92761340635997
            ],
            [
              482.5241711604119,
              182.95665462511388
            ],
            [
              481.835249728636,
              184.2523685219023
            ],
            [
              481.62772146210733,
              184.76601194753
            ],
            [
              481.4528965310353,
              185.10229354498725
            ],
            [
              481.36775425281144,
              185.31872841834675
            ],
            [
              481.3168099492278,
              185.41787100813613
            ],
            [
              481.291759417656,
              185.4818546741478
            ],
            [
              481.28387745732675,
              185.49719343439847
            ],
            [
              480.89920106190226,
              186.4797337620007
            ],
            [
              480.57257859913193,
              187.14217992684948
            ],
            [
              479.7776648832395,
              189.26966380512542
            ],
            [
              478.6557841233626,
              191.8404846028265
            ],
            [
              478.52899356028365,
              192.2267363462719
            ],
            [
              478.48403475183926,
              192.33079832124136
            ],
            [
              478.42366512420426,
              192.5175138042614
            ],
            [
              478.3948508813972,
              192.58469793117413
            ],
            [
              478.1145190938405,
              193.46137344990933
            ],
            [
              477.5513307607572,
              194.85529433371218
            ],
            [
              477.3494310607767,
              195.53345709698738
            ],
            [
              477.19236335988785,
              195.93272909976315
            ],
            [
              477.17511749768437,
              195.99178682451378
            ],
            [
              477.14682426964885,
              196.06405337867747
            ],
            [
              476.81282943199943,
              197.20466291036325
            ],
            [
              476.51502641414396,
              198.00169421918216
            ],
            [
              475.87792606916673,
              200.30288504004793
            ],
            [
              474.9648431596235,
              203.0844790100024
            ],
            [
              474.84522135770413,
              203.58517949357585
            ],
            [
              474.7820769402835,
              203.780477044058
            ],
            [
              474.69339715168866,
              204.16017389486444
            ],
            [
              474.68466875724926,
              204.18747001344641
            ],
            [
              474.54417596681714,
              204.7990885209495
            ],
            [
              474.37615479717863,
              205.51849832090747
            ],
            [
              474.13017975165934,
              206.33308299133938
            ],
            [
              474.1225151276241,
              206.36846471266784
            ],
            [
              474.1059284337196,
              206.42339341546196
            ],
            [
              474.10219506310733,
              206.44062802131558
            ],
            [
              473.808819314935,
              207.42605052613834
            ],
            [
              473.52804636968966,
              208.79059288270676
            ],
            [
              473.28440101021846,
              209.67063394556908
            ],
            [
              472.8077570531406,
              212.11338544072228
            ],
            [
              472.1051954973536,
              215.0540944509326
            ],
            [
              472.00535330722875,
              215.66946816284778
            ],
            [
              471.9361410534971,
              215.96581161597865
            ],
            [
              471.67310043483195,
              217.6462539403687
            ],
            [
              471.6196747070085,
              217.9008510750116
            ],
            [
              471.4772069889247,
              218.55853423280078
            ],
            [
              471.4677333371879,
              218.62491865378888
            ],
            [
              471.2890839883437,
              219.47626152134458
            ],
            [
              471.2222833744533,
              219.96156234631098
            ],
            [
              471.216173180139,
              219.9910586361086
            ],
            [
              471.20282247990076,
              220.09106374299387
            ],
            [
              471.0630282937385,
              220.77045643897287
            ],
            [
              470.9599061701241,
              221.58343208747328
            ],
            [
              470.8861482838954,
              221.96143370515446
            ],
            [
              470.57036336807283,
              224.51397652406993
            ],
            [
              470.0756131407257,
              227.5633515777315
            ],
            [
              470.007088264463,
              228.28961912913059
            ],
            [
              469.94396055272404,
              228.69291227512528
            ],
            [
              469.80722883201724,
              230.24181423113347
            ],
            [
              469.7346285191508,
              230.76924937995102
            ],
            [
              469.67562373944793,
              231.18271171165958
            ],
            [
              469.67298828525,
              231.21706047955485
            ],
            [
              469.5701491230083,
              231.96417831833958
            ],
            [
              469.5246527304636,
              232.58768589577735
            ],
            [
              469.5187312703594,
              232.63146475999608
            ],
            [
              469.50798579839244,
              232.7864520379803
            ],
            [
              469.5017958066262,
              232.83281895338658
            ],
            [
              469.46622421236333,
              233.35905322078648
            ],
            [
              469.3013454167316,
              234.6588950111403
            ],
            [
              469.2997200123957,
              234.67681611167907
            ],
            [
              469.10688495025505,
              237.83051132037795
            ],
            [
              468.8613357845677,
              240.43298798369946
            ],
            [
              468.834323151374,
              241.26292552750928
            ],
            [
              468.7890917085427,
              241.7753089738374
            ],
            [
              468.75285764767295,
              243.16479004186013
            ],
            [
              468.68634355502724,
              244.07633573693303
            ],
            [
              468.68305233254927,
              244.11923135528363
            ],
            [
              468.6830061940662,
              244.12207276645566
            ],
            [
              468.6375366520798,
              244.74521236893557
            ],
            [
              468.62752493327866,
              245.48577630679355
            ],
            [
              468.6108215749255,
              245.7266971386137
            ],
            [
              468.60860404499374,
              245.97957968020188
            ],
            [
              468.54942239651433,
              246.94745802785724
            ],
            [
              468.5464399423208,
              247.55224631136068
            ],
            [
              468.5384580623022,
              247.68646265406835
            ],
            [
              468.5381931038769,
              249.2245574234072
            ],
            [
              468.5315867105705,
              250.56421563939296
            ],
            [
              468.4362294858706,
              253.4939759584142
            ],
            [
              468.45941532339214,
              254.41753247482086
            ],
            [
              468.44324434031586,
              255.03764720456408
            ],
            [
              468.47859845956407,
              256.14132129121003
            ],
            [
              468.4767029099482,
              256.2297624472809
            ],
            [
              468.48078561951843,
              256.3400408149589
            ],
            [
              468.4629295612801,
              257.6608482676928
            ],
            [
              468.49308293751466,
              258.3720910902243
            ],
            [
              468.48842033029945,
              259.31758430966374
            ],
            [
              468.5362835432224,
              260.30963690665146
            ],
            [
              468.53620173145447,
              260.78455770237787
            ],
            [
              468.6870979471444,
              263.4867658191052
            ],
            [
              468.7650057829419,
              266.5900520103804
            ],
            [
              468.84013751555267,
              267.5280905026518
            ],
            [
              468.8516004180567,
              267.91059118779975
            ],
            [
              468.8580107679224,
              267.98569874136723
            ],
            [
              468.86866533111106,
              268.3183096376087
            ],
            [
              468.9580121669834,
              269.33861022610637
            ],
            [
              469.0100168712364,
              270.56527129185747
            ],
            [
              469.0523203017664,
              271.00544220589427
            ],
            [
              469.0839531412341,
              271.6610906389654
            ],
            [
              469.1298677905841,
              272.1224289955569
            ],
            [
              469.1312599188677,
              272.15130275292705
            ],
            [
              469.17491234770216,
              272.5750248936047
            ],
            [
              469.2197740354995,
              273.0257833686509
            ],
            [
              469.26508581224095,
              273.8372142608526
            ],
            [
              469.561509199727,
              276.53459658784726
            ],
            [
              469.80537478490055,
              279.57931947458826
            ],
            [
              469.92199143284256,
              280.45194262051
            ],
            [
              469.96975514313596,
              281.01157126871044
            ],
            [
              469.99786713530045,
              281.2132852007646
            ],
            [
              470.02043825187314,
              281.47103717697263
            ],
            [
              470.1374645185813,
              282.29646319125374
            ],
            [
              470.23646826233215,
              283.32660584954135
            ],
            [
              470.2621420589105,
              283.4992239310006
            ],
            [
              470.2984134462468,
              283.8636693197108
            ],
            [
              470.4246805228619,
              284.70618140815714
            ],
            [
              470.4740708227138,
              285.18559948712135
            ],
            [
              470.6014479090724,
              285.9977915114876
            ],
            [
              470.6798131195409,
              286.71089628886523
            ],
            [
              471.1150105488984,
              289.3791079315909
            ],
            [
              471.5100379052188,
              292.33503249695895
            ],
            [
              471.65895045727234,
              293.1321718610581
            ],
            [
              471.7606572850433,
              293.8619559343236
            ],
            [
              471.82282433590194,
              294.18387851756006
            ],
            [
              471.84859862683254,
              294.3656733473132
            ],
            [
              471.9499023614122,
              294.8831639671415
            ],
            [
              472.09078074949844,
              295.8231694549801
            ],
            [
              472.09418202559823,
              295.8425974444705
            ],
            [
              472.13410878738875,
              296.0406168991127
            ],
            [
              472.13993935949634,
              296.07991479291763
            ],
            [
              472.14129887610426,
              296.08768057179594
            ],
            [
              472.3329923870423,
              297.0386046984681
            ],
            [
              472.4728954068815,
              297.93066558749825
            ],
            [
              472.636274922765,
              298.70603644741965
            ],
            [
              472.7310894797396,
              299.2873480263762
            ],
            [
              473.1968675081109,
              301.43870400941086
            ],
            [
              473.21931509688346,
              301.57000888856396
            ],
            [
              473.311022116109,
              301.9758276395954
            ],
            [
              473.828457597725,
              304.74569616357263
            ],
            [
              473.8771441414528,
              304.9480377057495
            ],
            [
              473.90365394710824,
              305.08968320078145
            ],
            [
              474.0308451814457,
              305.61777741929706
            ],
            [
              474.1719530009593,
              306.34848272301673
            ],
            [
              474.27886640781384,
              306.7802283038958
            ],
            [
              474.2999996110727,
              306.8881832030851
            ],
            [
              474.338081625635,
              307.04016253006756
            ],
            [
              474.4683303807369,
              307.6909024088246
            ],
            [
              474.52851502857465,
              307.9304388292277
            ],
            [
              474.5672474165022,
              308.12299893691846
            ],
            [
              474.5682589579421,
              308.12697645109745
            ],
            [
              474.6140798759602,
              308.3542779191492
            ],
            [
              474.62867101262276,
              308.4113477209868
            ],
            [
              474.63366294943296,
              308.4361056091376
            ],
            [
              474.9333862992423,
              309.60772882725746
            ],
            [
              475.07468317796645,
              310.2782993194058
            ],
            [
              475.2690694293815,
              311.00988111486635
            ],
            [
              475.3672532797188,
              311.46337698838397
            ],
            [
              475.8945216530239,
              313.40824104014473
            ],
            [
              476.0257961319393,
              313.9891523546549
            ],
            [
              476.17029632088435,
              314.5007148588877
            ],
            [
              476.77615265655953,
              317.01621232834333
            ],
            [
              477.00453551008894,
              317.78722569004174
            ],
            [
              477.1496480447442,
              318.37322979753174
            ],
            [
              477.1650206714577,
              318.42379795966883
            ],
            [
              477.2841914111148,
              318.89810051709577
            ],
            [
              477.42683055447515,
              319.36725653142855
            ],
            [
              477.52303300824167,
              319.74553725251957
            ],
            [
              477.5430288954081,
              319.81017364372366
            ],
            [
              477.63174701603845,
              320.1571737219209
            ],
            [
              477.63390250426835,
              320.16408851254016
            ],
            [
              477.6575814102723,
              320.25664972299035
            ],
            [
              478.1188419341796,
              321.7351339068924
            ],
            [
              478.2251899349722,
              322.13537960738046
            ],
            [
              478.4453749911965,
              322.81723124313766
            ],
            [
              478.53563894573597,
              323.1501757724537
            ],
            [
              479.0408944636142,
              324.6906005267061
            ],
            [
              479.12251638776894,
              324.9522243112368
            ],
            [
              479.38350501294406,
              325.8761815438288
            ],
            [
              479.3925211613909,
              325.9051024015108
            ],
            [
              479.5118246888036,
              326.251755441533
            ],
            [
              480.1544934709537,
              328.4213851249182
            ],
            [
              480.33116048284603,
              328.91992083852614
            ],
            [
              480.54602978026173,
              329.62664986681
            ],
            [
              480.78863268004096,
              330.3015369022101
            ],
            [
              480.9569521652903,
              330.84562699469654
            ],
            [
              480.96791514164045,
              330.8754669712738
            ],
            [
              481.0787625867857,
              331.2323472431813
            ],
            [
              481.09836066072853,
              331.285422917922
            ],
            [
              481.175547809137,
              331.53283185970065
            ],
            [
              481.8224216543646,
              333.27500177009017
            ],
            [
              481.87016167950486,
              333.4228392972749
            ],
            [
              482.09305266695634,
              334.0038690915747
            ],
            [
              482.1150954572054,
              334.0632350502066
            ],
            [
              482.1836735650271,
              334.2723162202783
            ],
            [
              482.3892726684318,
              334.8016530447289
            ],
            [
              482.92355864016423,
              336.2405996806613
            ],
            [
              483.05354432946706,
              336.6022015270282
            ],
            [
              483.98686730066936,
              339.2359407210204
            ],
            [
              484.08473122671523,
              339.47081797251394
            ],
            [
              484.2099439109081,
              339.8191419921546
            ],
            [
              484.54402730229776,
              340.6170073598839
            ],
            [
              484.98693692465326,
              341.81649906092895
            ],
            [
              485.0363352145489,
              341.93075982909806
            ],
            [
              485.13562649739714,
              342.1981725350143
            ],
            [
              485.1411913266312,
              342.21095939088013
            ],
            [
              485.1493516901905,
              342.2329370690753
            ],
            [
              485.5490498951464,
              343.1513587154141
            ],
            [
              485.56673574039024,
              343.19830890199717
            ],
            [
              485.7274805737853,
              343.5613545462973
            ],
            [
              487.0322694699812,
              346.5594825121807
            ],
            [
              488.23307050286127,
              349.427262181452
            ],
            [
              488.2392354089435,
              349.4409523900471
            ],
            [
              488.63941425240165,
              350.26486571570865
            ],
            [
              489.2810988709339,
              351.74911502037617
            ],
            [
              489.35444261836807,
              351.895343568445
            ],
            [
              489.5005906552704,
              352.23116073997426
            ],
            [
              490.02943788089885,
              353.27741713571754
            ],
            [
              490.07048333429793,
              353.3701191700902
            ],
            [
              490.3610820515258,
              353.93353258418284
            ],
            [
              491.7784437238481,
              356.7376008345973
            ],
            [
              492.8130895092269,
              358.8720755919125
            ],
            [
              492.8645676874075,
              358.963876857842
            ],
            [
              492.91348740204614,
              359.06459583745954
            ],
            [
              493.24979488554817,
              359.6616730254575
            ],
            [
              493.913869472575,
              360.985666768072
            ],
            [
              494.00672617960726,
              361.1459718306418
            ],
            [
              494.19472896207003,
              361.51791121886566
            ],
            [
              494.86039186434084,
              362.65680406611705
            ],
            [
              494.9283738732116,
              362.78860773022006
            ],
            [
              495.317312735159,
              363.4385569770247
            ],
            [
              496.70825102627117,
              365.81833458713095
            ],
            [
              496.898094338692,
              366.1568830172247
            ],
            [
              497.67006266156324,
              367.53599826998084
            ],
            [
              497.6805158112348,
              367.55217873676133
            ],
            [
              497.7112851082014,
              367.60704976199764
            ],
            [
              497.8170528299053,
              367.7703404330046
            ],
            [
              497.90519119710643,
              367.9268204729504
            ],
            [
              498.1673557146625,
              368.32875915256886
            ],
            [
              498.4675441523073,
              368.84699556029227
            ],
            [
              498.7483426538834,
              369.33342760381447
            ],
            [
              498.7557773929542,
              369.3445928708205
            ],
            [
              498.8399242969815,
              369.48986158803984
            ],
            [
              498.95341805654124,
              369.6596252207307
            ],
            [
              499.1852356628021,
              370.056245511185
            ],
            [
              499.9924052805232,
              371.25102617422834
            ],
            [
              500.0905983095502,
              371.41511490771177
            ],
            [
              500.55642496688137,
              372.08589384028363
            ],
            [
              501.7690304629081,
              373.88080480667344
            ],
            [
              502.79648844951004,
              375.4712106028349
            ],
            [
              502.86120611446887,
              375.55781246455285
            ],
            [
              502.87270613677725,
              375.5755669016213
            ],
            [
              503.0368159118803,
              375.79439340552744
            ],
            [
              503.1675082797002,
              375.99476498232474
            ],
            [
              503.30412611182226,
              376.1751658488174
            ],
            [
              503.8983782259584,
              377.06759575774504
            ],
            [
              503.9555613264362,
              377.1418164534203
            ],
            [
              504.01612719419035,
              377.2324107007708
            ],
            [
              504.15117936346223,
              377.4068857944014
            ],
            [
              504.42785725496793,
              377.8164272184345
            ],
            [
              505.37839489976335,
              379.0294119784558
            ],
            [
              505.50987310777276,
              379.2187373651312
            ],
            [
              506.03695680936767,
              379.869805375053
            ],
            [
              507.0421344916464,
              381.1525164979612
            ],
            [
              508.14218915503926,
              382.6245532579848
            ],
            [
              508.4703764915496,
              383.0018121427862
            ],
            [
              509.2572988677566,
              384.0231965325821
            ],
            [
              509.367721461265,
              384.1461827331075
            ],
            [
              509.4015467104661,
              384.18988187213984
            ],
            [
              509.5588971289424,
              384.3641670205714
            ],
            [
              509.8806281673116,
              384.77472924134
            ],
            [
              510.9737185809143,
              385.96782671820256
            ],
            [
              511.1414323361753,
              386.1749912739262
            ],
            [
              511.717817468472,
              386.7800033636312
            ],
            [
              512.4508163498992,
              387.5800644611248
            ],
            [
              512.524818272468,
              387.6624861376961
            ],
            [
              513.6677283096345,
              388.97628748857204
            ],
            [
              513.9652256171595,
              389.2667794340678
            ],
            [
              514.7866661047109,
              390.1816813695443
            ],
            [
              514.9524414534352,
              390.3381878227818
            ],
            [
              514.9573788985347,
              390.3436566570046
            ],
            [
              515.0851234670954,
              390.4634512683178
            ],
            [
              515.1398470542928,
              390.51511512912106
            ],
            [
              515.5037836620879,
              390.9123483708462
            ],
            [
              516.736085956988,
              392.0475110331727
            ],
            [
              516.9429111785275,
              392.2646085127639
            ],
            [
              517.5590794862736,
              392.8056298240592
            ],
            [
              517.844796970869,
              393.0688248386359
            ],
            [
              518.27207783724,
              393.4722154117734
            ],
            [
              519.3356973699697,
              394.51078920557603
            ],
            [
              519.6018104824904,
              394.72759953051445
            ],
            [
              520.449995318913,
              395.52836032795534
            ],
            [
              520.8882020080257,
              395.8723250665013
            ],
            [
              521.2595971171816,
              396.2144439302149
            ],
            [
              521.3070099159095,
              396.25053367044364
            ],
            [
              521.3354956314078,
              396.2767382807339
            ],
            [
              522.6512853732007,
              397.2767976391437
            ],
            [
              522.8741462620089,
              397.47247873597377
            ],
            [
              522.8822592944805,
              397.4789369346559
            ],
            [
              523.5128002358192,
              397.9324698923216
            ],
            [
              524.1327446872098,
              398.4190873640228
            ],
            [
              525.1105209275453,
              399.21571095906796
            ],
            [
              525.3456389587219,
              399.37113321669693
            ],
            [
              526.2125560100782,
              400.051608673425
            ],
            [
              526.7365261402327,
              400.38338039901254
            ],
            [
              527.112160317762,
              400.6693061459055
            ],
            [
              527.1256278636745,
              400.677499087219
            ],
            [
              527.1861478226153,
              400.72349697683694
            ],
            [
              528.5157115626416,
              401.530943872773
            ],
            [
              528.6780262584214,
              401.6476929357135
            ],
            [
              529.1634259705321,
              401.9243022145755
            ],
            [
              529.3271191114629,
              402.02371340829876
            ],
            [
              530.0691146544945,
              402.4935362618007
            ],
            [
              530.958217940945,
              403.08126847168205
            ],
            [
              531.1636340454963,
              403.1865730708609
            ],
            [
              532.0411320014689,
              403.74219445899104
            ],
            [
              532.6213663256789,
              404.02431676975027
            ],
            [
              533.0989613079763,
              404.31436122144044
            ],
            [
              534.4286625741703,
              404.9247434254699
            ],
            [
              534.5259465222888,
              404.9801815356841
            ],
            [
              534.8354831728282,
              405.1114891705281
            ],
            [
              535.2262072542345,
              405.2908460170956
            ],
            [
              536.0450732055298,
              405.6889961173991
            ],
            [
              536.8461317665756,
              406.0996511187255
            ],
            [
              537.0238675869291,
              406.16490683331193
            ],
            [
              537.9037534598982,
              406.5927261217077
            ],
            [
              538.5242553428543,
              406.8047724248706
            ],
            [
              539.0408956115539,
              407.0419294720267
            ],
            [
              540.3568031627043,
              407.4536721328125
            ],
            [
              540.3944960063906,
              407.4696617034993
            ],
            [
              540.5224403674524,
              407.5054994084797
            ],
            [
              541.1424780797086,
              407.69950694130495
            ],
            [
              542.0258439591724,
              408.0013826877293
            ],
            [
              542.742639411221,
              408.2645541708196
            ],
            [
              542.895275362783,
              408.29849655643665
            ],
            [
              543.7694104180891,
              408.5972178206752
            ],
            [
              544.4263397474148,
              408.7270152488056
            ],
            [
              544.9798651290151,
              408.9002113165878
            ],
            [
              547.0445757885947,
              409.2443316315633
            ],
            [
              547.9777243928761,
              409.42870502378366
            ],
            [
              548.6168485299889,
              409.57083011095773
            ],
            [
              548.7473612230705,
              409.5807714283266
            ],
            [
              549.607755745375,
              409.7507699215963
            ],
            [
              550.2966893301051,
              409.78635350327596
            ],
            [
              550.8844209916932,
              409.8843093130029
            ],
            [
              552.9016293183792,
              409.92089926631166
            ],
            [
              553.8678189461698,
              409.9708031878182
            ],
            [
              554.4382892707756,
              410.01425663602254
            ],
            [
              554.5498967473734,
              410.00603266667014
            ],
            [
              555.3888042303357,
              410.04936243545933
            ],
            [
              556.1047268790546,
              409.9789999536138
            ],
            [
              556.7234300015978,
              409.99022255172827
            ],
            [
              558.6829459840238,
              409.7256068037941
            ],
            [
              559.6637784337378,
              409.62920839320793
            ],
            [
              560.1766071268166,
              409.5914198185948
            ],
            [
              560.272622184384,
              409.5693698653611
            ],
            [
              561.0826336178463,
              409.48976012694936
            ],
            [
              561.8199210849904,
              409.3019853482911
            ],
            [
              562.4657569175638,
              409.2147707843808
            ],
            [
              564.3577094472656,
              408.65565312476923
            ],
            [
              565.3335538568183,
              408.40712188535826
            ],
            [
              565.8012624963561,
              408.29971213223047
            ],
            [
              565.8849541551989,
              408.26668945758286
            ],
            [
              566.6590930760973,
              408.06952923039427
            ],
            [
              567.4114880044057,
              407.7531878181418
            ],
            [
              568.0799560687747,
              407.55563936287365
            ],
            [
              569.8946881581777,
              406.70913633136206
            ],
            [
              570.8451722665928,
              406.30950912247505
            ],
            [
              571.2812426527626,
              406.1374464499544
            ],
            [
              571.3557057827383,
              406.09485736524135
            ],
            [
              572.0875246488722,
              405.78716707531976
            ],
            [
              572.7848796230201,
              405.3693609280877
            ],
            [
              572.8610014201972,
              405.33563456449565
            ],
            [
              572.9238571262342,
              405.2961449981471
            ],
            [
              573.533978466919,
              405.0115467549721
            ],
            [
              575.2619606675012,
              403.88526785361523
            ],
            [
              576.1665423045538,
              403.3433060369814
            ],
            [
              576.5847922888732,
              403.10408853401736
            ],
            [
              576.6528255256625,
              403.0519592672441
            ],
            [
              577.3365037600996,
              402.64234726235367
            ],
            [
              578.048812046455,
              402.0763538268996
            ],
            [
              578.2040340901276,
              401.97883441968526
            ],
            [
              578.2658200866858,
              401.92738687237687
            ],
            [
              578.7949012660356,
              401.5825378518303
            ],
            [
              580.3907796770817,
              400.21544847117707
            ],
            [
              581.365121674987,
              399.44124552384034
            ],
            [
              581.6791697010042,
              399.20061176745105
            ],
            [
              581.7263434119424,
              399.1542221439532
            ],
            [
              582.3465800396367,
              398.6613879787049
            ],
            [
              583.0785545745426,
              397.919951546506
            ],
            [
              583.3192101526349,
              397.7195640812415
            ],
            [
              583.3807709397654,
              397.65410966543226
            ],
            [
              583.8286875662294,
              397.2704074615426
            ],
            [
              585.2978227263163,
              395.6719959386637
            ],
            [
              586.3094219994952,
              394.6473201881497
            ],
            [
              586.5304370028462,
              394.4299787370308
            ],
            [
              586.5602924718204,
              394.39320682891207
            ],
            [
              587.1107996941869,
              393.8355834535287
            ],
            [
              587.8492495096285,
              392.90300643921904
            ],
            [
              588.1701967623831,
              392.56175974773225
            ],
            [
              588.2317751130665,
              392.4798707823683
            ],
            [
              588.5999861464744,
              392.07925906560143
            ],
            [
              589.9385150320734,
              390.2645048616452
            ],
            [
              590.967747208961,
              388.9647032360472
            ],
            [
              591.1032944772984,
              388.79775453728513
            ],
            [
              591.1195570201955,
              388.772984939772
            ],
            [
              591.5984754046797,
              388.1681662130803
            ],
            [
              592.3276471693792,
              387.0330421288545
            ],
            [
              592.719148018571,
              386.5124111096515
            ],
            [
              592.7803941982551,
              386.41153447047554
            ],
            [
              593.0719827041454,
              386.01620384102773
            ],
            [
              594.2741979396818,
              384.00278675217334
            ],
            [
              595.3049782020677,
              382.3981394550282
            ],
            [
              595.3609712330552,
              382.3128560617371
            ],
            [
              595.3668675554459,
              382.30179439756495
            ],
            [
              595.7738779177906,
              381.6681888642887
            ],
            [
              596.4773525286491,
              380.32239171164974
            ],
            [
              596.9266093717092,
              379.5824350206966
            ],
            [
              596.9866144396708,
              379.46015114770665
            ],
            [
              597.2063165044302,
              379.0922038130241
            ],
            [
              598.2669818468345,
              376.8987030617234
            ],
            [
              599.5998348652004,
              374.34886008328266
            ],
            [
              600.252973585096,
              372.80616740672934
            ],
            [
              600.494359104528,
              372.32032635752535
            ],
            [
              600.513159318284,
              372.27343208275954
            ],
            [
              600.7515074698945,
              371.7877041920918
            ],
            [
              600.8034332748434,
              371.65577994738396
            ],
            [
              600.8496581296776,
              371.5609798835837
            ],
            [
              600.8565581109659,
              371.5433499132433
            ],
            [
              600.9630788884432,
              371.3230604439114
            ],
            [
              601.2526709949016,
              370.5775696153331
            ],
            [
              601.2562962027827,
              370.56993649560087
            ],
            [
              601.2968865980993,
              370.463746324139
            ],
            [
              601.8774874660351,
              368.96911780197223
            ],
            [
              603.0377869284525,
              366.2285277424112
            ],
            [
              603.3724096784163,
              365.239525914014
            ],
            [
              603.4629326190202,
              365.02059183418413
            ],
            [
              603.6528432799954,
              364.44196781276474
            ],
            [
              603.8506871228949,
              363.9484764277822
            ],
            [
              603.9083208443404,
              363.76741022759353
            ],
            [
              604.1512457020347,
              363.1502281078901
            ],
            [
              604.1886548734594,
              363.0295924612122
            ],
            [
              604.2229540745863,
              362.9419554266521
            ],
            [
              604.2390278376616,
              362.889854420594
            ],
            [
              604.3009126793135,
              362.7305455829367
            ],
            [
              604.4951674807785,
              362.0965946195769
            ],
            [
              604.5213546669008,
              362.02808526500155
            ],
            [
              604.8737821647611,
              360.8609847822313
            ],
            [
              605.0649760154228,
              360.2370232384916
            ],
            [
              606.0479459512745,
              357.3317842374778
            ],
            [
              606.2988229522447,
              356.38013815698696
            ],
            [
              606.4750803348286,
              355.84311324751593
            ],
            [
              606.648065486814,
              355.1600335151837
            ],
            [
              606.7634213757658,
              354.7976232463881
            ],
            [
              606.8468417619678,
              354.4575743698778
            ],
            [
              607.081928313802,
              353.6994763655135
            ],
            [
              607.1066967801128,
              353.5946796536327
            ],
            [
              607.1304328834161,
              353.51774217134727
            ],
            [
              607.1520463001428,
              353.4258648653413
            ],
            [
              607.1772339024831,
              353.3436650708404
            ],
            [
              607.2235323518432,
              353.145621213869
            ],
            [
              607.2543784849356,
              353.0446261748965
            ],
            [
              607.3230978287214,
              352.7498200428481
            ],
            [
              607.3339444261253,
              352.71390040222866
            ],
            [
              607.5696695536652,
              351.692026814471
            ],
            [
              607.836542685232,
              350.54714050815204
            ],
            [
              608.5895748085305,
              347.69068070569267
            ],
            [
              608.7622070140804,
              346.8117607759399
            ],
            [
              608.9940236556778,
              345.8963686299297
            ],
            [
              609.1403710090658,
              345.1083963173264
            ],
            [
              609.1908597446591,
              344.9025876583195
            ],
            [
              609.2846119725546,
              344.3798034471679
            ],
            [
              609.4987379905635,
              343.4738247592286
            ],
            [
              609.5130926516218,
              343.38920194964993
            ],
            [
              609.5278686684253,
              343.3263900104014
            ],
            [
              609.5493618547515,
              343.19914260053207
            ],
            [
              609.6152277381885,
              342.9165778194604
            ],
            [
              610.1251682735576,
              339.8725352081471
            ],
            [
              610.6214098769535,
              337.3460272842075
            ],
            [
              610.7251886661704,
              336.57532478995864
            ],
            [
              610.9759526178916,
              335.22514628400455
            ],
            [
              611.0859026784166,
              334.3353878444264
            ],
            [
              611.0908983480468,
              334.30753082962207
            ],
            [
              611.1264178977125,
              334.00752301085856
            ],
            [
              611.1791053176678,
              333.5811560190596
            ],
            [
              611.4300026232825,
              332.083447881793
            ],
            [
              611.5188566049937,
              331.25127457444205
            ],
            [
              611.5253108313747,
              331.21188450007577
            ],
            [
              611.5759874416617,
              330.71620843122
            ],
            [
              611.8128097982215,
              328.4982184219901
            ],
            [
              612.1022467907381,
              326.3487443942212
            ],
            [
              612.1504731683925,
              325.720471459928
            ],
            [
              612.3772374044232,
              323.885407506111
            ],
            [
              612.4898568282089,
              322.157248042059
            ],
            [
              612.6556927961112,
              320.60409011685323
            ],
            [
              612.6985043212477,
              319.7366904439648
            ],
            [
              612.7264463044431,
              319.46338541603836
            ],
            [
              612.8444599757094,
              316.77949874101904
            ],
            [
              612.8574144951987,
              316.5170286251544
            ],
            [
              612.8601289995415,
              316.47537420886897
            ],
            [
              612.9917082423386,
              314.7612152567434
            ]
          ]
        ]
      }
    }
  ]
}