{
  "type": "FeatureCollection",
  "features": [
    {
      "type": "Feature",
      "properties": {
        "method": "Homography",
        "mode": "tmpl2img",
        "inside_ratio": 1.0
      },
      "geometry": {
        "type": "Polygon",
        "coordinates": [
          [
            [
              409.0229061681988,
              349.6445592523401
            ],
            [
              409.1639668568539,
              349.6379261542006
            ],
            [
              409.1871392670062,
              349.6380823909784
            ],
            [
              409.6159360947693,
              349.61753314803434
            ],
            [
              411.26758065205473,
              349.6045186188458
            ],
            [
              412.26834298340214,
              349.544560207096
            ],
            [
              412.67143018612217,
              349.5385471687785
            ],
            [
              414.1324245037664,
              349.4395052293663
            ],
            [
              414.25770470978074,
              349.43648992830254
            ],
            [
              414.6005021051337,
              349.41025904771107
            ],
            [
              415.9118882006516,
              349.366245261523
            ],
            [
              416.329163418721,
              349.33009990946715
            ],
            [
              416.53711492392694,
              349.3223553228748
            ],
            [
              417.06921626515623,
              349.2735593138126
            ],
            [
              417.2755536884425,
              349.2651138251508
            ],
            [
              417.4558245234756,
              349.2480180502726
            ],
            [
              418.11826905996764,
              349.2168679143734
            ],
            [
              418.2468510209651,
              349.2039135590611
            ],
            [
              418.2744661023512,
              349.20259016070924
            ],
            [
              418.5253779849901,
              349.17710210964117
            ],
            [
              419.74217691939054,
              349.105960483352
            ],
            [
              419.9316790428485,
              349.0854287585597
            ],
            [
              420.2523934537873,
              349.06621387995926
            ],
            [
              420.5478460018009,
              349.0329070748344
            ],
            [
              420.57966154649705,
              349.030978813778
            ],
            [
              420.68755939090585,
              349.01860005213706
            ],
            [
              420.8040134703893,
              349.01146709380913
            ],
            [
              421.30004336438503,
              348.95360678036724
            ],
            [
              421.57361718743437,
              348.93506099844234
            ],
            [
              422.9150333479941,
              348.77403053736435
            ],
            [
              423.12814087622934,
              348.75772353444626
            ],
            [
              423.5237004919711,
              348.7068923377366
            ],
            [
              424.9216710511253,
              348.5857968692368
            ],
            [
              425.6001159777635,
              348.4912386778266
            ],
            [
              425.7988325262492,
              348.47301550537634
            ],
            [
              426.11578744306127,
              348.4267605434404
            ],
            [
              426.45287945834735,
              348.39479281440947
            ],
            [
              426.8213458028722,
              348.3400516989523
            ],
            [
              427.27955825157517,
              348.29388778279036
            ],
            [
              427.3787632231969,
              348.2785698162463
            ],
            [
              428.2653105200895,
              348.18251630094295
            ],
            [
              428.6958068320628,
              348.11437533309817
            ],
            [
              429.27718749580504,
              348.0488354262647
            ],
            [
              429.33543866987696,
              348.03918509071417
            ],
            [
              429.3916433973819,
              348.03284900979617
            ],
            [
              429.64369707626236,
              347.9910920953314
            ],
            [
              429.8328439485291,
              347.96939190233707
            ],
            [
              430.044919043634,
              347.933544776183
            ],
            [
              430.2765704860166,
              347.90652337036056
            ],
            [
              431.74234218580074,
              347.6540117972934
            ],
            [
              431.81575133983546,
              347.6447195341987
            ],
            [
              431.88133904462205,
              347.63289804610594
            ],
            [
              432.0257991291455,
              347.61433427295793
            ],
            [
              432.4756288797407,
              347.5329647789174
            ],
            [
              433.94619637005985,
              347.32800458720175
            ],
            [
              434.8860510410826,
              347.1468680812171
            ],
            [
              435.068233168055,
              347.1202812485124
            ],
            [
              435.1718738264067,
              347.0994574752108
            ],
            [
              435.6340860136616,
              347.0307890307673
            ],
            [
              435.8688086150358,
              346.9831206802023
            ],
            [
              436.17483379615896,
              346.93578220947194
            ],
            [
              436.2893187948727,
              346.91243877729744
            ],
            [
              436.77850045805707,
              346.83500881784425
            ],
            [
              437.3554798168734,
              346.71438801814116
            ],
            [
              437.82408156999645,
              346.6380864817218
            ],
            [
              437.86840257872666,
              346.62853184358056
            ],
            [
              438.39840516605506,
              346.54072803606476
            ],
            [
              438.4188043080692,
              346.53624707283996
            ],
            [
              438.4247464853611,
              346.53526264964324
            ],
            [
              438.78345890045296,
              346.4564663831744
            ],
            [
              439.06295832159884,
              346.409222500032
            ],
            [
              439.3758943713681,
              346.3389637098288
            ],
            [
              439.72134642059416,
              346.2794519588605
            ],
            [
              441.4893748233624,
              345.87422132562244
            ],
            [
              442.91805065386495,
              345.59887519382
            ],
            [
              443.78762351613443,
              345.3835383131725
            ],
            [
              444.388770394166,
              345.2609647748884
            ],
            [
              444.54621977814514,
              345.22087931579347
            ],
            [
              444.74791709326166,
              345.1799178648375
            ],
            [
              444.9655777537018,
              345.1234539839464
            ],
            [
              445.2246583140188,
              345.0692917268485
            ],
            [
              445.34998448928036,
              345.0365206821131
            ],
            [
              445.39714829662717,
              345.0266607067195
            ],
            [
              445.8581131761415,
              344.9061253419508
            ],
            [
              446.5630509497763,
              344.75415620743564
            ],
            [
              446.69332988106584,
              344.7189511054958
            ],
            [
              447.34527312109634,
              344.5757425319912
            ],
            [
              447.8534281730738,
              344.43563148182807
            ],
            [
              448.196797225862,
              344.3585400305223
            ],
            [
              448.6048305025042,
              344.24336482685976
            ],
            [
              449.059745078627,
              344.13909878596235
            ],
            [
              450.55158152770053,
              343.7085439772067
            ],
            [
              451.768887312521,
              343.40709617235404
            ],
            [
              452.26430926603376,
              343.2559103038871
            ],
            [
              452.4912834149979,
              343.1981243492232
            ],
            [
              453.0500249796405,
              343.0262478820425
            ],
            [
              453.7221239795953,
              342.85189704711314
            ],
            [
              454.39049350611356,
              342.6389568394884
            ],
            [
              455.1590266563924,
              342.4312771507535
            ],
            [
              455.3505228418592,
              342.36849507710053
            ],
            [
              456.1106171333596,
              342.15891808088827
            ],
            [
              456.12741947078337,
              342.1532891441223
            ],
            [
              456.13210545080557,
              342.1519971000997
            ],
            [
              456.76444947718926,
              341.94015616466464
            ],
            [
              457.1601567017084,
              341.82846022518055
            ],
            [
              457.65504882325826,
              341.6584318454042
            ],
            [
              458.21208233228805,
              341.49766793854207
            ],
            [
              459.4280996159575,
              341.0697660325421
            ],
            [
              460.4294895352828,
              340.7641760126529
            ],
            [
              461.3869926215831,
              340.4131575419241
            ],
            [
              462.2841025395788,
              340.12792129804507
            ],
            [
              462.3467375893492,
              340.1041251337432
            ],
            [
              462.46237410306105,
              340.06728374247075
            ],
            [
              462.9310988181653,
              339.88819070057673
            ],
            [
              463.07163842219313,
              339.8430814218608
            ],
            [
              463.16784384448925,
              339.80558437587683
            ],
            [
              463.54682794238613,
              339.6813343419158
            ],
            [
              463.7904688727228,
              339.58637648299066
            ],
            [
              464.67286038244674,
              339.29076739198405
            ],
            [
              465.4570056014983,
              338.9779404568116
            ],
            [
              465.87793918360495,
              338.83332175741504
            ],
            [
              466.4489536759758,
              338.5992116461972
            ],
            [
              467.0977076874818,
              338.37092288601735
            ],
            [
              468.0443252141291,
              337.97259443648693
            ],
            [
              468.8298838883034,
              337.6846103992339
            ],
            [
              469.6419357641625,
              337.3325501923526
            ],
            [
              470.55946354519995,
              336.9839651443565
            ],
            [
              470.71894179201996,
              336.9125667510524
            ],
            [
              470.91188039678366,
              336.8388476564293
            ],
            [
              471.3639177531722,
              336.6346618865174
            ],
            [
              471.66063545218157,
              336.51901761704335
            ],
            [
              471.93269170948776,
              336.394529898273
            ],
            [
              472.9185477094788,
              336.0012324534786
            ],
            [
              473.83626163284725,
              335.57049081602133
            ],
            [
              474.2743254332845,
              335.3908891309344
            ],
            [
              474.9082133161198,
              335.0843298222795
            ],
            [
              475.63520716566677,
              334.7784171122822
            ],
            [
              476.32493691322094,
              334.43517523758584
            ],
            [
              476.89951924906154,
              334.1860685215812
            ],
            [
              477.136466938932,
              334.06566420222094
            ],
            [
              477.21484916090265,
              334.03152370067005
            ],
            [
              477.6378242595842,
              333.81498384263324
            ],
            [
              478.49494526796343,
              333.43125086285477
            ],
            [
              478.74112176926025,
              333.3023707373188
            ],
            [
              479.0029108166741,
              333.184120337335
            ],
            [
              479.3457351432493,
              333.00246358322556
            ],
            [
              479.4341773192611,
              332.9619941419272
            ],
            [
              479.72938469323316,
              332.80447254811185
            ],
            [
              480.79841868505844,
              332.3027067576925
            ],
            [
              481.8262029535197,
              331.7386685816215
            ],
            [
              482.27303278534947,
              331.52257383041837
            ],
            [
              482.95403382480964,
              331.1362256714156
            ],
            [
              483.74270782854524,
              330.7437444937858
            ],
            [
              484.1941581153819,
              330.479317769294
            ],
            [
              484.5675254979959,
              330.289592156867
            ],
            [
              484.8404803084107,
              330.1276222859235
            ],
            [
              485.0077904571515,
              330.0419687427969
            ],
            [
              485.2757037340145,
              329.88133851245465
            ],
            [
              486.0212470542696,
              329.49102621131976
            ],
            [
              486.3411843900102,
              329.29569453216203
            ],
            [
              486.6614134985625,
              329.1260105980853
            ],
            [
              487.2346934252,
              328.7705407414149
            ],
            [
              488.2415672755159,
              328.2179780028232
            ],
            [
              489.23557541711153,
              327.5810131186516
            ],
            [
              489.2944162057687,
              327.547910243033
            ],
            [
              489.3941952456979,
              327.48256823996945
            ],
            [
              489.79767648124795,
              327.25366369575926
            ],
            [
              489.81059454378055,
              327.24506943498614
            ],
            [
              489.8226954222754,
              327.2382043037587
            ],
            [
              490.5224547157484,
              326.77266215194066
            ],
            [
              491.33830356737616,
              326.2947972666762
            ],
            [
              491.34913314783955,
              326.2879171334922
            ],
            [
              491.59169027595476,
              326.12149172725947
            ],
            [
              491.7630657941109,
              326.01979844507395
            ],
            [
              492.060906821488,
              325.8131984501808
            ],
            [
              492.3059004182177,
              325.66630995576384
            ],
            [
              492.43826300796985,
              325.5732386904426
            ],
            [
              493.06917815676394,
              325.1880453989658
            ],
            [
              493.4471928229681,
              324.91839771690167
            ],
            [
              493.8134877690393,
              324.6912716552195
            ],
            [
              494.31954078954476,
              324.32318526086385
            ],
            [
              495.1773335690922,
              323.77350779283836
            ],
            [
              495.9917990730765,
              323.1620150477502
            ],
            [
              496.00823580412793,
              323.1512511745851
            ],
            [
              496.1171410227047,
              323.06790953624807
            ],
            [
              496.3198348274686,
              322.91572900744984
            ],
            [
              496.797622638618,
              322.5978620383449
            ],
            [
              497.2915526003862,
              322.2106526181214
            ],
            [
              497.9120182638341,
              321.7849333209924
            ],
            [
              498.18814977545026,
              321.56298358177526
            ],
            [
              498.41579510739683,
              321.40507543583874
            ],
            [
              498.71775109940705,
              321.1587715714441
            ],
            [
              498.81400863881595,
              321.09010856785267
            ],
            [
              499.0347920357197,
              320.93486387106765
            ],
            [
              499.0540175471008,
              320.9189039782348
            ],
            [
              499.57011994976085,
              320.5507547263009
            ],
            [
              499.98783318988217,
              320.2002550001234
            ],
            [
              500.38591001545456,
              319.910706953847
            ],
            [
              500.82352478924616,
              319.5344025739839
            ],
            [
              501.53581907539626,
              318.9996189812868
            ],
            [
              502.5668022458389,
              318.08481309651415
            ],
            [
              502.701177430342,
              317.98048579561186
            ],
            [
              502.78026982908926,
              317.907850236449
            ],
            [
              503.1474621571105,
              317.61999499492737
            ],
            [
              503.48849901719257,
              317.30265441804477
            ],
            [
              503.8914765623065,
              316.97874802821156
            ],
            [
              504.18642929880986,
              316.69800043481825
            ],
            [
              504.45643579716466,
              316.4777575990471
            ],
            [
              504.66226070007684,
              316.27798152399237
            ],
            [
              505.45660165787336,
              315.6114565938298
            ],
            [
              505.8930444517346,
              315.17512915128356
            ],
            [
              506.3067899839884,
              314.81934990145726
            ],
            [
              506.67523102764835,
              314.4393463861792
            ],
            [
              507.2485234503642,
              313.9306559467721
            ],
            [
              508.1098226700076,
              313.01338431063874
            ],
            [
              508.226039276522,
              312.9066552401951
            ],
            [
              508.2970369817371,
              312.8282283655926
            ],
            [
              508.6047399294863,
              312.54190555894996
            ],
            [
              508.89808270359543,
              312.2132637614727
            ],
            [
              509.2236644367764,
              311.90336228665495
            ],
            [
              509.52127614670434,
              311.5617639001812
            ],
            [
              509.8174782440853,
              311.2742666556863
            ],
            [
              509.9437652439997,
              311.1254789597595
            ],
            [
              510.6629966079338,
              310.40643768782854
            ],
            [
              511.09477944132976,
              309.88110304703105
            ],
            [
              511.506365281973,
              309.45660075833615
            ],
            [
              511.80550362451953,
              309.0775357246444
            ],
            [
              512.2491088969257,
              308.6051023069204
            ],
            [
              512.2492250621415,
              308.60495000757857
            ],
            [
              512.2723910726824,
              308.5802785289339
            ],
            [
              512.9670543729162,
              307.6695423595392
            ],
            [
              513.0401651394614,
              307.58878131376747
            ],
            [
              513.1055867413961,
              307.499455166456
            ],
            [
              513.3478806111888,
              307.2280051771801
            ],
            [
              513.5919968000945,
              306.8893953051805
            ],
            [
              513.8470594368459,
              306.5966346971236
            ],
            [
              514.1299241529014,
              306.19346743619025
            ],
            [
              514.4340107095173,
              305.83520143768675
            ],
            [
              514.4985264660293,
              305.7398864856276
            ],
            [
              515.1263422151211,
              304.97604564821904
            ],
            [
              515.5278998881682,
              304.36055343124406
            ],
            [
              515.9179371820615,
              303.8663021804943
            ],
            [
              516.1298197896406,
              303.5230085504996
            ],
            [
              516.4979283517597,
              303.04040095964604
            ],
            [
              517.0420441053394,
              302.1246468465967
            ],
            [
              517.082729055179,
              302.069095931981
            ],
            [
              517.1399014027138,
              301.9681505129376
            ],
            [
              517.3210623724846,
              301.7168648728646
            ],
            [
              517.5129848670626,
              301.37158883378635
            ],
            [
              517.7033169647622,
              301.10030837304384
            ],
            [
              517.9309682204887,
              300.6772223565147
            ],
            [
              518.0825262607365,
              300.4449199988293
            ],
            [
              518.2446775895062,
              300.2053592006234
            ],
            [
              518.265802767069,
              300.1640007915209
            ],
            [
              518.7872820071511,
              299.3646973909541
            ],
            [
              519.1312026409255,
              298.66014780989394
            ],
            [
              519.4789447869042,
              298.09673363939845
            ],
            [
              519.6150963526222,
              297.7941653947509
            ],
            [
              519.8888360545269,
              297.33345780398474
            ],
            [
              520.2787333050243,
              296.4261233734293
            ],
            [
              520.2970179651768,
              296.3938393626907
            ],
            [
              520.3425532791159,
              296.2810851086615
            ],
            [
              520.4685119295434,
              296.05448059310885
            ],
            [
              520.6057606373571,
              295.70616579425877
            ],
            [
              520.7382359927104,
              295.4599625822001
            ],
            [
              520.8912566280271,
              295.05453309102086
            ],
            [
              521.5911219376928,
              293.6208016940078
            ],
            [
              521.8485673622464,
              292.8307454055706
            ],
            [
              522.1321671801193,
              292.20050440451166
            ],
            [
              522.2055335716738,
              291.942244042276
            ],
            [
              522.3911154036766,
              291.510374400573
            ],
            [
              522.6268369884524,
              290.62475635256163
            ],
            [
              522.631531262193,
              290.6131324218486
            ],
            [
              522.647334804061,
              290.5477450111167
            ],
            [
              522.6660033250168,
              290.4776064232107
            ],
            [
              522.7396670596103,
              290.2906598988722
            ],
            [
              522.8204124756402,
              289.9432180577225
            ],
            [
              522.9028220612075,
              289.72487315101233
            ],
            [
              522.9865084718201,
              289.3385973860221
            ],
            [
              523.4889860982302,
              287.79657888156305
            ],
            [
              523.6302078426687,
              286.9271835286964
            ],
            [
              523.8270344549223,
              286.2343252443888
            ],
            [
              523.851505189796,
              286.0236152945449
            ],
            [
              523.9578542155807,
              285.62405656634195
            ],
            [
              524.0592171296817,
              284.61272883640294
            ],
            [
              524.09034659336,
              284.4787809455378
            ],
            [
              524.1135734579877,
              284.1363442778165
            ],
            [
              524.1544287120958,
              283.94776653364806
            ],
            [
              524.1737410888242,
              283.58106087474596
            ],
            [
              524.4390488808718,
              281.947761680044
            ],
            [
              524.4339999780914,
              281.0079323477375
            ],
            [
              524.521018725158,
              280.2586407583628
            ],
            [
              524.5117676305811,
              280.09749883492964
            ],
            [
              524.5479581817028,
              279.73641501805014
            ],
            [
              524.4782089939356,
              278.7604754364059
            ],
            [
              524.4839775631348,
              278.67542867517346
            ],
            [
              524.4496398345433,
              278.3422633527861
            ],
            [
              524.4579507706632,
              278.1844543296724
            ],
            [
              524.4169640781794,
              277.83678028912465
            ],
            [
              524.4078119972213,
              276.1331637764594
            ],
            [
              524.2722538074672,
              275.3851460094324
            ],
            [
              524.2715119537124,
              275.3572962367095
            ],
            [
              524.2387908653144,
              275.20049559974956
            ],
            [
              524.2268497900212,
              275.13460407013406
            ],
            [
              524.1810658271538,
              274.3371075384713
            ],
            [
              524.1540544273705,
              274.2248631625085
            ],
            [
              524.1313254305304,
              273.906836123294
            ],
            [
              523.897028847927,
              272.9804987549323
            ],
            [
              523.8928442472123,
              272.93989723871834
            ],
            [
              523.8376045747088,
              272.74555326727216
            ],
            [
              523.7985780882541,
              272.59125441938977
            ],
            [
              523.7870349039775,
              272.4933381135241
            ],
            [
              523.7011546290715,
              272.2060717172505
            ],
            [
              523.6834370518284,
              272.13602181002364
            ],
            [
              523.3713860009091,
              270.4141064410709
            ],
            [
              523.0694604752282,
              269.5970221531505
            ],
            [
              523.0503536532144,
              269.5054615722542
            ],
            [
              522.9713600667731,
              269.310242240309
            ],
            [
              522.7850180613102,
              268.5359083555599
            ],
            [
              522.7563193879062,
              268.4704807791372
            ],
            [
              522.6876164645821,
              268.1988503333415
            ],
            [
              522.2997973316222,
              267.3352466267214
            ],
            [
              522.2993156911831,
              267.33355212149604
            ],
            [
              522.2950606005014,
              267.3246987754187
            ],
            [
              522.1358326864121,
              266.9701267465935
            ],
            [
              522.1252651756494,
              266.93477880739744
            ],
            [
              522.0686172274001,
              266.82044996529
            ],
            [
              521.9266850043949,
              266.50439234085826
            ],
            [
              521.3167277377567,
              264.85369885365543
            ],
            [
              520.8167929276395,
              263.9855927785041
            ],
            [
              520.7546064661216,
              263.83190942243306
            ],
            [
              520.6532394079467,
              263.6686572165175
            ],
            [
              520.5174269320395,
              263.36622717212845
            ],
            [
              520.3229688462478,
              262.9228993190231
            ],
            [
              520.3083954754362,
              262.90075157959654
            ],
            [
              520.2081415817703,
              262.67750412525993
            ],
            [
              519.9507851402341,
              262.2912962524468
            ],
            [
              519.944440251199,
              262.2775826447444
            ],
            [
              519.841923056131,
              262.127929858048
            ],
            [
              519.1426634485504,
              261.07856981881105
            ],
            [
              518.2427782354741,
              259.5159744472266
            ],
            [
              517.5170583949557,
              258.6178204089119
            ],
            [
              517.3855499375284,
              258.40602531337026
            ],
            [
              517.2825306282513,
              258.2871186494399
            ],
            [
              517.2479280335008,
              258.23519146847656
            ],
            [
              517.2191151491653,
              258.1897140631362
            ],
            [
              517.2128299856786,
              258.18252077445464
            ],
            [
              516.6969855463008,
              257.4084069328028
            ],
            [
              516.3451240439701,
              257.0233645571451
            ],
            [
              516.2982948658798,
              256.9550041519044
            ],
            [
              515.7228696330691,
              256.34243096525137
            ],
            [
              515.3398109884532,
              255.92324952722018
            ],
            [
              514.1614408082962,
              254.4648934553052
            ],
            [
              513.3598101573014,
              253.72048891917484
            ],
            [
              513.3016899357776,
              253.6518888295599
            ],
            [
              513.1513087640473,
              253.51879110713483
            ],
            [
              512.959052604315,
              253.29688573102564
            ],
            [
              512.8970224439478,
              253.2431346117311
            ],
            [
              512.884356084211,
              253.22863812611348
            ],
            [
              512.8509926603637,
              253.199733270782
            ],
            [
              512.1719394844102,
              252.45664473643583
            ],
            [
              511.7215005332781,
              252.08274390138916
            ],
            [
              511.6107972638931,
              251.96489391736986
            ],
            [
              510.5349524816463,
              251.0972897375008
            ],
            [
              509.09833746079823,
              249.7632305459242
            ],
            [
              508.12331867256205,
              249.0663775886334
            ],
            [
              508.0209942540839,
              248.97554982741312
            ],
            [
              508.00840770439333,
              248.96696849696875
            ],
            [
              507.9501837165156,
              248.9154362467052
            ],
            [
              507.7449843607381,
              248.77607364171277
            ],
            [
              507.5788236708243,
              248.63211807158032
            ],
            [
              507.56549425383224,
              248.62319479425838
            ],
            [
              507.506374423336,
              248.5719655689431
            ],
            [
              507.43445831922077,
              248.52415142253057
            ],
            [
              506.6651750920297,
              247.88558399778677
            ],
            [
              506.11486842222456,
              247.5327575033051
            ],
            [
              505.9170036566529,
              247.37319145763118
            ],
            [
              504.6729530618042,
              246.60037641142142
            ],
            [
              503.09328380109025,
              245.47137540225762
            ],
            [
              501.95363204108145,
              244.8389086194456
            ],
            [
              501.7356615723133,
              244.69029945592993
            ],
            [
              501.70607812704094,
              244.67470743221511
            ],
            [
              501.6238337471451,
              244.61885057543444
            ],
            [
              501.43940361742216,
              244.52212978211435
            ],
            [
              501.3459059673756,
              244.45953848791234
            ],
            [
              501.231488372163,
              244.40004435488598
            ],
            [
              501.07462495703214,
              244.29575213285682
            ],
            [
              501.0319717447124,
              244.27388256144258
            ],
            [
              500.2236003149985,
              243.75559907799018
            ],
            [
              499.5749323572249,
              243.43344162385569
            ],
            [
              499.26760108118395,
              243.24252476301598
            ],
            [
              497.87416705940706,
              242.57494853697955
            ],
            [
              496.2004291672029,
              241.64608267014992
            ],
            [
              494.9096310362477,
              241.09262416946856
            ],
            [
              494.54301371625525,
              240.89939765741246
            ],
            [
              494.49268954442783,
              240.87906073959562
            ],
            [
              494.38355739895997,
              240.8218285091473
            ],
            [
              494.0330605756768,
              240.68110079537107
            ],
            [
              493.7699788414789,
              240.55044266634116
            ],
            [
              493.7268158495655,
              240.52831171576102
            ],
            [
              493.7202136332404,
              240.52572704320693
            ],
            [
              492.9088445532561,
              240.12276495136246
            ],
            [
              492.1660305492579,
              239.84025412763816
            ],
            [
              491.7288447618431,
              239.63080406866337
            ],
            [
              490.20837058829323,
              239.07685385158197
            ],
            [
              488.4880197464917,
              238.33921504137967
            ],
            [
              487.06440215743015,
              237.87715400922107
            ],
            [
              486.51800019584516,
              237.65634298772144
            ],
            [
              486.4436735468205,
              237.63389176351328
            ],
            [
              486.3055569481826,
              237.57843667270637
            ],
            [
              485.8983595624771,
              237.45650142001898
            ],
            [
              484.7968351980643,
              237.0375640361473
            ],
            [
              484.58271731111,
              236.97702026732034
            ],
            [
              484.5674079256802,
              236.97123720133501
            ],
            [
              484.4407898519077,
              236.93566308802943
            ],
            [
              484.4065331473714,
              236.9227664264787
            ],
            [
              483.93863737052726,
              236.79261901391953
            ],
            [
              483.3820461740335,
              236.58983765828668
            ],
            [
              481.75993185658,
              236.1554915058228
            ],
            [
              480.0377578992533,
              235.5965285635325
            ],
            [
              478.5038110713181,
              235.23556444797458
            ],
            [
              477.7498147300716,
              235.0078111302603
            ],
            [
              477.6488454359055,
              234.98618450528383
            ],
            [
              477.4805014433626,
              234.9357738985653
            ],
            [
              477.0166413008597,
              234.8376438544816
            ],
            [
              475.97694547105397,
              234.5436604565104
            ],
            [
              475.80766505070693,
              234.51013448306134
            ],
            [
              475.7733674165044,
              234.50049835538064
            ],
            [
              475.5162744313944,
              234.4498991211688
            ],
            [
              475.4240495042015,
              234.4242463235916
            ],
            [
              474.96078203163887,
              234.33491416751866
            ],
            [
              474.3225924594542,
              234.16402905650244
            ],
            [
              472.62667878057425,
              233.85257396833646
            ],
            [
              470.94374996814815,
              233.45655182516217
            ],
            [
              469.3252588178927,
              233.20335451021973
            ],
            [
              468.34064670585803,
              232.99246032633027
            ],
            [
              468.21114461751966,
              232.97483285059894
            ],
            [
              468.01224042825356,
              232.9327544845733
            ],
            [
              467.4939585420132,
              232.8636055868512
            ],
            [
              466.5507150963223,
              232.6767962993361
            ],
            [
              466.47168509585913,
              232.6671337063317
            ],
            [
              466.42138947664426,
              232.65717273010918
            ],
            [
              466.38470068620273,
              232.6526869626507
            ],
            [
              466.3802625364821,
              232.65181347721511
            ],
            [
              466.36306423294826,
              232.64972451385992
            ],
            [
              466.33842140088836,
              232.64486507218726
            ],
            [
              465.95323592462603,
              232.59798342590273
            ],
            [
              465.82389952417645,
              232.57304340703038
            ],
            [
              465.3743451673481,
              232.520680586586
            ],
            [
              464.658502425102,
              232.3892158385972
            ],
            [
              462.9183207524511,
              232.20105090485484
            ],
            [
              461.31105635716807,
              231.94960990734086
            ],
            [
              459.6906906271275,
              231.8122477312312
            ],
            [
              459.35799130410146,
              231.7646419589862
            ],
            [
              459.2769153211103,
              231.75872960347255
            ],
            [
              458.40399731413805,
              231.63991035364825
            ],
            [
              458.24493251657117,
              231.62960538026334
            ],
            [
              458.0160720014961,
              231.59907093025012
            ],
            [
              457.5113253866788,
              231.56778070843555
            ],
            [
              456.50047841868803,
              231.44418915949814
            ],
            [
              456.4529853975444,
              231.44169012762976
            ],
            [
              456.44456748983964,
              231.44066556830154
            ],
            [
              455.8227602159891,
              231.40813897691447
            ],
            [
              455.7237249974381,
              231.39660363466143
            ],
            [
              455.29548708620644,
              231.3767978890517
            ],
            [
              454.5085508221287,
              231.29170688256917
            ],
            [
              452.7544666593914,
              231.2242478738144
            ],
            [
              451.25387999318457,
              231.0970396478568
            ],
            [
              449.85903663132206,
              231.0719436410639
            ],
            [
              449.3087963990794,
              231.03181812237224
            ],
            [
              448.99307206715366,
              231.0295330843649
            ],
            [
              448.72007542218586,
              231.0082626878774
            ],
            [
              448.6725836738202,
              231.0085010338857
            ],
            [
              448.6221721657887,
              231.00509201904842
            ],
            [
              448.60461374228805,
              231.0050597239301
            ],
            [
              448.06260721876237,
              230.96994596598475
            ],
            [
              447.87389540885385,
              230.97033772844551
            ],
            [
              447.61661420674636,
              230.9543883676225
            ],
            [
              447.22891320643,
              230.95632933527767
            ],
            [
              446.20583443253014,
              230.9024960267292
            ],
            [
              445.29574430650086,
              230.9143158050349
            ],
            [
              445.2499497111146,
              230.9121978325685
            ],
            [
              444.86293137481454,
              230.91993695480468
            ],
            [
              444.8470646478934,
              230.92014302362188
            ],
            [
              444.0000187338657,
              230.88756711936702
            ],
            [
              442.26230581395157,
              230.93526334175888
            ],
            [
              440.8934505775555,
              230.9106349130434
            ],
            [
              439.7550765564426,
              230.96267358482459
            ],
            [
              438.9814684337688,
              230.95707463731455
            ],
            [
              438.4549663258053,
              230.98639152998203
            ],
            [
              438.21649405157086,
              230.98595290916455
            ],
            [
              438.1416061299502,
              230.99054179288095
            ],
            [
              437.4460665066686,
              230.991985721125
            ],
            [
              437.2286240153473,
              231.0063943024439
            ],
            [
              436.94535337301835,
              231.00781245496913
            ],
            [
              436.68019102301133,
              231.026210140441
            ],
            [
              435.66406664849745,
              231.03940703655084
            ],
            [
              434.0864598886917,
              231.15967150553152
            ],
            [
              433.2661513271119,
              231.18218708859527
            ],
            [
              431.5740393749907,
              231.33665463218372
            ],
            [
              430.3556803972577,
              231.39234966894446
            ],
            [
              429.49269367035606,
              231.48543223942463
            ],
            [
              429.4189192026374,
              231.4895401776786
            ],
            [
              429.2844223636003,
              231.49619048366543
            ],
            [
              429.2699725786333,
              231.49783388082705
            ],
            [
              428.4998818781643,
              231.5407143670911
            ],
            [
              427.7743396895728,
              231.62581353116698
            ],
            [
              427.6656885232794,
              231.63247131464783
            ],
            [
              427.532177848994,
              231.64891836582362
            ],
            [
              426.68819757246257,
              231.7048437664699
            ],
            [
              426.44396209014286,
              231.7364275613594
            ],
            [
              426.13796343688955,
              231.75765858068974
            ],
            [
              426.05460295650386,
              231.76871942303237
            ],
            [
              425.19885631099396,
              231.83346029171275
            ],
            [
              425.1373350084819,
              231.8418831814828
            ],
            [
              425.0021043406402,
              231.8521921157929
            ],
            [
              424.1123013036984,
              231.97552730431732
            ],
            [
              424.1040601834899,
              231.97617932718003
            ],
            [
              424.0473515307729,
              231.98452996238188
            ],
            [
              423.2888021681487,
              232.089672139649
            ],
            [
              423.0845962641203,
              232.10740323311046
            ],
            [
              423.01240560541726,
              232.11821907646726
            ],
            [
              422.4434226915546,
              232.1701597255135
            ],
            [
              420.8241651058808,
              232.4204279884006
            ],
            [
              419.768681189507,
              232.53427348911768
            ],
            [
              419.18760264680935,
              232.63295571522175
            ],
            [
              417.9896489358492,
              232.7734642356109
            ],
            [
              416.8706996152912,
              232.97366934042847
            ],
            [
              416.7727680594149,
              232.98707716286464
            ],
            [
              415.9243155848942,
              233.0967964742317
            ],
            [
              415.8087661863219,
              233.11905878842916
            ],
            [
              414.7456066721668,
              233.26461609991676
            ],
            [
              414.59180829072045,
              233.29515844946442
            ],
            [
              414.35776941308677,
              233.32759847034373
            ],
            [
              414.1044426078691,
              233.37863664642262
            ],
            [
              414.07845978199305,
              233.38226302739787
            ],
            [
              413.09230755149053,
              233.5825531927965
            ],
            [
              412.81264682075545,
              233.63889690899322
            ],
            [
              412.4902615016737,
              233.68636977362814
            ],
            [
              412.3650428304178,
              233.71344219797854
            ],
            [
              412.34841077579216,
              233.71593406743762
            ],
            [
              412.10298920680066,
              233.76835037080218
            ],
            [
              411.66871920154864,
              233.83547001920928
            ],
            [
              410.1467264635154,
              234.16833126623965
            ],
            [
              409.2602393548602,
              234.318879797744
            ],
            [
              409.24677324974476,
              234.32158898790956
            ],
            [
              408.9754824152092,
              234.3863005991351
            ],
            [
              407.5756822997161,
              234.63675620395753
            ],
            [
              406.3820652548,
              234.92550617583564
            ],
            [
              404.4266439969719,
              235.31382729476366
            ],
            [
              404.1854205559905,
              235.3770386457263
            ],
            [
              403.85737822391974,
              235.4431298842391
            ],
            [
              403.61884892506674,
              235.50663807191654
            ],
            [
              403.4762246514787,
              235.53560544476775
            ],
            [
              402.10995558945984,
              235.90262847744611
            ],
            [
              401.78323764637923,
              235.9724077836801
            ],
            [
              401.3721275897919,
              236.08734431426265
            ],
            [
              401.07655665981804,
              236.15198595536523
            ],
            [
              399.63687202943873,
              236.55724758101007
            ],
            [
              397.3798269392758,
              237.10325327779645
            ],
            [
              396.9183192848068,
              237.2452617574315
            ],
            [
              396.84837995120387,
              237.26230205984425
            ],
            [
              396.17585821861695,
              237.472413388615
            ],
            [
              395.93128918668395,
              237.53439738637599
            ],
            [
              395.8295931166984,
              237.56663986648022
            ],
            [
              394.36100264652583,
              237.95147637844457
            ],
            [
              394.04027418313217,
              238.05692403390043
            ],
            [
              393.626446299555,
              238.16710529474224
            ],
            [
              393.4069947211768,
              238.24051870711526
            ],
            [
              393.15289694683275,
              238.308777396657
            ],
            [
              391.8396301736065,
              238.7524024008028
            ],
            [
              391.51740258710686,
              238.84248952043612
            ],
            [
              389.970697478118,
              239.38308374214986
            ],
            [
              387.51864826763057,
              240.13759296208542
            ],
            [
              386.9158183091701,
              240.36546382191455
            ],
            [
              386.59775977607495,
              240.46483265681726
            ],
            [
              385.9189797822382,
              240.72700652284564
            ],
            [
              384.6618793533112,
              241.14031032350007
            ],
            [
              384.2723563798824,
              241.29634075388597
            ],
            [
              383.78409049238314,
              241.45968095498867
            ],
            [
              383.71672516342386,
              241.4871822100266
            ],
            [
              383.6587025886408,
              241.5065924344641
            ],
            [
              383.5259798703371,
              241.56077555504376
            ],
            [
              383.23101131329383,
              241.66041671707706
            ],
            [
              381.9905466392036,
              242.17225370532387
            ],
            [
              381.67213189331267,
              242.28354393818023
            ],
            [
              380.32290011489374,
              242.857599318169
            ],
            [
              378.101452447367,
              243.6973107209454
            ],
            [
              377.38582736419795,
              244.0228749619757
            ],
            [
              376.83993551921884,
              244.23372174109312
            ],
            [
              376.24593291453306,
              244.51146898299936
            ],
            [
              375.43477482672756,
              244.8363929391841
            ],
            [
              375.2948807218965,
              244.903502358567
            ],
            [
              375.27931315855227,
              244.90974897325825
            ],
            [
              375.03520507357115,
              245.02707492380955
            ],
            [
              374.3169408784199,
              245.32030125307634
            ],
            [
              374.08119035157125,
              245.43578968971937
            ],
            [
              373.82425794993355,
              245.5418044029031
            ],
            [
              372.6740272142619,
              246.11195243203798
            ],
            [
              372.35949768771815,
              246.2457747817394
            ],
            [
              371.2052306219222,
              246.83465634697907
            ],
            [
              369.2285987342912,
              247.73389908653922
            ],
            [
              368.4320037505681,
              248.165152075652
            ],
            [
              367.68734880229283,
              248.51334222907687
            ],
            [
              367.1929583156128,
              248.79012295090965
            ],
            [
              366.7759352896911,
              248.99017550618302
            ],
            [
              366.75901787615174,
              248.99902413097374
            ],
            [
              366.69429029108926,
              249.0359784201126
            ],
            [
              366.6134332979213,
              249.07484081003204
            ],
            [
              366.37520523187266,
              249.2107639652037
            ],
            [
              365.5750926545476,
              249.60271961395844
            ],
            [
              365.25340368918967,
              249.79021779789835
            ],
            [
              365.0357341115608,
              249.8981125679141
            ],
            [
              363.9903165922959,
              250.51554614515626
            ],
            [
              363.6807326107399,
              250.67348905545362
            ],
            [
              362.7146733482883,
              251.26034583928728
            ],
            [
              360.99014517364157,
              252.19395444256995
            ],
            [
              360.1465544705627,
              252.7349980953317
            ],
            [
              359.24009882368665,
              253.24247033642476
            ],
            [
              358.83659827301625,
              253.51198363421602
            ],
            [
              358.6047309348009,
              253.64427761919208
            ],
            [
              358.50733129654213,
              253.71007910783604
            ],
            [
              358.50316225312906,
              253.71245929915221
            ],
            [
              358.39426831608324,
              253.78646247597243
            ],
            [
              358.3765806383905,
              253.79841196103507
            ],
            [
              357.52235292005145,
              254.2963032880858
            ],
            [
              357.13562458348696,
              254.5639927513659
            ],
            [
              356.9565960557416,
              254.66972871071079
            ],
            [
              356.95525560651066,
              254.6706706729982
            ],
            [
              356.9532227495682,
              254.6718712974811
            ],
            [
              356.02498696169937,
              255.32416261560803
            ],
            [
              355.72494898683095,
              255.50642816369827
            ],
            [
              354.9366622614885,
              256.0764041836129
            ],
            [
              353.4648493304793,
              257.0203631929597
            ],
            [
              352.60924763698324,
              257.67146694511155
            ],
            [
              351.5847804962033,
              258.3557473435803
            ],
            [
              351.3339133855712,
              258.55631453188886
            ],
            [
              351.3278398614459,
              258.56041769834593
            ],
            [
              351.30612187885845,
              258.57784943206644
            ],
            [
              351.30409316410635,
              258.57921999078286
            ],
            [
              351.1112461307852,
              258.7340068985065
            ],
            [
              350.93186148313004,
              258.85817514663785
            ],
            [
              350.86436082364395,
              258.90424437994176
            ],
            [
              350.858910894869,
              258.9086708097952
            ],
            [
              350.23560856563404,
              259.3401144103679
            ],
            [
              349.80958654682587,
              259.69185860654216
            ],
            [
              349.66179997839095,
              259.7957114172037
            ],
            [
              348.8542825990214,
              260.47430971740613
            ],
            [
              348.5682738109222,
              260.6811102957513
            ],
            [
              347.9442518533514,
              261.2214789210003
            ],
            [
              346.71952666325166,
              262.15348171235723
            ],
            [
              345.8868185800326,
              262.91124366885805
            ],
            [
              344.7937793898776,
              263.7851238539794
            ],
            [
              344.4734341244409,
              264.0949523458947
            ],
            [
              344.392233018566,
              264.1609038497918
            ],
            [
              344.3672063808379,
              264.18534850200416
            ],
            [
              343.7789116800972,
              264.6710728014196
            ],
            [
              343.34029011958813,
              265.10800060688285
            ],
            [
              343.2229292502551,
              265.20662496899996
            ],
            [
              342.54166465113224,
              265.89982170016333
            ],
            [
              342.27338902763387,
              266.1321336053826
            ],
            [
              341.79766631528184,
              266.6323604479627
            ],
            [
              340.8087520058056,
              267.5322696202953
            ],
            [
              340.0327455295177,
              268.38985537356274
            ],
            [
              338.92500004594393,
              269.4612341315157
            ],
            [
              338.69735232359693,
              269.73300950913415
            ],
            [
              338.20331481675277,
              270.22513926999613
            ],
            [
              337.77838151726684,
              270.74653221806716
            ],
            [
              337.68795570714525,
              270.8385418074008
            ],
            [
              337.1352229790758,
              271.5349628427029
            ],
            [
              336.8894479880948,
              271.793397524363
            ],
            [
              336.8860661255575,
              271.79734972980395
            ],
            [
              336.5357419229116,
              272.2544886773061
            ],
            [
              335.7748754229342,
              273.0953428331186
            ],
            [
              335.13744904200234,
              273.9737434192747
            ],
            [
              334.4312600430166,
              274.8047620707676
            ],
            [
              334.3575867538891,
              274.9140032583943
            ],
            [
              334.02198546991553,
              275.3146581155664
            ],
            [
              333.8848869970884,
              275.5238480665342
            ],
            [
              333.54703065282143,
              275.9383976336538
            ],
            [
              333.16225224817896,
              276.5407463780875
            ],
            [
              333.0948834490882,
              276.6256283588873
            ],
            [
              332.7242136625333,
              277.22647091172075
            ],
            [
              332.7177243292178,
              277.236629594554
            ],
            [
              332.5411644948636,
              277.4670229737097
            ],
            [
              332.26189781731887,
              277.93637495892
            ],
            [
              332.20664755661005,
              278.0125121613305
            ],
            [
              332.11052947898565,
              278.1413507099805
            ],
            [
              332.10043889892125,
              278.158872195934
            ],
            [
              331.6483130556978,
              278.7819207825497
            ],
            [
              331.17300229076216,
              279.6360374305951
            ],
            [
              330.5877497347258,
              280.50383748456807
            ],
            [
              330.4729526782727,
              280.72990440022886
            ],
            [
              330.114372121628,
              281.2770399554854
            ],
            [
              330.04553307949385,
              281.41979326677904
            ],
            [
              329.83586844468135,
              281.74801134765295
            ],
            [
              329.51703668385807,
              282.4251908321943
            ],
            [
              329.4688627427175,
              282.50327907900305
            ],
            [
              329.2445606055007,
              283.00391363513813
            ],
            [
              329.23649459396324,
              283.02104535854977
            ],
            [
              329.1213066481564,
              283.2146369875468
            ],
            [
              328.9209975099614,
              283.67971810481333
            ],
            [
              328.8015312341406,
              283.88716174646305
            ],
            [
              328.78509284544157,
              283.9270263198852
            ],
            [
              328.4480666779642,
              284.5326504329901
            ],
            [
              328.12497748574077,
              285.3537120675448
            ],
            [
              327.67003204507785,
              286.2496245215853
            ],
            [
              327.5756473582186,
              286.5221512783748
            ],
            [
              327.4289090963443,
              286.8202597088304
            ],
            [
              327.402060442114,
              286.90163119740686
            ],
            [
              327.2186166611373,
              287.28204333503277
            ],
            [
              327.1951615273739,
              287.3567140204253
            ],
            [
              327.0838938871197,
              287.5930397963838
            ],
            [
              326.85534320791686,
              288.33656363229215
            ],
            [
              326.82290816481316,
              288.40895751854424
            ],
            [
              326.820094221029,
              288.4188900309293
            ],
            [
              326.7980244533838,
              288.4681487223163
            ],
            [
              326.68153866293477,
              288.87933122288456
            ],
            [
              326.6372287372328,
              288.9822107516931
            ],
            [
              326.51710933113037,
              289.42709064816546
            ],
            [
              326.42665962992646,
              289.6464393215453
            ],
            [
              326.41040343753525,
              289.71093293561853
            ],
            [
              326.18242240010056,
              290.2902976675939
            ],
            [
              326.00017495482365,
              291.07117717228675
            ],
            [
              325.68334301135235,
              291.9859991087095
            ],
            [
              325.62966698918126,
              292.27330801847876
            ],
            [
              325.52417060471004,
              292.5930409097538
            ],
            [
              325.49622440264557,
              292.7580653800818
            ],
            [
              325.391329808746,
              293.0993097425902
            ],
            [
              325.338927727244,
              293.2661345998761
            ],
            [
              325.33789288042243,
              293.27315140457085
            ],
            [
              325.29425710453296,
              293.41510783884854
            ],
            [
              325.1866786524981,
              294.156028704472
            ],
            [
              325.13425745119025,
              294.3410699919367
            ],
            [
              325.0898377616233,
              294.7132009336047
            ],
            [
              325.0895318537622,
              294.71433390839286
            ],
            [
              325.08756467759116,
              294.73224395061516
            ],
            [
              325.03613456212247,
              295.1631055232084
            ],
            [
              324.9854236086811,
              295.36429240530305
            ],
            [
              324.977107308675,
              295.454736873692
            ],
            [
              324.8497788635888,
              296.000303770308
            ],
            [
              324.79602925119747,
              296.7354782755021
            ],
            [
              324.6233767289761,
              297.65962663678204
            ],
            [
              324.61551427193666,
              297.95872636728046
            ],
            [
              324.5582898887546,
              298.2966407465569
            ],
            [
              324.55683652641,
              298.4939157478682
            ],
            [
              324.4600227499714,
              299.1606974841576
            ],
            [
              324.4734920421881,
              299.8767064695969
            ],
            [
              324.4437630936237,
              300.1257640774066
            ],
            [
              324.478878959819,
              300.8732520941259
            ],
            [
              324.46824639227344,
              300.98888728277683
            ],
            [
              324.4765271368561,
              301.105552744161
            ],
            [
              324.43955778641566,
              301.61121078906723
            ],
            [
              324.50148239106,
              302.2966711928775
            ],
            [
              324.477201680672,
              303.22034605643466
            ],
            [
              324.5197496046439,
              303.52798217037514
            ],
            [
              324.5171547362206,
              303.8802017502839
            ],
            [
              324.55304834151514,
              304.10580954963314
            ],
            [
              324.56562623523865,
              304.77443302186225
            ],
            [
              324.69431815878823,
              305.45916259602797
            ],
            [
              324.70889313593796,
              305.76941041118994
            ],
            [
              324.8548355632935,
              306.4354511165328
            ],
            [
              324.8574130053554,
              306.4717640909907
            ],
            [
              324.8914950264352,
              306.61382783969907
            ],
            [
              324.9331541747133,
              307.0749643582588
            ],
            [
              325.0978828874923,
              307.708084508548
            ],
            [
              325.22420491914016,
              308.6214362139579
            ],
            [
              325.32122227063627,
              308.93413560428786
            ],
            [
              325.3788620677536,
              309.296428209726
            ],
            [
              325.4628529359389,
              309.5482963676965
            ],
            [
              325.5872236267956,
              310.2100340109167
            ],
            [
              325.82339670731983,
              310.85569517578097
            ],
            [
              325.9039041635451,
              311.2231088463654
            ],
            [
              326.2131709927997,
              311.9945951046753
            ],
            [
              326.30488924642617,
              312.347106051563
            ],
            [
              326.5598779817518,
              312.92648212497573
            ],
            [
              326.8370295011338,
              313.8197770851511
            ],
            [
              326.99201743928097,
              314.133888289875
            ],
            [
              327.11468602135847,
              314.5017414919536
            ],
            [
              327.2577263708951,
              314.776933613842
            ],
            [
              327.49415806776307,
              315.4233017963235
            ],
            [
              327.49840442172587,
              315.4309305859669
            ],
            [
              327.49923443913116,
              315.4331997402181
            ],
            [
              327.82936347926614,
              316.0262925780698
            ],
            [
              327.99601498000123,
              316.4420156061787
            ],
            [
              328.41902138830704,
              317.15075974044083
            ],
            [
              328.52293550774186,
              317.38686960001036
            ],
            [
              328.85627251548016,
              317.91213977754535
            ],
            [
              329.28247694654874,
              318.77592046200306
            ],
            [
              329.4983658069458,
              319.0876495958966
            ],
            [
              329.6900064935108,
              319.45634281670635
            ],
            [
              329.90114164743187,
              319.7483425761448
            ],
            [
              330.2548089254546,
              320.38372300041516
            ],
            [
              330.6796452817731,
              320.93841849168496
            ],
            [
              330.94641022332087,
              321.38538119446235
            ],
            [
              331.46603435341945,
              322.0245846369791
            ],
            [
              331.5501899718421,
              322.157196485057
            ],
            [
              331.9508339194396,
              322.6288501893889
            ],
            [
              332.52235289862233,
              323.4540855259747
            ],
            [
              332.80149413518944,
              323.75952789028867
            ],
            [
              333.06517602312834,
              324.12419974344635
            ],
            [
              333.3460955818137,
              324.41991892626476
            ],
            [
              333.81740353908407,
              325.03529092777393
            ],
            [
              334.32928578776614,
              325.54674626811214
            ],
            [
              334.71116742712815,
              326.0165090146428
            ],
            [
              335.3082630694928,
              326.5813469265753
            ],
            [
              335.3450778179389,
              326.6246866864327
            ],
            [
              335.62307175980453,
              326.87914826805786
            ],
            [
              335.8402058714469,
              327.08455184083306
            ],
            [
              336.5142402370308,
              327.8220947878337
            ],
            [
              336.8584011110659,
              328.11726248542277
            ],
            [
              337.1963092663814,
              328.47297258274364
            ],
            [
              337.5534303541188,
              328.768201907064
            ],
            [
              338.14107552153047,
              329.3553569800832
            ],
            [
              338.7316095322696,
              329.81974917011996
            ],
            [
              339.24209195568784,
              330.3026530897994
            ],
            [
              340.5035446855715,
              331.24350000230856
            ],
            [
              341.2121894043054,
              331.8512652824984
            ],
            [
              341.6225485275727,
              332.13211137698084
            ],
            [
              342.03598504367477,
              332.4738962434937
            ],
            [
              342.4753941986126,
              332.76383761994447
            ],
            [
              343.1763438545898,
              333.3150599711239
            ],
            [
              343.20905870870524,
              333.3355927195308
            ],
            [
              343.83931741750996,
              333.7314659810064
            ],
            [
              344.487450629793,
              334.2148722293982
            ],
            [
              345.851275735094,
              335.02621425794956
            ],
            [
              346.5673205088138,
              335.5162688632339
            ],
            [
              347.0444626237183,
              335.7787087791366
            ],
            [
              347.53385590914684,
              336.10163187077757
            ],
            [
              348.0372822729053,
              336.3682594368576
            ],
            [
              348.87983377106644,
              336.89747641533893
            ],
            [
              349.6369944688604,
              337.2783451983915
            ],
            [
              350.3926003043221,
              337.7278564802603
            ],
            [
              351.8284951025881,
              338.4100444802632
            ],
            [
              352.52833581049015,
              338.79497410771194
            ],
            [
              353.07224448895647,
              339.03490508272426
            ],
            [
              353.63716435026606,
              339.33410118862804
            ],
            [
              354.11404161608857,
              339.53607613355973
            ],
            [
              354.92192781986375,
              339.94393227935177
            ],
            [
              354.99526258050366,
              339.9736740247096
            ],
            [
              355.1791914982627,
              340.0661943883233
            ],
            [
              356.0395726834919,
              340.41071096101524
            ],
            [
              356.90051213437147,
              340.8197399252718
            ],
            [
              358.3784759717098,
              341.37560921872563
            ],
            [
              359.0419444898301,
              341.66828086517177
            ],
            [
              359.6519917387619,
              341.88160034123524
            ],
            [
              360.29116809246824,
              342.15231487953565
            ],
            [
              360.7222322842557,
              342.29631165392334
            ],
            [
              361.47914383802635,
              342.6032857340574
            ],
            [
              361.6608740009566,
              342.6616103265596
            ],
            [
              362.0267946371062,
              342.80813343237287
            ],
            [
              362.98915808911624,
              343.1097088943733
            ],
            [
              363.9521958277785,
              343.4719120104693
            ],
            [
              365.4430339726016,
              343.90659446646754
            ],
            [
              366.0532042029836,
              344.1199569463159
            ],
            [
              366.72813626942593,
              344.3025808304839
            ],
            [
              367.4394796259179,
              344.54020471750954
            ],
            [
              367.81104363226126,
              344.6354496265518
            ],
            [
              368.4931864661693,
              344.8543769756335
            ],
            [
              368.79191486652115,
              344.9281165368969
            ],
            [
              369.3641682973237,
              345.107443372736
            ],
            [
              370.42618230578046,
              345.35952694180605
            ],
            [
              371.4870309270659,
              345.66883770485083
            ],
            [
              371.4977031494243,
              345.67154139621437
            ],
            [
              373.035961869197,
              346.00935943670163
            ],
            [
              373.50578592385176,
              346.1364849623652
            ],
            [
              374.243704895807,
              346.28436670811135
            ],
            [
              375.0243270882084,
              346.48446760174363
            ],
            [
              375.324262094588,
              346.54059267929847
            ],
            [
              375.91094828776335,
              346.68541313304405
            ],
            [
              376.332571707011,
              346.76148935353746
            ],
            [
              377.1314521215996,
              346.9511145605174
            ],
            [
              377.97362870831415,
              347.09372379929755
            ],
            [
              378.92438127711534,
              347.3025192156036
            ],
            [
              380.7606027489452,
              347.59037762255514
            ],
            [
              381.3421700672652,
              347.70692590708046
            ],
            [
              382.14051116304364,
              347.8160773659021
            ],
            [
              382.98674513392604,
              347.97442816269773
            ],
            [
              382.9948152797113,
              347.97567857500667
            ],
            [
              383.2064112446173,
              348.00178035359676
            ],
            [
              383.6782806650308,
              348.0869227826796
            ],
            [
              384.22606757770563,
              348.15247508937836
            ],
            [
              385.26758393602313,
              348.3288393547572
            ],
            [
              385.9099534658632,
              348.39762441546884
            ],
            [
              386.6675721779459,
              348.5163938116901
            ],
            [
              388.81011544345546,
              348.72796457902405
            ],
            [
              389.50378298266776,
              348.8228047723243
            ],
            [
              389.51460519075437,
              348.8239598727544
            ],
            [
              390.4086520328704,
              348.8923296989643
            ],
            [
              390.979170448031,
              348.9606022284163
            ],
            [
              391.48017328230566,
              349.0224042814933
            ],
            [
              391.51304593649985,
              349.024489789347
            ],
            [
              391.7401002963049,
              349.051660823719
            ],
            [
              392.41476489548864,
              349.09416095454094
            ],
            [
              393.71042220317065,
              349.2329002041953
            ],
            [
              394.1329757584848,
              349.253583668912
            ],
            [
              394.67480593584537,
              349.30708803833994
            ],
            [
              397.41949926036216,
              349.42846537323754
            ],
            [
              398.3244198996835,
              349.49766674382533
            ],
            [
              399.02556184309515,
              349.5106045258362
            ],
            [
              400.04045506846523,
              349.5745371745978
            ],
            [
              400.0623424371171,
              349.5753208214419
            ],
            [
              400.21394112798106,
              349.57649222714645
            ],
            [
              400.2331584106877,
              349.5777114105391
            ],
            [
              400.83807829971266,
              349.5817899994224
            ],
            [
              402.396818743947,
              349.6580883823714
            ],
            [
              402.58487354368054,
              349.6568913903319
            ],
            [
              402.8928197171851,
              349.6705095550656
            ],
            [
              403.72331407637864,
              349.66396547569036
            ],
            [
              403.87152669411006,
              349.6698194009549
            ],
            [
              404.86926447136193,
              349.65493568487136
            ],
            [
              406.0173575366117,
              349.64588901036404
            ],
            [
              406.983301587547,
              349.66591360748987
            ],
            [
              407.1461257792307,
              349.66044877208964
            ],
            [
              407.35527176131274,
              349.664308026481
            ],
            [
              408.08098066870787,
              349.63728097771633
            ],
            [
              409.0229061681988,
              349.6445592523401
            ]
          ]
        ]
      }
    }
  ]
}