{
  "type": "FeatureCollection",
  "features": [
    {
      "type": "Feature",
      "properties": {
        "method": "Homography",
        "mode": "tmpl2img",
        "inside_ratio": 1.0
      },
      "geometry": {
        "type": "Polygon",
        "coordinates": [
          [
            [
              367.0557150606692,
              119.7629171886851
            ],
            [
              367.0576641477369,
              119.10385984316532
            ],
            [
              367.116951633898,
              117.99394483763281
            ],
            [
              367.1116663236561,
              117.37668421646713
            ],
            [
              367.146334480824,
              116.59056065591793
            ],
            [
              367.1327157104151,
              115.82785797262925
            ],
            [
              367.1633002155576,
              114.92140825858509
            ],
            [
              367.16330773706875,
              114.91844601861187
            ],
            [
              367.1630029057293,
              114.90817701289357
            ],
            [
              367.16336038603527,
              114.89771097409218
            ],
            [
              367.16144514657634,
              114.83319326708394
            ],
            [
              367.1615886714176,
              114.82892365167905
            ],
            [
              367.14658252814525,
              114.33252372654931
            ],
            [
              367.13422440554825,
              113.91622187535717
            ],
            [
              367.15383048592764,
              113.03802285345374
            ],
            [
              367.14231556136474,
              112.77525987931027
            ],
            [
              367.14267183440836,
              112.75744239489988
            ],
            [
              367.13968786336903,
              112.69197385802875
            ],
            [
              367.1467376448692,
              112.2714022417354
            ],
            [
              367.0818646422158,
              110.92079099625339
            ],
            [
              367.0838908954947,
              110.23564094098224
            ],
            [
              367.0452402841751,
              109.61892232181471
            ],
            [
              367.03718424273734,
              108.67807364598256
            ],
            [
              366.9948193860066,
              108.10514193382708
            ],
            [
              366.9947201686854,
              108.09958538823236
            ],
            [
              366.98753058892817,
              107.634939958882
            ],
            [
              366.9861124444632,
              107.61752025543959
            ],
            [
              366.98224018803,
              107.40065924068108
            ],
            [
              366.9179031884203,
              106.62911799603464
            ],
            [
              366.8870753173234,
              105.59063503055418
            ],
            [
              366.87160728152907,
              105.43208966528633
            ],
            [
              366.87045903929015,
              105.39443376601473
            ],
            [
              366.7787821959866,
              104.479668555847
            ],
            [
              366.7401221846573,
              103.59747262799684
            ],
            [
              366.72288328813977,
              103.44704638967295
            ],
            [
              366.7059331348606,
              103.09415586978406
            ],
            [
              366.55652998601363,
              101.82094112666807
            ],
            [
              366.5153998825228,
              101.16465912329984
            ],
            [
              366.43946106582854,
              100.59461510036971
            ],
            [
              366.3820922121351,
              99.81877309093184
            ],
            [
              366.3113083593908,
              99.32859955454147
            ],
            [
              366.2699336703788,
              98.82037572509375
            ],
            [
              366.26291849904226,
              98.7744199907782
            ],
            [
              366.25433211544566,
              98.67145048446834
            ],
            [
              366.13913230950186,
              97.92431598676743
            ],
            [
              366.118963029282,
              97.71758347450286
            ],
            [
              366.0453283980998,
              96.95489954960372
            ],
            [
              366.0435036264899,
              96.94413436059584
            ],
            [
              366.02739413834547,
              96.7790141917159
            ],
            [
              365.97834498301495,
              96.4927867114222
            ],
            [
              365.967112858791,
              96.38071090135811
            ],
            [
              365.84094205348003,
              95.66484640131988
            ],
            [
              365.79544108668284,
              95.25547603617004
            ],
            [
              365.7700152156052,
              95.11825641703126
            ],
            [
              365.689564584961,
              94.43265554568714
            ],
            [
              365.46095378709214,
              93.24933043687088
            ],
            [
              365.37775145741864,
              92.624761964651
            ],
            [
              365.268184560829,
              92.10503568502803
            ],
            [
              365.17877250295953,
              91.48586305027116
            ],
            [
              365.087754303461,
              91.07602875292596
            ],
            [
              365.00601644867714,
              90.54057167600105
            ],
            [
              364.98990811854225,
              90.47096108205244
            ],
            [
              364.9897391859277,
              90.46986546056559
            ],
            [
              364.97056068285514,
              90.38735300608664
            ],
            [
              364.82672377394954,
              89.76577568689234
            ],
            [
              364.65833056410224,
              88.7723446599369
            ],
            [
              364.6488661297522,
              88.73458211616163
            ],
            [
              364.6141471613383,
              88.53197877302676
            ],
            [
              364.51453923293485,
              88.13913798029579
            ],
            [
              364.483626616562,
              87.96374681425577
            ],
            [
              364.34853365994934,
              87.44673330301606
            ],
            [
              364.30689242956146,
              87.2220018176489
            ],
            [
              364.269747983119,
              87.0834635977609
            ],
            [
              364.12861855779994,
              86.35295570341528
            ],
            [
              363.8271719120462,
              85.26964866432644
            ],
            [
              363.70278157133646,
              84.67960795851108
            ],
            [
              363.5635917841138,
              84.21307081041229
            ],
            [
              363.4582435877312,
              83.73871178904248
            ],
            [
              363.3546860619673,
              83.4045067906325
            ],
            [
              363.2272889574971,
              82.85397249958415
            ],
            [
              362.98794059117563,
              82.10758561345207
            ],
            [
              362.7602860803002,
              81.19925732760198
            ],
            [
              362.7395747485934,
              81.13890751399161
            ],
            [
              362.68095733831603,
              80.90772802566346
            ],
            [
              362.515619339645,
              80.43199698879079
            ],
            [
              362.45644708210824,
              80.20553916743125
            ],
            [
              362.3349553726881,
              79.86723749260786
            ],
            [
              362.3179318094876,
              79.80374444403859
            ],
            [
              362.26771839770737,
              79.6654497355401
            ],
            [
              362.0575909100421,
              78.91031581814147
            ],
            [
              361.6904850700864,
              77.93478070110385
            ],
            [
              361.52561830339124,
              77.38217930207568
            ],
            [
              361.36113894492513,
              76.97085161983767
            ],
            [
              361.2544967943863,
              76.6266917966838
            ],
            [
              361.14539276632166,
              76.36176183912197
            ],
            [
              360.96814845973637,
              75.80904101587382
            ],
            [
              360.67135406324695,
              75.11241271229964
            ],
            [
              360.38651627523285,
              74.28243675230088
            ],
            [
              360.351241616112,
              74.20438042831913
            ],
            [
              360.264255873697,
              73.9540942402416
            ],
            [
              360.0200210830498,
              73.42115033954119
            ],
            [
              359.92504706064597,
              73.1566889125274
            ],
            [
              359.76842868049613,
              72.82717057642968
            ],
            [
              359.5135321481214,
              72.14981682315377
            ],
            [
              359.08851063422,
              71.28749448408227
            ],
            [
              358.88375155161475,
              70.77543583032826
            ],
            [
              358.6986137283053,
              70.42041321792523
            ],
            [
              358.6036456547337,
              70.18980864587562
            ],
            [
              358.45762021498837,
              69.91639259364959
            ],
            [
              358.19391708750425,
              69.29743528003263
            ],
            [
              357.8699412278004,
              68.71371965816498
            ],
            [
              357.5742358378864,
              68.05937809131707
            ],
            [
              357.52138735227146,
              67.96889022803806
            ],
            [
              357.4024107962378,
              67.70927189234907
            ],
            [
              357.3897634347972,
              67.68795722181005
            ],
            [
              357.3886233545824,
              67.68546942766648
            ],
            [
              357.06689381962343,
              67.14325741494356
            ],
            [
              356.9309505079344,
              66.85723853371167
            ],
            [
              356.80283972336247,
              66.65011726501328
            ],
            [
              356.53520957811713,
              66.10712486272986
            ],
            [
              356.0603589631619,
              65.36126278513956
            ],
            [
              355.8162220352431,
              64.89310274963105
            ],
            [
              355.615311670493,
              64.59449263699379
            ],
            [
              355.54318584856316,
              64.45944522655743
            ],
            [
              355.3630256235543,
              64.1969454694003
            ],
            [
              355.22310292450754,
              63.94484315115327
            ],
            [
              355.2012115530656,
              63.904947467898026
            ],
            [
              355.20002291610956,
              63.903259307634016
            ],
            [
              354.9966158737938,
              63.53677561867491
            ],
            [
              354.6539875697226,
              63.05929108859643
            ],
            [
              354.36183488605514,
              62.559063470157945
            ],
            [
              354.2903002695204,
              62.46385371173745
            ],
            [
              354.12149507962044,
              62.17936568117625
            ],
            [
              353.7167914571476,
              61.65056279782247
            ],
            [
              353.7102023616114,
              61.63980526850433
            ],
            [
              353.6804306533084,
              61.60200730165849
            ],
            [
              353.5169017924309,
              61.33762436739391
            ],
            [
              353.4293465453841,
              61.2286528099721
            ],
            [
              353.1623945724156,
              60.80934335369236
            ],
            [
              352.6459403894022,
              60.181159886345505
            ],
            [
              352.36293619164735,
              59.760534920217054
            ],
            [
              352.151339759101,
              59.517406689618085
            ],
            [
              352.1113708278411,
              59.45917055703993
            ],
            [
              351.9135777514659,
              59.235689348904195
            ],
            [
              351.75090473156854,
              59.004653179812074
            ],
            [
              351.72035226175086,
              58.97099639778197
            ],
            [
              351.41576433264146,
              58.54652468171713
            ],
            [
              351.06343440660646,
              58.169022283864415
            ],
            [
              350.788280480394,
              57.80280324036654
            ],
            [
              350.71253132853684,
              57.72506934994136
            ],
            [
              350.488909130487,
              57.43287512052576
            ],
            [
              350.00047969034136,
              56.94264555221386
            ],
            [
              349.93400230821595,
              56.85906827736666
            ],
            [
              349.88301527184103,
              56.80971756450094
            ],
            [
              349.8440213187465,
              56.761088131435315
            ],
            [
              349.8255151845121,
              56.743312075808554
            ],
            [
              349.7261816371748,
              56.61968120590307
            ],
            [
              349.68894233381343,
              56.58444723960532
            ],
            [
              349.43527598119465,
              56.275902911413276
            ],
            [
              348.8854019397844,
              55.764783482835
            ],
            [
              348.56410664165253,
              55.39560921844111
            ],
            [
              348.347047226351,
              55.205960072224016
            ],
            [
              348.346702235776,
              55.205570276425284
            ],
            [
              348.33953857940065,
              55.19939961742404
            ],
            [
              348.1320998802057,
              55.01815628301076
            ],
            [
              347.9748394597447,
              54.84491727070789
            ],
            [
              347.9110032866964,
              54.79136339401192
            ],
            [
              347.4928286009729,
              54.34331190896969
            ],
            [
              347.1393098981526,
              54.058224292017
            ],
            [
              346.89263488674544,
              53.8050860345297
            ],
            [
              346.8134479105644,
              53.74386782677157
            ],
            [
              346.53105712098113,
              53.46043627352373
            ],
            [
              346.0456366834988,
              53.09549170769369
            ],
            [
              346.0066160374472,
              53.05772334859997
            ],
            [
              345.93281119203243,
              53.00417769889735
            ],
            [
              345.92278008863775,
              52.99454232882865
            ],
            [
              345.8443697399196,
              52.93808041409045
            ],
            [
              345.39399517259636,
              52.51944782888218
            ],
            [
              344.81868759102093,
              52.12316179108929
            ],
            [
              344.45981272263134,
              51.809605651192236
            ],
            [
              344.02282620921403,
              51.529467420980104
            ],
            [
              343.91076452244806,
              51.435455868138035
            ],
            [
              343.81045560049023,
              51.37374075170335
            ],
            [
              343.2690374464331,
              50.93712563039765
            ],
            [
              342.9223387669075,
              50.73571245234276
            ],
            [
              342.7136837791237,
              50.57440455792562
            ],
            [
              342.63146777385236,
              50.528680971728136
            ],
            [
              342.28781854298296,
              50.2703215997883
            ],
            [
              341.81682584736836,
              50.0180172618326
            ],
            [
              341.8085364266525,
              50.012003260781725
            ],
            [
              341.727528580053,
              49.970181938437335
            ],
            [
              341.5726793061563,
              49.88723130268978
            ],
            [
              341.0782942706825,
              49.546686708586215
            ],
            [
              340.48521227074724,
              49.26161503315991
            ],
            [
              340.08967200233997,
              49.00804667952428
            ],
            [
              339.6565646128789,
              48.81805716010199
            ],
            [
              339.59596347968005,
              48.780772281366545
            ],
            [
              339.4566134237464,
              48.722313507220605
            ],
            [
              338.7850653478826,
              48.33218040270245
            ],
            [
              338.4526330806558,
              48.204665013214374
            ],
            [
              338.2896648359685,
              48.11403189915056
            ],
            [
              338.2044337860816,
              48.08290829740942
            ],
            [
              337.7984840856627,
              47.86544660137876
            ],
            [
              337.02515571286716,
              47.59849910629199
            ],
            [
              336.5272666578063,
              47.35918301321003
            ],
            [
              335.9236376371183,
              47.18054872820561
            ],
            [
              335.4926114580144,
              46.99147216516709
            ],
            [
              335.0718770992329,
              46.88287175912865
            ],
            [
              335.06705904756086,
              46.88085053715775
            ],
            [
              335.0115545562013,
              46.867301239323105
            ],
            [
              334.8726733656984,
              46.83145307678057
            ],
            [
              334.0808180590861,
              46.52771078761153
            ],
            [
              333.7694833626995,
              46.463408937685344
            ],
            [
              333.6580855840691,
              46.42273009937954
            ],
            [
              333.5694550561716,
              46.405615634658226
            ],
            [
              333.101572414378,
              46.24410584966268
            ],
            [
              332.2754708032384,
              46.10093252087835
            ],
            [
              331.7791974568977,
              45.95406841833928
            ],
            [
              331.1717366177322,
              45.8761632955576
            ],
            [
              330.7067258684748,
              45.756134219900645
            ],
            [
              330.04598119127223,
              45.69437136944155
            ],
            [
              329.1953071172108,
              45.51867647491287
            ],
            [
              328.9112366728118,
              45.50611840623038
            ],
            [
              328.8556186425249,
              45.49537862119491
            ],
            [
              328.7628242205604,
              45.492148689326896
            ],
            [
              328.2347277136082,
              45.40062322345501
            ],
            [
              327.36206027626065,
              45.38758315341055
            ],
            [
              326.8714812387373,
              45.324667788849126
            ],
            [
              326.2663334808764,
              45.34107027691481
            ],
            [
              325.7692106543094,
              45.294601914995056
            ],
            [
              325.07038483336356,
              45.33632361714785
            ],
            [
              324.16659961688833,
              45.296369454209895
            ],
            [
              323.8119368525963,
              45.33453447057888
            ],
            [
              323.2346853056529,
              45.325908732658704
            ],
            [
              322.5070515363856,
              45.42326305482626
            ],
            [
              322.5006478334263,
              45.423302302405126
            ],
            [
              322.4625981307121,
              45.42921073257065
            ],
            [
              322.3223843377499,
              45.447970745298676
            ],
            [
              321.8406043576881,
              45.46102935829429
            ],
            [
              321.24330658617214,
              45.56481004958601
            ],
            [
              320.7163566656932,
              45.596270317610816
            ],
            [
              319.98240964407563,
              45.74662726212951
            ],
            [
              319.03182999202613,
              45.84891848532187
            ],
            [
              318.6998898616471,
              45.93264519165723
            ],
            [
              318.1372931292068,
              46.00791825601284
            ],
            [
              317.36746895385613,
              46.22039207649806
            ],
            [
              317.33904038239353,
              46.22480651911716
            ],
            [
              317.19140924611025,
              46.268828592850475
            ],
            [
              316.722179884961,
              46.35035735420782
            ],
            [
              316.1376416941389,
              46.534269345709305
            ],
            [
              315.58359504586326,
              46.64777176305542
            ],
            [
              314.8177652593181,
              46.91185040606666
            ],
            [
              314.35654558892907,
              47.028185854435904
            ],
            [
              314.33470328212485,
              47.03342906984414
            ],
            [
              314.3325673231336,
              47.03423399696396
            ],
            [
              313.8272613074348,
              47.161689536423296
            ],
            [
              313.519681582792,
              47.28239312728449
            ],
            [
              312.9775776045824,
              47.43201547877669
            ],
            [
              312.1736636849361,
              47.76506827938318
            ],
            [
              312.1192529315522,
              47.78129300173817
            ],
            [
              311.978658443972,
              47.842801284565724
            ],
            [
              311.5510238971527,
              47.9773470206322
            ],
            [
              310.98352462622165,
              48.233999375939234
            ],
            [
              310.4055811149301,
              48.43328979383836
            ],
            [
              309.6374317246278,
              48.80357600450836
            ],
            [
              309.23648766017175,
              48.95467008071208
            ],
            [
              309.16445070298465,
              48.991517507427446
            ],
            [
              308.5883844787938,
              49.21758332471923
            ],
            [
              308.30623434807643,
              49.36730222546769
            ],
            [
              307.78984326947534,
              49.58123743760119
            ],
            [
              306.96060414822296,
              50.03813559804604
            ],
            [
              306.87655213110514,
              50.07490727615152
            ],
            [
              306.7745288468707,
              50.13362660427969
            ],
            [
              306.76551544676937,
              50.137613290015295
            ],
            [
              306.73359639221854,
              50.156035485983075
            ],
            [
              306.3612627443023,
              50.32442390970995
            ],
            [
              305.81446301456486,
              50.64643706125923
            ],
            [
              305.21630708627805,
              50.93477796847196
            ],
            [
              304.5055965274395,
              51.37455524966787
            ],
            [
              304.1346647501304,
              51.564289547373725
            ],
            [
              303.99100465187183,
              51.6571166762094
            ],
            [
              303.3500447723832,
              51.99723279927249
            ],
            [
              303.0939008237587,
              52.16863039821225
            ],
            [
              302.6077964210113,
              52.436466540652454
            ],
            [
              301.7624969348,
              53.01829306673901
            ],
            [
              301.64560432674085,
              53.08557040896585
            ],
            [
              301.5189351408999,
              53.17609534916557
            ],
            [
              301.1864617553951,
              53.371890622736444
            ],
            [
              300.6634277631975,
              53.75203298940132
            ],
            [
              300.04923424262665,
              54.132086941384564
            ],
            [
              299.400803578381,
              54.62311204722971
            ],
            [
              299.06097410925366,
              54.84269559405569
            ],
            [
              298.84519135440235,
              55.011635690949134
            ],
            [
              298.1465857822625,
              55.47910454318721
            ],
            [
              297.9166005661885,
              55.66545488377661
            ],
            [
              297.4646837586836,
              55.9765129057946
            ],
            [
              296.6129272893163,
              56.682205098205934
            ],
            [
              296.46062325451777,
              56.79105014643349
            ],
            [
              296.34102006354976,
              56.89356932768176
            ],
            [
              296.05976656113404,
              57.097985051397316
            ],
            [
              295.563005580994,
              57.52929041258748
            ],
            [
              294.937435888741,
              58.003004012651374
            ],
            [
              294.3548425316105,
              58.52720840545173
            ],
            [
              294.04682061955356,
              58.768364153530065
            ],
            [
              293.7597338416907,
              59.03364325311981
            ],
            [
              293.0120017713971,
              59.63950883156111
            ],
            [
              292.8079639463992,
              59.83467064447363
            ],
            [
              292.39343762971606,
              60.1781115172505
            ],
            [
              291.54500693613534,
              61.00452435398328
            ],
            [
              291.35552325058774,
              61.1669423642788
            ],
            [
              291.24321432032025,
              61.27988517432751
            ],
            [
              291.01404877100106,
              61.47885476730025
            ],
            [
              290.5489341261179,
              61.95128725731762
            ],
            [
              290.4989357620299,
              61.995480535895304
            ],
            [
              290.4898295943732,
              62.004860073005176
            ],
            [
              289.9137429138829,
              62.52320990458498
            ],
            [
              289.3992580966632,
              63.06288865423728
            ],
            [
              289.1234080963403,
              63.31778454408812
            ],
            [
              288.7745863854198,
              63.69174314122221
            ],
            [
              288.41976987627766,
              64.02703889249082
            ],
            [
              288.3842494113965,
              64.06594564688898
            ],
            [
              287.980089749383,
              64.45252363724735
            ],
            [
              287.80147519072375,
              64.65090668377121
            ],
            [
              287.4268198957427,
              65.0158391967792
            ],
            [
              286.5915211171386,
              65.95783287277304
            ],
            [
              286.3640694586872,
              66.18656828495321
            ],
            [
              286.2594082628566,
              66.30830204254994
            ],
            [
              286.0820481029378,
              66.48845268476695
            ],
            [
              285.6847523090282,
              66.95418699151347
            ],
            [
              285.6501522163517,
              66.98982578770553
            ],
            [
              285.6078782621266,
              67.03992949213823
            ],
            [
              285.01088411376185,
              67.66615799249188
            ],
            [
              284.56549321746957,
              68.20415314038156
            ],
            [
              284.3218668147013,
              68.46533581609029
            ],
            [
              283.94861383595804,
              68.92444579628047
            ],
            [
              283.6057926814987,
              69.29994928429856
            ],
            [
              283.5302188246343,
              69.39489203835956
            ],
            [
              283.08459292145733,
              69.88983839069515
            ],
            [
              282.9306064711703,
              70.08636572017359
            ],
            [
              282.5975566511692,
              70.46195686464921
            ],
            [
              281.78506706337674,
              71.51250750418775
            ],
            [
              281.5200167056176,
              71.82079345243108
            ],
            [
              281.4234671006209,
              71.9495248300178
            ],
            [
              281.29650321733595,
              72.09835962029675
            ],
            [
              281.27221676556576,
              72.1309394195558
            ],
            [
              281.2375102527938,
              72.17162460161734
            ],
            [
              280.85506735082674,
              72.6846621846687
            ],
            [
              280.8311647126783,
              72.71309729967516
            ],
            [
              280.81899650359964,
              72.72960947645396
            ],
            [
              280.26161352949913,
              73.40288173702406
            ],
            [
              279.88501893342516,
              73.92276350956914
            ],
            [
              279.6733680625166,
              74.18309908003496
            ],
            [
              279.280616113885,
              74.73362955639092
            ],
            [
              278.9519689754888,
              75.14650598916928
            ],
            [
              278.83855761642667,
              75.30889946919599
            ],
            [
              278.359327177802,
              75.92052392142499
            ],
            [
              278.22893496071964,
              76.11059332688724
            ],
            [
              277.93845602786513,
              76.48618315999505
            ],
            [
              277.15817625983215,
              77.63651615185633
            ],
            [
              276.8572286776748,
              78.03777514027041
            ],
            [
              276.80217191034075,
              78.12152000171099
            ],
            [
              276.6308074030373,
              78.3514012001735
            ],
            [
              276.1990877073543,
              79.01112239541393
            ],
            [
              275.6988169682422,
              79.70173676246228
            ],
            [
              275.38944368633554,
              80.1879857157481
            ],
            [
              275.2092187181365,
              80.4406116745479
            ],
            [
              274.8446161278444,
              81.02111739166044
            ],
            [
              274.7146238048098,
              81.20627216811802
            ],
            [
              274.6723681844221,
              81.2744571162499
            ],
            [
              274.4903027935055,
              81.5351561561701
            ],
            [
              274.34224006623447,
              81.77612923332266
            ],
            [
              273.8382821140855,
              82.51073587231727
            ],
            [
              273.7302345569621,
              82.6901835626469
            ],
            [
              273.4825011348107,
              83.05540632038311
            ],
            [
              272.7654920059479,
              84.25808213051037
            ],
            [
              272.2364009379927,
              85.06659884918821
            ],
            [
              271.7745806309319,
              85.86954737526986
            ],
            [
              271.35558959960036,
              86.5280850135694
            ],
            [
              271.1105945700757,
              86.96627773831266
            ],
            [
              270.96092859189326,
              87.2045699455161
            ],
            [
              270.6587870874248,
              87.75089306507203
            ],
            [
              270.57187915074866,
              87.89113034238386
            ],
            [
              270.465888821098,
              88.08491676471357
            ],
            [
              270.2530148022534,
              88.43137065161098
            ],
            [
              270.0745588496338,
              88.76160784783345
            ],
            [
              269.55568771673046,
              89.62336010635342
            ],
            [
              269.46941788130033,
              89.78675458185613
            ],
            [
              269.2609788265914,
              90.13637998953
            ],
            [
              268.6595705033439,
              91.28549109284971
            ],
            [
              268.08758210330586,
              92.27998448286891
            ],
            [
              267.60640737752,
              93.2337899278885
            ],
            [
              267.2652761148755,
              93.84392980609974
            ],
            [
              267.0805626116565,
              94.2209302137082
            ],
            [
              266.96024290043107,
              94.43848867227042
            ],
            [
              266.718292153531,
              94.93679988401941
            ],
            [
              266.6702799343196,
              95.02458257344333
            ],
            [
              266.50886867746243,
              95.36000654391817
            ],
            [
              266.27256910876935,
              95.79728479600392
            ],
            [
              266.13286169082426,
              96.09230174606502
            ],
            [
              266.03898846675173,
              96.2667540619994
            ],
            [
              265.9654410089793,
              96.42326270060622
            ],
            [
              265.54603736218075,
              97.21761032572476
            ],
            [
              265.4806666949054,
              97.35942376299035
            ],
            [
              265.31119858815345,
              97.68322653657606
            ],
            [
              265.3097404496827,
              97.68641450111818
            ],
            [
              265.29451372236656,
              97.71550822523066
            ],
            [
              265.2892151708114,
              97.72709253302754
            ],
            [
              265.26309534005276,
              97.77699978794736
            ],
            [
              265.11827865225604,
              98.09361258535
            ],
            [
              265.10028599583313,
              98.12816385641081
            ],
            [
              264.85146236349084,
              98.6769531717397
            ],
            [
              264.76419047287783,
              98.86775575010681
            ],
            [
              264.21789158317733,
              99.95065314201965
            ],
            [
              263.7298520480424,
              101.05973315039341
            ],
            [
              263.46146445135224,
              101.6075124496133
            ],
            [
              263.45484979883497,
              101.62196320778428
            ],
            [
              263.32799727811283,
              101.91930342747229
            ],
            [
              263.23913181372154,
              102.10232686431654
            ],
            [
              263.0538755094612,
              102.53972590777447
            ],
            [
              263.04000831314227,
              102.56854291929788
            ],
            [
              262.8333517084436,
              103.05980129632194
            ],
            [
              262.58165381673683,
              103.59130596114542
            ],
            [
              262.472593383711,
              103.85602575233416
            ],
            [
              262.27504942637955,
              104.2763983493276
            ],
            [
              262.1513242167445,
              104.58026656073032
            ],
            [
              262.0481247872212,
              104.80589152542642
            ],
            [
              261.8440572438645,
              105.24859038354752
            ],
            [
              261.83324771705566,
              105.27567737206385
            ],
            [
              261.61614323806384,
              105.75033300373441
            ],
            [
              261.4201346789718,
              106.24486765373973
            ],
            [
              261.38257874104204,
              106.32769860218673
            ],
            [
              261.14939486138405,
              106.92387585227915
            ],
            [
              260.66107038002394,
              108.03360340688721
            ],
            [
              260.2835659156675,
              109.02680142543792
            ],
            [
              260.20111921452263,
              109.21891801830037
            ],
            [
              260.10974536143385,
              109.46283292517556
            ],
            [
              259.97120473496545,
              109.78756987226478
            ],
            [
              259.88659824174397,
              110.01781985327523
            ],
            [
              259.82972859835775,
              110.15209181621266
            ],
            [
              259.44463749170006,
              111.20571096082783
            ],
            [
              259.21310635890865,
              111.7677009642018
            ],
            [
              259.1347923890742,
              111.98884670221852
            ],
            [
              258.8517566732644,
              112.68398035347143
            ],
            [
              258.7342494997013,
              113.021425234903
            ],
            [
              258.3065091577344,
              114.10062514989148
            ],
            [
              258.07469841301736,
              114.78489984821927
            ],
            [
              258.022120188918,
              114.91932569748579
            ],
            [
              257.8889517598115,
              115.3199778650198
            ],
            [
              257.60879691021023,
              116.05393989239633
            ],
            [
              257.5847705337479,
              116.1272160665201
            ],
            [
              257.4509470999787,
              116.47929976832647
            ],
            [
              257.0023559580392,
              117.86706056476956
            ],
            [
              256.8416508962788,
              118.30440687248337
            ],
            [
              256.79324545172443,
              118.45998758503077
            ],
            [
              256.7642075698407,
              118.53943597462849
            ],
            [
              256.40564719171806,
              119.69550274466579
            ],
            [
              256.1969707319233,
              120.28477065952272
            ],
            [
              256.15225442770634,
              120.43433314677387
            ],
            [
              255.9307522149191,
              121.0675244839768
            ],
            [
              255.92176160551773,
              121.0980354979887
            ],
            [
              255.80441821015125,
              121.4350100582219
            ],
            [
              255.69610006387185,
              121.80620798388867
            ],
            [
              255.36797351242677,
              122.7747942212498
            ],
            [
              255.1311109190661,
              123.61044140698783
            ],
            [
              254.90453576067063,
              124.30145533438387
            ],
            [
              254.80015071473542,
              124.67979897325301
            ],
            [
              254.62125166759222,
              125.23324076231434
            ],
            [
              254.21553921937144,
              126.74503436124822
            ],
            [
              254.09986062039752,
              127.11683879400752
            ],
            [
              254.08063587641792,
              127.19178087677675
            ],
            [
              254.07459297777342,
              127.21126432989944
            ],
            [
              254.07134661079186,
              127.22272611170457
            ],
            [
              254.0248001386832,
              127.40944028923309
            ],
            [
              253.77462906624126,
              128.38465958156542
            ],
            [
              253.73153155071438,
              128.53091762053492
            ],
            [
              253.5831913898754,
              129.02707050713607
            ],
            [
              253.5725326495564,
              129.07050481473198
            ],
            [
              253.3357531470717,
              129.87405242706228
            ],
            [
              253.3069102209966,
              129.99377714151507
            ],
            [
              253.16809252399688,
              130.46949467307635
            ],
            [
              253.0725002775779,
              130.87318460637175
            ],
            [
              252.83403203391634,
              131.71449649897315
            ],
            [
              252.70967843252043,
              132.25671655875618
            ],
            [
              252.56617754371675,
              132.77683558505237
            ],
            [
              252.46753500299712,
              133.21549583010506
            ],
            [
              252.44993373877188,
              133.28015594308002
            ],
            [
              252.39238084746194,
              133.53861234635616
            ],
            [
              252.2053456730544,
              134.23555566344857
            ],
            [
              251.85720615088906,
              135.85917612094764
            ],
            [
              251.7790666628437,
              136.16378022841292
            ],
            [
              251.55961203832706,
              137.24667427924388
            ],
            [
              251.297653043871,
              138.33404543313716
            ],
            [
              251.28734671439548,
              138.33503315671254
            ],
            [
              251.282357878824,
              138.35804064038135
            ],
            [
              251.24723921640032,
              138.54330926034262
            ],
            [
              251.16321931701222,
              138.89206924523018
            ],
            [
              251.1234177608359,
              139.1042391179624
            ],
            [
              250.97724459744796,
              139.72153431488303
            ],
            [
              250.89830231931455,
              140.15487514353043
            ],
            [
              250.7375601609726,
              140.85576053589597
            ],
            [
              250.73267870385695,
              140.88357886582398
            ],
            [
              250.7258457073139,
              140.91337306588306
            ],
            [
              250.68801070297056,
              141.12898386313265
            ],
            [
              250.62133380104842,
              141.42549392787996
            ],
            [
              250.45085408372242,
              142.40532499472323
            ],
            [
              250.31007909353272,
              143.05435606618218
            ],
            [
              250.29613135416562,
              143.1395703717832
            ],
            [
              250.23586029227505,
              143.42065689845404
            ],
            [
              249.95999036247883,
              145.13997249594362
            ],
            [
              249.91167886888934,
              145.37836450573533
            ],
            [
              249.7861532362857,
              146.22338482258024
            ],
            [
              249.78140129119697,
              146.2530005669162
            ],
            [
              249.76912632994853,
              146.32355082685737
            ],
            [
              249.44433341902152,
              148.0549220896153
            ],
            [
              249.40340203159633,
              148.36088774840698
            ],
            [
              249.26529619526863,
              149.1189973313924
            ],
            [
              249.21823012954908,
              149.48982315667536
            ],
            [
              249.09673558990238,
              150.1881122333133
            ],
            [
              248.96757996680574,
              151.25641145508382
            ],
            [
              248.80882141042827,
              152.226353592823
            ],
            [
              248.77841346492133,
              152.5039631675913
            ],
            [
              248.74423422318577,
              152.716979872492
            ],
            [
              248.5549011911875,
              154.5119946602457
            ],
            [
              248.52879951682334,
              154.6877073388797
            ],
            [
              248.4988049663576,
              155.00951221047978
            ],
            [
              248.27470303702884,
              156.79801028869193
            ],
            [
              248.2088695577184,
              157.290121236668
            ],
            [
              248.2018791167274,
              157.37919868763777
            ],
            [
              248.1269113944846,
              157.9774962014429
            ],
            [
              248.10437275369475,
              158.26572303998836
            ],
            [
              248.0640634878227,
              158.58331314563696
            ],
            [
              248.0498279036734,
              158.78675338575025
            ],
            [
              248.02818599488398,
              158.9635072450895
            ],
            [
              248.0179491487869,
              159.11119810350192
            ],
            [
              247.96839746419883,
              159.52106044487482
            ],
            [
              247.96362843849616,
              159.59496501609283
            ],
            [
              247.96032793348837,
              159.62233186250256
            ],
            [
              247.9071187125716,
              160.4584553795326
            ],
            [
              247.8000091973729,
              161.4363125308146
            ],
            [
              247.77480753176206,
              161.9078496768691
            ],
            [
              247.76014657019215,
              162.04684625101433
            ],
            [
              247.6904974025069,
              163.48533897242976
            ],
            [
              247.67815929490638,
              163.71619181116236
            ],
            [
              247.51408875490088,
              165.81434553225174
            ],
            [
              247.51313902915112,
              165.83191529362026
            ],
            [
              247.50270612611797,
              166.28858621602797
            ],
            [
              247.48460204632434,
              166.5192820021821
            ],
            [
              247.47621541575535,
              166.92699598769968
            ],
            [
              247.41876377049115,
              167.75587264812845
            ],
            [
              247.41792590900394,
              167.8172429092157
            ],
            [
              247.4030786182753,
              168.02942502685428
            ],
            [
              247.40005865717157,
              168.32848536662618
            ],
            [
              247.36803397590182,
              168.82476500203362
            ],
            [
              247.3674402231879,
              168.93890047568428
            ],
            [
              247.36224262494204,
              169.0205749307795
            ],
            [
              247.35988420759173,
              169.6712952811536
            ],
            [
              247.31002756994872,
              170.60414063309128
            ],
            [
              247.3138445946758,
              171.26450332669327
            ],
            [
              247.31084329356182,
              171.32649042504428
            ],
            [
              247.31733384959628,
              171.8681603472443
            ],
            [
              247.3290259467619,
              173.89094650295135
            ],
            [
              247.29108951211495,
              175.55150699548633
            ],
            [
              247.30720466319212,
              175.92716543241423
            ],
            [
              247.2999959926968,
              176.4551739351236
            ],
            [
              247.31474026864603,
              176.77738434226512
            ],
            [
              247.30879684912816,
              177.36594856570972
            ],
            [
              247.32230491960854,
              177.61513741612197
            ],
            [
              247.32022956993248,
              178.0140762536021
            ],
            [
              247.32180956389465,
              178.041057385622
            ],
            [
              247.3215801538985,
              178.0851756689366
            ],
            [
              247.32893443327865,
              178.21077112367527
            ],
            [
              247.32861049976836,
              178.30014891292174
            ],
            [
              247.35722526963187,
              178.7695580217904
            ],
            [
              247.36228065957698,
              179.64416354817678
            ],
            [
              247.60533646601672,
              183.13557190312483
            ],
            [
              247.66651692461434,
              184.6173806149371
            ],
            [
              247.6785618565867,
              184.72806990803537
            ],
            [
              247.69023517824698,
              184.9831699710857
            ],
            [
              247.6991586361524,
              185.0639595027895
            ],
            [
              247.69935248867216,
              185.0684783766743
            ],
            [
              247.70688653742556,
              185.13392492781415
            ],
            [
              247.75204982487105,
              185.5428158401017
            ],
            [
              247.80369758681582,
              186.49558303519845
            ],
            [
              247.82319539150805,
              186.65169736563675
            ],
            [
              247.84758827768206,
              187.06827599604748
            ],
            [
              247.87708438628493,
              187.29755268512443
            ],
            [
              247.88116050264688,
              187.36441906771617
            ],
            [
              247.92041890138478,
              187.66161661465588
            ],
            [
              247.9763851733644,
              188.4655517785062
            ],
            [
              248.44325381500943,
              191.800709055189
            ],
            [
              248.60417702374326,
              193.25764545959922
            ],
            [
              248.61036814855512,
              193.29108877898446
            ],
            [
              248.61157927398764,
              193.30221865652265
            ],
            [
              248.6124474899461,
              193.3081945619034
            ],
            [
              248.70614629859912,
              193.81426497027715
            ],
            [
              248.75851645349044,
              194.26919247782033
            ],
            [
              248.80253043561137,
              194.49300243123622
            ],
            [
              248.90529590173753,
              195.31582131733856
            ],
            [
              248.9142554544116,
              195.35960424898744
            ],
            [
              248.96383165587167,
              195.74496583958086
            ],
            [
              249.03075750327545,
              196.06720419267089
            ],
            [
              249.03663809042752,
              196.11172195530705
            ],
            [
              249.06619710144645,
              196.25081268043945
            ],
            [
              249.16729320124003,
              196.97301023839253
            ],
            [
              249.9570409910737,
              200.57038916203896
            ],
            [
              250.18143471295403,
              201.78234718057433
            ],
            [
              250.33149289249684,
              202.33005846908367
            ],
            [
              250.68100943194068,
              204.01293045971534
            ],
            [
              250.80011578261096,
              204.4106778278381
            ],
            [
              250.94436822698654,
              205.0677619118589
            ],
            [
              252.06724062975198,
              208.6655253701829
            ],
            [
              252.36739643807164,
              209.76109193666886
            ],
            [
              252.53233545763413,
              210.19530486811286
            ],
            [
              253.0030826016602,
              211.76733219106475
            ],
            [
              253.13843561087026,
              212.09771067489606
            ],
            [
              253.31044714094512,
              212.64884791523485
            ],
            [
              254.801863595878,
              216.16998853341983
            ],
            [
              255.1686309950866,
              217.13552808857773
            ],
            [
              255.33850567994807,
              217.46778569561283
            ],
            [
              255.92629428812313,
              218.90249860162635
            ],
            [
              256.07162287524517,
              219.16781047584246
            ],
            [
              256.26092999305314,
              219.61475269618376
            ],
            [
              258.15297540388417,
              222.97260223915808
            ],
            [
              258.5746876079315,
              223.79742842141323
            ],
            [
              258.74086715651777,
              224.04078293795146
            ],
            [
              259.43826649371704,
              225.3139551946508
            ],
            [
              259.5871895031214,
              225.51792970863124
            ],
            [
              259.7829474125484,
              225.86534505232675
            ],
            [
              262.10316724209235,
              228.96455917119198
            ],
            [
              262.5655182397859,
              229.64162927080207
            ],
            [
              262.72090386961696,
              229.81006607765283
            ],
            [
              263.5172343629245,
              230.9007714427048
            ],
            [
              263.6633798873276,
              231.0486000870601
            ],
            [
              263.8546619951076,
              231.3041035533973
            ],
            [
              266.52767717359757,
              233.94588473940564
            ],
            [
              266.65608189394516,
              234.0757682634819
            ],
            [
              267.11082773650827,
              234.56870919846384
            ],
            [
              267.25000493629534,
              234.6765313628736
            ],
            [
              268.1314832016358,
              235.56816138388535
            ],
            [
              268.2686298445995,
              235.66649450210505
            ],
            [
              268.4447633298782,
              235.84056988012279
            ],
            [
              269.52155064211274,
              236.59541764968685
            ],
            [
              269.53239103880435,
              236.60545434389914
            ],
            [
              269.53586916757274,
              236.60816170499422
            ],
            [
              269.58430965895604,
              236.63941287821993
            ],
            [
              271.4364212688788,
              237.9377772830008
            ],
            [
              271.74795587617507,
              238.16114526858803
            ],
            [
              272.16969253395,
              238.48786946853613
            ],
            [
              272.28900516348176,
              238.54907356477042
            ],
            [
              273.23905314385536,
              239.2302508677661
            ],
            [
              273.36129048938835,
              239.28714611497827
            ],
            [
              273.5122155297824,
              239.39294735243726
            ],
            [
              273.86031556127693,
              239.55120466541635
            ],
            [
              273.88115090059307,
              239.5654752270006
            ],
            [
              274.2035982778373,
              239.70727187426516
            ],
            [
              274.66416794142276,
              239.9166614485416
            ],
            [
              274.69935756914583,
              239.93936388446124
            ],
            [
              274.83655855021277,
              239.9950356860063
            ],
            [
              276.7989368164543,
              240.88719507517715
            ],
            [
              277.3176412662617,
              241.12862552979965
            ],
            [
              277.69051315240915,
              241.31989854835354
            ],
            [
              277.78805068861334,
              241.34757711337207
            ],
            [
              278.7877702810885,
              241.81289557322617
            ],
            [
              278.88967370625653,
              241.83771036501383
            ],
            [
              279.0063101557974,
              241.89073699365227
            ],
            [
              279.3580671360861,
              241.97395615864383
            ],
            [
              279.42155071566947,
              242.00187314410422
            ],
            [
              280.22016148788373,
              242.1795308113938
            ],
            [
              280.27733507189373,
              242.20273003634117
            ],
            [
              280.5340177412842,
              242.25216421965794
            ],
            [
              282.558853647409,
              242.73120276841095
            ],
            [
              283.29898971636106,
              242.91143539959305
            ],
            [
              283.6113537433235,
              243.00007602316725
            ],
            [
              283.68684858429094,
              243.00588401145018
            ],
            [
              284.71565057156414,
              243.25641049828712
            ],
            [
              284.7924634073149,
              243.259633331411
            ],
            [
              284.86706572179503,
              243.27728285271567
            ],
            [
              285.2143105078749,
              243.2905211659709
            ],
            [
              285.3269569885191,
              243.31558032079195
            ],
            [
              285.5724027085786,
              243.32156786777034
            ],
            [
              285.604680146706,
              243.32849047589565
            ],
            [
              286.15308307317247,
              243.33573332545916
            ],
            [
              286.16141024288635,
              243.33593646332778
            ],
            [
              286.20792056442025,
              243.344893825997
            ],
            [
              286.498323654194,
              243.34415532685955
            ],
            [
              286.8393916597875,
              243.35247554000284
            ],
            [
              288.6549789907715,
              243.4216927458448
            ],
            [
              289.6156360947198,
              243.46199899817387
            ],
            [
              289.8607028842589,
              243.48085253867765
            ],
            [
              289.9153413961732,
              243.47457372171996
            ],
            [
              290.9517039235975,
              243.51805634352576
            ],
            [
              290.99951808910953,
              243.51107563730906
            ],
            [
              291.02599758337055,
              243.5120851379726
            ],
            [
              291.3608485450244,
              243.46277461347222
            ],
            [
              291.52757064402937,
              243.46684173022717
            ],
            [
              291.87300662685334,
              243.41127731665856
            ],
            [
              291.94425561810874,
              243.412218314055
            ],
            [
              292.4190649222547,
              243.3290987986023
            ],
            [
              292.4209448004555,
              243.3290940180508
            ],
            [
              292.4513244498607,
              243.32345148655875
            ],
            [
              292.8172559306016,
              243.2593919849825
            ],
            [
              293.6331499997327,
              243.12815297764496
            ],
            [
              294.8816131381451,
              242.94430290934793
            ],
            [
              296.18244706607493,
              242.75438556197628
            ],
            [
              296.35866439244336,
              242.73413544355063
            ],
            [
              296.3948226678502,
              242.72337944346268
            ],
            [
              297.41714138277524,
              242.57412437381657
            ],
            [
              297.74869224641975,
              242.46615566752828
            ],
            [
              297.9462178050578,
              242.43438308917186
            ],
            [
              298.39236537692614,
              242.28342038605507
            ],
            [
              298.50491953597884,
              242.2637167975172
            ],
            [
              299.5683500531096,
              241.88550311218393
            ],
            [
              300.5048764380245,
              241.56861120574078
            ],
            [
              302.91279429751364,
              240.78447880058152
            ],
            [
              303.01855695679455,
              240.75301758846012
            ],
            [
              303.0384451774899,
              240.74356090700022
            ],
            [
              304.02901101238155,
              240.42098562997995
            ],
            [
              304.13973885992175,
              240.36544487423558
            ],
            [
              304.1888164400142,
              240.34935171981772
            ],
            [
              304.34937367098786,
              240.2677508379859
            ],
            [
              304.4998913411552,
              240.2168202585367
            ],
            [
              305.0433505207096,
              239.93829540027463
            ],
            [
              305.19818563946467,
              239.88322761733798
            ],
            [
              306.37435732866476,
              239.25614944251555
            ],
            [
              307.43631385870276,
              238.7118927565664
            ],
            [
              309.6706729200084,
              237.59114496262555
            ],
            [
              309.8119367153175,
              237.5233940574831
            ],
            [
              309.83241309666874,
              237.51001657581534
            ],
            [
              310.69391435913974,
              237.0778901302003
            ],
            [
              310.8981535680446,
              236.93942852408563
            ],
            [
              311.021777232006,
              236.87659859152183
            ],
            [
              311.0346222600968,
              236.8677462682996
            ],
            [
              311.10159210657554,
              236.83342397197754
            ],
            [
              311.73479177830944,
              236.39822361264396
            ],
            [
              311.93143740620377,
              236.29338162184544
            ],
            [
              313.16695204576314,
              235.41389482848888
            ],
            [
              314.5093786707195,
              234.49124029212007
            ],
            [
              316.0015272487378,
              233.4796554462071
            ],
            [
              316.3629034592663,
              233.24356374872963
            ],
            [
              316.42106100235566,
              233.1952373971161
            ],
            [
              317.322424583,
              232.58416839750825
            ],
            [
              317.4759261121243,
              232.45232181174853
            ],
            [
              317.6623916898011,
              232.32416336500881
            ],
            [
              317.797617526211,
              232.2069374584772
            ],
            [
              317.81163566108756,
              232.1972766729853
            ],
            [
              318.1089904750986,
              231.93701140609227
            ],
            [
              318.37373760147347,
              231.7075048065002
            ],
            [
              318.6102232146308,
              231.5391652604263
            ],
            [
              319.8643096374882,
              230.41534302136205
            ],
            [
              321.68120674223775,
              228.84029334274672
            ],
            [
              322.2534034102316,
              228.34881825785567
            ],
            [
              322.8023295201548,
              227.89268488654776
            ],
            [
              322.89949527033826,
              227.79387260795204
            ],
            [
              323.82321168896306,
              227.00046776894314
            ],
            [
              323.8297699105689,
              226.9935865610908
            ],
            [
              323.85116187837485,
              226.97521242965132
            ],
            [
              323.9390711097084,
              226.88297361504016
            ],
            [
              324.0936189158214,
              226.7489976888711
            ],
            [
              324.3712933803474,
              226.45581567548788
            ],
            [
              324.4600885557816,
              226.3780960659715
            ],
            [
              324.92245266332753,
              225.882598294083
            ],
            [
              325.1406778175007,
              225.68704057419873
            ],
            [
              326.3802577956021,
              224.334654721459
            ],
            [
              328.3655628024052,
              222.23847450527762
            ],
            [
              328.46756001202857,
              222.1314538708455
            ],
            [
              329.044308359764,
              221.54493219727138
            ],
            [
              329.1556946244134,
              221.40942820887383
            ],
            [
              330.1352364170734,
              220.38164338518152
            ],
            [
              330.1939898171822,
              220.30793359495834
            ],
            [
              330.30906048790865,
              220.1864364634805
            ],
            [
              330.7156354852861,
              219.67426781689707
            ],
            [
              330.87172198841887,
              219.5069959347093
            ],
            [
              331.2464768408752,
              219.0255936609161
            ],
            [
              331.4319434113575,
              218.82324901958515
            ],
            [
              332.62934273892796,
              217.26354197205163
            ],
            [
              334.47894868855525,
              214.9335655051368
            ],
            [
              335.0070275758569,
              214.29114522429558
            ],
            [
              335.1250822924161,
              214.12157176345195
            ],
            [
              336.11843813400066,
              212.87534515254663
            ],
            [
              336.15021130989254,
              212.82825081444827
            ],
            [
              336.22706365567853,
              212.73143875718372
            ],
            [
              336.74322747629634,
              211.96458234370206
            ],
            [
              336.9564996367479,
              211.69061737084937
            ],
            [
              337.24574816429407,
              211.25030986943597
            ],
            [
              337.39846214045156,
              211.05138787291529
            ],
            [
              338.5302887449502,
              209.30957371966974
            ],
            [
              340.13782994563854,
              206.92127521743456
            ],
            [
              340.6146814994857,
              206.23632699469078
            ],
            [
              340.7321618819184,
              206.0382856725099
            ],
            [
              341.1407195631986,
              205.43129799601587
            ],
            [
              341.72319914676706,
              204.56794424952622
            ],
            [
              341.73109548794207,
              204.55418583477004
            ],
            [
              341.7724360842542,
              204.49276676556897
            ],
            [
              342.2970949778327,
              203.57790285702143
            ],
            [
              342.36251297353147,
              203.4789408905836
            ],
            [
              342.43240897318543,
              203.35493463339122
            ],
            [
              342.63199452346043,
              203.05111626755263
            ],
            [
              342.8411446524823,
              202.67542163088552
            ],
            [
              342.96202205165696,
              202.4893984681001
            ],
            [
              344.00859374092653,
              200.59350963119223
            ],
            [
              344.8376417444999,
              199.1478730353004
            ],
            [
              344.90122229585137,
              199.04381866617499
            ],
            [
              344.9402162678462,
              198.9690106725503
            ],
            [
              345.36111575447836,
              198.23507524487533
            ],
            [
              345.7991146800748,
              197.49672315115808
            ],
            [
              345.90758701470196,
              197.28217643927783
            ],
            [
              346.87805432083894,
              195.58994264000614
            ],
            [
              346.8845331455144,
              195.57770172641696
            ],
            [
              347.1433719096291,
              195.0429790625032
            ],
            [
              347.3100838981911,
              194.7011888644562
            ],
            [
              347.39781481028126,
              194.54554072861026
            ],
            [
              347.58977835794946,
              194.1454904137227
            ],
            [
              347.8252535959368,
              193.72250820284813
            ],
            [
              347.83982888996263,
              193.69154604226722
            ],
            [
              347.8404178523671,
              193.69048809760176
            ],
            [
              347.96324547775646,
              193.42956648369173
            ],
            [
              348.0534590564011,
              193.26614249808028
            ],
            [
              349.07197845733083,
              191.08898139510032
            ],
            [
              349.1772803895253,
              190.87309309234817
            ],
            [
              349.2590745052169,
              190.71871351508585
            ],
            [
              349.33445444753175,
              190.5508574038556
            ],
            [
              349.42534914983906,
              190.36450656867368
            ],
            [
              349.6816259455748,
              189.8728522969489
            ],
            [
              349.8435205644794,
              189.50717835933366
            ],
            [
              349.9798985601326,
              189.22757841846249
            ],
            [
              350.5011274456985,
              188.1966432595815
            ],
            [
              350.5108322612795,
              188.17399679944833
            ],
            [
              350.51401956904994,
              188.16770259772207
            ],
            [
              350.6391493536203,
              187.87599320125688
            ],
            [
              351.5302205993119,
              186.0491334764728
            ],
            [
              351.71924752578093,
              185.589895759639
            ],
            [
              351.93682665185815,
              185.14040941510152
            ],
            [
              352.35256943623676,
              184.10536529040627
            ],
            [
              352.4891461356683,
              183.81523664283884
            ],
            [
              352.566456063012,
              183.6192751613964
            ],
            [
              352.6139457300001,
              183.51776246004943
            ],
            [
              353.4615662187185,
              181.36060186242923
            ],
            [
              353.6378584552969,
              180.9680341797565
            ],
            [
              353.71657358191396,
              180.75905221973025
            ],
            [
              353.94243786652515,
              180.24888898588785
            ],
            [
              354.14900813493637,
              179.69361847501892
            ],
            [
              354.70331834655565,
              178.4013801974567
            ],
            [
              354.87501225940923,
              177.92301877973742
            ],
            [
              355.62397674715095,
              176.1034222399041
            ],
            [
              355.8712255707237,
              175.38122852817503
            ],
            [
              355.9241779566286,
              175.2506259888553
            ],
            [
              356.00289987400595,
              175.01740702686917
            ],
            [
              356.3208548459097,
              174.22581800127517
            ],
            [
              357.16847224957263,
              171.63447608825533
            ],
            [
              357.4038174921069,
              171.02365947803966
            ],
            [
              357.41016791487095,
              171.00512522433502
            ],
            [
              357.55642034035844,
              170.5343356285515
            ],
            [
              357.64314130648967,
              170.301225629036
            ],
            [
              357.8339265283662,
              169.67910144391251
            ],
            [
              358.31757112342854,
              168.33160513304196
            ],
            [
              358.51693396293086,
              167.6533294170572
            ],
            [
              359.12365646124476,
              165.88114232749234
            ],
            [
              359.12522942464284,
              165.87547890082826
            ],
            [
              359.1257670789469,
              165.87390845787775
            ],
            [
              359.2953897103303,
              165.2631849813839
            ],
            [
              359.3337135884536,
              165.14964792116302
            ],
            [
              359.38033593085237,
              164.97950427259505
            ],
            [
              359.39146289282223,
              164.94660324660882
            ],
            [
              359.5164001720096,
              164.48764222254647
            ],
            [
              359.64794962301556,
              164.0916798045777
            ],
            [
              359.70268066330954,
              163.88687622724765
            ],
            [
              359.98919738167064,
              163.0109352922671
            ],
            [
              360.5057076156444,
              161.0405186229454
            ],
            [
              360.5398406135321,
              160.93064379369758
            ],
            [
              360.6110289048395,
              160.64476553859555
            ],
            [
              360.6406923252446,
              160.54905843342058
            ],
            [
              360.669130897489,
              160.4338926670127
            ],
            [
              360.7536308680426,
              160.15834996614254
            ],
            [
              360.9218125606669,
              159.47140967314036
            ],
            [
              361.32806975015444,
              158.0892344053858
            ],
            [
              361.3364182993713,
              158.05744970025694
            ],
            [
              361.5066726507907,
              157.3246058606152
            ],
            [
              361.80479806717483,
              156.26913394610656
            ],
            [
              361.8500357093502,
              156.06522434976569
            ],
            [
              362.00451840103227,
              155.50901197555837
            ],
            [
              362.11287541670833,
              155.0073704409499
            ],
            [
              362.1373210581774,
              154.91815847911923
            ],
            [
              362.1588527614331,
              154.8171679671304
            ],
            [
              362.1644427846674,
              154.79676818103167
            ],
            [
              362.2006281341245,
              154.62704639129015
            ],
            [
              362.2849249253114,
              154.31737947794105
            ],
            [
              362.35145786493786,
              153.99923111426082
            ],
            [
              362.56127253834,
              153.19881651885936
            ],
            [
              362.9992461287272,
              151.05415224783496
            ],
            [
              363.06782012255053,
              150.77877250012983
            ],
            [
              363.115597297756,
              150.5266028235592
            ],
            [
              363.2046094966224,
              150.16613613018416
            ],
            [
              363.219215127692,
              150.0876392527705
            ],
            [
              363.2540716782177,
              149.94526722252746
            ],
            [
              363.383215928877,
              149.2472018488427
            ],
            [
              363.71396185445946,
              147.82353712585126
            ],
            [
              363.8384290577433,
              147.10250070753645
            ],
            [
              364.0585469320455,
              146.11031489195338
            ],
            [
              364.0590897299307,
              146.10697948047974
            ],
            [
              364.060602083331,
              146.10016252299266
            ],
            [
              364.12748480035634,
              145.68917715334098
            ],
            [
              364.2075642163009,
              145.3221778575647
            ],
            [
              364.21462816300226,
              145.27725313919518
            ],
            [
              364.24637515670935,
              145.13027963182364
            ],
            [
              364.25298052974756,
              145.08785510487797
            ],
            [
              364.25463673508324,
              145.08018775628418
            ],
            [
              364.3049432528957,
              144.75708151569717
            ],
            [
              364.3467776705904,
              144.5608636443644
            ],
            [
              364.34876451701365,
              144.54793791214615
            ],
            [
              364.34884522422067,
              144.54755936888984
            ],
            [
              364.40654777533473,
              144.1721665668612
            ],
            [
              364.50802646867766,
              143.6869139924546
            ],
            [
              364.51911377438216,
              143.6116810398076
            ],
            [
              364.56105035147425,
              143.40632646932488
            ],
            [
              364.6074641482,
              143.09135758272075
            ],
            [
              364.61578680920195,
              143.0507484579961
            ],
            [
              364.67964585660343,
              142.60688589522096
            ],
            [
              364.72273334788844,
              142.39188448997157
            ],
            [
              364.73719968881386,
              142.28931168475515
            ],
            [
              364.7811393348588,
              142.0687396620456
            ],
            [
              364.9551112556259,
              140.81758093539884
            ],
            [
              364.98362898340383,
              140.6670633261195
            ],
            [
              365.0109337939032,
              140.45818059993647
            ],
            [
              365.12767794409785,
              139.83074785145024
            ],
            [
              365.13277520524974,
              139.79028259931613
            ],
            [
              365.1344524691007,
              139.781216459608
            ],
            [
              365.13649757171163,
              139.7680524090865
            ],
            [
              365.1501636300499,
              139.6522423903534
            ],
            [
              365.21941933307136,
              139.1024472350881
            ],
            [
              365.4679283828216,
              137.66283848338205
            ],
            [
              365.5466519283265,
              136.9685845608452
            ],
            [
              365.6989187120138,
              136.03292549733166
            ],
            [
              365.75872158551545,
              135.45725235425155
            ],
            [
              365.83932939358294,
              134.94460931923518
            ],
            [
              365.85009996912146,
              134.83292457949403
            ],
            [
              365.8535882724179,
              134.81052007579578
            ],
            [
              365.8603785871405,
              134.73942362308648
            ],
            [
              365.8719095257255,
              134.66536555822637
            ],
            [
              365.87640402165783,
              134.61830437102302
            ],
            [
              365.88165758357195,
              134.58444016254876
            ],
            [
              365.8838502703746,
              134.5613484599961
            ],
            [
              365.9053294862519,
              134.42161212465356
            ],
            [
              365.94139173689524,
              134.0391852316396
            ],
            [
              365.987314974395,
              133.72754533128497
            ],
            [
              365.99854939821876,
              133.60334953140256
            ],
            [
              366.0057012008137,
              133.55481928175632
            ],
            [
              366.0128168396359,
              133.47615353139162
            ],
            [
              366.05567190112646,
              133.18536035790467
            ],
            [
              366.0858137603968,
              132.8330900928749
            ],
            [
              366.1095185339952,
              132.66832625770388
            ],
            [
              366.1313638910762,
              132.40406607230875
            ],
            [
              366.1455778529247,
              132.30328274723541
            ],
            [
              366.1548701887724,
              132.18924107207434
            ],
            [
              366.2016510540614,
              131.85280581524262
            ],
            [
              366.3164189708212,
              130.39377690352347
            ],
            [
              366.40880250403285,
              129.66037854394534
            ],
            [
              366.45432279619234,
              128.96393923707902
            ],
            [
              366.59924411144925,
              127.68589477236658
            ],
            [
              366.6343922419155,
              127.02789019247474
            ],
            [
              366.72415069348307,
              126.16385930393074
            ],
            [
              366.75619488750795,
              125.43723585573966
            ],
            [
              366.81860479000886,
              124.79008067885887
            ],
            [
              366.8206242274563,
              124.73151739006143
            ],
            [
              366.831288910872,
              124.61984910280451
            ],
            [
              366.8322365991681,
              124.59210339998738
            ],
            [
              366.8396562931748,
              124.51342027631334
            ],
            [
              366.84924887958067,
              124.22911954412358
            ],
            [
              366.86205461826546,
              124.08754785007058
            ],
            [
              366.8790859402041,
              123.56205612901259
            ],
            [
              366.932925774573,
              122.93282577687313
            ],
            [
              366.9398117784274,
              122.62438667364927
            ],
            [
              366.9471505247345,
              122.53561090072094
            ],
            [
              366.9514467040296,
              122.32075572638182
            ],
            [
              366.9855549516939,
              121.88714221422983
            ],
            [
              367.0092442803299,
              120.47389852273494
            ],
            [
              367.0557150606692,
              119.7629171886851
            ]
          ]
        ]
      }
    }
  ]
}