{
  "type": "FeatureCollection",
  "features": [
    {
      "type": "Feature",
      "properties": {
        "method": "Homography",
        "mode": "tmpl2img",
        "inside_ratio": 1.0
      },
      "geometry": {
        "type": "Polygon",
        "coordinates": [
          [
            [
              310.1662078475897,
              448.5101328159544
            ],
            [
              310.34347454011674,
              448.4689950958549
            ],
            [
              310.729386445771,
              448.3060143937468
            ],
            [
              311.0117734787556,
              448.2371111755152
            ],
            [
              312.4091525958033,
              447.63063438885473
            ],
            [
              313.2091391205743,
              447.4071514142293
            ],
            [
              313.5963727417738,
              447.22122115855234
            ],
            [
              316.3701686729048,
              446.27863458022205
            ],
            [
              317.6738317159998,
              445.58024427277144
            ],
            [
              318.9267041428406,
              445.0982292535889
            ],
            [
              320.01085531258934,
              444.46276899728866
            ],
            [
              320.4102297503375,
              444.29857686598046
            ],
            [
              320.8366808623214,
              444.037439322073
            ],
            [
              320.99164603448804,
              443.9719934724119
            ],
            [
              321.34127613579784,
              443.7540016865385
            ],
            [
              321.59544748101456,
              443.64368873075824
            ],
            [
              323.24824592588425,
              442.5939535479321
            ],
            [
              323.37566910280907,
              442.52569119119653
            ],
            [
              324.19381990861007,
              442.1328560132217
            ],
            [
              324.48598356839335,
              441.9308803885939
            ],
            [
              324.7403656656107,
              441.79460438383205
            ],
            [
              325.6799227014225,
              441.31310852857456
            ],
            [
              325.7990683107987,
              441.2274427466329
            ],
            [
              326.8058304072442,
              440.6881063791619
            ],
            [
              326.82965430200363,
              440.6703460456883
            ],
            [
              326.8391621542545,
              440.6652525721169
            ],
            [
              328.1244042018,
              439.70712421235197
            ],
            [
              329.3969425329947,
              438.9612434194872
            ],
            [
              329.5589240820344,
              438.8311323355335
            ],
            [
              329.57554547543924,
              438.82136382661207
            ],
            [
              330.2769762245571,
              438.25666990821173
            ],
            [
              330.72664569584845,
              437.9813145907892
            ],
            [
              331.1097581634504,
              437.66342529016134
            ],
            [
              331.24318888980133,
              437.5802322177619
            ],
            [
              331.5543673473515,
              437.31852028734835
            ],
            [
              331.77950310039756,
              437.17553072824575
            ],
            [
              333.37678563326114,
              435.8133294479505
            ],
            [
              334.0766902752247,
              435.33218300432316
            ],
            [
              334.2232140683836,
              435.19943673868516
            ],
            [
              334.4339258638065,
              435.0537695926538
            ],
            [
              334.6081207170178,
              434.89372750127836
            ],
            [
              335.6555135671399,
              434.1406512614431
            ],
            [
              335.8958357448572,
              433.91364043108706
            ],
            [
              336.8166338762006,
              433.22719945683866
            ],
            [
              338.1272668852289,
              431.9486424683903
            ],
            [
              339.36968554908157,
              430.9506742426526
            ],
            [
              339.3876088029185,
              430.9319784838924
            ],
            [
              339.3956934033792,
              430.925484571307
            ],
            [
              339.43740945341773,
              430.8819704943253
            ],
            [
              339.54721730535596,
              430.7935685726022
            ],
            [
              340.15588965010244,
              430.1573568249689
            ],
            [
              340.5420665273639,
              429.83692481657783
            ],
            [
              340.87936419047634,
              429.4758728744664
            ],
            [
              340.99242334612825,
              429.3807861833513
            ],
            [
              341.26400511029715,
              429.08691740217523
            ],
            [
              341.4599773977775,
              428.9197874828326
            ],
            [
              342.9294071286063,
              427.3118807882131
            ],
            [
              343.45184298828,
              426.8385691989698
            ],
            [
              343.75572657450897,
              426.4893346876773
            ],
            [
              344.1239818686112,
              426.1509989312382
            ],
            [
              344.16661438612607,
              426.1009768443549
            ],
            [
              345.090915367323,
              425.2278725173985
            ],
            [
              345.4176203658603,
              424.83671080879924
            ],
            [
              346.24136284913254,
              424.03312834031857
            ],
            [
              347.4658381695345,
              422.51666941272066
            ],
            [
              348.9170511551559,
              420.99979624155543
            ],
            [
              349.43282919572107,
              420.32002778677145
            ],
            [
              349.75733378209804,
              419.97266987726715
            ],
            [
              350.0476494649044,
              419.58245428594734
            ],
            [
              350.1417944600037,
              419.4805833998535
            ],
            [
              350.37364625878996,
              419.16610717110484
            ],
            [
              350.540963487221,
              418.98302220550823
            ],
            [
              351.8663489039896,
              417.1683007329616
            ],
            [
              352.2301127297016,
              416.75024958556196
            ],
            [
              352.5348506599451,
              416.3152986025892
            ],
            [
              353.8942859378532,
              414.68765584099464
            ],
            [
              354.4239661877128,
              413.8993333368413
            ],
            [
              355.27541242394295,
              412.844854553309
            ],
            [
              356.2496131035172,
              411.3358634774557
            ],
            [
              357.59155679828297,
              409.56725194293773
            ],
            [
              358.016736931542,
              408.8711411794996
            ],
            [
              358.28261771174056,
              408.5137687328254
            ],
            [
              358.5260874224984,
              408.1084014916677
            ],
            [
              358.60297657328124,
              408.00411155174413
            ],
            [
              358.79593750084734,
              407.68028836795366
            ],
            [
              358.9356801838495,
              407.48895228998214
            ],
            [
              360.10486549212044,
              405.51065282187517
            ],
            [
              360.33135566876524,
              405.1873844814964
            ],
            [
              360.63154917541743,
              404.6605947449349
            ],
            [
              361.98318355069426,
              402.6489588651329
            ],
            [
              361.98929083116286,
              402.63886172723886
            ],
            [
              362.64685295605653,
              401.42683954626614
            ],
            [
              363.5252094330942,
              400.0663066364974
            ],
            [
              364.2723566632275,
              398.62935449535263
            ],
            [
              365.48778896716544,
              396.639432006482
            ],
            [
              365.82693410066645,
              395.95278645919376
            ],
            [
              366.0383041860144,
              395.60086379868477
            ],
            [
              366.23632122433963,
              395.1939846576186
            ],
            [
              366.2977314186407,
              395.09092729315773
            ],
            [
              366.45354973973724,
              394.76847313374856
            ],
            [
              366.5673009463848,
              394.5760024021848
            ],
            [
              367.57247817001047,
              392.4804173747175
            ],
            [
              367.68479883110626,
              392.2833132730176
            ],
            [
              368.1422787579908,
              391.2976400169479
            ],
            [
              369.61040338476806,
              388.59158450561216
            ],
            [
              370.2244361390311,
              387.18200783869094
            ],
            [
              370.91202102994623,
              385.8596090645738
            ],
            [
              371.4593720521587,
              384.5491481411671
            ],
            [
              372.5340345810446,
              382.3733473779996
            ],
            [
              372.7937542610015,
              381.71997886353967
            ],
            [
              372.9556265361441,
              381.3873688374636
            ],
            [
              373.1107590355942,
              380.9918850384243
            ],
            [
              373.1585172384596,
              380.89305307146657
            ],
            [
              373.27976678230107,
              380.58191004457626
            ],
            [
              373.36954003245256,
              380.39475152717404
            ],
            [
              374.2074160155188,
              378.2298675577783
            ],
            [
              374.2295319306965,
              378.18221723509953
            ],
            [
              374.34787489737107,
              377.8669532508443
            ],
            [
              374.87093939012976,
              376.51547169718657
            ],
            [
              376.29959921801145,
              373.23583303895765
            ],
            [
              376.8534253635892,
              371.6347736417206
            ],
            [
              377.36953189989947,
              370.3991178729476
            ],
            [
              377.7471499465986,
              369.25887933748845
            ],
            [
              378.6702357760345,
              366.9367017604104
            ],
            [
              378.85892309503674,
              366.33792298844156
            ],
            [
              378.97704907857286,
              366.0367809782028
            ],
            [
              379.09292584455727,
              365.6645433536818
            ],
            [
              379.12885585001516,
              365.5723420117184
            ],
            [
              379.2188358882593,
              365.28148048648706
            ],
            [
              379.2870029802545,
              365.10535198094044
            ],
            [
              380.6813340275657,
              360.56864903384815
            ],
            [
              380.9699353220661,
              359.7343297834832
            ],
            [
              381.2436752766858,
              358.9652638704501
            ],
            [
              381.2756886082528,
              358.85042573529165
            ],
            [
              381.9995066581261,
              356.75793570047637
            ],
            [
              382.47688092680824,
              354.97719557552364
            ],
            [
              382.8440985257738,
              353.86836176610313
            ],
            [
              383.0836611994063,
              352.9311741540158
            ],
            [
              383.8481644017676,
              350.50510603709324
            ],
            [
              383.8534138417053,
              350.48620728669016
            ],
            [
              383.97888903279267,
              349.96908175459095
            ],
            [
              384.0564175804483,
              349.72003232552316
            ],
            [
              384.13758803355955,
              349.381556688742
            ],
            [
              384.1634727842717,
              349.29788392955453
            ],
            [
              384.22609556339046,
              349.03513973021626
            ],
            [
              384.275316396474,
              348.8749910346283
            ],
            [
              385.5068981230054,
              343.67438024860195
            ],
            [
              385.52183818280304,
              343.6186496286342
            ],
            [
              385.94077779715667,
              342.11583059319565
            ],
            [
              385.9987663000632,
              341.83957377377783
            ],
            [
              386.66584369347675,
              339.35118770256537
            ],
            [
              387.0516359555491,
              337.40815159682575
            ],
            [
              387.2947463769258,
              336.4570849225617
            ],
            [
              387.42239564283875,
              335.7772309786206
            ],
            [
              388.0285314063408,
              333.2791413044331
            ],
            [
              388.111676636497,
              332.80985949282797
            ],
            [
              388.15889872890676,
              332.612946365183
            ],
            [
              388.2106733190344,
              332.3171865080954
            ],
            [
              388.22823215226396,
              332.2435155270343
            ],
            [
              388.26790229470095,
              332.01546410352745
            ],
            [
              388.30105828116353,
              331.8754560333656
            ],
            [
              389.243469774945,
              326.4218810919219
            ],
            [
              389.28897654025053,
              326.1650353628
            ],
            [
              389.62974166750314,
              324.5416326966271
            ],
            [
              389.6964414077655,
              324.0876343351856
            ],
            [
              390.26722016962515,
              321.2129168984946
            ],
            [
              390.54804916615615,
              319.1301483645847
            ],
            [
              390.69294120309917,
              318.3584602388715
            ],
            [
              390.74323120180577,
              317.95704482834435
            ],
            [
              391.1885036244013,
              315.44387301145053
            ],
            [
              391.23645001616785,
              315.0325825928091
            ],
            [
              391.2607355948985,
              314.8938523918893
            ],
            [
              391.28901323007346,
              314.64802836724976
            ],
            [
              391.2998926074608,
              314.5854861794054
            ],
            [
              391.3213824359544,
              314.3973541275912
            ],
            [
              391.34151462317925,
              314.28085258604835
            ],
            [
              391.962177612027,
              308.8071963704808
            ],
            [
              392.0420627031695,
              308.1219316119404
            ],
            [
              392.29112628442493,
              306.4266557781316
            ],
            [
              392.3478523529372,
              305.7819062282027
            ],
            [
              392.78473373101593,
              302.54177505040565
            ],
            [
              392.9495240753638,
              300.3463869942262
            ],
            [
              393.02217003521434,
              299.76652601682974
            ],
            [
              393.03021580338367,
              299.645425095333
            ],
            [
              393.31958669999875,
              297.1631637025092
            ],
            [
              393.34004332177113,
              296.81794927578073
            ],
            [
              393.348849125118,
              296.7413983901241
            ],
            [
              393.3599379999254,
              296.5508812677683
            ],
            [
              393.36571367300877,
              296.50031831302016
            ],
            [
              393.37403818859934,
              296.35593125672773
            ],
            [
              393.38429075538085,
              296.26551338595607
            ],
            [
              393.6863437880009,
              290.9739776627224
            ],
            [
              393.7599250579333,
              289.7322615964703
            ],
            [
              393.9163566513335,
              287.9542571958883
            ],
            [
              393.9431209786706,
              287.1093810105587
            ],
            [
              394.2113991114035,
              283.5352965539396
            ],
            [
              394.247457270203,
              281.50494258681596
            ],
            [
              394.4185226108223,
              278.61814025164057
            ],
            [
              394.41959866882803,
              278.3449311878894
            ],
            [
              394.42031697650197,
              278.33258999793355
            ],
            [
              394.4207547495178,
              278.20084206473234
            ],
            [
              394.42294290302107,
              278.1628889802712
            ],
            [
              394.42323769805733,
              278.06465370997284
            ],
            [
              394.42680708114443,
              278.00212323985033
            ],
            [
              394.4390809036917,
              273.3984291183378
            ],
            [
              394.44724926263564,
              271.32449845203627
            ],
            [
              394.47396211699817,
              270.59111748137855
            ],
            [
              394.47128967429893,
              270.4365482748337
            ],
            [
              394.5071282339335,
              269.30522353863506
            ],
            [
              394.48277347750553,
              268.2548152670079
            ],
            [
              394.551450787793,
              264.3877501135309
            ],
            [
              394.497104555617,
              262.96953309817974
            ],
            [
              394.4990407280198,
              262.8309219133581
            ],
            [
              394.4823017477573,
              262.4247397095235
            ],
            [
              394.4919049591802,
              259.98650274211883
            ],
            [
              394.47569413052673,
              259.66545421424775
            ],
            [
              394.47570847315006,
              259.6600745476096
            ],
            [
              394.4411199609729,
              258.980727574156
            ],
            [
              394.1857967968069,
              253.92416151277817
            ],
            [
              394.1587951003181,
              252.36243268939768
            ],
            [
              394.1232689749495,
              251.85882190929928
            ],
            [
              394.11518055376575,
              251.45568621891329
            ],
            [
              394.0832350522804,
              251.02292596810537
            ],
            [
              394.07472954254706,
              250.6560876546493
            ],
            [
              393.9770825176618,
              249.3990596139877
            ],
            [
              393.81955751703833,
              245.28829374584203
            ],
            [
              393.7423741028265,
              244.4699159032775
            ],
            [
              393.724632215687,
              244.03939751438855
            ],
            [
              393.64490307142006,
              243.21199262889797
            ],
            [
              393.5554791243804,
              241.44098960545216
            ],
            [
              393.5512371294248,
              241.3864200846104
            ],
            [
              393.04117492503934,
              236.51928732996592
            ],
            [
              392.88303555928127,
              234.2775373917813
            ],
            [
              392.7946100130069,
              233.56614271804975
            ],
            [
              392.76862382413816,
              233.21411225709343
            ],
            [
              392.6446998927512,
              232.2470539857947
            ],
            [
              392.63931281481837,
              232.17770514450734
            ],
            [
              392.54025914756016,
              231.43203556778272
            ],
            [
              392.43601377333283,
              230.61854175530544
            ],
            [
              392.03998428594826,
              226.4194303161052
            ],
            [
              392.00359084346644,
              226.17895197051854
            ],
            [
              391.93613042986294,
              225.47886825191938
            ],
            [
              391.7701380063437,
              224.39075601342813
            ],
            [
              391.65330446611927,
              223.27590306888857
            ],
            [
              391.5938185001089,
              222.9040760035516
            ],
            [
              391.57812573280165,
              222.75518123138644
            ],
            [
              391.56408029813883,
              222.66840400043563
            ],
            [
              391.55842715297626,
              222.6146173483256
            ],
            [
              391.5521775757863,
              222.57579735329932
            ],
            [
              391.5498786923238,
              222.5540906533549
            ],
            [
              391.4932505628716,
              222.20761424145954
            ],
            [
              391.46318688964266,
              221.92639767913445
            ],
            [
              391.45501001453067,
              221.87729656893663
            ],
            [
              391.43876677592533,
              221.72497459521134
            ],
            [
              391.42266914415654,
              221.62783001457302
            ],
            [
              391.40677372497174,
              221.4792356826676
            ],
            [
              390.95678868380577,
              218.78063830238304
            ],
            [
              390.6721108630564,
              216.49036932531797
            ],
            [
              390.50950051138625,
              215.58471766586905
            ],
            [
              390.4712260890789,
              215.28603769127173
            ],
            [
              389.94553176115784,
              212.43011140176253
            ],
            [
              389.16530833855654,
              207.31559691407577
            ],
            [
              388.9644851689547,
              206.36348753182725
            ],
            [
              388.92266299457873,
              206.09869327398536
            ],
            [
              388.85350871261045,
              205.775307408429
            ],
            [
              388.8202547967319,
              205.5674481975821
            ],
            [
              388.7962567796354,
              205.4570662414446
            ],
            [
              388.67564393501993,
              204.70786515463587
            ],
            [
              388.4430252888721,
              203.6465358047108
            ],
            [
              388.314462784695,
              202.87069804553192
            ],
            [
              388.27467663011123,
              202.69579125333814
            ],
            [
              388.22836744015706,
              202.41807122430353
            ],
            [
              387.84607924049715,
              200.75090254192943
            ],
            [
              387.5582538441592,
              199.14787084591805
            ],
            [
              387.3018118859351,
              198.06764125012273
            ],
            [
              387.25660499794645,
              197.8220469322161
            ],
            [
              386.66143560121384,
              195.37013644226468
            ],
            [
              386.52048299912576,
              194.77639127886596
            ],
            [
              385.45132119902803,
              189.7074593275762
            ],
            [
              385.1286742812982,
              188.52471277622115
            ],
            [
              384.87477854797913,
              187.36630609623083
            ],
            [
              384.8694080022303,
              187.3471928814744
            ],
            [
              384.865726192013,
              187.33039449164386
            ],
            [
              384.47007954033955,
              185.92233042401833
            ],
            [
              384.44694196008345,
              185.8189499101915
            ],
            [
              384.3933872734935,
              185.6329743532521
            ],
            [
              384.1729681212021,
              184.66397377344396
            ],
            [
              384.10125840543725,
              184.41964245428136
            ],
            [
              384.01041692821974,
              184.02348043305685
            ],
            [
              383.7958972383411,
              183.29941537525696
            ],
            [
              383.5798423732778,
              182.38931134549367
            ],
            [
              383.2120630870562,
              181.15980792472945
            ],
            [
              383.16470642674875,
              180.96471339740657
            ],
            [
              382.6368614594708,
              179.23688187858065
            ],
            [
              382.16139393306855,
              177.6473716150384
            ],
            [
              380.8399432472375,
              172.80324896712784
            ],
            [
              380.51543049716463,
              171.84815794121056
            ],
            [
              380.1920762344813,
              170.69737474499078
            ],
            [
              380.19101933539457,
              170.69433792611085
            ],
            [
              380.17496611174954,
              170.6372062118122
            ],
            [
              379.59637068452554,
              168.9747155003559
            ],
            [
              379.53380849164836,
              168.7574602159732
            ],
            [
              379.3709762370399,
              168.30249473298835
            ],
            [
              379.0683716811582,
              167.2714521535725
            ],
            [
              379.0095810490358,
              167.1107131690604
            ],
            [
              378.7807661837467,
              166.34577433169366
            ],
            [
              378.2867239806658,
              164.99727534072048
            ],
            [
              378.24114385938,
              164.84807477034815
            ],
            [
              378.20655404307456,
              164.75560093863797
            ],
            [
              378.1683206860715,
              164.63044840280241
            ],
            [
              377.39031270220653,
              162.5505011643795
            ],
            [
              376.9888459654377,
              161.45468893201775
            ],
            [
              376.2751264778619,
              159.3363341509745
            ],
            [
              376.31958367107416,
              159.2921827989733
            ],
            [
              376.31169601945413,
              159.27050734390886
            ],
            [
              375.9390072278214,
              158.33871557296195
            ],
            [
              375.7089164461262,
              157.6557947393403
            ],
            [
              375.61445988131817,
              157.42384625442128
            ],
            [
              375.3828445887966,
              156.74216676013617
            ],
            [
              375.1080502444676,
              156.07832764396065
            ],
            [
              374.6793909622307,
              154.84665168946628
            ],
            [
              373.8656690539438,
              152.92025521544937
            ],
            [
              373.75389531361685,
              152.6079510354266
            ],
            [
              373.71520082397757,
              152.5192029701817
            ],
            [
              373.2098310823288,
              151.13978521505499
            ],
            [
              372.79267981301325,
              150.19435839973158
            ],
            [
              372.68770967773173,
              149.91043533356077
            ],
            [
              372.5408480861402,
              149.58581346787363
            ],
            [
              372.4643128410396,
              149.3812021078686
            ],
            [
              371.5037859289085,
              147.2498317609387
            ],
            [
              370.41162270971495,
              144.51921918827463
            ],
            [
              370.06299211025606,
              143.791606492586
            ],
            [
              369.8076741078445,
              143.16464505319385
            ],
            [
              369.5043505393333,
              142.54109466827742
            ],
            [
              369.13691879687667,
              141.65346518025612
            ],
            [
              368.9369873746539,
              141.25214733730374
            ],
            [
              368.41747540878345,
              140.02226030945235
            ],
            [
              367.5461446009077,
              138.30367163452553
            ],
            [
              366.9202074692869,
              136.88505495399943
            ],
            [
              366.31434978925347,
              135.73468297583335
            ],
            [
              366.034442554333,
              135.11358014898835
            ],
            [
              365.7782077880238,
              134.63771923498453
            ],
            [
              365.7156676018144,
              134.499480831712
            ],
            [
              365.7010667620591,
              134.470187571399
            ],
            [
              364.82665137852706,
              132.86305345906075
            ],
            [
              363.8214121184595,
              130.76505962561885
            ],
            [
              363.51310849153646,
              130.22473790298585
            ],
            [
              363.23705009086365,
              129.65723725393858
            ],
            [
              362.68309510877884,
              128.69885018038605
            ],
            [
              362.16366772609547,
              127.65621528855729
            ],
            [
              362.1070886476433,
              127.56138316902768
            ],
            [
              362.0615866564836,
              127.47007244653722
            ],
            [
              362.0072780418505,
              127.37896513479758
            ],
            [
              361.4493066959298,
              126.27843795573907
            ],
            [
              360.5692473610139,
              124.82617250703406
            ],
            [
              359.96892713614113,
              123.6863147691668
            ],
            [
              359.3474984633107,
              122.69506500037504
            ],
            [
              358.9377929738178,
              121.9341892164025
            ],
            [
              357.5433886159982,
              119.76242398546324
            ],
            [
              356.5993926378527,
              118.10801097012681
            ],
            [
              356.3456027677842,
              117.73447413069637
            ],
            [
              356.0536745585615,
              117.22941463820277
            ],
            [
              355.32453818894,
              116.16810167891107
            ],
            [
              354.47938332495403,
              114.75028264245266
            ],
            [
              354.37344757748735,
              114.60192330517434
            ],
            [
              353.83881195079937,
              113.71967273699082
            ],
            [
              352.9712453475148,
              112.52421241009876
            ],
            [
              352.41642965867203,
              111.63921796531986
            ],
            [
              351.79307365859245,
              110.80638908693048
            ],
            [
              351.2369309261416,
              109.94020458099965
            ],
            [
              349.62475930237196,
              107.84250080018757
            ],
            [
              348.8070835255788,
              106.63901688948016
            ],
            [
              348.61973096730895,
              106.4087492583505
            ],
            [
              348.3171943353564,
              105.96838438074593
            ],
            [
              347.54603540307545,
              105.02959277582826
            ],
            [
              347.5028188510258,
              104.96763842245258
            ],
            [
              347.44305996145596,
              104.89615600400946
            ],
            [
              346.31152386219725,
              103.31147897283732
            ],
            [
              346.14641368391005,
              103.11995980230257
            ],
            [
              345.65329300910815,
              102.44046591576054
            ],
            [
              344.8181568178743,
              101.4876175205433
            ],
            [
              344.32615737486327,
              100.8302863258142
            ],
            [
              343.71355616583276,
              100.15104104133155
            ],
            [
              342.997488814783,
              99.2193181605665
            ],
            [
              341.1751238900829,
              97.25887667481663
            ],
            [
              340.5088149404494,
              96.43994265625787
            ],
            [
              340.3974318021076,
              96.32704292938976
            ],
            [
              340.08991736010336,
              95.952681738111
            ],
            [
              339.31508437460485,
              95.17363009716247
            ],
            [
              339.16400482977264,
              94.99291169159444
            ],
            [
              339.0052708200196,
              94.83660760566578
            ],
            [
              337.62881851355456,
              93.23999492704483
            ],
            [
              337.3986829484285,
              93.02237096070404
            ],
            [
              336.963014292068,
              92.52529493355766
            ],
            [
              336.17869630842,
              91.79647374422822
            ],
            [
              335.76419593075116,
              91.33688041860799
            ],
            [
              335.17367770864115,
              90.80271418554311
            ],
            [
              334.28779413898883,
              89.84970917653307
            ],
            [
              332.2687343613968,
              88.0876654576967
            ],
            [
              331.77139108571197,
              87.58355037513843
            ],
            [
              331.7430401246091,
              87.56035909731499
            ],
            [
              331.43649708176093,
              87.2521470503147
            ],
            [
              330.67187378859984,
              86.63077945500991
            ],
            [
              330.39860633192274,
              86.3616952171868
            ],
            [
              330.1306027997502,
              86.14942879375829
            ],
            [
              328.5047458446687,
              84.61196352159925
            ],
            [
              328.2057118047844,
              84.38764190612997
            ],
            [
              327.8408385728414,
              84.04858638475298
            ],
            [
              327.12392698016396,
              83.52113528978049
            ],
            [
              326.7989556764358,
              83.2271753565215
            ],
            [
              326.24016474042196,
              82.82650214189998
            ],
            [
              325.1785413758026,
              81.90001804162658
            ],
            [
              323.07640361093354,
              80.45835561992729
            ],
            [
              322.4236517967114,
              79.92789986640317
            ],
            [
              321.6822160133901,
              79.4580660639394
            ],
            [
              321.27520960005046,
              79.13570540338496
            ],
            [
              320.88908561617626,
              78.89904466475039
            ],
            [
              319.0151200962311,
              77.49328171909116
            ],
            [
              318.64550304167614,
              77.28333130444099
            ],
            [
              318.36190371051515,
              77.07467966694652
            ],
            [
              317.7269536119502,
              76.72222333241568
            ],
            [
              317.500887776498,
              76.5601259912309
            ],
            [
              316.98513201350687,
              76.28091420333601
            ],
            [
              315.7359654744356,
              75.42422607948473
            ],
            [
              313.5844327834306,
              74.32665431919864
            ],
            [
              313.1199127742904,
              74.03229679408045
            ],
            [
              312.41336167874414,
              73.70415605060168
            ],
            [
              311.8642481679715,
              73.36759677305977
            ],
            [
              311.3527191458691,
              73.14087363361061
            ],
            [
              309.23779264343307,
              71.93955001859946
            ],
            [
              308.7982318250187,
              71.76595265833075
            ],
            [
              308.60333198892914,
              71.65776512991411
            ],
            [
              308.0626482316838,
              71.45059949226597
            ],
            [
              307.9422277354585,
              71.38540812754822
            ],
            [
              307.4806856964431,
              71.21292034594181
            ],
            [
              306.04771597960763,
              70.48191258525107
            ],
            [
              303.8748434723963,
              69.73864565776854
            ],
            [
              303.5953940779879,
              69.60886207578774
            ],
            [
              302.9571847353662,
              69.41975159214867
            ],
            [
              302.237765034056,
              69.1008858265279
            ],
            [
              301.5952672632505,
              68.92125954281676
            ],
            [
              299.2523778749292,
              67.9959736752965
            ],
            [
              298.78409160719406,
              67.88952233970751
            ],
            [
              298.6604673958551,
              67.84199690142458
            ],
            [
              297.7526552060916,
              67.64445004946091
            ],
            [
              296.1833948390257,
              67.10765862359455
            ],
            [
              293.5995237627252,
              66.64694387216134
            ],
            [
              293.28093325914904,
              66.55254098551994
            ],
            [
              292.9920059390087,
              66.51600316740057
            ],
            [
              292.46918839486415,
              66.36983647736392
            ],
            [
              291.69206681113786,
              66.27735567252006
            ],
            [
              289.13999286108896,
              65.69721549074568
            ],
            [
              288.67043419206163,
              65.66808953095104
            ],
            [
              288.57695544573284,
              65.64774784324759
            ],
            [
              287.750358717081,
              65.60401388822257
            ],
            [
              286.2204706258239,
              65.33122860178621
            ],
            [
              283.35884770343523,
              65.285666822208
            ],
            [
              282.6331119775295,
              65.1993011550652
            ],
            [
              281.7198416596681,
              65.23695559198075
            ],
            [
              278.98299948625936,
              65.06719372762907
            ],
            [
              278.5178648123564,
              65.11553690881375
            ],
            [
              278.4538233799775,
              65.11214857563802
            ],
            [
              277.7114756015722,
              65.195751298806
            ],
            [
              276.2375001794871,
              65.17228316722904
            ],
            [
              273.5125158609247,
              65.57534634592889
            ],
            [
              272.8050706052893,
              65.60451454752913
            ],
            [
              271.7565114601813,
              65.81826957636513
            ],
            [
              268.86473726459457,
              66.11882245219168
            ],
            [
              268.40978793532133,
              66.24330130381564
            ],
            [
              268.3736230874146,
              66.24737416542455
            ],
            [
              267.7166836420581,
              66.43263074993453
            ],
            [
              266.31387869642543,
              66.64012516251339
            ],
            [
              263.75214107201026,
              67.45000816848405
            ],
            [
              263.0613014105149,
              67.59083994937923
            ],
            [
              262.28422491676207,
              67.87973580473123
            ],
            [
              262.22428680136517,
              67.89261135187297
            ],
            [
              261.86304725136205,
              68.03455740597232
            ],
            [
              258.86923484993457,
              68.85369550717189
            ],
            [
              258.43016092226935,
              69.05142536347755
            ],
            [
              258.41957036725205,
              69.05441189451744
            ],
            [
              258.20263464568825,
              69.15388814967275
            ],
            [
              257.82574471469786,
              69.3236144467931
            ],
            [
              256.52956747311055,
              69.73339564791117
            ],
            [
              254.15364287945036,
              70.90246454651508
            ],
            [
              253.478481081536,
              71.15347129640314
            ],
            [
              253.47223682916726,
              71.15633526842524
            ],
            [
              252.36048386326263,
              71.76851006089598
            ],
            [
              252.1272577455008,
              71.86015430951171
            ],
            [
              251.90036699598178,
              71.99201266199407
            ],
            [
              249.08088830636106,
              73.26171938119462
            ],
            [
              248.1437256506473,
              73.859632183126
            ],
            [
              246.96478876777985,
              74.43972569571716
            ],
            [
              244.63770680337078,
              76.02097404246453
            ],
            [
              243.8883834246176,
              76.43358088762815
            ],
            [
              242.57846914022662,
              77.40946619809431
            ],
            [
              242.3085980137727,
              77.56630274692499
            ],
            [
              242.19812913638918,
              77.652941967031
            ],
            [
              239.5840945606738,
              79.3207044712276
            ],
            [
              238.7555853465504,
              80.01786584565944
            ],
            [
              237.6996776336489,
              80.73535339051976
            ],
            [
              235.4677772091836,
              82.7069271735743
            ],
            [
              234.63754359751206,
              83.32545068730421
            ],
            [
              233.28638017869778,
              84.6200097046023
            ],
            [
              232.89647360919176,
              84.94810237425797
            ],
            [
              232.85856891511204,
              84.97783050412227
            ],
            [
              232.84560358834176,
              84.99090770828056
            ],
            [
              230.46282915819123,
              86.99592861616509
            ],
            [
              229.74339107701613,
              87.76362661162432
            ],
            [
              228.81388126989563,
              88.58471932109495
            ],
            [
              226.70517561080285,
              90.9255073219977
            ],
            [
              225.80179893051735,
              91.79103876783944
            ],
            [
              224.43082536816658,
              93.43255928588955
            ],
            [
              222.95187495836225,
              95.01071770522861
            ],
            [
              222.7737571158055,
              95.19659291570301
            ],
            [
              222.7548488456287,
              95.22096033176811
            ],
            [
              221.8001585432683,
              96.23969126996839
            ],
            [
              221.1883114657392,
              97.04955281768241
            ],
            [
              220.3860974866336,
              97.94005778139201
            ],
            [
              218.42644351802974,
              100.6218416147755
            ],
            [
              217.46206006483908,
              101.77653581833542
            ],
            [
              216.0894507268108,
              103.79857786217421
            ],
            [
              215.74013953861922,
              104.26093800064596
            ],
            [
              214.81449361845017,
              105.45383396846135
            ],
            [
              214.68500719037516,
              105.657546970406
            ],
            [
              213.6776786495246,
              106.99088119903745
            ],
            [
              213.17006333909174,
              107.8151908549006
            ],
            [
              212.49354534003606,
              108.74100483119521
            ],
            [
              210.7060544226058,
              111.72905987487809
            ],
            [
              209.69748113850585,
              113.21482682124696
            ],
            [
              208.4276410280048,
              115.501874782944
            ],
            [
              207.4290582931622,
              117.07288334064958
            ],
            [
              207.2047471847074,
              117.50218729721038
            ],
            [
              206.17487367110363,
              119.17458500492407
            ],
            [
              205.76628178170543,
              119.9866193457485
            ],
            [
              205.21136291121883,
              120.91424818772343
            ],
            [
              203.61587016106276,
              124.16812391342766
            ],
            [
              202.58479505908923,
              126.02514369949635
            ],
            [
              201.5903458543266,
              128.2184997706461
            ],
            [
              201.44448298227076,
              128.48902478350647
            ],
            [
              201.3465687963506,
              128.71402240257183
            ],
            [
              200.688097262269,
              129.9742561770312
            ],
            [
              200.3887814672873,
              130.67384793827674
            ],
            [
              199.3683915491933,
              132.70176791419993
            ],
            [
              199.05181048951445,
              133.47614676369474
            ],
            [
              198.6119296242955,
              134.3732474677797
            ],
            [
              197.2245403153136,
              137.84771566084677
            ],
            [
              196.19756785896934,
              140.11280497990367
            ],
            [
              195.2836764019561,
              142.60602627254093
            ],
            [
              194.65914521453908,
              144.0657450066906
            ],
            [
              194.3088243360822,
              145.077814167005
            ],
            [
              193.33123598298386,
              147.4690619090909
            ],
            [
              193.09791265816324,
              148.1821159958639
            ],
            [
              192.76411344666113,
              149.01805637376495
            ],
            [
              191.59684472525987,
              152.6642089683009
            ],
            [
              190.60537381445093,
              155.36907765581273
            ],
            [
              189.87137883618718,
              157.89749468623995
            ],
            [
              189.4058711595576,
              159.24233592290793
            ],
            [
              189.2418647597213,
              159.84155372012324
            ],
            [
              189.22404925880645,
              159.89294592167752
            ],
            [
              189.03089328962452,
              160.6112410481052
            ],
            [
              188.13187866694614,
              163.35869911414412
            ],
            [
              187.97140636064054,
              163.98885192067985
            ],
            [
              187.73244679262774,
              164.73528077028726
            ],
            [
              187.2183659524794,
              166.79631618374728
            ],
            [
              187.14485604162306,
              167.0322643134514
            ],
            [
              186.78734801410587,
              168.52115872227114
            ],
            [
              185.87289701669178,
              171.67119863245247
            ],
            [
              185.31502246042118,
              174.1887608712041
            ],
            [
              184.98726239410053,
              175.38627307287624
            ],
            [
              184.74699886671192,
              176.54189283596833
            ],
            [
              184.53142743459298,
              177.3435450434215
            ],
            [
              184.3924949594583,
              178.04274767134117
            ],
            [
              183.83329993489616,
              180.23863007759562
            ],
            [
              183.74969647870856,
              180.6821085456501
            ],
            [
              183.7150176861812,
              180.81884813752862
            ],
            [
              183.6975663877592,
              180.9117860085966
            ],
            [
              183.57623892380036,
              181.39820794911031
            ],
            [
              183.49603276456887,
              181.83231233553312
            ],
            [
              183.46018902201556,
              181.976526315393
            ],
            [
              183.1434380696591,
              183.6967540230473
            ],
            [
              183.0210769316489,
              184.2063448579739
            ],
            [
              182.74485667961008,
              185.78734023705556
            ],
            [
              182.05896961207182,
              188.8825941106825
            ],
            [
              181.6695312952704,
              191.3438995513418
            ],
            [
              181.45675648941003,
              192.36730403307078
            ],
            [
              181.20358008544576,
              194.0915343787253
            ],
            [
              180.87457973918208,
              195.74728769692885
            ],
            [
              180.78908169452941,
              196.38682900694008
            ],
            [
              180.49197096882028,
              197.96286683470734
            ],
            [
              180.48395739074505,
              198.0260414341295
            ],
            [
              180.39558096294667,
              198.49669507017973
            ],
            [
              180.3490684993672,
              198.86480715206574
            ],
            [
              180.348637028231,
              198.86714242791038
            ],
            [
              180.3456658642271,
              198.8910422532984
            ],
            [
              180.250742548519,
              199.40655678159305
            ],
            [
              179.97115495298792,
              201.66311176541842
            ],
            [
              179.87716727113303,
              202.20106685601536
            ],
            [
              179.68833913970437,
              203.86531519273834
            ],
            [
              179.2155618675737,
              206.8533346604874
            ],
            [
              178.9829771955544,
              209.21470868893363
            ],
            [
              178.86133527450622,
              210.04313775372538
            ],
            [
              178.85544814311228,
              210.09318889774136
            ],
            [
              178.67706718690837,
              212.09747290831663
            ],
            [
              178.47521951199897,
              213.69494941510212
            ],
            [
              178.31085426368185,
              214.92443210870152
            ],
            [
              178.3086399842061,
              214.95516461494725
            ],
            [
              178.28707898791043,
              215.1164455827614
            ],
            [
              178.2757621338171,
              215.27350847395024
            ],
            [
              178.0761343669628,
              216.8534160342088
            ],
            [
              178.06048115330796,
              217.0841839236105
            ],
            [
              178.01076183777892,
              217.48546914166397
            ],
            [
              177.82412397992613,
              220.29569002887197
            ],
            [
              177.76106909696762,
              220.85142811353762
            ],
            [
              177.66583297831724,
              222.58734463795298
            ],
            [
              177.38674439735232,
              225.42086122794151
            ],
            [
              177.29734023321183,
              227.60005082512941
            ],
            [
              177.23588420991473,
              228.29056918235378
            ],
            [
              177.17879902531524,
              230.01239856501255
            ],
            [
              176.95624272520377,
              233.36344625887187
            ],
            [
              176.7964738134401,
              235.71884339202836
            ],
            [
              176.79581675948472,
              235.77899262736832
            ],
            [
              176.77775838844715,
              236.05089893854708
            ],
            [
              176.74254800403781,
              239.4165231729876
            ],
            [
              176.71163704531605,
              239.97995272889744
            ],
            [
              176.71587694489153,
              241.7729784644735
            ],
            [
              176.60764807017986,
              244.41101261108412
            ],
            [
              176.63737187374215,
              246.3431713323048
            ],
            [
              176.62008829676054,
              246.86448646676848
            ],
            [
              176.65020116680833,
              248.2435995728955
            ],
            [
              176.5802476167573,
              254.93018840944643
            ],
            [
              176.7493887701918,
              258.50261027971084
            ],
            [
              176.75576870760798,
              258.64294346089054
            ],
            [
              176.7575542456095,
              259.39803577855895
            ],
            [
              176.86639555773166,
              261.23056982504943
            ],
            [
              176.90345200406676,
              263.63937783012744
            ],
            [
              177.0225588746038,
              265.2968858888436
            ],
            [
              177.03010300175964,
              265.64239279749006
            ],
            [
              177.1372238754573,
              267.0334359911346
            ],
            [
              177.46410329454494,
              274.22347968522996
            ],
            [
              177.51905339190884,
              274.75981660649177
            ],
            [
              177.52698897721746,
              274.9314785132275
            ],
            [
              177.52743919418018,
              274.9357745001496
            ],
            [
              177.55482706604698,
              275.51423237701533
            ],
            [
              177.90915275234167,
              278.7872128321243
            ],
            [
              177.91630591552783,
              278.9076488578241
            ],
            [
              177.99192438564975,
              279.55179171684586
            ],
            [
              178.15543994768262,
              281.06221915507575
            ],
            [
              178.28843428877727,
              282.9129872185184
            ],
            [
              178.46508394499568,
              284.27667391611305
            ],
            [
              178.47798433114448,
              284.444194901855
            ],
            [
              178.621334198892,
              285.5185581359917
            ],
            [
              179.43398770406128,
              293.45041085404387
            ],
            [
              179.5304106130221,
              294.0482020051565
            ],
            [
              179.5958648509593,
              294.6727687691461
            ],
            [
              179.6914793302874,
              295.25093612365305
            ],
            [
              179.77341122010083,
              296.0077581220677
            ],
            [
              180.63831655868623,
              301.0534311970034
            ],
            [
              180.76512326732282,
              302.032344065775
            ],
            [
              180.84954538059955,
              302.4774461389446
            ],
            [
              180.85803236805933,
              302.5429598746855
            ],
            [
              181.0088970497064,
              303.3383738284266
            ],
            [
              181.02468814723065,
              303.4566129343904
            ],
            [
              181.16319390223828,
              304.1709354156365
            ],
            [
              181.6737394282981,
              307.3361541488165
            ],
            [
              182.33337884370428,
              311.49389610730304
            ],
            [
              182.3749111125903,
              311.6831940052193
            ],
            [
              182.49282566480457,
              312.41422646071817
            ],
            [
              182.63550619645255,
              313.05305392649626
            ],
            [
              182.81274801095572,
              314.12481033517685
            ],
            [
              183.07452858720407,
              315.26577200338346
            ],
            [
              183.22963674970424,
              316.1706399056109
            ],
            [
              184.2704179286073,
              320.534308550383
            ],
            [
              184.41738158605696,
              321.30915487316923
            ],
            [
              184.87445388594546,
              323.1106847199387
            ],
            [
              185.04586796325316,
              323.8577871001455
            ],
            [
              185.07289654180764,
              323.9802098881987
            ],
            [
              186.3275492273989,
              329.6987300237219
            ],
            [
              186.36266106485598,
              329.82204757700856
            ],
            [
              186.51083050294685,
              330.493163732217
            ],
            [
              186.60085550506196,
              330.8072213684981
            ],
            [
              186.62377273131827,
              330.9098292954972
            ],
            [
              186.70473700113826,
              331.18877176644753
            ],
            [
              186.76318371974767,
              331.44998531584054
            ],
            [
              186.8798766897173,
              331.85125126797766
            ],
            [
              187.1584305484398,
              333.06531871287604
            ],
            [
              187.65772446002075,
              334.7362211148221
            ],
            [
              187.90038613500846,
              335.75362531455454
            ],
            [
              187.90795520346478,
              335.78123653311025
            ],
            [
              188.90082800644745,
              338.9804566442946
            ],
            [
              189.0356995943708,
              339.5120469226229
            ],
            [
              189.5655689954751,
              341.14980275356766
            ],
            [
              191.57340726868077,
              348.1542673724389
            ],
            [
              191.8231926196544,
              348.84957065187274
            ],
            [
              191.95452156499124,
              349.301164559442
            ],
            [
              192.26062197915343,
              350.1399589574875
            ],
            [
              192.59898642446726,
              351.272305960476
            ],
            [
              193.2674317978223,
              353.0504630186517
            ],
            [
              193.5363269002678,
              353.9168928543077
            ],
            [
              194.48307554050353,
              356.3491613144172
            ],
            [
              194.67676155085223,
              356.94781900659046
            ],
            [
              195.2048262564625,
              358.26269655515694
            ],
            [
              197.6147369477191,
              364.9709314466201
            ],
            [
              197.95039960418808,
              365.7314229906974
            ],
            [
              198.14764213769388,
              366.27191860753953
            ],
            [
              198.7000223296125,
              367.5019045022954
            ],
            [
              199.08559070090504,
              368.5275696473197
            ],
            [
              199.94015155437967,
              370.36880001167424
            ],
            [
              200.20909066725432,
              371.0597248191427
            ],
            [
              201.03641666360886,
              372.78331726184877
            ],
            [
              201.29097913175335,
              373.4171760872891
            ],
            [
              201.79874089200314,
              374.4503881534186
            ],
            [
              204.5807937108213,
              380.7535249580254
            ],
            [
              205.01081864158596,
              381.55416517724063
            ],
            [
              205.2853582533628,
              382.1654829887656
            ],
            [
              206.13701944107186,
              383.72052478419494
            ],
            [
              206.5546532106172,
              384.6203553516104
            ],
            [
              206.55630904800742,
              384.6232682673829
            ],
            [
              206.56210625165144,
              384.63575887694344
            ],
            [
              207.6128923572461,
              386.4842813982754
            ],
            [
              207.8596059063186,
              386.9982669499903
            ],
            [
              208.50273998409958,
              388.091928921736
            ],
            [
              208.8156139507982,
              388.72857622936806
            ],
            [
              209.2908140697432,
              389.52285776408246
            ],
            [
              212.40516246460254,
              395.3212950249169
            ],
            [
              212.93577239173817,
              396.1343169677437
            ],
            [
              213.29745891947732,
              396.7947176946671
            ],
            [
              214.48659175674752,
              398.57635996426677
            ],
            [
              214.93578979796405,
              399.3665804394998
            ],
            [
              216.19837965852352,
              401.1785134319895
            ],
            [
              216.40684394589326,
              401.5330109954372
            ],
            [
              216.5629397819179,
              401.7491729488377
            ],
            [
              216.6864378615811,
              401.9587724938364
            ],
            [
              216.9383335110543,
              402.30543764242606
            ],
            [
              217.17528356595514,
              402.70149194829526
            ],
            [
              217.61159332958076,
              403.29879849871446
            ],
            [
              221.00964800541735,
              408.5054349995617
            ],
            [
              221.64457514105345,
              409.30095301455856
            ],
            [
              222.10138637310737,
              409.98537966120597
            ],
            [
              223.6624815803834,
              411.89018865913897
            ],
            [
              224.12269445022397,
              412.55063660703445
            ],
            [
              225.596717279776,
              414.25917347350287
            ],
            [
              225.75628454323018,
              414.4801426694275
            ],
            [
              225.87923032640973,
              414.61716482058875
            ],
            [
              226.28276604628576,
              415.169603818977
            ],
            [
              226.6853514196853,
              415.61668298435416
            ],
            [
              230.30516237049665,
              420.15204564351336
            ],
            [
              231.0454807480355,
              420.89873802930373
            ],
            [
              231.60321374284874,
              421.57926976245193
            ],
            [
              233.56308401567736,
              423.4929729693028
            ],
            [
              234.01916709749628,
              424.0216179426822
            ],
            [
              235.35773302414876,
              425.2481180231748
            ],
            [
              235.36343021024564,
              425.25386426102557
            ],
            [
              235.87447260932484,
              425.8213871377852
            ],
            [
              236.11727781854447,
              426.03566889618924
            ],
            [
              236.1815226624606,
              426.10674477377904
            ],
            [
              236.38344889028937,
              426.282665118709
            ],
            [
              240.1928793247436,
              430.12489406511685
            ],
            [
              241.0369051788048,
              430.7907394213802
            ],
            [
              241.69890990253472,
              431.4371498396216
            ],
            [
              244.07313939545008,
              433.2338633667881
            ],
            [
              244.51075319254662,
              433.63483977496395
            ],
            [
              244.51804064168434,
              433.6406990153711
            ],
            [
              244.8552103745632,
              433.8768512170433
            ],
            [
              244.87787724119016,
              433.8974973051785
            ],
            [
              245.3846835662642,
              434.24769191762863
            ],
            [
              245.56753278597228,
              434.37575870891493
            ],
            [
              245.98467237865358,
              434.74389498452143
            ],
            [
              246.42089221412962,
              435.0381244372912
            ],
            [
              246.55122177175824,
              435.1409403999814
            ],
            [
              246.66918674284065,
              435.2437127769179
            ],
            [
              246.74286204271272,
              435.29212390209256
            ],
            [
              250.56563323832077,
              438.307878024255
            ],
            [
              251.50889821402606,
              438.86092195314393
            ],
            [
              252.27586512518198,
              439.4413291245264
            ],
            [
              254.77774940301305,
              440.8265540204302
            ],
            [
              255.0634798909611,
              441.02667840062253
            ],
            [
              255.54899825719286,
              441.271061729059
            ],
            [
              255.8762975843315,
              441.4972200371528
            ],
            [
              256.30972283892,
              441.7081219627538
            ],
            [
              256.51163620976683,
              441.84431214894204
            ],
            [
              256.98471952040086,
              442.0714405319171
            ],
            [
              261.30952850682075,
              444.6071112237819
            ],
            [
              262.34482743270615,
              445.0162381592353
            ],
            [
              263.2146389392549,
              445.49782900032193
            ],
            [
              265.2482036329111,
              446.2329643672657
            ],
            [
              265.274309947031,
              446.2464930625022
            ],
            [
              265.40115360632655,
              446.28825591279025
            ],
            [
              265.8111756212105,
              446.43647922000946
            ],
            [
              265.92968324003175,
              446.49612945850646
            ],
            [
              266.0262448298832,
              446.5266118737605
            ],
            [
              266.10197243687406,
              446.56472902306047
            ],
            [
              266.5919361940033,
              446.7193995623449
            ],
            [
              266.9639213973189,
              446.9009107245203
            ],
            [
              267.01000351172996,
              446.9148093313225
            ],
            [
              267.2137887188968,
              447.01396989507765
            ],
            [
              267.9270058168036,
              447.22218996539743
            ],
            [
              272.305715909173,
              448.9525580711861
            ],
            [
              273.42322765083713,
              449.18824250524267
            ],
            [
              274.39088100999555,
              449.5380500178494
            ],
            [
              276.2779662362061,
              449.8694100682753
            ],
            [
              276.3740679990337,
              449.9010512520384
            ],
            [
              276.8681452888735,
              449.9730417208904
            ],
            [
              276.93720424693106,
              449.98516803056356
            ],
            [
              277.1683338842315,
              450.05813045915016
            ],
            [
              277.6402201681941,
              450.1209382863656
            ],
            [
              277.99484091239594,
              450.227893758003
            ],
            [
              278.2685936781078,
              450.2607449443153
            ],
            [
              278.3532358865913,
              450.2856652305536
            ],
            [
              278.46290552303213,
              450.29809179659236
            ],
            [
              278.75414673522766,
              450.38311817333897
            ],
            [
              279.4038176008649,
              450.4495553890433
            ],
            [
              283.4322845982826,
              451.2991634324757
            ],
            [
              284.6197613323319,
              451.33417573176865
            ],
            [
              285.6773677002017,
              451.51988462001157
            ],
            [
              287.3887528569026,
              451.5059668058247
            ],
            [
              287.56097197477277,
              451.53106031910283
            ],
            [
              288.0902839311064,
              451.5118365208896
            ],
            [
              288.31235288888274,
              451.54139378754564
            ],
            [
              288.76032339979304,
              451.51978525755953
            ],
            [
              289.09370736470436,
              451.5597923739084
            ],
            [
              289.4221701459873,
              451.5398760314554
            ],
            [
              289.428881942072,
              451.54063653892456
            ],
            [
              289.6129936692156,
              451.52830544615676
            ],
            [
              289.82619643006916,
              451.51537789563
            ],
            [
              290.35879570696494,
              451.56984303316597
            ],
            [
              290.93047410950817,
              451.5202446948313
            ],
            [
              294.56621332535974,
              451.6274430810767
            ],
            [
              295.8092306671868,
              451.4374873959526
            ],
            [
              296.94609181513744,
              451.4282418896841
            ],
            [
              298.45985844534647,
              451.13522948289295
            ],
            [
              298.7106193266298,
              451.1261222323787
            ],
            [
              299.2113060024674,
              451.0156664248572
            ],
            [
              299.4111412397257,
              451.00602707222566
            ],
            [
              299.8301553473925,
              450.9087877948882
            ],
            [
              300.13920190906396,
              450.8900487550294
            ],
            [
              301.2123492069159,
              450.6281978417796
            ],
            [
              301.8891840567226,
              450.5694762183503
            ],
            [
              302.3721642418458,
              450.4345516350947
            ],
            [
              305.585322376971,
              449.94352256062444
            ],
            [
              306.86758035394126,
              449.50778785299195
            ],
            [
              308.07034127136683,
              449.27497530173355
            ],
            [
              309.3723735551546,
              448.774047112396
            ],
            [
              309.70016707903164,
              448.7017330282958
            ],
            [
              310.1662078475897,
              448.5101328159544
            ]
          ]
        ]
      }
    }
  ]
}