{
  "type": "FeatureCollection",
  "features": [
    {
      "type": "Feature",
      "properties": {
        "method": "Homography",
        "mode": "tmpl2img",
        "inside_ratio": 1.0
      },
      "geometry": {
        "type": "Polygon",
        "coordinates": [
          [
            [
              316.2494047291849,
              440.0957517403031
            ],
            [
              317.0781305042909,
              439.6494992322247
            ],
            [
              317.27991749838486,
              439.4828059474299
            ],
            [
              317.6678603898774,
              439.26743353783854
            ],
            [
              318.35619437274437,
              438.6837731578343
            ],
            [
              319.13635935048694,
              438.21025523482723
            ],
            [
              319.7490940303991,
              437.66186799748215
            ],
            [
              319.8658315609075,
              437.5879963454615
            ],
            [
              320.4033904172201,
              437.09047076060244
            ],
            [
              321.23835488804593,
              436.5201208852466
            ],
            [
              322.6548249534709,
              435.1530170370694
            ],
            [
              323.1522200763825,
              434.784405406467
            ],
            [
              323.7013466714906,
              434.21408352362937
            ],
            [
              324.44693679628733,
              433.62560420192267
            ],
            [
              324.6932734535352,
              433.3587410099366
            ],
            [
              325.53150298973287,
              432.66629184876933
            ],
            [
              325.7660677025275,
              432.4007047765351
            ],
            [
              326.213667036307,
              432.0211709981994
            ],
            [
              326.7597561956552,
              431.38744322100496
            ],
            [
              327.4046572193979,
              430.81026764667496
            ],
            [
              328.12365797154087,
              429.945149675512
            ],
            [
              328.1823655250192,
              429.89081421150297
            ],
            [
              328.44700544036596,
              429.5627031812174
            ],
            [
              329.12379377485183,
              428.9095019882967
            ],
            [
              330.5497672254936,
              427.10132639340696
            ],
            [
              331.24165619292864,
              426.382731770327
            ],
            [
              331.6667130671243,
              425.8042244575485
            ],
            [
              332.291660228081,
              425.1272022226481
            ],
            [
              332.71752892178245,
              424.529877952884
            ],
            [
              333.54292395968025,
              423.59532028229955
            ],
            [
              333.80279273902437,
              423.2141114183094
            ],
            [
              334.296424372825,
              422.6412597645798
            ],
            [
              334.7072275550168,
              422.02364981019724
            ],
            [
              335.2189691723679,
              421.4079107188985
            ],
            [
              336.01810936926057,
              420.17574918645903
            ],
            [
              336.0248588943329,
              420.167380858401
            ],
            [
              336.0519477969428,
              420.1244022273367
            ],
            [
              336.56778608905097,
              419.47030434756726
            ],
            [
              337.9673916404027,
              417.22892818145453
            ],
            [
              338.83079635449496,
              416.0538243980859
            ],
            [
              339.1407980590873,
              415.52058799136194
            ],
            [
              339.6470051987571,
              414.8105808587966
            ],
            [
              340.2282450838018,
              413.7884336012014
            ],
            [
              341.0200408286368,
              412.6269260236366
            ],
            [
              341.29683696290755,
              412.1166954778563
            ],
            [
              341.8210515910699,
              411.32858042276376
            ],
            [
              342.10789376413146,
              410.78616009873787
            ],
            [
              342.493043581297,
              410.1923133734433
            ],
            [
              343.1456493858389,
              408.93628924406636
            ],
            [
              343.4953219885888,
              408.376311586778
            ],
            [
              344.37608614056603,
              406.63374571414585
            ],
            [
              344.4261785441289,
              406.5512724310895
            ],
            [
              344.6608022248355,
              406.0704433468965
            ],
            [
              344.8344287628064,
              405.7269283673207
            ],
            [
              345.839400268127,
              403.99826885859915
            ],
            [
              346.0465311374753,
              403.55660800426466
            ],
            [
              346.4396184587302,
              402.865338981364
            ],
            [
              347.14546900443275,
              401.33565358752605
            ],
            [
              347.88532790211264,
              399.97183898739985
            ],
            [
              348.17003449430337,
              399.3226144704266
            ],
            [
              348.7082378399012,
              398.3048686139556
            ],
            [
              348.88598129824317,
              397.8882793385594
            ],
            [
              349.15495241959127,
              397.37060968835954
            ],
            [
              349.6430430498709,
              396.2132269610026
            ],
            [
              349.84390071859343,
              395.8158359931886
            ],
            [
              350.84096952362734,
              393.4050373075416
            ],
            [
              350.95980454712736,
              393.1615012102501
            ],
            [
              351.16690511540986,
              392.6385408289136
            ],
            [
              352.20193631831324,
              390.431565273803
            ],
            [
              352.3208093507914,
              390.119904610458
            ],
            [
              352.60961798698327,
              389.4940124083984
            ],
            [
              353.4038289824401,
              387.3878444596142
            ],
            [
              354.0764778741679,
              385.85398411426513
            ],
            [
              354.35968154067086,
              385.0592006246699
            ],
            [
              354.8947917467811,
              383.8050269120883
            ],
            [
              354.980972298715,
              383.5556860673414
            ],
            [
              355.14733353833145,
              383.1612027208329
            ],
            [
              355.48839986756,
              382.16808063165934
            ],
            [
              355.5636512918813,
              381.98613126771517
            ],
            [
              356.5878053546273,
              378.96681512809397
            ],
            [
              356.63143639728196,
              378.83976959907005
            ],
            [
              356.7957099806453,
              378.42495385753085
            ],
            [
              356.8657217364845,
              378.2072518936854
            ],
            [
              356.9711386378663,
              377.9276968380859
            ],
            [
              357.8675458905338,
              375.5775012286011
            ],
            [
              357.91447215808375,
              375.4260709016099
            ],
            [
              358.11051047859263,
              374.90619692634266
            ],
            [
              358.95253876092505,
              372.1697944469976
            ],
            [
              359.5461856908904,
              370.50378219374005
            ],
            [
              359.818173414607,
              369.5605806171118
            ],
            [
              359.8218588963363,
              369.54984917569885
            ],
            [
              360.3333405433016,
              368.07001105601887
            ],
            [
              360.3473218338186,
              368.01979825736873
            ],
            [
              360.4270829646738,
              367.7875485917906
            ],
            [
              361.61193652150416,
              363.52735003238627
            ],
            [
              362.908669346076,
              359.31326008949947
            ],
            [
              363.75488708235724,
              355.90880807555885
            ],
            [
              364.26143221134834,
              354.1522061313005
            ],
            [
              364.4630375938972,
              353.2760775343389
            ],
            [
              364.9646001778063,
              351.47268488296197
            ],
            [
              365.8498596923507,
              347.4804409836876
            ],
            [
              366.98246942807845,
              342.92379399980234
            ],
            [
              367.787319460898,
              338.82954653838266
            ],
            [
              368.20238819017777,
              337.0257574787773
            ],
            [
              368.3442931242354,
              336.231325343695
            ],
            [
              368.74269893072534,
              334.4346395987417
            ],
            [
              369.371873509661,
              330.7689686330582
            ],
            [
              370.32117742468154,
              325.9398886981185
            ],
            [
              371.03822454360073,
              321.1497800597855
            ],
            [
              371.3610597951148,
              319.3424384066097
            ],
            [
              371.4498048726858,
              318.66964028769024
            ],
            [
              371.7046777413172,
              317.1893902095548
            ],
            [
              371.71039970426,
              317.1443438296515
            ],
            [
              371.7552949928138,
              316.8827767522516
            ],
            [
              371.79394362725435,
              316.5759525001122
            ],
            [
              371.809869061584,
              316.4827712215312
            ],
            [
              372.1846767276659,
              313.4911055243909
            ],
            [
              372.9236919697583,
              308.5542426578616
            ],
            [
              372.99442109589745,
              307.88957631417423
            ],
            [
              373.0161316685754,
              307.74304813315484
            ],
            [
              373.28425796514694,
              305.16587785117326
            ],
            [
              373.5065328984567,
              303.07708253758193
            ],
            [
              373.7397880077858,
              301.308718554913
            ],
            [
              373.78087754112505,
              300.84442505505467
            ],
            [
              373.944745689777,
              299.55436656469647
            ],
            [
              373.95860606070073,
              299.3911038708551
            ],
            [
              374.0059728454575,
              299.0150678601534
            ],
            [
              374.0212505699396,
              298.8318136758899
            ],
            [
              374.0483749712253,
              298.6153102576798
            ],
            [
              374.14485056835696,
              297.44907972057985
            ],
            [
              374.1580659735783,
              297.34126525386324
            ],
            [
              374.2496426063236,
              296.18231715758014
            ],
            [
              374.28252874900045,
              295.78477803912006
            ],
            [
              374.7972165615425,
              290.9480765955158
            ],
            [
              374.85486322134886,
              290.0695697205416
            ],
            [
              374.8902013201113,
              289.72990778095715
            ],
            [
              375.1477502721137,
              285.6061144484257
            ],
            [
              375.18407047851287,
              285.05261228343454
            ],
            [
              375.3259178036868,
              283.4653065915489
            ],
            [
              375.3344303478095,
              283.28996747979573
            ],
            [
              375.3496990405516,
              283.1174380249243
            ],
            [
              375.36167846929226,
              282.86417380228784
            ],
            [
              375.4531876547069,
              281.7862779656011
            ],
            [
              375.4658056249419,
              281.504576329632
            ],
            [
              375.5065187486188,
              281.0162280630034
            ],
            [
              375.50895652003885,
              280.95929304168857
            ],
            [
              375.5370760158957,
              280.61937480636715
            ],
            [
              375.6031837979879,
              279.0525763009019
            ],
            [
              375.62035314763057,
              278.83528959258354
            ],
            [
              375.6581414773083,
              277.82800234069396
            ],
            [
              375.95593462554126,
              273.2897805450316
            ],
            [
              375.98450961885186,
              272.208185285162
            ],
            [
              376.01788924054773,
              271.67372121405714
            ],
            [
              376.1208611135443,
              267.0912764567732
            ],
            [
              376.198839586884,
              265.48509667470415
            ],
            [
              376.20241463273294,
              265.08967093140205
            ],
            [
              376.2091843705579,
              264.9465478810949
            ],
            [
              376.20952373062113,
              264.9007483610671
            ],
            [
              376.2476489990272,
              264.04958527483416
            ],
            [
              376.2495046980338,
              263.7343401112023
            ],
            [
              376.2946201681256,
              262.6650733946215
            ],
            [
              376.30016198893156,
              260.7142774880521
            ],
            [
              376.3122818460567,
              260.39121008395824
            ],
            [
              376.31077097687836,
              259.85883022466794
            ],
            [
              376.4197408003347,
              255.73420128009587
            ],
            [
              376.40458756645296,
              254.46490812244122
            ],
            [
              376.4209004035182,
              253.7389557581704
            ],
            [
              376.34572069823724,
              249.23899101957943
            ],
            [
              376.3598303360256,
              247.6783637604267
            ],
            [
              376.3472812479574,
              247.2588886918068
            ],
            [
              376.34739132981963,
              247.24531074093633
            ],
            [
              376.3467011214104,
              247.22266314802923
            ],
            [
              376.35098628421014,
              246.49470195899517
            ],
            [
              376.34139436984634,
              246.19992152103785
            ],
            [
              376.3450652379772,
              244.9077262750608
            ],
            [
              376.26349645019434,
              242.64657350411105
            ],
            [
              376.2614328385744,
              242.47371745779262
            ],
            [
              376.26058761693554,
              242.1758895709141
            ],
            [
              376.2568301101104,
              242.08817521664338
            ],
            [
              376.2130676825118,
              238.422465945438
            ],
            [
              376.140991928212,
              236.98472316101189
            ],
            [
              376.12579477500765,
              236.07508068167087
            ],
            [
              375.88198540942886,
              231.7055669853693
            ],
            [
              375.83659300634275,
              230.18824705774264
            ],
            [
              375.8204182261026,
              229.9539068965308
            ],
            [
              375.81969574721944,
              229.93020042257453
            ],
            [
              375.8051552629013,
              229.72012479208448
            ],
            [
              375.79012005949926,
              229.25806021545392
            ],
            [
              375.77064731379744,
              228.9843968244141
            ],
            [
              375.7166650830409,
              227.48796572677392
            ],
            [
              375.56160029556787,
              225.42721471398548
            ],
            [
              375.36383381520403,
              221.48223581087615
            ],
            [
              375.2231725702434,
              219.89842529848087
            ],
            [
              375.16282540770743,
              218.81689279606482
            ],
            [
              374.7620658242864,
              214.62050089615428
            ],
            [
              374.6601247788338,
              213.14357937623132
            ],
            [
              374.6537579483691,
              213.08515503027505
            ],
            [
              374.6515396075319,
              213.05310524852752
            ],
            [
              374.6162289962788,
              212.72852485531467
            ],
            [
              374.60434347807006,
              212.55970110036571
            ],
            [
              374.5975125339115,
              212.49755686097885
            ],
            [
              374.5950227964283,
              212.4625669312959
            ],
            [
              374.56697967215143,
              212.2090915638334
            ],
            [
              374.4408027496832,
              210.5322490966201
            ],
            [
              374.2260011340389,
              208.67052379847155
            ],
            [
              373.9025272756331,
              205.02828888466087
            ],
            [
              373.6831695627234,
              203.32327502769962
            ],
            [
              373.5649327339308,
              202.0852058931446
            ],
            [
              373.0406636570724,
              198.2456937981884
            ],
            [
              372.8753361578217,
              196.7259788228159
            ],
            [
              372.8324273992138,
              196.43976594083813
            ],
            [
              372.8155734945402,
              196.28643822190554
            ],
            [
              372.73751250662923,
              195.7695177913561
            ],
            [
              372.5510802460414,
              194.15367493621034
            ],
            [
              372.28900799125563,
              192.48679808508797
            ],
            [
              371.8614300574871,
              189.1633393732562
            ],
            [
              371.55480088596016,
              187.3638998244033
            ],
            [
              371.3669000203541,
              185.98779797522178
            ],
            [
              370.7557342302755,
              182.58766776790875
            ],
            [
              370.52501633856167,
              181.04871779971992
            ],
            [
              370.4770668626605,
              180.80083027240835
            ],
            [
              370.45619894272266,
              180.66264275460202
            ],
            [
              370.3193490699422,
              179.9590359870858
            ],
            [
              370.0825656244751,
              178.45300535334175
            ],
            [
              369.7844454207923,
              176.974648131117
            ],
            [
              369.27398152943204,
              173.9790136655233
            ],
            [
              368.8729999333325,
              172.11335480844986
            ],
            [
              368.6046670178336,
              170.62052443996612
            ],
            [
              367.93428167533244,
              167.65522814166383
            ],
            [
              367.63543140158976,
              166.11024242490214
            ],
            [
              367.5848765510308,
              165.89988247314378
            ],
            [
              367.560852940533,
              165.7763662828344
            ],
            [
              367.35050391658746,
              164.90490258267525
            ],
            [
              367.07119155452267,
              163.51981213052179
            ],
            [
              366.7470813801512,
              162.2220310748418
            ],
            [
              366.17427437556853,
              159.55691508973305
            ],
            [
              365.69269692238305,
              157.74009046061218
            ],
            [
              365.31479335732035,
              156.0685204373148
            ],
            [
              364.6109316785776,
              153.52522617509698
            ],
            [
              364.2418911605748,
              151.98963968436874
            ],
            [
              364.1910169533592,
              151.81533293339905
            ],
            [
              364.1646132608665,
              151.70594398009345
            ],
            [
              363.86714670341945,
              150.69038239322535
            ],
            [
              363.5532952676105,
              149.4336787168538
            ],
            [
              363.05361576601604,
              147.78375298806534
            ],
            [
              362.3261171624829,
              145.03915319048357
            ],
            [
              361.88070342427943,
              143.65997272631873
            ],
            [
              361.53405981583995,
              142.4074301785347
            ],
            [
              360.82023148605515,
              140.266245582641
            ],
            [
              360.3798263239654,
              138.7573160657724
            ],
            [
              360.33074796676357,
              138.6169891902725
            ],
            [
              360.30267121504994,
              138.5211341443499
            ],
            [
              359.9057948413862,
              137.3897489983811
            ],
            [
              359.56528724573286,
              136.26540381089265
            ],
            [
              358.9037212427734,
              134.44203597496724
            ],
            [
              357.97509547986056,
              131.5666363164107
            ],
            [
              357.5912011935973,
              130.58051354687603
            ],
            [
              357.2991937796577,
              129.70461418771015
            ],
            [
              356.5964658083641,
              127.93977468276366
            ],
            [
              356.08456211750195,
              126.47611840756173
            ],
            [
              356.03920737408646,
              126.36717391871672
            ],
            [
              356.0101100383738,
              126.28422543500923
            ],
            [
              355.5030675064424,
              125.069361719921
            ],
            [
              355.1434349009901,
              124.07816428442466
            ],
            [
              354.9765494281361,
              123.69210203349054
            ],
            [
              354.9704627094271,
              123.67536304666959
            ],
            [
              354.3004232813596,
              122.12737645970228
            ],
            [
              353.16072528868176,
              119.19979409863173
            ],
            [
              352.8618289102168,
              118.56056252137705
            ],
            [
              352.64670465079115,
              118.02029686096115
            ],
            [
              351.97356921439945,
              116.6012963552139
            ],
            [
              351.39119013977466,
              115.20239106286171
            ],
            [
              351.3512866885644,
              115.12177832987894
            ],
            [
              351.3217799283474,
              115.0510807254613
            ],
            [
              350.70816530434547,
              113.81413707322534
            ],
            [
              350.29889499782587,
              112.86265958358169
            ],
            [
              350.24412408629075,
              112.75614174775089
            ],
            [
              350.1735467966636,
              112.59308761525435
            ],
            [
              349.0713761827876,
              110.4541509017386
            ],
            [
              347.9245566962184,
              108.00151754101381
            ],
            [
              347.73122199926604,
              107.6582330155183
            ],
            [
              347.61281520852424,
              107.40862604660082
            ],
            [
              346.99508071835413,
              106.318845080574
            ],
            [
              346.7268206625317,
              105.76966049983848
            ],
            [
              346.69436034838895,
              105.71388131211818
            ],
            [
              346.3345258005584,
              104.98694553469173
            ],
            [
              346.30159177763346,
              104.93122760726531
            ],
            [
              346.2722572952469,
              104.87209423533055
            ],
            [
              345.67724638255544,
              103.8673042296155
            ],
            [
              345.0182316120457,
              102.58838164754953
            ],
            [
              343.40711898912434,
              99.98036828977236
            ],
            [
              342.30780840837417,
              98.02843562055165
            ],
            [
              342.2376963453156,
              97.92606951052672
            ],
            [
              342.2334757336079,
              97.91862368651883
            ],
            [
              341.72518160554307,
              97.1749388744011
            ],
            [
              341.42133713345487,
              96.6528183004817
            ],
            [
              341.3378355445688,
              96.5335225881586
            ],
            [
              340.94913950148015,
              95.87592488217629
            ],
            [
              340.92447650839824,
              95.84134106295535
            ],
            [
              340.89587658579325,
              95.79304461026481
            ],
            [
              340.3415671580681,
              95.01695861005533
            ],
            [
              339.5102996765521,
              93.67003595417528
            ],
            [
              339.5021891757837,
              93.65920304691326
            ],
            [
              339.4462521491624,
              93.56865412404487
            ],
            [
              337.37979993819147,
              90.81721374951407
            ],
            [
              336.54444877553175,
              89.5950120002798
            ],
            [
              336.47427176895724,
              89.51126428958356
            ],
            [
              336.3514670832142,
              89.33196507309331
            ],
            [
              336.0405697059365,
              88.96550969178112
            ],
            [
              335.8242372343759,
              88.65644328193953
            ],
            [
              335.8182241682377,
              88.64942121312795
            ],
            [
              335.8131688893974,
              88.64219891535488
            ],
            [
              335.67760881096535,
              88.48389165350342
            ],
            [
              335.58505556180705,
              88.35410834512344
            ],
            [
              335.38995585722694,
              88.07871853243738
            ],
            [
              335.3828553063882,
              88.07057191241483
            ],
            [
              335.26945072351026,
              87.91154970537202
            ],
            [
              335.2541386748804,
              87.89407412458951
            ],
            [
              335.2268240290957,
              87.85583101861265
            ],
            [
              334.75219963889623,
              87.31481104545205
            ],
            [
              333.7085479672624,
              85.92084264479803
            ],
            [
              333.6762901566537,
              85.88606349773642
            ],
            [
              333.5802518707073,
              85.75819041359195
            ],
            [
              331.1177374951875,
              83.11889298972257
            ],
            [
              330.58145358889686,
              82.4789034599384
            ],
            [
              330.35760137215743,
              82.26698316819294
            ],
            [
              330.0964658722209,
              81.9591822145602
            ],
            [
              330.06779512018363,
              81.93274285490895
            ],
            [
              329.9578758037223,
              81.80437891312862
            ],
            [
              329.7661479404523,
              81.62639853681317
            ],
            [
              329.39902053527965,
              81.20518509344825
            ],
            [
              329.3716832485255,
              81.1804509218526
            ],
            [
              329.3298752166722,
              81.13273557981991
            ],
            [
              329.32476850411206,
              81.12813225806684
            ],
            [
              329.2992836665709,
              81.09908232635838
            ],
            [
              328.91701941950845,
              80.75479842565316
            ],
            [
              328.8708415941166,
              80.70501124697995
            ],
            [
              328.7302668798879,
              80.5486153030367
            ],
            [
              328.7051939406898,
              80.52641623416288
            ],
            [
              327.6505957312526,
              79.38938847170157
            ],
            [
              327.5924010914643,
              79.34047391484124
            ],
            [
              327.4534670168418,
              79.19156581144462
            ],
            [
              324.8789303426457,
              77.04897043549266
            ],
            [
              324.6203342400457,
              76.80005906316943
            ],
            [
              324.4485087436746,
              76.67286106394009
            ],
            [
              324.3803603308688,
              76.60834514476312
            ],
            [
              324.293154569886,
              76.54583589403452
            ],
            [
              323.87790724859207,
              76.16036310331265
            ],
            [
              323.63112178709974,
              75.9865180514602
            ],
            [
              323.1776861559253,
              75.57625953491238
            ],
            [
              322.9066476956462,
              75.39250167951646
            ],
            [
              322.8371735281975,
              75.33099066892666
            ],
            [
              322.76274354474464,
              75.28098390717558
            ],
            [
              321.37214373702335,
              74.11213788247952
            ],
            [
              321.28657824512493,
              74.05932298938521
            ],
            [
              321.1027288272425,
              73.90631879389706
            ],
            [
              318.92668749138204,
              72.58519869538793
            ],
            [
              318.4798673082213,
              72.25442919654634
            ],
            [
              317.88936542819243,
              71.94180680352463
            ],
            [
              317.6071933490367,
              71.74303407422896
            ],
            [
              317.3035964724378,
              71.59376154697011
            ],
            [
              316.76198818972586,
              71.22656356186071
            ],
            [
              316.75746966594335,
              71.2239923546365
            ],
            [
              316.50101712066527,
              71.10545813607024
            ],
            [
              314.90939141886525,
              70.12303473830309
            ],
            [
              314.8353355078601,
              70.09312836186646
            ],
            [
              314.8286590176642,
              70.08900736392475
            ],
            [
              314.788357287718,
              70.07273208169515
            ],
            [
              314.5653967996259,
              69.93736811725842
            ],
            [
              312.7861027384426,
              69.24004708298008
            ],
            [
              312.1821851913183,
              68.92032219276508
            ],
            [
              311.2430362165987,
              68.61390498178383
            ],
            [
              311.1802782883299,
              68.58304816052062
            ],
            [
              310.92100549516914,
              68.50883564969688
            ],
            [
              310.9169929331733,
              68.50752646650206
            ],
            [
              310.76523565372435,
              68.44805145033271
            ],
            [
              310.6575276463786,
              68.40455509867479
            ],
            [
              310.1841141567447,
              68.18573996472551
            ],
            [
              310.0002652750744,
              68.13912900878724
            ],
            [
              309.9980164909067,
              68.13822086919824
            ],
            [
              309.80251103213266,
              68.0483665157673
            ],
            [
              309.73355155012115,
              68.03142045249028
            ],
            [
              309.52363555505445,
              67.94664885412222
            ],
            [
              309.05648102042557,
              67.74515786169707
            ],
            [
              308.9857331202422,
              67.72942458228916
            ],
            [
              308.21804809728536,
              67.41940587013777
            ],
            [
              308.0625530551869,
              67.38884630483717
            ],
            [
              307.879649070703,
              67.31716462028189
            ],
            [
              306.4909207958642,
              67.06342684403701
            ],
            [
              305.760831247582,
              66.8252196914372
            ],
            [
              304.1466473223594,
              66.619250211364
            ],
            [
              303.9185814041662,
              66.5744282335836
            ],
            [
              303.5255247198577,
              66.47286195224599
            ],
            [
              303.35182254618394,
              66.46304266078194
            ],
            [
              303.34907116938945,
              66.46250193051215
            ],
            [
              302.9349633977925,
              66.36073932584166
            ],
            [
              302.8113558213952,
              66.35633502222937
            ],
            [
              302.3144829449669,
              66.24583789414959
            ],
            [
              302.24036657051596,
              66.24460732671064
            ],
            [
              301.49804373461694,
              66.09871802457126
            ],
            [
              301.2231352169835,
              66.10093747679679
            ],
            [
              301.0847935739415,
              66.07566075313076
            ],
            [
              300.0759513713337,
              66.09983038839056
            ],
            [
              299.2503768952213,
              65.99448728408608
            ],
            [
              297.37332192170084,
              66.12508120127085
            ],
            [
              296.8585125742961,
              66.09597930273897
            ],
            [
              296.5912184774549,
              66.13470319276527
            ],
            [
              295.98418327827966,
              66.11307371507819
            ],
            [
              295.83929765646013,
              66.13832923337782
            ],
            [
              295.4967840029203,
              66.13264241783801
            ],
            [
              295.41664273884766,
              66.14781573583393
            ],
            [
              294.7080636664781,
              66.15353639309528
            ],
            [
              294.3123392884312,
              66.23791382843784
            ],
            [
              294.2215907774788,
              66.24008796271056
            ],
            [
              293.57743780248023,
              66.38917542512203
            ],
            [
              292.68667923119705,
              66.45114891696029
            ],
            [
              290.6651765261202,
              66.99323093166656
            ],
            [
              290.1503183338426,
              67.06782035293722
            ],
            [
              289.79423353036407,
              67.19206545472132
            ],
            [
              288.9940489491478,
              67.33154842120976
            ],
            [
              288.83130832935444,
              67.39463127065277
            ],
            [
              288.6448757853109,
              67.42992894540468
            ],
            [
              288.55639192914435,
              67.46521268362596
            ],
            [
              287.88920896543186,
              67.60747126181279
            ],
            [
              287.87626375396894,
              67.61293704826846
            ],
            [
              287.79254873833304,
              67.63078722266562
            ],
            [
              286.9307163545448,
              67.99465610336775
            ],
            [
              286.1071373748971,
              68.21550535150509
            ],
            [
              283.95530301215393,
              69.22938496226514
            ],
            [
              283.4413685133152,
              69.40870697625792
            ],
            [
              283.0085989846079,
              69.65058883956141
            ],
            [
              282.9771135323378,
              69.6638821162197
            ],
            [
              282.010564717882,
              70.03854366925609
            ],
            [
              281.83441841485256,
              70.14566043890053
            ],
            [
              281.8022371397661,
              70.15849301347875
            ],
            [
              281.79484965591513,
              70.16303838082254
            ],
            [
              280.9864332733491,
              70.50435482451732
            ],
            [
              280.2466764180933,
              70.97677823400915
            ],
            [
              279.5509387802337,
              71.30458887670639
            ],
            [
              277.2866395326848,
              72.8486841825099
            ],
            [
              276.7741270460225,
              73.13513567008896
            ],
            [
              276.35061166802893,
              73.46488250746576
            ],
            [
              275.84091824043384,
              73.79038284607368
            ],
            [
              275.08218194134423,
              74.25177987784647
            ],
            [
              274.9673119633823,
              74.3482851528054
            ],
            [
              274.23975374118515,
              74.81291827317413
            ],
            [
              273.62504448527,
              75.34563847450164
            ],
            [
              273.05928528230993,
              75.73144707754184
            ],
            [
              270.7042866599497,
              77.8610813493673
            ],
            [
              270.1933326129962,
              78.25890747276563
            ],
            [
              269.77679852841146,
              78.68061080719154
            ],
            [
              268.7063973029017,
              79.6082434252329
            ],
            [
              268.2600813755813,
              79.98320511717104
            ],
            [
              268.20689963007067,
              80.04111880218538
            ],
            [
              267.60036437516465,
              80.56675523932502
            ],
            [
              267.11132440877924,
              81.11021087107729
            ],
            [
              266.67558684507986,
              81.50425001843728
            ],
            [
              264.2556524769491,
              84.27027510071557
            ],
            [
              263.7461932450534,
              84.78605679728763
            ],
            [
              263.3342253881086,
              85.30758915436256
            ],
            [
              261.1188127295731,
              87.76951163257117
            ],
            [
              260.75353398099486,
              88.27325457341608
            ],
            [
              260.4456089089893,
              88.6252180331732
            ],
            [
              257.9905317962832,
              92.07245944045424
            ],
            [
              257.48252088640015,
              92.71557788473864
            ],
            [
              257.0729201198649,
              93.34905834709123
            ],
            [
              254.84845450962726,
              96.41673981686586
            ],
            [
              254.6023060697647,
              96.82996052313439
            ],
            [
              254.4175569993327,
              97.08937178250049
            ],
            [
              251.96109982566617,
              101.25489873667168
            ],
            [
              251.4547859413979,
              102.03795379837732
            ],
            [
              251.04600094562613,
              102.80009348873712
            ],
            [
              248.8454709421381,
              106.4942244075103
            ],
            [
              248.71092518164457,
              106.76636876375038
            ],
            [
              248.64207999152165,
              106.8831127063061
            ],
            [
              246.22265375499737,
              111.79275313223611
            ],
            [
              246.14726683544527,
              111.93330467916627
            ],
            [
              246.10839482406524,
              112.00466616136325
            ],
            [
              246.1051544056242,
              112.01181919059235
            ],
            [
              245.71806923414553,
              112.73350167838896
            ],
            [
              245.31173111532541,
              113.64125032925217
            ],
            [
              245.21519388166763,
              113.83714929808932
            ],
            [
              243.16705480917588,
              117.97989959629538
            ],
            [
              240.84601432624046,
              123.61754396850796
            ],
            [
              240.71368037856095,
              123.9131745207255
            ],
            [
              240.59586108939956,
              124.17325353032071
            ],
            [
              240.5884127214858,
              124.19301916593597
            ],
            [
              240.3298865928726,
              124.77055972534693
            ],
            [
              239.92474688890613,
              125.85523789138425
            ],
            [
              237.8779352737551,
              130.82679959748035
            ],
            [
              235.8343241873772,
              136.8065027286561
            ],
            [
              235.73357390750056,
              137.07624086529722
            ],
            [
              235.50280979065468,
              137.6886165571149
            ],
            [
              235.49259642549075,
              137.72140847210466
            ],
            [
              235.34985983389063,
              138.10355631609826
            ],
            [
              234.9528137837246,
              139.38584405053257
            ],
            [
              233.0398329597929,
              144.98331682759
            ],
            [
              232.84293538285593,
              145.6845177756987
            ],
            [
              232.80308923449,
              145.80195970771186
            ],
            [
              232.27772399606317,
              147.69737525451387
            ],
            [
              231.29078719453307,
              151.2121011932795
            ],
            [
              230.89379302717404,
              152.48672505881416
            ],
            [
              230.8825348471016,
              152.5310919475435
            ],
            [
              230.83920776406868,
              152.67101976471827
            ],
            [
              230.45644202488066,
              154.18341060754736
            ],
            [
              228.71749853800097,
              160.3762182625593
            ],
            [
              228.51336752729358,
              161.27844086889053
            ],
            [
              228.4071428451312,
              161.6616788513996
            ],
            [
              227.4637594639073,
              165.91752103295212
            ],
            [
              227.2832046154225,
              166.71554121342004
            ],
            [
              226.83434714516704,
              168.48442475692806
            ],
            [
              226.43824889590516,
              170.45009457163235
            ],
            [
              224.97616431624874,
              176.9122472630471
            ],
            [
              224.7804773965491,
              178.0224883610615
            ],
            [
              224.62705889524227,
              178.71459820980567
            ],
            [
              223.81611817466631,
              183.4626317859359
            ],
            [
              223.38997342785882,
              185.5774097913594
            ],
            [
              223.00056737955515,
              188.12091116093933
            ],
            [
              222.60120883051547,
              190.38669507050096
            ],
            [
              222.06597673600592,
              193.37490736722572
            ],
            [
              222.0399506305054,
              193.57102604759626
            ],
            [
              221.88040110785394,
              194.47623952583191
            ],
            [
              221.70962642413028,
              195.79607775265086
            ],
            [
              221.5322813258985,
              196.83442797931897
            ],
            [
              220.9821145651459,
              201.30493210854166
            ],
            [
              220.62485388491882,
              203.63846810119867
            ],
            [
              220.29171139480795,
              206.74481310573952
            ],
            [
              219.6568799083554,
              211.52856046092964
            ],
            [
              219.62010573599483,
              211.94501282992462
            ],
            [
              219.49271063654285,
              212.92959039443997
            ],
            [
              219.36382368642933,
              214.4547197215668
            ],
            [
              219.18979334569372,
              215.86884251557476
            ],
            [
              218.87168973043603,
              219.98562547377617
            ],
            [
              218.60029989195579,
              222.51616569033865
            ],
            [
              218.386726114809,
              225.91252948039897
            ],
            [
              217.99019728974153,
              230.40305524509927
            ],
            [
              217.9608329540675,
              231.0564184185586
            ],
            [
              217.8718595606644,
              232.10924751792354
            ],
            [
              217.80207603534564,
              233.82818249211826
            ],
            [
              217.6621989068465,
              235.63842214754592
            ],
            [
              217.54253862802452,
              239.33724786292524
            ],
            [
              217.3729488610901,
              242.03415453048868
            ],
            [
              217.3034124677728,
              245.6841743507659
            ],
            [
              217.11753705657358,
              249.81994469173455
            ],
            [
              217.1159659431603,
              250.72871350019798
            ],
            [
              217.0706509647101,
              251.84492969832962
            ],
            [
              217.0767355435436,
              253.73571362022582
            ],
            [
              217.0055397421024,
              255.93645110647358
            ],
            [
              217.04654580125447,
              259.1673071306222
            ],
            [
              216.99274606793884,
              261.99129732571595
            ],
            [
              217.08983047806638,
              265.846078899345
            ],
            [
              217.08337894729368,
              269.57779545504303
            ],
            [
              217.13137152930904,
              270.71385559492194
            ],
            [
              217.13515695225453,
              271.89017642709797
            ],
            [
              217.1477675546718,
              272.15321896269046
            ],
            [
              217.14781779139767,
              272.1687912466287
            ],
            [
              217.23451264170254,
              273.9771623404191
            ],
            [
              217.26691068394214,
              276.5297950996458
            ],
            [
              217.42763828361274,
              279.25889464184075
            ],
            [
              217.50077434031624,
              282.16279572526247
            ],
            [
              217.78395328794824,
              286.1614954807567
            ],
            [
              217.9230298146372,
              289.45365630519746
            ],
            [
              218.04047419007088,
              290.7887441297317
            ],
            [
              218.11357735314624,
              292.31360571630717
            ],
            [
              218.3332547079403,
              294.6359510646703
            ],
            [
              218.48196842083578,
              297.1610589278529
            ],
            [
              218.71952112152107,
              299.3724170493371
            ],
            [
              218.9270217661219,
              302.3024822385935
            ],
            [
              219.41143641085432,
              306.3736111114429
            ],
            [
              219.66056252234944,
              309.20563467162776
            ],
            [
              219.82598856128297,
              310.41656497518295
            ],
            [
              220.00382051350516,
              312.29653666101973
            ],
            [
              220.40990300937702,
              315.1080399458701
            ],
            [
              220.67246143316103,
              317.55217424162623
            ],
            [
              220.954817437172,
              319.34452998528786
            ],
            [
              221.28820418530225,
              322.14638668160836
            ],
            [
              221.9835226445803,
              326.20986704021254
            ],
            [
              222.3068515437681,
              328.57665744728763
            ],
            [
              222.50257319902218,
              329.60861074663313
            ],
            [
              222.50480741805654,
              329.6247006328121
            ],
            [
              222.51218906815103,
              329.6631715263504
            ],
            [
              222.82777913209551,
              331.84815243656357
            ],
            [
              223.29148330986837,
              334.1773525159977
            ],
            [
              223.56083903199314,
              335.88718431976537
            ],
            [
              223.94956621933056,
              337.7345081849022
            ],
            [
              223.98961852953965,
              337.9830429404026
            ],
            [
              224.02805494318733,
              338.1582293009282
            ],
            [
              224.58578142062032,
              341.41761434424456
            ],
            [
              225.4952307243418,
              345.3875637846638
            ],
            [
              225.8578357993293,
              347.2994191844382
            ],
            [
              226.02461629915686,
              347.96886367171504
            ],
            [
              226.0756221446162,
              348.23469047560184
            ],
            [
              226.1450580515558,
              348.51094456367093
            ],
            [
              226.57869207086347,
              350.68910132963265
            ],
            [
              227.08066656687203,
              352.6142402554799
            ],
            [
              227.27102083052884,
              353.51884890013025
            ],
            [
              227.84447587433633,
              355.64254383735215
            ],
            [
              228.804319894221,
              359.83247747524644
            ],
            [
              228.81029192147824,
              359.85536059334106
            ],
            [
              229.77602296198793,
              363.0267302242341
            ],
            [
              230.29314768906536,
              365.10243030989744
            ],
            [
              230.39891148325455,
              365.43510459042017
            ],
            [
              230.521567024615,
              365.9230955481305
            ],
            [
              230.67968041671304,
              366.41693683083906
            ],
            [
              231.23241373456764,
              368.53674258646015
            ],
            [
              231.73084207751626,
              370.03505170514643
            ],
            [
              231.7815495352651,
              370.2228383023064
            ],
            [
              232.386182658055,
              372.0050495625277
            ],
            [
              232.6699562330308,
              372.8580920129345
            ],
            [
              232.90331787429017,
              373.68383736485947
            ],
            [
              233.05584148989155,
              374.1105287695934
            ],
            [
              233.28190561159334,
              374.90071932672856
            ],
            [
              233.94263211576614,
              376.7094816112906
            ],
            [
              235.29741939332465,
              381.15847522144117
            ],
            [
              235.77146913305762,
              382.3203048981718
            ],
            [
              235.80500709042926,
              382.4250552148368
            ],
            [
              236.0778811688458,
              383.1025435562834
            ],
            [
              236.74658795736025,
              385.11272113372644
            ],
            [
              238.37535952415675,
              388.99211031030404
            ],
            [
              238.5782335027765,
              389.55965903104374
            ],
            [
              238.8914277662496,
              390.2569855632529
            ],
            [
              239.28341282238176,
              391.3300585838908
            ],
            [
              240.06243210701388,
              393.010360168905
            ],
            [
              240.2111808549099,
              393.3646482068416
            ],
            [
              241.8712017074104,
              397.4861271714078
            ],
            [
              242.28307666452775,
              398.2994655517665
            ],
            [
              242.57437325753162,
              398.9932723894626
            ],
            [
              243.0542595793449,
              400.1694067133595
            ],
            [
              243.06673560737877,
              400.1958654586356
            ],
            [
              245.77797231145948,
              405.3384648184434
            ],
            [
              246.09707067371613,
              406.0267423674484
            ],
            [
              246.49345365996052,
              406.69557020107675
            ],
            [
              247.54262842814808,
              408.68561610265107
            ],
            [
              248.6487692338948,
              410.8699362605942
            ],
            [
              248.8996031251148,
              411.25948846037164
            ],
            [
              249.69461715707865,
              412.7674492539363
            ],
            [
              249.99073430961263,
              413.21202517907614
            ],
            [
              250.10835906892402,
              413.43365371022765
            ],
            [
              251.50989243679905,
              415.4928154813128
            ],
            [
              252.0942251634851,
              416.37010428518164
            ],
            [
              252.10992751055986,
              416.39779210200294
            ],
            [
              252.12879462512436,
              416.4272306737457
            ],
            [
              252.16920211070465,
              416.4826710358441
            ],
            [
              253.05951740833427,
              417.8193472253821
            ],
            [
              253.41673013958993,
              418.4571922546268
            ],
            [
              253.4502894644538,
              418.50720644343943
            ],
            [
              253.9758388437351,
              419.1950677683517
            ],
            [
              254.066815699665,
              419.3316560056305
            ],
            [
              254.19232130764144,
              419.53947413583086
            ],
            [
              254.24057568881045,
              419.61006544001253
            ],
            [
              254.31692418616578,
              419.7071567519408
            ],
            [
              254.98286534475614,
              420.7069684958272
            ],
            [
              256.05087414329125,
              422.3656166746192
            ],
            [
              256.2279053496548,
              422.57621114952116
            ],
            [
              256.88671984791716,
              423.5653232713656
            ],
            [
              257.4401741123455,
              424.20570780188825
            ],
            [
              257.77036946522776,
              424.6908376341506
            ],
            [
              259.76562849329184,
              426.90521090429064
            ],
            [
              259.7954574741021,
              426.9461372196405
            ],
            [
              259.8931026621007,
              427.04668396019093
            ],
            [
              259.9517181128764,
              427.11173640981997
            ],
            [
              259.95533324432984,
              427.11591936478055
            ],
            [
              260.15064062478166,
              427.38405474899434
            ],
            [
              260.4578008557629,
              427.6973088419616
            ],
            [
              260.57886375640743,
              427.83738691846105
            ],
            [
              261.1140918013481,
              428.53791609165586
            ],
            [
              261.5656258991055,
              428.9791383730864
            ],
            [
              261.57786779174876,
              428.993303082204
            ],
            [
              261.77246482521406,
              429.24441322808053
            ],
            [
              261.78295087056637,
              429.2560674659646
            ],
            [
              261.9011082095088,
              429.3685948115612
            ],
            [
              262.0535955901418,
              429.5653649891372
            ],
            [
              262.0745687096898,
              429.58867462191637
            ],
            [
              262.12539382634196,
              429.63707794058337
            ],
            [
              262.46724501375445,
              430.0718052950579
            ],
            [
              262.678684271101,
              430.2670232242281
            ],
            [
              263.2024325302192,
              430.87303586985746
            ],
            [
              263.977118880159,
              431.7945946640681
            ],
            [
              264.0636799102549,
              431.86955813839836
            ],
            [
              264.5522808447388,
              432.4349029195984
            ],
            [
              265.3835632567276,
              433.14009289138704
            ],
            [
              265.9502820230857,
              433.769047262865
            ],
            [
              266.41662433215225,
              434.1366179146423
            ],
            [
              266.44056585817924,
              434.1629793256731
            ],
            [
              267.11499405925355,
              434.68707240014464
            ],
            [
              267.98054320684474,
              435.36929757711806
            ],
            [
              268.5702796497382,
              435.97073401284666
            ],
            [
              268.58699877338756,
              435.9850661698224
            ],
            [
              268.6049976288514,
              435.87288644179125
            ],
            [
              268.7224744593931,
              435.9725438886509
            ],
            [
              269.21966774057404,
              436.45838262139256
            ],
            [
              269.4550100331312,
              436.61744064578136
            ],
            [
              270.16273613742624,
              437.29144386294007
            ],
            [
              270.5890942687365,
              437.57055747927814
            ],
            [
              271.1781808739256,
              438.1144501727642
            ],
            [
              271.42157583585333,
              438.2622341264137
            ],
            [
              272.59136794309615,
              439.25458720788606
            ],
            [
              273.5645769458144,
              439.8034680581994
            ],
            [
              274.16290327359644,
              440.2855419180224
            ],
            [
              274.320212230367,
              440.3662198590516
            ],
            [
              274.5282002082961,
              440.53015582441014
            ],
            [
              274.5619977465559,
              440.5467793011944
            ],
            [
              274.5759420697234,
              440.5577702240772
            ],
            [
              274.65447173949264,
              440.5963953054142
            ],
            [
              274.74013414073113,
              440.66391471239587
            ],
            [
              274.9203406522578,
              440.7525484381231
            ],
            [
              275.1186271790864,
              440.9066354044002
            ],
            [
              277.22383392667643,
              441.9139628077621
            ],
            [
              278.5668087789332,
              442.79313583186746
            ],
            [
              279.4003671737837,
              443.1067770050069
            ],
            [
              280.2353198458166,
              443.6137415125547
            ],
            [
              280.42574822086493,
              443.6731050148164
            ],
            [
              280.89740253102235,
              443.93911367082
            ],
            [
              280.9097697714226,
              443.9444092445937
            ],
            [
              281.1201591534606,
              444.00426936270026
            ],
            [
              281.13052855295837,
              444.0102441146047
            ],
            [
              281.14913333465245,
              444.01562010598474
            ],
            [
              281.21841039060575,
              444.0551200176545
            ],
            [
              281.8802522797475,
              444.24348456094384
            ],
            [
              282.85163713088866,
              444.74167189468415
            ],
            [
              283.19610421615533,
              444.82294385047
            ],
            [
              283.58739108273676,
              445.01539645672244
            ],
            [
              283.619204636552,
              445.02211923646365
            ],
            [
              283.6416813595216,
              445.03318845286447
            ],
            [
              283.8230624562883,
              445.0716496936425
            ],
            [
              284.0667505713683,
              445.1882528332009
            ],
            [
              285.86992093708153,
              445.5410616871062
            ],
            [
              287.1701991388077,
              446.030314489503
            ],
            [
              288.43008833397323,
              446.1683511270241
            ],
            [
              289.4942119100823,
              446.5000774378138
            ],
            [
              289.7741356659945,
              446.5078792953327
            ],
            [
              290.1845004837416,
              446.62645729091025
            ],
            [
              290.25617645940866,
              446.62732752802793
            ],
            [
              290.4110490828991,
              446.67140529262855
            ],
            [
              291.0409486737761,
              446.67381982467583
            ],
            [
              291.68468187713967,
              446.8256992310927
            ],
            [
              292.0405823066373,
              446.81414665234126
            ],
            [
              292.6221262430849,
              446.9374610536725
            ],
            [
              292.9162790306127,
              446.919754222542
            ],
            [
              293.14908178112154,
              446.9653044784211
            ],
            [
              294.63180388839777,
              446.84782672321575
            ],
            [
              295.8542597020862,
              446.98176206502694
            ],
            [
              297.5472703245208,
              446.7245271786236
            ],
            [
              298.8085374296643,
              446.7596804160572
            ],
            [
              298.91643105077304,
              446.7324739862111
            ],
            [
              299.2818740500355,
              446.73691092702444
            ],
            [
              299.40063747805254,
              446.70586419626426
            ],
            [
              299.63892908949515,
              446.70677761603895
            ],
            [
              300.2162463014586,
              446.5487634310617
            ],
            [
              300.5363867086767,
              446.53837162771947
            ],
            [
              300.8604116710431,
              446.4415489459947
            ],
            [
              301.60935465998386,
              446.3964655485587
            ],
            [
              302.01240137361225,
              446.26305360852
            ],
            [
              302.22977989578976,
              446.24583046152475
            ],
            [
              303.3867161038093,
              445.83728574492665
            ],
            [
              304.5014566006619,
              445.6679128294101
            ],
            [
              305.77139053776796,
              445.1419394045709
            ],
            [
              305.8257283414841,
              445.1322936390441
            ],
            [
              305.8628613825437,
              445.12032143939405
            ],
            [
              306.222378766976,
              444.9551518744757
            ],
            [
              306.4358157338887,
              444.86675186472206
            ],
            [
              308.28890673162846,
              444.3823231293496
            ],
            [
              308.4516152369048,
              444.2947078037966
            ],
            [
              308.76876298223743,
              444.20790311226676
            ],
            [
              309.27380022301963,
              443.92752398979394
            ],
            [
              309.28406227837235,
              443.92445756024046
            ],
            [
              309.46945128239764,
              443.81890532184076
            ],
            [
              309.57740963475624,
              443.7589705969687
            ],
            [
              310.47523483916854,
              443.4617827071538
            ],
            [
              310.4945480732947,
              443.4500607253363
            ],
            [
              310.5137778673665,
              443.4436955854841
            ],
            [
              310.99901836579943,
              443.14918086165613
            ],
            [
              311.17688818554535,
              443.0863703327761
            ],
            [
              312.0150571800661,
              442.55597596866943
            ],
            [
              312.99836771685017,
              442.148714460312
            ],
            [
              314.3691339565684,
              441.21236760813343
            ],
            [
              314.6568652401448,
              441.0801780312925
            ],
            [
              315.2830880815802,
              440.6160942233398
            ],
            [
              315.729347223748,
              440.3757924644001
            ],
            [
              316.1992189460276,
              440.1353623717379
            ],
            [
              316.2494047291849,
              440.0957517403031
            ]
          ]
        ]
      }
    }
  ]
}