{
  "type": "FeatureCollection",
  "features": [
    {
      "type": "Feature",
      "properties": {
        "method": "Homography",
        "mode": "tmpl2img",
        "inside_ratio": 1.0
      },
      "geometry": {
        "type": "Polygon",
        "coordinates": [
          [
            [
              310.0162540925577,
              330.0352841942175
            ],
            [
              309.8723832442027,
              329.79952529753433
            ],
            [
              309.7108516407818,
              329.5901176388882
            ],
            [
              309.47288890025885,
              329.2157513389242
            ],
            [
              309.2933085214054,
              328.992195796552
            ],
            [
              309.22393302664085,
              328.8855189859188
            ],
            [
              309.0191003415168,
              328.63763273104007
            ],
            [
              308.71263294889553,
              328.18999060422607
            ],
            [
              308.58319882906517,
              328.0412481541694
            ],
            [
              308.5574090618179,
              328.00421491176303
            ],
            [
              308.4952133128835,
              327.9337938600116
            ],
            [
              308.4403205507207,
              327.85561968151137
            ],
            [
              308.16635868807464,
              327.54995265211403
            ],
            [
              307.86295197957446,
              327.14232622043306
            ],
            [
              307.6465888939842,
              326.9140318483217
            ],
            [
              307.4744697166162,
              326.69089858412934
            ],
            [
              307.31618905300127,
              326.5309245935665
            ],
            [
              307.04953468217053,
              326.19897261263304
            ],
            [
              306.82131001356134,
              325.9778911322506
            ],
            [
              306.72711476388275,
              325.86389708067907
            ],
            [
              306.52045728284423,
              325.6707972111525
            ],
            [
              306.1879155946537,
              325.28864862844927
            ],
            [
              306.05594528089546,
              325.17193596349324
            ],
            [
              306.0515771529326,
              325.1669901565739
            ],
            [
              305.95683840651407,
              325.08428725602994
            ],
            [
              305.9549326710384,
              325.0826018507255
            ],
            [
              305.8601288854739,
              324.976826575188
            ],
            [
              305.601879747825,
              324.75656774393633
            ],
            [
              305.2980002212593,
              324.4359308592966
            ],
            [
              305.0276260579718,
              324.21787796733605
            ],
            [
              304.82686403848,
              324.0149681445038
            ],
            [
              304.676214044974,
              323.899934374978
            ],
            [
              304.3841004142237,
              323.61696358868863
            ],
            [
              304.1044830881128,
              323.4133212202359
            ],
            [
              303.9825994636093,
              323.2994336809516
            ],
            [
              303.77859502679183,
              323.157879850226
            ],
            [
              303.42574122688956,
              322.8458209776309
            ],
            [
              303.1537313596064,
              322.6685595994069
            ],
            [
              303.04093373993896,
              322.57235532123786
            ],
            [
              302.80723000653154,
              322.4271603394695
            ],
            [
              302.5120139038111,
              322.189072779004
            ],
            [
              302.18483731955587,
              321.99756153474215
            ],
            [
              301.9557385174137,
              321.8226255909004
            ],
            [
              301.8165215491406,
              321.74702280729815
            ],
            [
              301.5030692930856,
              321.5187388139306
            ],
            [
              301.1709395316673,
              321.3484896706828
            ],
            [
              301.0191083144393,
              321.2431375971746
            ],
            [
              300.82184328985085,
              321.14893203135864
            ],
            [
              300.45509925486203,
              320.909934991478
            ],
            [
              300.1450064074547,
              320.77317945830305
            ],
            [
              300.0133699954199,
              320.6913966550724
            ],
            [
              299.811996529455,
              320.608630559787
            ],
            [
              299.5342875986307,
              320.44607496918377
            ],
            [
              299.14928771388895,
              320.29856214215556
            ],
            [
              298.8928950785271,
              320.1593262633052
            ],
            [
              298.7682060901983,
              320.1168526499362
            ],
            [
              298.4383518756523,
              319.94776994809115
            ],
            [
              298.0544223208002,
              319.8273269530784
            ],
            [
              297.8711495379159,
              319.73980349955485
            ],
            [
              297.6842113906247,
              319.68793245125124
            ],
            [
              297.3104755269511,
              319.5231094063782
            ],
            [
              296.9646670581901,
              319.4383555129262
            ],
            [
              296.8137482144066,
              319.37632666843854
            ],
            [
              296.6511321020634,
              319.3413930331195
            ],
            [
              296.3991497285225,
              319.24484590737615
            ],
            [
              295.95731975137846,
              319.1593623278743
            ],
            [
              295.6754304395549,
              319.0633405555876
            ],
            [
              295.56755711186884,
              319.04716952533886
            ],
            [
              295.2269256744714,
              318.9403096340025
            ],
            [
              294.7938774797081,
              318.88593108301956
            ],
            [
              294.57858287440746,
              318.82619176799386
            ],
            [
              294.4049697467849,
              318.81100155023654
            ],
            [
              294.0313889005564,
              318.71944094921366
            ],
            [
              293.6536786335201,
              318.6974719305105
            ],
            [
              293.48352863441534,
              318.66091984515134
            ],
            [
              293.3644617755102,
              318.65770605198617
            ],
            [
              293.1454623201228,
              318.61533487229764
            ],
            [
              292.6499786547153,
              318.609802379192
            ],
            [
              292.3451401058072,
              318.5641047679227
            ],
            [
              292.25550167068707,
              318.5671831930506
            ],
            [
              291.9102243986339,
              318.52382617651585
            ],
            [
              291.4327578352852,
              318.5509489448943
            ],
            [
              291.18590532332297,
              318.5293506737116
            ],
            [
              291.02795870792767,
              318.5447503997864
            ],
            [
              290.6616657753803,
              318.5234454552621
            ],
            [
              290.25726379248516,
              318.5738381165078
            ],
            [
              290.0685174265161,
              318.5687435689014
            ],
            [
              289.9959327389907,
              318.5801677176565
            ],
            [
              289.81588519084715,
              318.57815733489474
            ],
            [
              289.27218100704795,
              318.6696384542524
            ],
            [
              288.94766467344533,
              318.6807832185883
            ],
            [
              288.8767955050712,
              318.6961418852783
            ],
            [
              288.5332829773323,
              318.7156553160388
            ],
            [
              288.01806977278363,
              318.83821325750415
            ],
            [
              287.74126891637735,
              318.8652012202101
            ],
            [
              287.60063416223096,
              318.9048815897771
            ],
            [
              287.24846642571384,
              318.9487653247642
            ],
            [
              286.8238519650807,
              319.079423467686
            ],
            [
              286.6178035215199,
              319.11185355934333
            ],
            [
              286.592623873351,
              319.1204881870111
            ],
            [
              286.4559224193398,
              319.14348893338104
            ],
            [
              285.87165022155216,
              319.34741275250144
            ],
            [
              285.5314031964509,
              319.4211506101408
            ],
            [
              285.4789837938983,
              319.44220622200066
            ],
            [
              285.14366470705085,
              319.52197129139967
            ],
            [
              284.5991964044063,
              319.7517430940013
            ],
            [
              284.2952647474473,
              319.8374980024754
            ],
            [
              284.17288216743424,
              319.89515355418325
            ],
            [
              283.84109867536216,
              319.9972466738179
            ],
            [
              283.4396584021994,
              320.1962312685178
            ],
            [
              283.11278794379626,
              320.31031623180604
            ],
            [
              282.50750365924455,
              320.6344611699883
            ],
            [
              282.4427361243945,
              320.66179380470777
            ],
            [
              282.14623985807697,
              320.7808892159092
            ],
            [
              282.11117380026093,
              320.8017168682196
            ],
            [
              281.790216930825,
              320.9371643094938
            ],
            [
              281.2265520703901,
              321.2831965849073
            ],
            [
              280.8995302055195,
              321.4372595736056
            ],
            [
              280.79565714892993,
              321.5068011164742
            ],
            [
              280.4896750428992,
              321.6584693207476
            ],
            [
              280.1316082694301,
              321.90681283004363
            ],
            [
              279.8341445032891,
              322.0661121486383
            ],
            [
              279.2293333217341,
              322.50928356777456
            ],
            [
              279.0229291393546,
              322.63599451588925
            ],
            [
              278.8421491293331,
              322.74336966517717
            ],
            [
              278.82268042311205,
              322.7589266406138
            ],
            [
              278.5217190040264,
              322.943686010886
            ],
            [
              277.9501408917862,
              323.41183402187943
            ],
            [
              277.6052552576998,
              323.642730078048
            ],
            [
              277.5328361763765,
              323.70670798043835
            ],
            [
              277.4554426744606,
              323.75944573642244
            ],
            [
              277.43789724626987,
              323.7750834937413
            ],
            [
              277.2436861403323,
              323.9097820225258
            ],
            [
              276.93203042494247,
              324.19261717006134
            ],
            [
              276.6667835276795,
              324.38697509112154
            ],
            [
              276.07201957487814,
              324.95009929146966
            ],
            [
              275.7307679171108,
              325.2295996456907
            ],
            [
              275.6677582782094,
              325.2799491344218
            ],
            [
              275.66161981811007,
              325.28623502818084
            ],
            [
              275.38549844460994,
              325.5123907696803
            ],
            [
              274.8181035209679,
              326.10501099215907
            ],
            [
              274.46167585352856,
              326.41989339745885
            ],
            [
              274.4558465146737,
              326.42642809163755
            ],
            [
              274.45157079162607,
              326.4302054315242
            ],
            [
              274.4232390198436,
              326.46196541204563
            ],
            [
              274.3907913269331,
              326.4908851478246
            ],
            [
              274.35397261630527,
              326.532267382317
            ],
            [
              274.150573334759,
              326.7168571811316
            ],
            [
              273.8866253787424,
              327.01923672549395
            ],
            [
              273.6553210009852,
              327.2382363675308
            ],
            [
              273.51281206400245,
              327.40722487356476
            ],
            [
              273.4792185754266,
              327.43939647047773
            ],
            [
              273.47836571522157,
              327.440424278163
            ],
            [
              273.4758574551784,
              327.44282637209005
            ],
            [
              273.0768836376523,
              327.9236421988499
            ],
            [
              272.42609620362543,
              328.6033624040762
            ],
            [
              271.881383179574,
              329.3113238494092
            ],
            [
              271.8583721743085,
              329.33718697170406
            ],
            [
              271.50461266818047,
              329.73375218160544
            ],
            [
              271.4468076596134,
              329.8142989845723
            ],
            [
              271.2543857858195,
              330.03473804157636
            ],
            [
              271.0377238205991,
              330.34220897637397
            ],
            [
              270.84098454214956,
              330.5755043573266
            ],
            [
              270.67428737895614,
              330.8190860995513
            ],
            [
              270.6019392609208,
              330.906275079531
            ],
            [
              270.24893161078256,
              331.4330149436868
            ],
            [
              269.6840589981386,
              332.1671777296288
            ],
            [
              269.2007548558099,
              332.9398302916807
            ],
            [
              268.8653578828859,
              333.4060328139609
            ],
            [
              268.8483012367035,
              333.43511645438593
            ],
            [
              268.7954260599314,
              333.50879391851817
            ],
            [
              268.74341520611966,
              333.59812523134536
            ],
            [
              268.59460043759225,
              333.8093123492237
            ],
            [
              268.4231884495269,
              334.1084438105527
            ],
            [
              268.26055976704237,
              334.34608059486663
            ],
            [
              268.0798480621523,
              334.66960988237975
            ],
            [
              267.9780092636886,
              334.82156850096965
            ],
            [
              267.67305009684736,
              335.3821536502041
            ],
            [
              267.1949258915362,
              336.1465251087878
            ],
            [
              266.7771023665541,
              336.9667605142769
            ],
            [
              266.4761115291042,
              337.4799862206354
            ],
            [
              266.443322548184,
              337.5486525095835
            ],
            [
              266.3595443244175,
              337.6925459119513
            ],
            [
              266.3138074312156,
              337.7895295597588
            ],
            [
              266.20516917406337,
              337.97911443644017
            ],
            [
              266.0755324732302,
              338.2579485282904
            ],
            [
              265.94555031168113,
              338.490656399321
            ],
            [
              265.7606967304436,
              338.8974993549539
            ],
            [
              265.6375809456724,
              339.1238145082004
            ],
            [
              265.38162419572046,
              339.70624389624686
            ],
            [
              264.98845921736427,
              340.4780717521683
            ],
            [
              264.63829424397915,
              341.32872104530026
            ],
            [
              264.3742609465293,
              341.88165639691664
            ],
            [
              264.3312442121385,
              341.99349269625617
            ],
            [
              264.2260835597097,
              342.2164825620906
            ],
            [
              264.18711382432076,
              342.3197265249718
            ],
            [
              264.11383711959974,
              342.4773365480898
            ],
            [
              264.0212936752838,
              342.7257393882388
            ],
            [
              263.92158753844967,
              342.9451819282923
            ],
            [
              263.74269564140536,
              343.435624563595
            ],
            [
              263.6075749769779,
              343.74309153178615
            ],
            [
              263.4004716327608,
              344.3357406197331
            ],
            [
              263.0881488451197,
              345.0944605909705
            ],
            [
              262.80599197876796,
              345.95889285412636
            ],
            [
              262.580933684847,
              346.54400669609277
            ],
            [
              262.5334145874351,
              346.7009331441904
            ],
            [
              262.417308473903,
              347.0085373697847
            ],
            [
              262.3855474708235,
              347.11636917249155
            ],
            [
              262.3417527438733,
              347.23392190287296
            ],
            [
              262.33546009048257,
              347.2555495904099
            ],
            [
              262.33328346884525,
              347.2613919669022
            ],
            [
              262.2783262542704,
              347.4502791854888
            ],
            [
              262.20810532891744,
              347.64279397375947
            ],
            [
              262.0451351544908,
              348.2141856093543
            ],
            [
              261.90798661452806,
              348.60665130048545
            ],
            [
              261.90693433191757,
              348.6100646324413
            ],
            [
              261.7447599337098,
              349.2101453588194
            ],
            [
              261.51099644646865,
              349.9263168379474
            ],
            [
              261.29551360469253,
              350.7889612190276
            ],
            [
              261.1109035335037,
              351.39861511254827
            ],
            [
              261.0646458446635,
              351.6009631631173
            ],
            [
              260.9485064420435,
              351.99526812629506
            ],
            [
              260.9257203773847,
              352.0991676688469
            ],
            [
              260.89507666156055,
              352.2044897142667
            ],
            [
              260.8572273214639,
              352.37912316343494
            ],
            [
              260.8182750432066,
              352.5156942020554
            ],
            [
              260.6959969492526,
              353.0907976718333
            ],
            [
              260.5783818981697,
              353.5259990727158
            ],
            [
              260.448928439451,
              354.17810315665594
            ],
            [
              260.2675655434927,
              354.90415485453013
            ],
            [
              260.11594619024356,
              355.75092245566526
            ],
            [
              259.9727123104964,
              356.37747983605385
            ],
            [
              259.933359499473,
              356.62411933596724
            ],
            [
              259.8281459175123,
              357.1038705874554
            ],
            [
              259.8169704130827,
              357.1787749270143
            ],
            [
              259.798472020349,
              357.264124846436
            ],
            [
              259.7753999303401,
              357.4205882559544
            ],
            [
              259.75917795545723,
              357.4968841298956
            ],
            [
              259.6799742044285,
              358.04431676333365
            ],
            [
              259.6612291264378,
              358.1366592517629
            ],
            [
              259.65697062457883,
              358.1674822778752
            ],
            [
              259.58349678276716,
              358.5375967018703
            ],
            [
              259.56477204933054,
              358.6804529930245
            ],
            [
              259.5617575195387,
              358.6957441841796
            ],
            [
              259.5023560326975,
              359.1566424498132
            ],
            [
              259.49204824013384,
              359.2352835167376
            ],
            [
              259.3622659065923,
              359.9600951775656
            ],
            [
              259.27047319135113,
              360.7786877970062
            ],
            [
              259.1690064619633,
              361.4146195828861
            ],
            [
              259.1419517148854,
              361.7031192291207
            ],
            [
              259.05827760307494,
              362.26394886543136
            ],
            [
              259.0545944612062,
              362.30873151720664
            ],
            [
              259.0452448881378,
              362.372135659587
            ],
            [
              259.0342708558435,
              362.50722514768125
            ],
            [
              259.0321788928046,
              362.5216841703975
            ],
            [
              259.0005947657749,
              362.91832915015453
            ],
            [
              258.99451213025577,
              362.96235525128355
            ],
            [
              258.98213621885577,
              363.12554664994843
            ],
            [
              258.92254698867424,
              363.5801697528352
            ],
            [
              258.91230446691463,
              363.73487369905894
            ],
            [
              258.90325904588315,
              363.80505744506576
            ],
            [
              258.86726744692817,
              364.37441154942564
            ],
            [
              258.79382872514554,
              365.0293262174678
            ],
            [
              258.7568726518697,
              365.8094290438797
            ],
            [
              258.697044141977,
              366.44741334625064
            ],
            [
              258.6873311360928,
              366.7742194561212
            ],
            [
              258.635125317701,
              367.40898050198825
            ],
            [
              258.6348769969995,
              367.4237326352317
            ],
            [
              258.6315963084311,
              367.4641176576105
            ],
            [
              258.6203777868553,
              368.1441598572927
            ],
            [
              258.5906695038645,
              368.5928763670207
            ],
            [
              258.5902670073715,
              368.7563045951211
            ],
            [
              258.5823655063266,
              368.8812990988451
            ],
            [
              258.58317756349146,
              369.4759449199069
            ],
            [
              258.55592241372955,
              370.05127171954484
            ],
            [
              258.5681375337412,
              370.7846357955578
            ],
            [
              258.5493237288153,
              371.417649558032
            ],
            [
              258.5608027861514,
              371.75546587947514
            ],
            [
              258.5488422527827,
              372.48048720849755
            ],
            [
              258.57823073080004,
              373.0907537419942
            ],
            [
              258.57952328929844,
              373.11864524948317
            ],
            [
              258.57853570104294,
              373.51964203322535
            ],
            [
              258.57885921150745,
              373.5249034431897
            ],
            [
              258.5788268678913,
              373.5380309549544
            ],
            [
              258.5889496223119,
              373.7026555546616
            ],
            [
              258.58917319859387,
              373.8663739569171
            ],
            [
              258.629644842934,
              374.4773748702148
            ],
            [
              258.63785764988086,
              374.97045046619047
            ],
            [
              258.6651659783009,
              375.3063876352652
            ],
            [
              258.6668927929373,
              375.3908424211114
            ],
            [
              258.69541006396133,
              375.7168134099476
            ],
            [
              258.71428485160646,
              376.27227812664233
            ],
            [
              258.73576001194186,
              376.49000347198523
            ],
            [
              258.764049684161,
              377.10045290685554
            ],
            [
              258.77712804687206,
              377.22095658964366
            ],
            [
              258.7841718524068,
              377.3672247557996
            ],
            [
              258.8494854981513,
              377.93970532251564
            ],
            [
              258.8733407400688,
              378.3276589849349
            ],
            [
              258.89705032734486,
              378.5143987634179
            ],
            [
              258.90986760638515,
              378.7079013830532
            ],
            [
              258.9918944129788,
              379.32568254510943
            ],
            [
              259.0253333744613,
              379.7370365425298
            ],
            [
              259.078664929038,
              380.0976662355659
            ],
            [
              259.0969760976893,
              380.30697482427126
            ],
            [
              259.1381478306141,
              380.5696017341459
            ],
            [
              259.17703698958815,
              380.96387844431354
            ],
            [
              259.195357136026,
              381.0745081852588
            ],
            [
              259.24849004019865,
              381.56407333737934
            ],
            [
              259.2910520552619,
              381.81007988159973
            ],
            [
              259.3214265673025,
              382.07631548471386
            ],
            [
              259.4127261468808,
              382.5759282701105
            ],
            [
              259.45841172216325,
              382.9357537748368
            ],
            [
              259.49840801560543,
              383.1404666995416
            ],
            [
              259.5275007623196,
              383.3595773978594
            ],
            [
              259.65195542058296,
              383.97427503928316
            ],
            [
              259.70118179660784,
              384.3071453824762
            ],
            [
              259.70223268189267,
              384.3129035266339
            ],
            [
              259.783597165999,
              384.6868042995742
            ],
            [
              259.83390147806557,
              385.0076862516222
            ],
            [
              259.8757782768954,
              385.18977130090946
            ],
            [
              259.9005473805702,
              385.3329356127752
            ],
            [
              259.9200773598282,
              385.4508711627547
            ],
            [
              259.92333792937984,
              385.46466396597896
            ],
            [
              259.9875315957565,
              385.83570048768456
            ],
            [
              260.07375009787705,
              386.19320689176124
            ],
            [
              260.1418600422475,
              386.5659205359797
            ],
            [
              260.2511600172991,
              386.9932753120805
            ],
            [
              260.3156300024446,
              387.32325186938056
            ],
            [
              260.37417512436855,
              387.5414114944406
            ],
            [
              260.42273974891253,
              387.78127845144957
            ],
            [
              260.5823902735087,
              388.35756266044996
            ],
            [
              260.63745225549076,
              388.61059342502335
            ],
            [
              260.6608237409511,
              388.69059365372806
            ],
            [
              260.6703542265319,
              388.7341354193085
            ],
            [
              260.75925215843,
              389.0356521978863
            ],
            [
              260.7812600154742,
              389.1269081306634
            ],
            [
              260.85597698977614,
              389.45178597059487
            ],
            [
              260.8724952992674,
              389.5052167005318
            ],
            [
              260.96397332470235,
              389.884531802526
            ],
            [
              261.1064191875471,
              390.33727508003966
            ],
            [
              261.2248475720091,
              390.80032125824664
            ],
            [
              261.2253994887915,
              390.8019679748907
            ],
            [
              261.2277977798817,
              390.81134513168246
            ],
            [
              261.34767339936985,
              391.16900695744454
            ],
            [
              261.4249222749273,
              391.45686331805615
            ],
            [
              261.50384096365656,
              391.683686914975
            ],
            [
              261.5745578813229,
              391.93895098668196
            ],
            [
              261.7646646677149,
              392.4690238583005
            ],
            [
              261.8166282505379,
              392.6468943884777
            ],
            [
              261.8513563017328,
              392.73976225006066
            ],
            [
              261.87738110403643,
              392.8280310588627
            ],
            [
              261.9527383916592,
              393.0271765109823
            ],
            [
              262.1595477440755,
              393.6844896976505
            ],
            [
              262.3545526301139,
              394.1731396203853
            ],
            [
              262.551379685135,
              394.7603943445633
            ],
            [
              262.67982178591797,
              395.06362396538356
            ],
            [
              262.7651345890422,
              395.3088251614368
            ],
            [
              262.8658269707619,
              395.53938381320256
            ],
            [
              262.9608493512094,
              395.8043337764641
            ],
            [
              263.1765363832029,
              396.28348659215635
            ],
            [
              263.2185896822314,
              396.3959432322162
            ],
            [
              263.26598222720696,
              396.49766417877265
            ],
            [
              263.31377211293915,
              396.62395771588024
            ],
            [
              263.4347018630641,
              396.8798145654947
            ],
            [
              263.68416003282925,
              397.5049153917168
            ],
            [
              263.8809581634763,
              397.89929954288294
            ],
            [
              263.88095816348005,
              397.899299542893
            ],
            [
              264.09309016245123,
              398.4001065619238
            ],
            [
              264.0940726207778,
              398.4019792839279
            ],
            [
              264.097686700623,
              398.41051151744654
            ],
            [
              264.2293337476264,
              398.66145003882485
            ],
            [
              264.31453518120765,
              398.8565385581262
            ],
            [
              264.4379983235301,
              399.0858481203964
            ],
            [
              264.558956466932,
              399.3545589207483
            ],
            [
              264.79499905517105,
              399.77946808102035
            ],
            [
              264.82173174814625,
              399.8368457726967
            ],
            [
              264.882738697949,
              399.9434952752558
            ],
            [
              264.956807946386,
              400.1002071227452
            ],
            [
              265.1141011667444,
              400.3705224910765
            ],
            [
              265.4191786808821,
              400.9818989104484
            ],
            [
              265.60434030423954,
              401.28241359289893
            ],
            [
              265.83461084261427,
              401.72134290982734
            ],
            [
              265.9715883337847,
              401.93420308153804
            ],
            [
              266.05123313412,
              402.08212831621756
            ],
            [
              266.19808807185984,
              402.30522150678803
            ],
            [
              266.34610562923933,
              402.57167349107493
            ],
            [
              266.5970690224404,
              402.9404075438865
            ],
            [
              266.60440219345315,
              402.9532270512248
            ],
            [
              266.65948692992635,
              403.0321165684635
            ],
            [
              266.68267532503256,
              403.06618668043245
            ],
            [
              266.78373983363286,
              403.239870516292
            ],
            [
              266.95465022193196,
              403.4797222091781
            ],
            [
              267.0932385185814,
              403.70981257084554
            ],
            [
              267.13503193523064,
              403.76670434972505
            ],
            [
              267.34109937119814,
              404.1011488688495
            ],
            [
              267.5057811038559,
              404.31830673011484
            ],
            [
              267.7442438813304,
              404.6888729255209
            ],
            [
              267.8832487751875,
              404.865216313327
            ],
            [
              267.95351378173325,
              404.971958686017
            ],
            [
              268.1240351496762,
              405.18393956431737
            ],
            [
              268.29975363570964,
              405.4421182121379
            ],
            [
              268.6639883907392,
              405.8785679293805
            ],
            [
              268.772116131535,
              406.03031190432046
            ],
            [
              268.9330084056015,
              406.21422092020396
            ],
            [
              269.06503218057344,
              406.39393983325795
            ],
            [
              269.15655439715636,
              406.4957204614241
            ],
            [
              269.40479183264733,
              406.82421963521284
            ],
            [
              269.4119221305778,
              406.83184300368686
            ],
            [
              269.4258706029345,
              406.8502361817021
            ],
            [
              269.56403745897404,
              406.9974863540673
            ],
            [
              269.804377633966,
              407.3023849767614
            ],
            [
              269.94231370854794,
              407.4443031219395
            ],
            [
              270.000095474976,
              407.51613358954864
            ],
            [
              270.1942413842385,
              407.7122163583445
            ],
            [
              270.3978498236882,
              407.9561932018529
            ],
            [
              270.7851101732284,
              408.3312785314625
            ],
            [
              270.90002640108105,
              408.4626343128135
            ],
            [
              271.04658181248095,
              408.5975945720416
            ],
            [
              271.16809784089565,
              408.7327309156109
            ],
            [
              271.30402297064154,
              408.8547853877505
            ],
            [
              271.63182732518334,
              409.2052578934653
            ],
            [
              271.7593497184359,
              409.3137950661706
            ],
            [
              271.9934378867133,
              409.5546411156996
            ],
            [
              272.12743666747065,
              409.6646977945919
            ],
            [
              272.17031476631894,
              409.7080036585941
            ],
            [
              272.38775506526395,
              409.8835381115844
            ],
            [
              272.6190220924418,
              410.1075343694519
            ],
            [
              273.0245322000423,
              410.4190537355116
            ],
            [
              273.14627141538455,
              410.5311612032899
            ],
            [
              273.27489086806935,
              410.62453349343025
            ],
            [
              273.3825400903178,
              410.7211975100309
            ],
            [
              273.5646612469746,
              410.8503362504517
            ],
            [
              273.9765966405943,
              411.2009437148986
            ],
            [
              274.0841934371074,
              411.27183295104265
            ],
            [
              274.29062123130944,
              411.441377459834
            ],
            [
              274.4180589595911,
              411.5225548220488
            ],
            [
              274.44424845465153,
              411.5436969871031
            ],
            [
              274.68438998521094,
              411.69418309798937
            ],
            [
              274.9426962196245,
              411.8926180885988
            ],
            [
              275.3616391496161,
              412.1394246077249
            ],
            [
              275.4904686924641,
              412.2329494144513
            ],
            [
              275.59824584152796,
              412.29231343695426
            ],
            [
              275.6892273263932,
              412.35682672345314
            ],
            [
              275.91831970057774,
              412.4802314724449
            ],
            [
              276.41730968381466,
              412.80898678768745
            ],
            [
              276.50235976795983,
              412.8502467384503
            ],
            [
              276.6759723392559,
              412.9608373051147
            ],
            [
              276.7944839789271,
              413.0164859832194
            ],
            [
              276.80278147871155,
              413.0216856605459
            ],
            [
              276.8075384607775,
              413.02388423092907
            ],
            [
              276.8109327664919,
              413.0260113037888
            ],
            [
              277.0548035144719,
              413.138722398783
            ],
            [
              277.070071947753,
              413.14589188973855
            ],
            [
              277.34915836128556,
              413.3103065183864
            ],
            [
              277.77676119331653,
              413.49224714727893
            ],
            [
              277.91310345116216,
              413.567344929445
            ],
            [
              277.99779134376206,
              413.6003764666902
            ],
            [
              278.0698329265518,
              413.63918296765945
            ],
            [
              278.3413804703246,
              413.7428513017783
            ],
            [
              278.37023371288035,
              413.75639971619194
            ],
            [
              278.9331505460574,
              414.02948493481443
            ],
            [
              278.9936510225003,
              414.04913340278335
            ],
            [
              279.13041148606146,
              414.1133510529172
            ],
            [
              279.23415838699975,
              414.1459669170557
            ],
            [
              279.2356337427338,
              414.1466487903942
            ],
            [
              279.27977193630744,
              414.1603068666286
            ],
            [
              279.5366693889008,
              414.2410700733959
            ],
            [
              279.81957044760344,
              414.36144157862964
            ],
            [
              280.2511789312903,
              414.47928434522083
            ],
            [
              280.39553459541884,
              414.53558860961834
            ],
            [
              280.4555091484061,
              414.5499593135888
            ],
            [
              280.5068372742604,
              414.5695547819414
            ],
            [
              280.80130629075563,
              414.6386455672667
            ],
            [
              281.0370084211296,
              414.7127454063233
            ],
            [
              281.1390647161916,
              414.74588977083295
            ],
            [
              281.1733694543094,
              414.7576628533979
            ],
            [
              281.17819480396713,
              414.75859787367
            ],
            [
              281.50426802116334,
              414.864495207687
            ],
            [
              281.53879010818844,
              414.87049511436925
            ],
            [
              281.63572162992557,
              414.9009683652823
            ],
            [
              282.05087946459935,
              414.97065951022057
            ],
            [
              282.3359475791152,
              415.04849212137333
            ],
            [
              282.76709048703697,
              415.10384507785784
            ],
            [
              282.9199646537376,
              415.1404757701223
            ],
            [
              282.95418760191427,
              415.1437725998918
            ],
            [
              282.98349835915286,
              415.15064973508646
            ],
            [
              283.30189336303437,
              415.1806629923395
            ],
            [
              283.7091613820482,
              415.2490297005421
            ],
            [
              283.73356687754205,
              415.2537588154381
            ],
            [
              283.7389651318315,
              415.2540327554598
            ],
            [
              283.93269031793756,
              415.28655274880515
            ],
            [
              284.1117274629769,
              415.3176692384333
            ],
            [
              284.1193789281515,
              415.31789153590563
            ],
            [
              284.17450354721046,
              415.3271451197112
            ],
            [
              284.5696992506123,
              415.3378593756506
            ],
            [
              284.5730998290738,
              415.338358130819
            ],
            [
              284.5916062460297,
              415.3384533020359
            ],
            [
              284.5952094460708,
              415.338550989348
            ],
            [
              284.881105673408,
              415.3752562236013
            ],
            [
              285.30754932189643,
              415.3704810921047
            ],
            [
              285.4693817109059,
              415.3860710358844
            ],
            [
              285.4773650531182,
              415.38573213818637
            ],
            [
              285.4837979003274,
              415.3863385255208
            ],
            [
              285.827607485239,
              415.37196286072316
            ],
            [
              286.73090193351766,
              415.39645231701684
            ],
            [
              286.7317014202451,
              415.39636414251055
            ],
            [
              286.73249262345547,
              415.39638561032103
            ],
            [
              287.1390636342231,
              415.3515538719882
            ],
            [
              287.1562780960152,
              415.3516423991867
            ],
            [
              287.17152296246735,
              415.34960912163854
            ],
            [
              287.4385866528862,
              415.34661865796426
            ],
            [
              287.8338710043417,
              415.2880752289773
            ],
            [
              287.99236911275466,
              415.2814479684881
            ],
            [
              288.01096211767026,
              415.2781794125743
            ],
            [
              288.02748040172065,
              415.27747820143867
            ],
            [
              288.3746993860637,
              415.2153028918827
            ],
            [
              289.2896929184866,
              415.11440846130324
            ],
            [
              289.7074200543639,
              415.0113849304222
            ],
            [
              289.7376876468882,
              415.00734800319475
            ],
            [
              289.7477381897222,
              415.00462270360794
            ],
            [
              289.9925675056878,
              414.9683623568
            ],
            [
              290.34700850713915,
              414.8675143111401
            ],
            [
              290.49441142824514,
              414.8416016255755
            ],
            [
              290.5393231486392,
              414.82769115813517
            ],
            [
              290.5785680893928,
              414.82066370154786
            ],
            [
              290.92798150566216,
              414.71035935756646
            ],
            [
              291.3713493541642,
              414.60101208919485
            ],
            [
              291.7697859583376,
              414.50382467072586
            ],
            [
              291.77790566092415,
              414.5007436061834
            ],
            [
              291.8315072531678,
              414.48752391126885
            ],
            [
              292.2561861549958,
              414.324433353208
            ],
            [
              292.3015084157865,
              414.31214379426524
            ],
            [
              292.3073665702755,
              414.3097394525563
            ],
            [
              292.52775866802676,
              414.2470319434186
            ],
            [
              292.8397327372401,
              414.115187330702
            ],
            [
              292.97559674943955,
              414.07310629035595
            ],
            [
              293.0459775037358,
              414.0417411870822
            ],
            [
              293.10746149188003,
              414.0223316548145
            ],
            [
              293.4553617312496,
              413.8642239352538
            ],
            [
              294.25007635414295,
              413.56266522429985
            ],
            [
              294.2795454043177,
              413.54739736740834
            ],
            [
              294.3437603080703,
              413.5227367486603
            ],
            [
              294.34753868175585,
              413.5207542138675
            ],
            [
              294.34863842744164,
              413.5203318760957
            ],
            [
              294.76815492314654,
              413.300209095802
            ],
            [
              294.80444921763353,
              413.28487061843424
            ],
            [
              294.8323756104771,
              413.27340888740116
            ],
            [
              294.8349764479122,
              413.2719693832024
            ],
            [
              295.029296414947,
              413.1898470425143
            ],
            [
              295.298031872981,
              413.03811571335893
            ],
            [
              295.4219711922875,
              412.9828822963751
            ],
            [
              295.5165251249987,
              412.92750183232647
            ],
            [
              295.5993782904937,
              412.88984815011327
            ],
            [
              295.92922466849643,
              412.69270178774553
            ],
            [
              296.6879052902587,
              412.2996308509408
            ],
            [
              296.73684025053996,
              412.2672282900003
            ],
            [
              296.81669776484927,
              412.2253265811103
            ],
            [
              297.2363248807362,
              411.94373175483923
            ],
            [
              297.3130158346298,
              411.90043110350706
            ],
            [
              297.3152644738215,
              411.8991865330044
            ],
            [
              297.315445588344,
              411.8990592348171
            ],
            [
              297.4826333364023,
              411.80466298574805
            ],
            [
              297.70817486504615,
              411.64384734903405
            ],
            [
              297.8198557799965,
              411.57843557060914
            ],
            [
              297.93684894005264,
              411.4927619110904
            ],
            [
              298.0398276817849,
              411.4312123968699
            ],
            [
              298.35178824256576,
              411.19788133580533
            ],
            [
              299.06944121813365,
              410.72268335581975
            ],
            [
              299.13285009061354,
              410.67105020786965
            ],
            [
              299.22619205635766,
              410.608412180839
            ],
            [
              299.6420871818276,
              410.26492905206936
            ],
            [
              299.8734305309058,
              410.09997660094035
            ],
            [
              300.0566044229106,
              409.9404727907905
            ],
            [
              300.1557491992183,
              409.86786943684666
            ],
            [
              300.29301335110335,
              409.7459410225794
            ],
            [
              300.4145034275434,
              409.6550724577442
            ],
            [
              300.708664749436,
              409.38788165055195
            ],
            [
              301.3809842806761,
              408.84041924555004
            ],
            [
              301.45754946302736,
              408.76555907555706
            ],
            [
              301.5628688843877,
              408.6785769443583
            ],
            [
              301.9710259891508,
              408.2734364533321
            ],
            [
              302.1874548738731,
              408.0849749244449
            ],
            [
              302.3298355974743,
              407.93668126151084
            ],
            [
              302.41623551901233,
              407.85993430841796
            ],
            [
              302.5711682074799,
              407.69614393620395
            ],
            [
              302.70918272083884,
              407.5707834401636
            ],
            [
              302.98549641155853,
              407.27163762467677
            ],
            [
              303.6088750034142,
              406.66214090669195
            ],
            [
              303.69698094870404,
              406.56023770793723
            ],
            [
              303.8125123564734,
              406.44556017145254
            ],
            [
              304.2087991567161,
              405.97968608916125
            ],
            [
              304.41048460899606,
              405.76962482719273
            ],
            [
              304.5143627756241,
              405.64185465260095
            ],
            [
              304.587899701867,
              405.56411353392656
            ],
            [
              304.7574613093981,
              405.3532531863795
            ],
            [
              304.9096341141881,
              405.188506164019
            ],
            [
              305.1678758599701,
              404.8590029502375
            ],
            [
              305.73941265360185,
              404.19796438712604
            ],
            [
              305.83713618490856,
              404.0654158732193
            ],
            [
              305.9608567631932,
              403.9199701737069
            ],
            [
              306.34105688929714,
              403.3950203715776
            ],
            [
              306.5282265599986,
              403.16480162321216
            ],
            [
              306.59657798457573,
              403.0661978384577
            ],
            [
              306.65725379538054,
              402.9907437144957
            ],
            [
              306.8379625621881,
              402.7280580326735
            ],
            [
              307.00153783887856,
              402.5193443748479
            ],
            [
              307.24127872345025,
              402.1608898669987
            ],
            [
              307.7587863707777,
              401.45896200305214
            ],
            [
              307.86388560828397,
              401.29242076725143
            ],
            [
              307.99351434981,
              401.11343981079347
            ],
            [
              308.3533748623241,
              400.53184215730437
            ],
            [
              308.52624845259567,
              400.2824546662564
            ],
            [
              308.5627036230228,
              400.220903623204
            ],
            [
              308.61067687153724,
              400.15116773978576
            ],
            [
              308.7986030971023,
              399.8324178463764
            ],
            [
              308.9704220673238,
              399.57551846719525
            ],
            [
              309.19101204112246,
              399.1894437958375
            ],
            [
              309.6530224198189,
              398.4573378239348
            ],
            [
              309.76292528113754,
              398.2537616579142
            ],
            [
              309.89592090921764,
              398.0388174155583
            ],
            [
              310.23120548847726,
              397.4037989725463
            ],
            [
              310.38993015320074,
              397.1358076682399
            ],
            [
              310.39874306995193,
              397.11835042842256
            ],
            [
              310.43437206074816,
              397.05791853828
            ],
            [
              310.62513298234563,
              396.6794576820979
            ],
            [
              310.8016190116461,
              396.37057335436833
            ],
            [
              311.00218256034606,
              395.9582504893363
            ],
            [
              311.4079512605506,
              395.2066336953037
            ],
            [
              311.5197447245258,
              394.9633462048006
            ],
            [
              311.65330329347336,
              394.71039047778356
            ],
            [
              311.93797177994054,
              394.0748461547053
            ],
            [
              312.1143443870201,
              393.72493104985097
            ],
            [
              312.1154808893608,
              393.72248720611555
            ],
            [
              312.3041243653871,
              393.2816904731097
            ],
            [
              312.48024518239987,
              392.9196175025588
            ],
            [
              312.6596893984812,
              392.4825725604319
            ],
            [
              313.0091985376922,
              391.7219627862685
            ],
            [
              313.1196201210569,
              391.43672521484126
            ],
            [
              313.25067340207846,
              391.1441386703746
            ],
            [
              313.47865869783755,
              390.53719642829776
            ],
            [
              313.6346702472537,
              390.17264959772376
            ],
            [
              313.8187865617977,
              389.65953616659493
            ],
            [
              313.99121061155745,
              389.2395891741861
            ],
            [
              314.14824598895365,
              388.77961112970934
            ],
            [
              314.44220453202786,
              388.0202666395229
            ],
            [
              314.547637713785,
              387.69136148742587
            ],
            [
              314.6728536908025,
              387.35801163000633
            ],
            [
              314.848017687253,
              386.7911737647394
            ],
            [
              314.98231338993696,
              386.41690530861905
            ],
            [
              315.10228735742834,
              386.0097949246439
            ],
            [
              315.1318984152985,
              385.9257025806491
            ],
            [
              315.17941442768,
              385.75917809198825
            ],
            [
              315.31926231983186,
              385.3495445366518
            ],
            [
              315.3208406932719,
              385.3444330423387
            ],
            [
              315.4536339509808,
              384.8650517315457
            ],
            [
              315.69227702563626,
              384.12059030622635
            ],
            [
              315.7887526586977,
              383.74691687516156
            ],
            [
              315.9045396931462,
              383.3722252903494
            ],
            [
              316.0320744508122,
              382.8547273002685
            ],
            [
              316.14404702368637,
              382.47476823006133
            ],
            [
              316.1667788404036,
              382.37767703239564
            ],
            [
              316.1685319160585,
              382.37170196641347
            ],
            [
              316.20002286901985,
              382.2361987334402
            ],
            [
              316.20285994059054,
              382.22645926657026
            ],
            [
              316.23713329323294,
              382.0771819962504
            ],
            [
              316.2695932923457,
              381.9385401873188
            ],
            [
              316.32078581686335,
              381.7591310041593
            ],
            [
              316.34831875328246,
              381.63525542502947
            ],
            [
              316.45067976653365,
              381.26573397828594
            ],
            [
              316.5597730492925,
              380.76056865821715
            ],
            [
              316.74468285198947,
              380.04436832639686
            ],
            [
              316.82788890804613,
              379.6255497048373
            ],
            [
              316.9304053761937,
              379.2095684681388
            ],
            [
              317.01625554663866,
              378.7494271735978
            ],
            [
              317.1055165498134,
              378.3681792596859
            ],
            [
              317.12596552360526,
              378.25193622476127
            ],
            [
              317.1318807827707,
              378.22648330367156
            ],
            [
              317.1650118200221,
              378.03581565810487
            ],
            [
              317.16889682709257,
              378.01889454576167
            ],
            [
              317.21488165064136,
              377.7488170013416
            ],
            [
              317.22474184814615,
              377.69207200332846
            ],
            [
              317.2861380602032,
              377.41583952273965
            ],
            [
              317.29816719545863,
              377.34137449931745
            ],
            [
              317.36698843766374,
              377.0226921389876
            ],
            [
              317.4498815578803,
              376.4947426869885
            ],
            [
              317.5847835377318,
              375.815712049978
            ],
            [
              317.65008581614313,
              375.35221224414323
            ],
            [
              317.73525725951816,
              374.89570880320775
            ],
            [
              317.7356858332554,
              374.8929856613281
            ],
            [
              317.7361144138298,
              374.89026247600543
            ],
            [
              317.7873586233083,
              374.4922198706457
            ],
            [
              317.85252490857573,
              374.1217794342994
            ],
            [
              317.8686021145497,
              373.98668481214094
            ],
            [
              317.8767136784291,
              373.9400031228586
            ],
            [
              317.9055160753705,
              373.6925907265357
            ],
            [
              317.9097410235979,
              373.6677768084913
            ],
            [
              317.94526755252787,
              373.35112580467506
            ],
            [
              317.95045246523813,
              373.30658743928996
            ],
            [
              317.96787389075604,
              373.1956297140853
            ],
            [
              318.0115892651797,
              372.925014552509
            ],
            [
              318.01386178079747,
              372.90273108412106
            ],
            [
              318.0547138663753,
              372.6425425891333
            ],
            [
              318.10890241905736,
              372.0956427715947
            ],
            [
              318.1982202886125,
              371.4616860980623
            ],
            [
              318.23686489975586,
              371.00065172629087
            ],
            [
              318.2977184055275,
              370.527968310376
            ],
            [
              318.30049693120003,
              370.48931747118337
            ],
            [
              318.30468183338996,
              370.45668900351774
            ],
            [
              318.3047971674482,
              370.4550518994054
            ],
            [
              318.30781909597175,
              370.43149074861077
            ],
            [
              318.3312163785428,
              370.0993987189202
            ],
            [
              318.3712302773363,
              369.76316725263115
            ],
            [
              318.38079474053364,
              369.60995018409733
            ],
            [
              318.3888597238726,
              369.5406720313764
            ],
            [
              318.40692064923496,
              369.2363721009613
            ],
            [
              318.41067918960397,
              369.2028719078123
            ],
            [
              318.4290834196442,
              368.86420509459094
            ],
            [
              318.49927171079577,
              368.1558273704292
            ],
            [
              318.5223580345344,
              367.594687889656
            ],
            [
              318.57115299960503,
              367.0125587026558
            ],
            [
              318.5809412486665,
              366.64280173866223
            ],
            [
              318.59935691784557,
              366.39811677662004
            ],
            [
              318.60122372306586,
              366.30604035279157
            ],
            [
              318.6176194672231,
              366.07796642245836
            ],
            [
              318.61841990292527,
              366.02294235901576
            ],
            [
              318.6267715959332,
              365.9044016407074
            ],
            [
              318.62684145177826,
              365.8986374396368
            ],
            [
              318.62684339030204,
              365.8986099245727
            ],
            [
              318.6303054555287,
              365.61293545088284
            ],
            [
              318.64839668807707,
              365.3231245582255
            ],
            [
              318.6492803402841,
              365.15296908362876
            ],
            [
              318.65478642291794,
              365.0601997194394
            ],
            [
              318.6553534618564,
              364.70048001843605
            ],
            [
              318.6576924511358,
              364.6574389326059
            ],
            [
              318.65631154972976,
              364.338794624822
            ],
            [
              318.68684554714673,
              363.59663092430156
            ],
            [
              318.67666319404697,
              363.0268479874546
            ],
            [
              318.69055683551863,
              362.50200736913916
            ],
            [
              318.6830663168909,
              362.2693185370685
            ],
            [
              318.6869996167694,
              362.07531640829507
            ],
            [
              318.6790545566561,
              361.8547561726576
            ],
            [
              318.68313401931385,
              361.57432313897885
            ],
            [
              318.68008324232284,
              361.50549029403714
            ],
            [
              318.68236604144664,
              361.31712369893467
            ],
            [
              318.6704898195033,
              361.0688860275606
            ],
            [
              318.6717003232928,
              360.8357922321492
            ],
            [
              318.6617378078339,
              360.650361295175
            ],
            [
              318.6619215867964,
              360.53377509853993
            ],
            [
              318.63803676457707,
              360.1218706324339
            ],
            [
              318.63780511535083,
              360.0684173537659
            ],
            [
              318.6184776285333,
              359.7709068429231
            ],
            [
              318.60475022291575,
              359.0027502673421
            ],
            [
              318.55949916174643,
              358.430772978348
            ],
            [
              318.5445780864038,
              357.96725799802834
            ],
            [
              318.54320440332566,
              357.95253780313897
            ],
            [
              318.54279151093084,
              357.9397126525915
            ],
            [
              318.5350301132806,
              357.8565403350845
            ],
            [
              318.5305929037665,
              357.73336040158966
            ],
            [
              318.4973190237442,
              357.3818912403729
            ],
            [
              318.4828140442894,
              357.0546241198178
            ],
            [
              318.4748332037618,
              356.9792569420373
            ],
            [
              318.46248114485485,
              356.7210732912071
            ],
            [
              318.43945291827697,
              356.5130030623907
            ],
            [
              318.4300922335266,
              356.338773917991
            ],
            [
              318.4071560719913,
              356.1402295909486
            ],
            [
              318.3990345081525,
              356.0001695818551
            ],
            [
              318.3436994977556,
              355.54121144442627
            ],
            [
              318.3394974487002,
              355.4765287584414
            ],
            [
              318.30395909352984,
              355.20072462870263
            ],
            [
              318.26967547157585,
              354.7673767107721
            ],
            [
              318.25674990047634,
              354.59948617631414
            ],
            [
              318.2559337352701,
              354.5936799868615
            ],
            [
              318.2418589469877,
              354.41577345742655
            ],
            [
              318.16782256392946,
              353.90144819379225
            ],
            [
              318.12083193362446,
              353.4050901674258
            ],
            [
              318.04704860435226,
              352.93946716908613
            ],
            [
              318.006865724691,
              352.5599995900167
            ],
            [
              317.9930266454658,
              352.47934391731445
            ],
            [
              317.9570101372997,
              352.15391881043206
            ],
            [
              317.9274635834466,
              351.9878250055941
            ],
            [
              317.91421537993847,
              351.87314340786503
            ],
            [
              317.8762568316954,
              351.66416120386697
            ],
            [
              317.85667396935247,
              351.50173755990346
            ],
            [
              317.7630466187628,
              351.0028405778973
            ],
            [
              317.7531795141165,
              350.9262644899807
            ],
            [
              317.7089508126953,
              350.70245005680096
            ],
            [
              317.6292551985627,
              350.1354964167515
            ],
            [
              317.61791560468737,
              350.08128532121265
            ],
            [
              317.5890901646085,
              349.8810371262682
            ],
            [
              317.48637687297,
              349.40124715073955
            ],
            [
              317.4103554189977,
              348.92150006307946
            ],
            [
              317.3001219764532,
              348.44101945307347
            ],
            [
              317.2476192586708,
              348.13502785113087
            ],
            [
              317.22701570551425,
              348.0503081728118
            ],
            [
              317.15808049489533,
              347.6627938969613
            ],
            [
              317.1270528188484,
              347.5393905498786
            ],
            [
              317.11687017149933,
              347.4833296048743
            ],
            [
              317.0619658507743,
              347.2671044164778
            ],
            [
              317.0276566245233,
              347.0842863689315
            ],
            [
              316.88927683786125,
              346.5545809091127
            ],
            [
              316.87171846252767,
              346.46572870010976
            ],
            [
              316.82875715922376,
              346.3085625636397
            ],
            [
              316.715358856872,
              345.76644030870966
            ],
            [
              316.68671913805207,
              345.6659198240463
            ],
            [
              316.63994541649623,
              345.4474323979002
            ],
            [
              316.5153481701481,
              345.0203824080679
            ],
            [
              316.4069849922223,
              344.54805382403237
            ],
            [
              316.3711497770126,
              344.4318473241491
            ],
            [
              316.3653258319864,
              344.40668463313756
            ],
            [
              316.25478173800656,
              344.052582714365
            ],
            [
              316.200039844001,
              343.82748971143553
            ],
            [
              316.1717423096087,
              343.7399273172547
            ],
            [
              316.06068382789033,
              343.2982252592455
            ],
            [
              316.03354447477744,
              343.21695676263295
            ],
            [
              316.0335180477241,
              343.2168526871372
            ],
            [
              316.03057421524136,
              343.2080623528813
            ],
            [
              315.9826959329633,
              343.0646913592909
            ],
            [
              315.9644048515934,
              342.99342356706893
            ],
            [
              315.9410959219963,
              342.92502907824087
            ],
            [
              315.9075943009755,
              342.7967878661757
            ],
            [
              315.718634662333,
              342.247380745878
            ],
            [
              315.69100601571665,
              342.14630635308504
            ],
            [
              315.656712101096,
              342.05077237056656
            ],
            [
              315.51166124228286,
              341.5416688168519
            ],
            [
              315.4587286133574,
              341.39887885000616
            ],
            [
              315.3910835014229,
              341.167029068317
            ],
            [
              315.24954602557807,
              340.7947086759038
            ],
            [
              315.1081628784474,
              340.3362311538957
            ],
            [
              315.0456489232303,
              340.17941107458364
            ],
            [
              315.0296713207905,
              340.1282305955694
            ],
            [
              314.9051260280637,
              339.82057686864584
            ],
            [
              314.86226433621977,
              339.68794791574607
            ],
            [
              314.82527450508815,
              339.5988055292295
            ],
            [
              314.66326057102486,
              339.1136565723913
            ],
            [
              314.6625248231057,
              339.11194244731865
            ],
            [
              314.6619004287381,
              339.1100727083749
            ],
            [
              314.56022287167065,
              338.8731867999362
            ],
            [
              314.5292388328788,
              338.782271535639
            ],
            [
              314.5182258434658,
              338.7571478204941
            ],
            [
              314.49544296918907,
              338.69090577304536
            ],
            [
              314.2509763975297,
              338.13475602687623
            ],
            [
              314.2105463466469,
              338.02212835466025
            ],
            [
              314.19184376236075,
              337.9813564342852
            ],
            [
              314.01822654434903,
              337.51301021178614
            ],
            [
              313.93399613984406,
              337.33409835504574
            ],
            [
              313.8429095773318,
              337.09449125101816
            ],
            [
              313.689563332246,
              336.7775874465844
            ],
            [
              313.51508107117246,
              336.3398880252986
            ],
            [
              313.4193126614922,
              336.1502974888693
            ],
            [
              313.3892927068049,
              336.07614172802516
            ],
            [
              313.25639980814174,
              335.81794926822107
            ],
            [
              313.2361420419118,
              335.76912975291845
            ],
            [
              313.190351462837,
              335.6816935885998
            ],
            [
              312.9668848254025,
              335.16106643212123
            ],
            [
              312.84588535453975,
              334.93824117572467
            ],
            [
              312.7940498466371,
              334.8203178769813
            ],
            [
              312.50409090999057,
              334.2968696827679
            ],
            [
              312.23911488532633,
              333.73404022892356
            ],
            [
              312.1168161625547,
              333.5273639982572
            ],
            [
              312.0001507859529,
              333.28626450690876
            ],
            [
              311.840175076235,
              333.02411482717787
            ],
            [
              311.63322922953836,
              332.6144288543404
            ],
            [
              311.4981674069885,
              332.4019477127076
            ],
            [
              311.45028745980125,
              332.3089236198929
            ],
            [
              311.2552363250173,
              332.0089987971709
            ],
            [
              310.9813816731716,
              331.5046847487208
            ],
            [
              310.97881985052555,
              331.50094283057854
            ],
            [
              310.97660810524116,
              331.49686983000106
            ],
            [
              310.85323974841685,
              331.31667162634443
            ],
            [
              310.8106688449129,
              331.2398205286601
            ],
            [
              310.7784565520605,
              331.1935647544821
            ],
            [
              310.7568018199704,
              331.1545795644494
            ],
            [
              310.47668599976924,
              330.75565950163747
            ],
            [
              310.18287361559584,
              330.259137259172
            ],
            [
              310.0162540925577,
              330.0352841942175
            ]
          ]
        ]
      }
    }
  ]
}