{
  "type": "FeatureCollection",
  "features": [
    {
      "type": "Feature",
      "properties": {
        "method": "Homography",
        "mode": "tmpl2img",
        "inside_ratio": 0.9484126984126984
      },
      "geometry": {
        "type": "Polygon",
        "coordinates": [
          [
            [
              92.49742450946542,
              244.3875749044829
            ],
            [
              91.06437543455603,
              244.66938602403263
            ],
            [
              88.54507274370394,
              245.3316122041429
            ],
            [
              83.85764997016481,
              246.42429658805057
            ],
            [
              83.55331292213931,
              246.51434284020166
            ],
            [
              83.48909421495956,
              246.5294306650562
            ],
            [
              83.41513822609818,
              246.54662026239228
            ],
            [
              83.12007303148972,
              246.6353518588902
            ],
            [
              82.98283615922067,
              246.67629833127472
            ],
            [
              82.20914912853206,
              246.86156952375967
            ],
            [
              81.28216577111183,
              247.14384313420288
            ],
            [
              81.08590105912987,
              247.19165344686294
            ],
            [
              80.87657707926691,
              247.25657430782076
            ],
            [
              80.8021714167399,
              247.27482167169006
            ],
            [
              80.63388020123763,
              247.3273928816331
            ],
            [
              80.28151195241252,
              247.41471067516608
            ],
            [
              80.24189379346456,
              247.42722532562246
            ],
            [
              80.10089484120734,
              247.46215176098255
            ],
            [
              78.99763204690304,
              247.81051312745356
            ],
            [
              78.72753298885021,
              247.87899505824512
            ],
            [
              78.18129133237666,
              248.05584514384344
            ],
            [
              76.98460563841168,
              248.37040702590136
            ],
            [
              74.62329377947869,
              249.15652774880684
            ],
            [
              71.07953171757998,
              250.20504449776618
            ],
            [
              70.72598849001469,
              250.33329419778994
            ],
            [
              70.55458021353827,
              250.38443616964628
            ],
            [
              70.10298209184054,
              250.54799113073884
            ],
            [
              69.61678073764786,
              250.69604320800022
            ],
            [
              69.57958264726608,
              250.70722936620024
            ],
            [
              69.57755480606858,
              250.707987807913
            ],
            [
              69.12135095511341,
              250.84690541315078
            ],
            [
              68.9505351268869,
              250.91081711919432
            ],
            [
              68.8010158980593,
              250.95646174472708
            ],
            [
              68.12236843945631,
              251.21223292975904
            ],
            [
              67.8014860840867,
              251.3117531031786
            ],
            [
              67.45129199004462,
              251.44540112353903
            ],
            [
              67.43942240743179,
              251.44910897196698
            ],
            [
              67.28006094692411,
              251.51040140538888
            ],
            [
              66.62351890033032,
              251.7177082099668
            ],
            [
              65.39854464302773,
              252.19436116401235
            ],
            [
              64.98177337367716,
              252.32929418090632
            ],
            [
              64.42787257677138,
              252.55075619679587
            ],
            [
              63.47166275463244,
              252.8690946465843
            ],
            [
              61.751449395527786,
              253.57265961271412
            ],
            [
              59.55825605055896,
              254.36696684070245
            ],
            [
              59.287331427155095,
              254.48272833364868
            ],
            [
              58.85199023444365,
              254.6406506837858
            ],
            [
              58.83690789129354,
              254.64665897629484
            ],
            [
              58.08275075993324,
              254.97705996693603
            ],
            [
              56.63861304395769,
              255.5173922426285
            ],
            [
              56.32816236246365,
              255.65727729939832
            ],
            [
              56.01974708958276,
              255.77351399759095
            ],
            [
              55.5525113828692,
              255.9864499300816
            ],
            [
              55.159218834444786,
              256.1365460379597
            ],
            [
              54.56952334387704,
              256.408070114134
            ],
            [
              53.82617887998799,
              256.6973148329307
            ],
            [
              52.51814381735044,
              257.31253403599163
            ],
            [
              51.97199304961183,
              257.53089741564503
            ],
            [
              51.422465090955484,
              257.7972003965604
            ],
            [
              50.69849044461615,
              258.09330505988066
            ],
            [
              49.809564041465535,
              258.5324174634269
            ],
            [
              49.115248286997314,
              258.82908680010775
            ],
            [
              49.089759187472154,
              258.84086877357106
            ],
            [
              48.06605131749379,
              259.3654391005314
            ],
            [
              46.581251081464906,
              260.01593943857307
            ],
            [
              46.13844109581594,
              260.2486337459405
            ],
            [
              44.9016959291436,
              260.8058951022811
            ],
            [
              44.47565322920003,
              261.0345682268784
            ],
            [
              44.03066069862722,
              261.2373671527491
            ],
            [
              43.75527664541815,
              261.3874677715587
            ],
            [
              43.30625898367921,
              261.5942170306982
            ],
            [
              42.66412307122679,
              261.94725902427905
            ],
            [
              41.862470017053404,
              262.3243072909555
            ],
            [
              40.51367782057836,
              263.08363309307003
            ],
            [
              39.86104859855863,
              263.39989927119717
            ],
            [
              39.32905705598351,
              263.7095846580431
            ],
            [
              38.82042718476296,
              263.9608379501944
            ],
            [
              37.03079934153728,
              265.02014383308824
            ],
            [
              35.994144010978594,
              265.55134872234134
            ],
            [
              35.71789256041597,
              265.7245769325534
            ],
            [
              35.23754679248858,
              265.97699609515234
            ],
            [
              35.06034554835188,
              266.0881176170166
            ],
            [
              34.035696840346645,
              266.63808507733944
            ],
            [
              33.52197091032751,
              266.96522547201687
            ],
            [
              32.967725854078154,
              267.26732185323215
            ],
            [
              32.85792255885719,
              267.33864192502625
            ],
            [
              32.37266058108977,
              267.6054356874022
            ],
            [
              31.701557418806697,
              268.0445680761633
            ],
            [
              30.86736340747819,
              268.5141919651723
            ],
            [
              29.522185044390817,
              269.4184065276242
            ],
            [
              28.790855934754205,
              269.8441312245527
            ],
            [
              28.289935994965987,
              270.1939837460478
            ],
            [
              27.972529225497663,
              270.38186127569435
            ],
            [
              26.346024524187552,
              271.53486425364804
            ],
            [
              24.148308485362417,
              272.9343686397773
            ],
            [
              23.65271358500769,
              273.31128147902683
            ],
            [
              22.469549976601478,
              274.0854775949963
            ],
            [
              21.79459053103965,
              274.6128132200395
            ],
            [
              20.955307454682362,
              275.17697036119563
            ],
            [
              19.65862002506257,
              276.2222677411899
            ],
            [
              18.880392016386498,
              276.7657977736481
            ],
            [
              18.423657573259348,
              277.15090254701585
            ],
            [
              18.267772912150583,
              277.2614066717966
            ],
            [
              16.81156259972682,
              278.5059777146842
            ],
            [
              16.417638768589423,
              278.8137444569377
            ],
            [
              15.877751773509218,
              279.22434258868753
            ],
            [
              15.815209920145296,
              279.27148549774904
            ],
            [
              15.812082402188453,
              279.27428585723146
            ],
            [
              14.89993748856674,
              279.967995838821
            ],
            [
              14.674911668113433,
              280.1753108308256
            ],
            [
              13.688037545691412,
              280.94634068397147
            ],
            [
              13.035251421935394,
              281.5615574492798
            ],
            [
              12.219144963947842,
              282.21944455671974
            ],
            [
              11.014872729144562,
              283.39776754977373
            ],
            [
              10.224639460737464,
              284.06406852250876
            ],
            [
              9.82401758966096,
              284.47798334202884
            ],
            [
              9.796136753756754,
              284.5018120985795
            ],
            [
              9.414808679079677,
              284.90077012577444
            ],
            [
              8.677486912298129,
              285.6625568080696
            ],
            [
              8.42840128702668,
              285.8855864761816
            ],
            [
              8.298878957086778,
              286.02534067177777
            ],
            [
              7.15616332466458,
              287.10229036396777
            ],
            [
              6.917439782786926,
              287.3222249878082
            ],
            [
              6.8915777447814595,
              287.3516484288511
            ],
            [
              6.098836892531519,
              288.0987652027801
            ],
            [
              5.494484416649163,
              288.7992044435475
            ],
            [
              4.729809819548413,
              289.5474020968114
            ],
            [
              3.6596292633770355,
              290.8469109162023
            ],
            [
              2.8944210053091104,
              291.6375093854814
            ],
            [
              1.6796162611718202,
              293.2206033143704
            ],
            [
              -0.24747214728110978,
              295.45408194740725
            ],
            [
              -0.7775309479470671,
              296.23490717012066
            ],
            [
              -1.4632744227651562,
              297.067598147581
            ],
            [
              -2.410531980953615,
              298.550751127521
            ],
            [
              -3.147326791599413,
              299.51091809854955
            ],
            [
              -3.9858703569426903,
              300.96108534214545
            ],
            [
              -5.319628092039857,
              302.92583279894393
            ],
            [
              -5.750488916733956,
              303.7802339005809
            ],
            [
              -6.331201719407363,
              304.68947544352716
            ],
            [
              -7.088984657979185,
              306.32757421458814
            ],
            [
              -7.744718285589062,
              307.4615921315871
            ],
            [
              -8.255220618353322,
              308.747140619659
            ],
            [
              -9.104428554830955,
              310.4311280115486
            ],
            [
              -9.41252254857166,
              311.35036421072795
            ],
            [
              -9.86412183763285,
              312.32658603200434
            ],
            [
              -10.197097196140533,
              313.4697287832256
            ],
            [
              -10.212506296200644,
              313.50488005554524
            ],
            [
              -10.266059404088983,
              313.7064839848008
            ],
            [
              -10.37748296593483,
              314.0890139041624
            ],
            [
              -10.423779302351956,
              314.1990841495955
            ],
            [
              -10.428797837465178,
              314.21898847935296
            ],
            [
              -10.629586405262728,
              314.7116141405389
            ],
            [
              -10.638477080318301,
              314.7486641088458
            ],
            [
              -10.89571232087668,
              315.39643465435745
            ],
            [
              -11.137361485800616,
              316.49663262579605
            ],
            [
              -11.605737073668603,
              317.89408860978244
            ],
            [
              -11.766349234512422,
              318.8571517461019
            ],
            [
              -12.069441049879973,
              319.897700852335
            ],
            [
              -12.202638641671237,
              320.996854217449
            ],
            [
              -12.23975274417,
              321.13657251186044
            ],
            [
              -12.279211460040267,
              321.55803106506147
            ],
            [
              -12.300615537202695,
              321.6429231302162
            ],
            [
              -12.304801925656356,
              321.6927130498579
            ],
            [
              -12.406629404057727,
              322.11705707589243
            ],
            [
              -12.423780315670152,
              322.35353425218455
            ],
            [
              -12.61546613386343,
              323.22625544862683
            ],
            [
              -12.655951401617267,
              324.1913870158934
            ],
            [
              -12.850078691186233,
              325.3554136708814
            ],
            [
              -12.846019375075928,
              326.30606505727496
            ],
            [
              -12.969812490451197,
              327.32761220024076
            ],
            [
              -12.91671352860611,
              328.36719080480816
            ],
            [
              -12.939700035944982,
              328.6127096949407
            ],
            [
              -12.90697925324522,
              329.01589266877625
            ],
            [
              -12.93236980320487,
              329.36597817408494
            ],
            [
              -12.89081387239031,
              329.7902924223476
            ],
            [
              -12.936072598852357,
              330.8692188572338
            ],
            [
              -12.823083676947657,
              331.67737702904645
            ],
            [
              -12.819035921520255,
              332.625321018717
            ],
            [
              -12.651743054301068,
              333.5548183280682
            ],
            [
              -12.601031845707693,
              334.54764917886365
            ],
            [
              -12.379547240091176,
              335.5148694662317
            ],
            [
              -12.351246941549002,
              335.86358357345205
            ],
            [
              -12.265366148141474,
              336.190925197214
            ],
            [
              -12.248303549923422,
              336.3683719793469
            ],
            [
              -12.245614010296702,
              336.3782207661318
            ],
            [
              -12.243967573484264,
              336.39503200305114
            ],
            [
              -12.080181801940924,
              336.99101495943546
            ],
            [
              -11.903975522389118,
              338.2513380277739
            ],
            [
              -11.689262539849965,
              338.90246442534556
            ],
            [
              -11.556441466105804,
              339.6404327124779
            ],
            [
              -11.228716533980213,
              340.5405316479339
            ],
            [
              -11.00993744300103,
              341.4959369893562
            ],
            [
              -10.641345548109937,
              342.3810117014358
            ],
            [
              -10.524444445244963,
              342.82658975578556
            ],
            [
              -10.424673946550229,
              343.046295202554
            ],
            [
              -10.402628011566566,
              343.12702489729946
            ],
            [
              -10.027204074833936,
              343.94272854011865
            ],
            [
              -9.577438126282173,
              345.3066632140519
            ],
            [
              -9.311814660968968,
              345.80531673489645
            ],
            [
              -9.115619821194413,
              346.3441673047243
            ],
            [
              -8.631486067465051,
              347.20715092428736
            ],
            [
              -8.252394611789345,
              348.1174375194011
            ],
            [
              -7.76025683871847,
              348.91363032390797
            ],
            [
              -7.518395544677608,
              349.4462350954486
            ],
            [
              -6.768085232194064,
              350.5806464831201
            ],
            [
              -6.0241585493606555,
              351.9772160941927
            ],
            [
              -5.756425605944709,
              352.3320364841866
            ],
            [
              -5.557488993484721,
              352.68664724322593
            ],
            [
              -4.922056630871867,
              353.50534164313416
            ],
            [
              -4.391424463201955,
              354.3638116425047
            ],
            [
              -4.383596159564661,
              354.37313244676045
            ],
            [
              -4.3780461991692725,
              354.38211136392954
            ],
            [
              -3.807355910960823,
              355.0616034184795
            ],
            [
              -3.6046948891013977,
              355.37191536879476
            ],
            [
              -3.581813627559422,
              355.39804367511624
            ],
            [
              -3.3993178102636588,
              355.6739632911701
            ],
            [
              -2.474127061426144,
              356.7127065038994
            ],
            [
              -2.3109853250515235,
              356.9414644409526
            ],
            [
              -2.1436625919008887,
              357.119949264925
            ],
            [
              -1.319099451354072,
              358.212724070193
            ],
            [
              -1.0951946161171255,
              358.4358908015632
            ],
            [
              -0.9488366912619713,
              358.62445912214724
            ],
            [
              -0.17952187813383602,
              359.38108186671525
            ],
            [
              0.15058417182500547,
              359.77412244010645
            ],
            [
              0.2771410080412826,
              359.9273090794095
            ],
            [
              0.28673561554388816,
              359.9362310761459
            ],
            [
              0.5175656778187624,
              360.2110687534398
            ],
            [
              1.1059664919906596,
              360.7510594917489
            ],
            [
              1.374261594622106,
              361.05742794148136
            ],
            [
              1.4268463037099943,
              361.104085445458
            ],
            [
              1.570371543367748,
              361.26622984109713
            ],
            [
              1.622303155550979,
              361.311908441066
            ],
            [
              1.7611901700653774,
              361.4678416298124
            ],
            [
              2.6848101553037713,
              362.27052917781583
            ],
            [
              2.796552951251243,
              362.3897263298651
            ],
            [
              3.272300922770066,
              362.78898886063223
            ],
            [
              4.457425646244044,
              363.970206812102
            ],
            [
              4.594169879514937,
              364.0760177990051
            ],
            [
              4.6392002693989465,
              364.12030528262176
            ],
            [
              5.5132425683732125,
              364.7963442135673
            ],
            [
              6.114248371284102,
              365.3552177068473
            ],
            [
              6.157264517983713,
              365.3867671331432
            ],
            [
              6.375607259465491,
              365.587145948631
            ],
            [
              6.944569348051533,
              365.999865784605
            ],
            [
              7.279883465858217,
              366.29738420881745
            ],
            [
              7.332120122205212,
              366.3342143961889
            ],
            [
              7.487940207837522,
              366.4712724049762
            ],
            [
              7.64459369158284,
              366.5809128301742
            ],
            [
              7.887654896319424,
              366.7921492754229
            ],
            [
              8.745119003432256,
              367.38194842770207
            ],
            [
              8.772656353556586,
              367.40505863049725
            ],
            [
              9.043946442291734,
              367.58749425598074
            ],
            [
              9.74801259230717,
              368.0717799712432
            ],
            [
              10.370300228406881,
              368.55309611434325
            ],
            [
              10.512487498474837,
              368.665589631315
            ],
            [
              10.53036043038675,
              368.6768966763524
            ],
            [
              11.132439139413858,
              369.14258197244294
            ],
            [
              11.179390872667739,
              369.171579897658
            ],
            [
              11.334364500404725,
              369.2914965632651
            ],
            [
              12.205449502568435,
              369.822700637932
            ],
            [
              12.851515570673985,
              370.2965462833809
            ],
            [
              12.936365956120556,
              370.3462596179756
            ],
            [
              13.120852403471579,
              370.4800843803211
            ],
            [
              13.637486979220922,
              370.77990175500736
            ],
            [
              14.039609731166092,
              371.0634240425388
            ],
            [
              14.08966206494882,
              371.09176072180026
            ],
            [
              14.251157123518887,
              371.204789723551
            ],
            [
              14.534902500467092,
              371.36440013628
            ],
            [
              14.901997632621846,
              371.6169032975832
            ],
            [
              17.005545083238236,
              372.77332611869133
            ],
            [
              17.668971181026464,
              373.1930327904726
            ],
            [
              17.792180889645785,
              373.2557143282106
            ],
            [
              18.45473454358492,
              373.6649150110099
            ],
            [
              18.728388316516682,
              373.8005118367989
            ],
            [
              19.13656268353514,
              374.0494242694472
            ],
            [
              19.821037945079404,
              374.3799478604348
            ],
            [
              20.41089820169597,
              374.7255434655152
            ],
            [
              20.54448833185919,
              374.788226225969
            ],
            [
              20.676364136595176,
              374.86475741342167
            ],
            [
              21.112401998285282,
              375.06762186518347
            ],
            [
              21.579371031181633,
              375.3319921893994
            ],
            [
              21.62578994613976,
              375.35311524417284
            ],
            [
              21.786684294609834,
              375.4436203781797
            ],
            [
              22.216934074274892,
              375.6382812957943
            ],
            [
              22.724570135553275,
              375.9173536437495
            ],
            [
              24.918225368841767,
              376.881008397371
            ],
            [
              25.569659138949973,
              377.21241791777413
            ],
            [
              25.749076895286176,
              377.28557020051
            ],
            [
              26.006954897170754,
              377.41513415748966
            ],
            [
              26.093673135858303,
              377.45004764193703
            ],
            [
              26.528848465085115,
              377.66567921416856
            ],
            [
              27.063706956241653,
              377.87733206754126
            ],
            [
              27.774447254792996,
              378.22053867986745
            ],
            [
              28.221238211019962,
              378.3902877941549
            ],
            [
              28.713407317644325,
              378.6212219071488
            ],
            [
              28.9008986105485,
              378.6911812716402
            ],
            [
              28.964314175459965,
              378.7206850485819
            ],
            [
              29.296306582434728,
              378.8436049116062
            ],
            [
              29.824332326094822,
              379.0838844768267
            ],
            [
              29.865999265934036,
              379.0990013692451
            ],
            [
              30.02044883889753,
              379.16888006998613
            ],
            [
              30.61361431641105,
              379.3829460536436
            ],
            [
              31.27496740179398,
              379.67347304023855
            ],
            [
              33.51400662185751,
              380.4514905998834
            ],
            [
              34.13942532524906,
              380.7064865754978
            ],
            [
              34.292601337145825,
              380.75588416966843
            ],
            [
              34.36185914729661,
              380.78401835684014
            ],
            [
              34.42381341243562,
              380.80383142951587
            ],
            [
              34.59924362550709,
              380.8744610929927
            ],
            [
              34.79520294042662,
              380.9368201620025
            ],
            [
              35.2771199150783,
              381.1275231319696
            ],
            [
              35.92154246520773,
              381.3281400260354
            ],
            [
              36.49023622138491,
              381.54770602503714
            ],
            [
              36.68964030314354,
              381.6076845084519
            ],
            [
              37.15575786958102,
              381.78477637423936
            ],
            [
              37.323830028695006,
              381.8340628425228
            ],
            [
              37.679755516846654,
              381.9668707216101
            ],
            [
              38.14182013286174,
              382.10149433365484
            ],
            [
              38.699454737801204,
              382.30380586322286
            ],
            [
              38.73552519940364,
              382.3140418578655
            ],
            [
              38.878190117890036,
              382.3655278381969
            ],
            [
              39.64766247467306,
              382.5828029572326
            ],
            [
              40.47263425055832,
              382.86946275403125
            ],
            [
              42.71473240807501,
              383.47192963602856
            ],
            [
              43.30315527510406,
              383.6616895966401
            ],
            [
              43.55309851389331,
              383.72379772758006
            ],
            [
              43.77959507287857,
              383.7958744979965
            ],
            [
              44.10188006199806,
              383.8747826299542
            ],
            [
              44.62798789109868,
              384.0385666542685
            ],
            [
              45.29215027209233,
              384.1952218193473
            ],
            [
              46.184981104762294,
              384.4637751950715
            ],
            [
              46.47666306859736,
              384.5298704155519
            ],
            [
              47.23081718208097,
              384.7495949892958
            ],
            [
              47.617960224096315,
              384.83467933418575
            ],
            [
              48.12989359127673,
              384.97995463618633
            ],
            [
              48.15974334843206,
              384.98635049052723
            ],
            [
              48.28584693772418,
              385.0219582315092
            ],
            [
              49.09852607388079,
              385.19525532100664
            ],
            [
              49.26495572224119,
              385.2409803010826
            ],
            [
              49.41176999582247,
              385.2714687599363
            ],
            [
              50.237286206163226,
              385.4932905279161
            ],
            [
              52.443052172734845,
              385.9328529058328
            ],
            [
              52.986071270662,
              386.06778714691126
            ],
            [
              53.272266606525974,
              386.120056520975
            ],
            [
              53.4735899044582,
              386.16934843929266
            ],
            [
              53.54850579826213,
              386.18279152593044
            ],
            [
              53.589428271047005,
              386.1928130036816
            ],
            [
              54.293112520731526,
              386.31826772997056
            ],
            [
              55.093492275053116,
              386.5070523195999
            ],
            [
              55.50559153405974,
              386.57582831368137
            ],
            [
              56.41780585253989,
              386.78253635183074
            ],
            [
              56.65141367240914,
              386.8200061652235
            ],
            [
              57.2879240515388,
              386.9598952055706
            ],
            [
              57.58899663358215,
              387.00673980988176
            ],
            [
              58.0412514636693,
              387.10364364740485
            ],
            [
              58.06442750581876,
              387.1071594831316
            ],
            [
              58.16980320890605,
              387.1296299783585
            ],
            [
              58.86492643423323,
              387.234576052393
            ],
            [
              58.997052017674775,
              387.262014157125
            ],
            [
              59.43885193202874,
              387.3269674330486
            ],
            [
              60.48916706790401,
              387.5362729648638
            ],
            [
              67.4936867995625,
              388.5651829247959
            ],
            [
              67.50490193263884,
              388.56660798063876
            ],
            [
              68.01327861355449,
              388.6164131313017
            ],
            [
              68.35970573256883,
              388.6689665756687
            ],
            [
              68.37588343429901,
              388.67049066598696
            ],
            [
              68.45701109500943,
              388.68273889648236
            ],
            [
              69.01853591892142,
              388.7353693749001
            ],
            [
              69.11187974427051,
              388.7490927529401
            ],
            [
              70.07673974848248,
              388.8369927905778
            ],
            [
              71.05039346514637,
              388.9706649810033
            ],
            [
              72.89909009525255,
              389.11851882404704
            ],
            [
              73.6130535874821,
              389.2061504845379
            ],
            [
              74.20921591527953,
              389.246199963382
            ],
            [
              74.64280354887315,
              389.2972405309026
            ],
            [
              75.27406934501897,
              389.3360733376855
            ],
            [
              75.74965305470539,
              389.3910356010416
            ],
            [
              76.1159415886955,
              389.41022285036337
            ],
            [
              78.42439806070036,
              389.63638000254184
            ],
            [
              78.79622765022424,
              389.6521842337772
            ],
            [
              79.01203004719295,
              389.67251483136465
            ],
            [
              79.0209776711778,
              389.67287609290116
            ],
            [
              79.07501060170846,
              389.67794047983966
            ],
            [
              79.49056967270046,
              389.6946052950274
            ],
            [
              79.54108202562412,
              389.6992070379781
            ],
            [
              80.73720993495341,
              389.74539081682946
            ],
            [
              81.9395080935971,
              389.84154742811194
            ],
            [
              83.79102156533158,
              389.8898943143326
            ],
            [
              84.41038948395581,
              389.93150271727126
            ],
            [
              84.68151162098782,
              389.9354863334415
            ],
            [
              84.71080531641444,
              389.9374511532727
            ],
            [
              84.75859460472834,
              389.93935767309466
            ],
            [
              85.17756480821495,
              389.94529456925926
            ],
            [
              85.66048181802026,
              389.9750015849855
            ],
            [
              86.57066208833137,
              389.9826285099343
            ],
            [
              86.75481714983978,
              389.9904558299168
            ],
            [
              88.11712246373828,
              390.0576391097084
            ],
            [
              88.32940325092403,
              390.0573819797938
            ],
            [
              89.62352781739185,
              390.1123874028937
            ],
            [
              89.84935980851115,
              390.1100734953556
            ],
            [
              89.92552861437476,
              390.11314882125873
            ],
            [
              89.92707991345678,
              390.1131318691827
            ],
            [
              89.9518640341578,
              390.1141257658867
            ],
            [
              90.21276034170587,
              390.11125196016314
            ],
            [
              90.21678024919738,
              390.1114071730959
            ],
            [
              90.62472987280405,
              390.1067140638393
            ],
            [
              91.65840134092385,
              390.09532804229275
            ],
            [
              93.07793163298967,
              390.13239494489005
            ],
            [
              94.91101989940873,
              390.08578920079196
            ],
            [
              95.43332414714372,
              390.09346345296115
            ],
            [
              95.49027476505951,
              390.0914278448567
            ],
            [
              95.70806259329404,
              390.09451394432574
            ],
            [
              96.50542593231607,
              390.0658776208254
            ],
            [
              96.90329747879228,
              390.06921161577475
            ],
            [
              97.43806907245046,
              390.0463489019629
            ],
            [
              98.93991453455257,
              390.0445297576232
            ],
            [
              99.63320901410498,
              390.00982674861046
            ],
            [
              101.02394709918462,
              389.9955770432366
            ],
            [
              101.04066474529569,
              389.9949763061878
            ],
            [
              102.89537873163427,
              389.88278916455374
            ],
            [
              104.39010982726835,
              389.8447860546092
            ],
            [
              105.95511191767619,
              389.72650377252035
            ],
            [
              106.80846751090716,
              389.6958565560842
            ],
            [
              107.99897548783665,
              389.5948458979781
            ],
            [
              108.29504007014316,
              389.58218845712736
            ],
            [
              108.4338240177478,
              389.5693100118256
            ],
            [
              109.88848831300608,
              389.49649646775083
            ],
            [
              110.86367560263557,
              389.40091853913407
            ],
            [
              111.99857788077404,
              389.33272435261586
            ],
            [
              112.01049396408956,
              389.33143799607853
            ],
            [
              112.18951837826346,
              389.32060924433955
            ],
            [
              112.562966346415,
              389.2798510042015
            ],
            [
              112.62545298709125,
              389.2760167645043
            ],
            [
              112.79989122429535,
              389.256524469415
            ],
            [
              112.80162147112705,
              389.2564181284546
            ],
            [
              112.88135908868084,
              389.2474830251596
            ],
            [
              113.23807212918844,
              389.22524246808575
            ],
            [
              114.4957175171961,
              389.0810079441592
            ],
            [
              115.80064717348293,
              388.98238184093435
            ],
            [
              117.02677081726877,
              388.82886737020567
            ],
            [
              117.98907738161184,
              388.747218846007
            ],
            [
              119.25044948917903,
              388.5789323582597
            ],
            [
              120.89551565098026,
              388.4176997234067
            ],
            [
              122.09491972341405,
              388.24281125171075
            ],
            [
              123.00910513430695,
              388.1441237595942
            ],
            [
              123.0910909340174,
              388.13134912038674
            ],
            [
              123.50647882802517,
              388.08609732590054
            ],
            [
              123.74095018665427,
              388.04917456511004
            ],
            [
              123.93238502519628,
              388.0280945254493
            ],
            [
              123.99748355260553,
              388.0177145048882
            ],
            [
              124.0542022388929,
              388.0114426521506
            ],
            [
              124.38524943404792,
              387.9583995076332
            ],
            [
              124.4438333573189,
              387.9518348092893
            ],
            [
              124.68822567379165,
              387.9120682926376
            ],
            [
              125.28444637182386,
              387.8436900284969
            ],
            [
              126.4457867967396,
              387.64957745094654
            ],
            [
              127.23406056812993,
              387.55088313784194
            ],
            [
              128.1235652193963,
              387.3951219087889
            ],
            [
              129.17903251809582,
              387.25430629730863
            ],
            [
              130.3944585670704,
              387.03263221572354
            ],
            [
              131.8934875956153,
              386.8140545888389
            ],
            [
              133.21915454754702,
              386.5566192509201
            ],
            [
              134.6434387924375,
              386.33233383379917
            ],
            [
              134.86312345859474,
              386.28690631786696
            ],
            [
              134.95259958852984,
              386.2728046763097
            ],
            [
              134.99101815674967,
              386.2647852176109
            ],
            [
              135.2474383144225,
              386.22389878568356
            ],
            [
              135.36748931180517,
              386.1987333770369
            ],
            [
              135.43899660333014,
              386.1872758819912
            ],
            [
              135.84432115176648,
              386.10185816304556
            ],
            [
              136.00595729496195,
              386.0756425759957
            ],
            [
              136.52313504037676,
              385.9651961959161
            ],
            [
              137.28786504987798,
              385.8373751797089
            ],
            [
              138.31925195019824,
              385.6097544078844
            ],
            [
              138.61451750921302,
              385.55805043275103
            ],
            [
              139.17733374658235,
              385.4307776308722
            ],
            [
              140.30710914516308,
              385.2247248446177
            ],
            [
              141.46845900093743,
              384.95466147678854
            ],
            [
              142.8144964430187,
              384.6932703308083
            ],
            [
              143.46156034707266,
              384.5354406137895
            ],
            [
              143.55713805543073,
              384.5166014216934
            ],
            [
              144.23097002154446,
              384.349775217909
            ],
            [
              145.6838031614242,
              384.0493509699871
            ],
            [
              145.95737519837468,
              383.9788533954706
            ],
            [
              146.45922250188457,
              383.8736548319747
            ],
            [
              146.63204295124754,
              383.8284636887007
            ],
            [
              146.71777994184959,
              383.81039555491867
            ],
            [
              146.72338149000083,
              383.8089224083417
            ],
            [
              146.7683075151602,
              383.7994547363381
            ],
            [
              147.2169194270875,
              383.68147500855184
            ],
            [
              147.45369669855145,
              383.6309098155406
            ],
            [
              148.25826144383225,
              383.416275887436
            ],
            [
              149.15907905232157,
              383.21747095860576
            ],
            [
              150.32706092428745,
              382.894658749972
            ],
            [
              151.3014878294685,
              382.6680629395819
            ],
            [
              151.66872685635957,
              382.5634868980563
            ],
            [
              151.68033165993484,
              382.56076969854917
            ],
            [
              151.96699902659063,
              382.4785500569922
            ],
            [
              152.10425961277966,
              382.4394633376906
            ],
            [
              152.2755059385508,
              382.3989929749331
            ],
            [
              152.5711989738964,
              382.3134472718379
            ],
            [
              153.5900258258721,
              382.06493834910026
            ],
            [
              154.25854303742256,
              381.8671652742727
            ],
            [
              154.45529709787667,
              381.8184532293781
            ],
            [
              155.14545610434374,
              381.6111500821904
            ],
            [
              156.55598593867944,
              381.2476665434159
            ],
            [
              156.79642312330023,
              381.1728614603423
            ],
            [
              156.84620285293633,
              381.1599821879026
            ],
            [
              156.8940469349585,
              381.145033029915
            ],
            [
              157.492563393755,
              380.98852583913117
            ],
            [
              157.6372911685119,
              380.9427861133486
            ],
            [
              157.64212448396012,
              380.9415215946103
            ],
            [
              157.67442897370043,
              380.93127133179365
            ],
            [
              157.86479450208878,
              380.88120740655825
            ],
            [
              158.4050905262057,
              380.7094038842449
            ],
            [
              158.70807368338566,
              380.6285769954739
            ],
            [
              159.789579573736,
              380.2793642683185
            ],
            [
              160.80783137732283,
              379.9979351455313
            ],
            [
              161.53642555928982,
              379.7535326346273
            ],
            [
              162.0895423235201,
              379.59602551400934
            ],
            [
              162.47907393025818,
              379.4635608007053
            ],
            [
              162.532785104764,
              379.44815579117665
            ],
            [
              162.8449994562107,
              379.3411774491647
            ],
            [
              163.15729854521405,
              379.2508275188245
            ],
            [
              163.48448112733453,
              379.13777833753426
            ],
            [
              164.15076284228923,
              378.940666608485
            ],
            [
              164.83149254580297,
              378.70175410346025
            ],
            [
              165.12763686810504,
              378.61280119629015
            ],
            [
              165.83113532972052,
              378.3619717960771
            ],
            [
              167.18751341400014,
              377.93997394480743
            ],
            [
              167.38839422271914,
              377.8660139970553
            ],
            [
              167.5182696104007,
              377.82543368687243
            ],
            [
              167.61911549302675,
              377.78813312315356
            ],
            [
              168.27132818222185,
              377.58200800581113
            ],
            [
              168.27398899448423,
              377.58101166549324
            ],
            [
              168.3039165652701,
              377.5715533623425
            ],
            [
              168.47714105025773,
              377.506689668873
            ],
            [
              168.70110000729798,
              377.4354751198897
            ],
            [
              169.32284042151824,
              377.20112304089696
            ],
            [
              169.68769395835827,
              377.0833136976942
            ],
            [
              171.02871063046803,
              376.5694030285868
            ],
            [
              172.14259155300834,
              376.1957584112537
            ],
            [
              172.45251618595802,
              376.07197679004946
            ],
            [
              172.59766499416037,
              376.0226172645783
            ],
            [
              172.93408405195692,
              375.88815390699153
            ],
            [
              173.1051794842884,
              375.8297988410447
            ],
            [
              173.38485442248657,
              375.716969417188
            ],
            [
              173.74652092933133,
              375.5920052389776
            ],
            [
              174.09199816620648,
              375.4516379646414
            ],
            [
              174.42644678474952,
              375.33425810469464
            ],
            [
              175.10994304749988,
              375.05365215994436
            ],
            [
              175.50111971745827,
              374.91417977321225
            ],
            [
              175.97793795137494,
              374.7151418122189
            ],
            [
              176.13557735454197,
              374.65895817520413
            ],
            [
              176.15144953202932,
              374.65276866839685
            ],
            [
              176.39317937920413,
              374.55064781576624
            ],
            [
              177.50487563304426,
              374.1413454171214
            ],
            [
              177.6659584593583,
              374.0720378651394
            ],
            [
              177.87147061473053,
              373.99602366360426
            ],
            [
              177.99273631175257,
              373.9435868299542
            ],
            [
              178.75118659076347,
              373.6595860640462
            ],
            [
              178.9515606193428,
              373.57177782739393
            ],
            [
              179.19847253502945,
              373.4787095316141
            ],
            [
              179.88903985458492,
              373.173906302285
            ],
            [
              180.3099320634872,
              373.0126100252141
            ],
            [
              181.7679373600479,
              372.35735043818954
            ],
            [
              182.75114581644397,
              371.9643717790125
            ],
            [
              182.83603863864985,
              371.9248742162341
            ],
            [
              183.07036804939474,
              371.8312847713376
            ],
            [
              183.39596103965062,
              371.6781828206565
            ],
            [
              183.6651979408919,
              371.56956442015286
            ],
            [
              183.77891207497052,
              371.5158484046237
            ],
            [
              183.96595900460548,
              371.4398513058763
            ],
            [
              184.31612228991915,
              371.27410168592195
            ],
            [
              184.3457697807448,
              371.26193005803486
            ],
            [
              185.00023779463194,
              370.95027594613754
            ],
            [
              185.02362054615523,
              370.93920773213347
            ],
            [
              185.5016009390285,
              370.73968465179547
            ],
            [
              186.09506111216615,
              370.4520044488069
            ],
            [
              186.47519791991036,
              370.2914123854871
            ],
            [
              186.62899738022253,
              370.21559767140286
            ],
            [
              187.43343900268562,
              369.86947834359495
            ],
            [
              187.55578005513385,
              369.8084047770893
            ],
            [
              187.8301470171419,
              369.68976500426623
            ],
            [
              187.9678661041008,
              369.6206375955533
            ],
            [
              188.78820716712497,
              369.2611463844999
            ],
            [
              189.01126488519188,
              369.14753035126853
            ],
            [
              189.27692533565255,
              369.03027290088824
            ],
            [
              190.0213401987882,
              368.6480900202704
            ],
            [
              190.49084450909945,
              368.4370844764598
            ],
            [
              191.75170684703383,
              367.77673594457883
            ],
            [
              192.47412289562436,
              367.4406218598934
            ],
            [
              192.8906055062873,
              367.21615300339244
            ],
            [
              193.06237973211898,
              367.13553218046076
            ],
            [
              193.0831038487554,
              367.12425525004585
            ],
            [
              193.4699642089424,
              366.9411350876366
            ],
            [
              193.49662843903545,
              366.9285969011192
            ],
            [
              193.49896768007264,
              366.9274063087511
            ],
            [
              193.73719658456415,
              366.81464077324955
            ],
            [
              194.78251111358827,
              366.240757438515
            ],
            [
              195.0538035564105,
              366.10924825128706
            ],
            [
              195.72364882645596,
              365.73355212566554
            ],
            [
              195.9307394455254,
              365.63200696667946
            ],
            [
              195.95256419266144,
              365.6195896573627
            ],
            [
              196.3103144478951,
              365.44323836679496
            ],
            [
              196.38006397240318,
              365.4032563833357
            ],
            [
              196.8974381404957,
              365.1449793370705
            ],
            [
              196.98335221211767,
              365.0953593156148
            ],
            [
              197.3174890548701,
              364.92764099417377
            ],
            [
              197.47010433481748,
              364.83896038860337
            ],
            [
              198.33532375003443,
              364.3982547332115
            ],
            [
              198.57571474916134,
              364.25627079490886
            ],
            [
              198.8552421990595,
              364.1127612932784
            ],
            [
              199.11451021196717,
              363.9582701605875
            ],
            [
              199.16702105950185,
              363.93119531637427
            ],
            [
              199.668414526331,
              363.6305368425436
            ],
            [
              200.14518785652325,
              363.3808374430468
            ],
            [
              201.20620531244663,
              362.7343496055335
            ],
            [
              201.68962351696652,
              362.47380491818427
            ],
            [
              202.02478022576148,
              362.2647124934168
            ],
            [
              202.98066989334862,
              361.7399238916658
            ],
            [
              203.15626690776668,
              361.6281426405786
            ],
            [
              203.27472961556893,
              361.56293521223563
            ],
            [
              204.07748144947956,
              361.0481379099883
            ],
            [
              204.08138692040717,
              361.0459474484577
            ],
            [
              204.12132466648399,
              361.0200216617519
            ],
            [
              204.78618694827233,
              360.5936516497809
            ],
            [
              205.08670042226996,
              360.4226728642308
            ],
            [
              205.17616323526835,
              360.36356799134694
            ],
            [
              205.82006606426668,
              359.9916792938871
            ],
            [
              205.83680131917956,
              359.981282693678
            ],
            [
              205.8812971101843,
              359.9514440853762
            ],
            [
              206.2556318852099,
              359.73392828652635
            ],
            [
              206.42091554348104,
              359.6226010252283
            ],
            [
              207.31179218738063,
              359.0964158731104
            ],
            [
              207.56326931889262,
              358.92387216592726
            ],
            [
              207.85109923406782,
              358.7523617311465
            ],
            [
              208.1566756777078,
              358.54058690885034
            ],
            [
              208.25770909918458,
              358.4800026445628
            ],
            [
              208.72818991363042,
              358.1511341914037
            ],
            [
              209.18656692574694,
              357.8718408002571
            ],
            [
              210.0498915859529,
              357.25812915699015
            ],
            [
              210.3197156562052,
              357.08979545627545
            ],
            [
              210.5670404189338,
              356.9106049457019
            ],
            [
              211.62102413004425,
              356.23966177365094
            ],
            [
              211.91288922393537,
              356.0233636099771
            ],
            [
              212.14854100354577,
              355.87224231035464
            ],
            [
              213.43030841748924,
              354.910350219606
            ],
            [
              213.60725855339274,
              354.7934456093124
            ],
            [
              213.7223583786555,
              354.7046941803725
            ],
            [
              214.56587353708557,
              354.13654223218407
            ],
            [
              214.74070920640966,
              353.99928089654674
            ],
            [
              215.6360240377148,
              353.38498670938634
            ],
            [
              215.8914426546629,
              353.1801314936724
            ],
            [
              216.18132600112608,
              352.9792325190865
            ],
            [
              216.5120804681144,
              352.710853410428
            ],
            [
              216.55560500699912,
              352.6804766838046
            ],
            [
              216.56190789644603,
              352.67532596212095
            ],
            [
              216.6604168949395,
              352.6064676772312
            ],
            [
              217.09367013247805,
              352.2509179583864
            ],
            [
              217.52773926276117,
              351.9423512145912
            ],
            [
              218.20064681891134,
              351.37994229289484
            ],
            [
              218.28579050441536,
              351.31825441211436
            ],
            [
              218.44855386267972,
              351.1798510100091
            ],
            [
              219.5680907690954,
              350.35017393628004
            ],
            [
              219.950795787963,
              350.0171026918116
            ],
            [
              220.2831228648826,
              349.76771049838317
            ],
            [
              221.33668263506482,
              348.83342411859763
            ],
            [
              221.40971846087774,
              348.77710749179073
            ],
            [
              221.5191396073002,
              348.6776184808527
            ],
            [
              222.16903588120476,
              348.1673929020111
            ],
            [
              222.34918303641322,
              348.0007839005417
            ],
            [
              223.22598766252113,
              347.29755403043004
            ],
            [
              223.47732046828662,
              347.0591537678899
            ],
            [
              223.76232968595812,
              346.82789303694625
            ],
            [
              224.016573060516,
              346.58337308585976
            ],
            [
              224.08680779676928,
              346.5259772546438
            ],
            [
              224.1811375173201,
              346.43458049644727
            ],
            [
              224.28810617970004,
              346.34679655269457
            ],
            [
              224.67770352222834,
              345.9664877358985
            ],
            [
              225.08110225020155,
              345.6293314035934
            ],
            [
              225.69280641705092,
              345.01980854148627
            ],
            [
              225.74275752427633,
              344.97733336001477
            ],
            [
              225.74979813139257,
              344.9701844859754
            ],
            [
              226.74396396890063,
              344.1049539915225
            ],
            [
              227.18633962719977,
              343.64600617721004
            ],
            [
              227.5891951209503,
              343.28875791139103
            ],
            [
              228.54206885174506,
              342.27329672090553
            ],
            [
              228.98598915308764,
              341.86273726437037
            ],
            [
              229.1658385878896,
              341.6633431849707
            ],
            [
              229.99978726077347,
              340.87230605014014
            ],
            [
              230.23815937466327,
              340.5997285410949
            ],
            [
              230.51070539964712,
              340.3376059162145
            ],
            [
              230.69499027236122,
              340.1232607797072
            ],
            [
              230.78537979050282,
              340.03568171252516
            ],
            [
              230.94457892270069,
              339.8490230912902
            ],
            [
              231.05398537725742,
              339.7422250340672
            ],
            [
              231.3934446800522,
              339.339498453355
            ],
            [
              231.75938837407475,
              338.97485969520926
            ],
            [
              232.1709948940807,
              338.4746171169843
            ],
            [
              233.0677193957521,
              337.54429976709577
            ],
            [
              233.534642116326,
              336.95279702928883
            ],
            [
              233.97812094845375,
              336.48018924478146
            ],
            [
              234.71091271428094,
              335.5156733196254
            ],
            [
              234.93835912305323,
              335.26350979551046
            ],
            [
              235.1106909038872,
              335.0280092434193
            ],
            [
              235.29867200478415,
              334.81305364566276
            ],
            [
              235.47917781246358,
              334.6094404549284
            ],
            [
              235.49020312818212,
              334.59403861211314
            ],
            [
              235.87644026460552,
              334.15237807208825
            ],
            [
              236.0921894104157,
              333.84567885468005
            ],
            [
              236.34405375355072,
              333.55273078891827
            ],
            [
              236.46707178641586,
              333.37398211913336
            ],
            [
              236.56949902491922,
              333.2538877012057
            ],
            [
              236.76645325135695,
              332.9650866983932
            ],
            [
              236.8724002358599,
              332.8393936728846
            ],
            [
              237.15525889752038,
              332.4170331029827
            ],
            [
              237.47659167655985,
              332.02650396886156
            ],
            [
              237.7246808068921,
              331.64481082990505
            ],
            [
              238.45979593872175,
              330.71355905328517
            ],
            [
              238.91238018314334,
              329.98561352404323
            ],
            [
              239.36295123552728,
              329.39256243407897
            ],
            [
              239.88721925738182,
              328.50062898382384
            ],
            [
              239.9494331185811,
              328.4156104307222
            ],
            [
              240.085220053698,
              328.175018040318
            ],
            [
              240.42929093540067,
              327.69436734770426
            ],
            [
              240.46503777434276,
              327.62943560595716
            ],
            [
              240.77687010286604,
              327.18614888627644
            ],
            [
              240.959636909966,
              326.8461583435533
            ],
            [
              241.1820231312548,
              326.52302489467394
            ],
            [
              241.25443767414674,
              326.3841951616088
            ],
            [
              241.3594197527841,
              326.2302561975388
            ],
            [
              241.5633197201849,
              325.83497876425156
            ],
            [
              241.6599691946139,
              325.69066313021517
            ],
            [
              241.87987267960617,
              325.25191394347434
            ],
            [
              242.14914379611423,
              324.8376316347254
            ],
            [
              242.27309255440196,
              324.5801766890663
            ],
            [
              242.84308558161558,
              323.6633885308967
            ],
            [
              243.23899300083093,
              322.7982801949368
            ],
            [
              243.65973346766796,
              322.08247743641664
            ],
            [
              244.05137547731945,
              321.14763493262234
            ],
            [
              244.06415421993518,
              321.1249930766163
            ],
            [
              244.11117979872083,
              321.0064625174497
            ],
            [
              244.34349183402117,
              320.58448324521316
            ],
            [
              244.38943080971885,
              320.46591070504735
            ],
            [
              244.62512583074798,
              320.02746086074274
            ],
            [
              244.7639790227551,
              319.65586865233263
            ],
            [
              244.94758810348077,
              319.3038620160024
            ],
            [
              244.98179660466116,
              319.2079705019681
            ],
            [
              245.07874671556215,
              319.0200244641066
            ],
            [
              245.2555055371618,
              318.5168857513275
            ],
            [
              245.3369753648768,
              318.3543379833646
            ],
            [
              245.48778181481669,
              317.90292021399716
            ],
            [
              245.69735068682022,
              317.467623053303
            ],
            [
              245.73849407573445,
              317.3365507332106
            ],
            [
              246.14424951963403,
              316.44992320403975
            ],
            [
              246.43813755380467,
              315.4504763527215
            ],
            [
              246.78909315867102,
              314.6127515727256
            ],
            [
              247.0287339158452,
              313.653637057022
            ],
            [
              247.15107160991286,
              313.33787269956395
            ],
            [
              247.1901418801877,
              313.1630887519894
            ],
            [
              247.34983211844744,
              312.7357334464292
            ],
            [
              247.43317932394288,
              312.33638033268613
            ],
            [
              247.56958398851572,
              311.9540177808301
            ],
            [
              247.57959863790327,
              311.9014240703215
            ],
            [
              247.65594528443347,
              311.6841056184705
            ],
            [
              247.76879004311118,
              311.07504483640815
            ],
            [
              247.82901709232465,
              310.89476368648354
            ],
            [
              247.8946073041827,
              310.4973515677915
            ],
            [
              248.0323855726886,
              310.02879878363797
            ],
            [
              248.0470906476965,
              309.98195217354544
            ],
            [
              248.0480192087988,
              309.97563231693937
            ],
            [
              248.29525909005812,
              309.1348253016395
            ],
            [
              248.43938978401,
              308.00776723182304
            ],
            [
              248.67808365038928,
              307.0524424583804
            ],
            [
              248.7423370160301,
              306.2192209121493
            ],
            [
              248.78730159434997,
              306.01806831082763
            ],
            [
              248.80020823267452,
              305.7863436753418
            ],
            [
              248.88586229032592,
              305.37593741846285
            ],
            [
              248.90178705132973,
              304.95988227163235
            ],
            [
              248.91665472920837,
              304.87963645761914
            ],
            [
              248.98040256730735,
              304.54485336002386
            ],
            [
              248.98060386212833,
              304.5344816682882
            ],
            [
              249.02607830185997,
              304.28904095706866
            ],
            [
              249.03632847329828,
              303.5796451612763
            ],
            [
              249.06890576905775,
              303.38225881717216
            ],
            [
              249.06631368243643,
              303.10541354499776
            ],
            [
              249.11164814100349,
              302.75091190507504
            ],
            [
              249.11828819624952,
              302.70617904195757
            ],
            [
              249.11815717296415,
              302.70001326025215
            ],
            [
              249.23514810385979,
              301.7851798604996
            ],
            [
              249.18017396385977,
              300.5414610774444
            ],
            [
              249.26228407995924,
              299.4766776654376
            ],
            [
              249.19045628381943,
              298.7798649058284
            ],
            [
              249.19524589835768,
              298.69387259276505
            ],
            [
              249.15462491963743,
              298.35416326420517
            ],
            [
              249.17167844547777,
              297.9086176640127
            ],
            [
              249.12321573907366,
              297.56633490615735
            ],
            [
              249.1327458909295,
              296.90677036157626
            ],
            [
              249.00078344607346,
              296.10652084617794
            ],
            [
              248.99878280186553,
              295.8928440015899
            ],
            [
              248.97037932177219,
              295.7457838646239
            ],
            [
              248.96401198646925,
              295.44614552248106
            ],
            [
              248.95238423487035,
              295.3880132100623
            ],
            [
              248.91194836996178,
              294.47320408890585
            ],
            [
              248.60788567899834,
              293.1282557431794
            ],
            [
              248.48810563704393,
              291.96625069690043
            ],
            [
              248.18493446276406,
              290.9394350332327
            ],
            [
              248.126525647336,
              290.52690482367706
            ],
            [
              248.03602366978353,
              290.25600372143896
            ],
            [
              247.93018712478508,
              289.6141874536512
            ],
            [
              247.62874754947435,
              288.77056351047935
            ],
            [
              247.53226874210054,
              288.2882229544053
            ],
            [
              247.4883745572627,
              288.1763669519636
            ],
            [
              247.28476291920524,
              287.2757397329158
            ],
            [
              246.68215378724565,
              285.8496413206885
            ],
            [
              246.31524346135146,
              284.606946428317
            ],
            [
              245.82124993241447,
              283.6264839820225
            ],
            [
              245.71526620483726,
              283.30924109523386
            ],
            [
              245.60516021412192,
              283.10725030604726
            ],
            [
              245.38548288195057,
              282.4924502851884
            ],
            [
              244.97386960420462,
              281.7686281313714
            ],
            [
              244.7941471644154,
              281.310639590536
            ],
            [
              244.69446657528812,
              281.1457006954204
            ],
            [
              244.3259123927051,
              280.27350260426914
            ],
            [
              243.4138500385314,
              278.8483542072046
            ],
            [
              242.76865430639643,
              277.5677904977394
            ],
            [
              242.0635043374595,
              276.6100392016126
            ],
            [
              241.91758048097734,
              276.34234009877537
            ],
            [
              241.8098398287923,
              276.204680196269
            ],
            [
              241.48077856766878,
              275.6260258047788
            ],
            [
              240.99447971365538,
              275.02342804170667
            ],
            [
              240.7352874217192,
              274.5945492536751
            ],
            [
              240.5541696483681,
              274.3799437904268
            ],
            [
              240.02307046893972,
              273.55007164322353
            ],
            [
              238.77379894520354,
              272.14188385580513
            ],
            [
              238.43612218474834,
              271.68324332649644
            ],
            [
              238.19597327197482,
              271.34874828981145
            ],
            [
              238.17141940023816,
              271.32371777006006
            ],
            [
              237.82684246512818,
              270.8557052610094
            ],
            [
              236.905333677065,
              269.93820765321595
            ],
            [
              236.7308210326524,
              269.7152333800066
            ],
            [
              236.64626946106776,
              269.63533849567233
            ],
            [
              236.21542530251836,
              269.1014574798462
            ],
            [
              235.69123152781748,
              268.6178748957859
            ],
            [
              235.3578427959202,
              268.2228444030543
            ],
            [
              235.06833962281988,
              267.96506363264086
            ],
            [
              234.3812857715169,
              267.1906116225574
            ],
            [
              232.78330625334755,
              265.83100875814625
            ],
            [
              232.02435057241715,
              265.0573199742151
            ],
            [
              231.92937932273261,
              264.98391283178
            ],
            [
              231.50221900751157,
              264.5586118770443
            ],
            [
              230.50129629837875,
              263.8029727614872
            ],
            [
              230.47854075860758,
              263.78112614833606
            ],
            [
              230.35728973984044,
              263.69272503500184
            ],
            [
              230.1720819186481,
              263.5177175552472
            ],
            [
              230.12972070372976,
              263.48723446205645
            ],
            [
              229.6079208184342,
              263.00586030411824
            ],
            [
              229.08281273107522,
              262.6354027625407
            ],
            [
              228.68223933114135,
              262.2787223208979
            ],
            [
              228.30232984404697,
              262.0184765622086
            ],
            [
              227.49965020633223,
              261.33553568453203
            ],
            [
              225.57555412961315,
              260.0727828580339
            ],
            [
              224.51921993235894,
              259.25629918390433
            ],
            [
              224.32842486471858,
              259.142809626037
            ],
            [
              223.82954983827662,
              258.76618765482215
            ],
            [
              222.70532066559136,
              258.1138639892474
            ],
            [
              222.5981385098124,
              258.03572013530896
            ],
            [
              222.4274620524475,
              257.9401316172423
            ],
            [
              221.69751918035806,
              257.42516555902597
            ],
            [
              221.20746357536513,
              257.15834824843233
            ],
            [
              220.74861458395822,
              256.84402731687175
            ],
            [
              220.26318618919134,
              256.58636255222757
            ],
            [
              219.37593850925293,
              256.0040763924048
            ],
            [
              217.13712736411838,
              254.86525054702577
            ],
            [
              215.73492141072575,
              254.031184259811
            ],
            [
              215.42404841634954,
              253.88897255334854
            ],
            [
              214.86633918524993,
              253.56536688753252
            ],
            [
              213.64825347847002,
              253.02327577007526
            ],
            [
              213.42536140409533,
              252.8984435383412
            ],
            [
              213.25061165052958,
              252.82357721610697
            ],
            [
              213.1069246766051,
              252.74364391613344
            ],
            [
              213.07101751188756,
              252.728351663801
            ],
            [
              212.545374213847,
              252.4421581590551
            ],
            [
              212.1240783444494,
              252.2661346260629
            ],
            [
              211.61781404644495,
              251.99741019090465
            ],
            [
              211.016049809155,
              251.75161528739176
            ],
            [
              210.07154261594727,
              251.271168687365
            ],
            [
              207.53991306020382,
              250.28230242356477
            ],
            [
              205.74861937087638,
              249.46285867341098
            ],
            [
              205.29584815383674,
              249.30616070117577
            ],
            [
              204.69358747071962,
              249.03813344751705
            ],
            [
              203.41400443381755,
              248.60937610514534
            ],
            [
              203.0455279468552,
              248.45151333941064
            ],
            [
              202.97746276807914,
              248.42967792371252
            ],
            [
              202.7415562892972,
              248.3292093562763
            ],
            [
              202.5717078060603,
              248.27501547971335
            ],
            [
              202.23508756788695,
              248.1343706552525
            ],
            [
              201.9127707985544,
              248.03331591460167
            ],
            [
              201.3718305276205,
              247.81236499485044
            ],
            [
              200.6456568841053,
              247.58937393761005
            ],
            [
              199.67148748021995,
              247.20885884346816
            ],
            [
              196.87805462685992,
              246.39287662586395
            ],
            [
              194.6603987788887,
              245.62537603967164
            ],
            [
              194.04763947067227,
              245.47093363332712
            ],
            [
              193.41581648771833,
              245.2592250257525
            ],
            [
              192.19156131342854,
              244.9630025199129
            ],
            [
              191.28927026752754,
              244.67510681057138
            ],
            [
              190.96781429532186,
              244.60178567445692
            ],
            [
              190.8725503958073,
              244.5719179493658
            ],
            [
              190.6747992315317,
              244.52755517092947
            ],
            [
              190.11358910574126,
              244.3552205779457
            ],
            [
              189.27132932035158,
              244.16995293199128
            ],
            [
              189.15835232391174,
              244.13588088850648
            ],
            [
              189.13296820042333,
              244.13048009460152
            ],
            [
              188.28147567294582,
              243.881752884276
            ],
            [
              185.26573888102942,
              243.25750685844923
            ],
            [
              182.5925725360409,
              242.583750887136
            ],
            [
              181.8066936368942,
              242.45026531405077
            ],
            [
              181.16026492473915,
              242.2938545126237
            ],
            [
              180.11322038800947,
              242.12595313083722
            ],
            [
              178.88104865437907,
              241.84490614709017
            ],
            [
              178.37106468305345,
              241.76945551055755
            ],
            [
              177.84993602971025,
              241.65466030599364
            ],
            [
              176.79137500084803,
              241.5033458229662
            ],
            [
              176.0268358197631,
              241.3450891254089
            ],
            [
              172.8357503348994,
              240.92650445332194
            ],
            [
              169.68814429474645,
              240.39186737809754
            ],
            [
              168.72204271187837,
              240.29929303669545
            ],
            [
              168.07520101072967,
              240.19556715722214
            ],
            [
              167.24901130500245,
              240.1239802523488
            ],
            [
              165.66858432270666,
              239.89016070406993
            ],
            [
              165.32521477737745,
              239.86433204928866
            ],
            [
              164.9402977419471,
              239.8093106375417
            ],
            [
              163.55195652959844,
              239.70872015888284
            ],
            [
              163.05072409171862,
              239.64297193099785
            ],
            [
              160.29978472180227,
              239.47308822926533
            ],
            [
              159.56153561157828,
              239.41959933856253
            ],
            [
              155.92389364933396,
              239.06926616891292
            ],
            [
              154.72961092110359,
              239.0372143605432
            ],
            [
              154.4462113336284,
              239.01226299813098
            ],
            [
              154.41069294796424,
              239.01157777556375
            ],
            [
              154.32735364872758,
              239.0043566707169
            ],
            [
              153.75365466744933,
              238.99390589918823
            ],
            [
              151.82156659585885,
              238.84857199728918
            ],
            [
              151.6641540406488,
              238.8474047041972
            ],
            [
              151.43809503285084,
              238.83102588925024
            ],
            [
              149.72085893792206,
              238.81978881736075
            ],
            [
              149.51160145756563,
              238.80686616418652
            ],
            [
              149.42068206480187,
              238.80717666096947
            ],
            [
              149.2519674794302,
              238.79665840301715
            ],
            [
              147.4935192262814,
              238.80521378219845
            ],
            [
              145.6308769658347,
              238.7930252164889
            ],
            [
              141.6492009245534,
              238.68616616673904
            ],
            [
              140.29238151807638,
              238.73920656569544
            ],
            [
              140.17205049131107,
              238.73688513317575
            ],
            [
              139.8694167949287,
              238.75085136749257
            ],
            [
              138.84600803230126,
              238.73714980419496
            ],
            [
              138.6440783488879,
              238.74730572657197
            ],
            [
              137.5137465644183,
              238.73990917838162
            ],
            [
              135.24581186268313,
              238.86480255906062
            ],
            [
              134.8727432373736,
              238.8666176500354
            ],
            [
              133.56813449628504,
              238.9571909324219
            ],
            [
              130.75930989098674,
              239.11187069477216
            ],
            [
              127.05769783219544,
              239.25657306228237
            ],
            [
              125.8297600362754,
              239.38333712901834
            ],
            [
              124.02850283522935,
              239.48253094669704
            ],
            [
              123.11472360795511,
              239.58668128929014
            ],
            [
              123.06054955822175,
              239.58977450925846
            ],
            [
              122.5475909743021,
              239.65132169293068
            ],
            [
              120.98871857360054,
              239.828998192621
            ],
            [
              120.16625827985376,
              239.88563388063224
            ],
            [
              118.16406483203964,
              240.15094538304302
            ],
            [
              115.95389055639343,
              240.40285569259015
            ],
            [
              112.35210956481441,
              240.77467941811338
            ],
            [
              111.62447913116388,
              240.89631151835547
            ],
            [
              110.48650395400455,
              241.0260151721762
            ],
            [
              110.30460366371484,
              241.05746867555948
            ],
            [
              110.26561931394997,
              241.06194139803262
            ],
            [
              109.82328018907657,
              241.13899062224255
            ],
            [
              109.57340605193708,
              241.16812161688796
            ],
            [
              108.87729657490843,
              241.2915479151537
            ],
            [
              108.59924815124687,
              241.3249094728646
            ],
            [
              106.8986416492237,
              241.63621254715582
            ],
            [
              106.89800616715617,
              241.63629265418658
            ],
            [
              106.89448458440268,
              241.63697351511414
            ],
            [
              106.74988259182732,
              241.6634435096616
            ],
            [
              105.52391815120697,
              241.82589657731705
            ],
            [
              103.07060383775023,
              242.30834429344188
            ],
            [
              99.96865154765372,
              242.8447220347802
            ],
            [
              97.73729742603476,
              243.2177194736412
            ],
            [
              97.52155303707772,
              243.2678649619395
            ],
            [
              97.0437840644476,
              243.35047894773297
            ],
            [
              96.79737683057982,
              243.40791889918322
            ],
            [
              96.71188185317459,
              243.42281091598795
            ],
            [
              96.41620040336593,
              243.49227961325312
            ],
            [
              96.11955744201587,
              243.54413972310923
            ],
            [
              95.96495299288794,
              243.58101936018068
            ],
            [
              95.74796126522583,
              243.61949389124933
            ],
            [
              94.721622379069,
              243.86526643465038
            ],
            [
              94.6926044206575,
              243.87057829230417
            ],
            [
              94.65712909786207,
              243.87700965594485
            ],
            [
              94.65612340711988,
              243.87725629315372
            ],
            [
              94.27599515468661,
              243.94684034653017
            ],
            [
              93.07607297401853,
              244.24418426891026
            ],
            [
              93.02840875410578,
              244.25309724339783
            ],
            [
              92.52356604683551,
              244.38109696167623
            ],
            [
              92.49742450946542,
              244.3875749044829
            ]
          ]
        ]
      }
    }
  ]
}