{
  "type": "FeatureCollection",
  "features": [
    {
      "type": "Feature",
      "properties": {
        "method": "Homography",
        "mode": "tmpl2img",
        "inside_ratio": 0.5020366598778004
      },
      "geometry": {
        "type": "Polygon",
        "coordinates": [
          [
            [
              699.0792936768275,
              341.5216374093372
            ],
            [
              699.2201502594219,
              341.4940092330372
            ],
            [
              699.3160254251636,
              341.50192426858973
            ],
            [
              699.3166336386661,
              341.5015565571132
            ],
            [
              699.3179386648992,
              341.5016642960243
            ],
            [
              699.3496225114823,
              341.4825090332063
            ],
            [
              699.4398385165799,
              341.4800523075009
            ],
            [
              699.4424100032286,
              341.4775087189047
            ],
            [
              699.4510967803649,
              341.4771883395901
            ],
            [
              699.4564896012714,
              341.47148995636445
            ],
            [
              699.4727424315543,
              341.47058207355576
            ],
            [
              699.498762764044,
              341.4393610564508
            ],
            [
              699.5120644357149,
              341.4367520130995
            ],
            [
              699.5126770410301,
              341.4366697059046
            ],
            [
              699.5127047335681,
              341.4366264225007
            ],
            [
              699.5576779171193,
              341.4278052015038
            ],
            [
              699.6127776024196,
              341.32341203358686
            ],
            [
              699.6216216206598,
              341.31806516090387
            ],
            [
              699.6239043691642,
              341.31699241156457
            ],
            [
              699.6239812110668,
              341.31663861143704
            ],
            [
              699.6675345790178,
              341.2903073322726
            ],
            [
              699.672573293327,
              341.2498424694961
            ],
            [
              699.7149674204053,
              341.20790827615167
            ],
            [
              699.7148233796365,
              341.1985187424429
            ],
            [
              699.7203337340549,
              341.19269616613917
            ],
            [
              699.7196078488561,
              341.17437565807626
            ],
            [
              699.730025436126,
              341.1618759073362
            ],
            [
              699.7256734048494,
              341.1095169741664
            ],
            [
              699.7464480389173,
              341.07015686075016
            ],
            [
              699.7170653664804,
              340.8925359179101
            ],
            [
              699.7183730997309,
              340.88203378516243
            ],
            [
              699.7190660663526,
              340.8788431864484
            ],
            [
              699.7188624154217,
              340.8781041930139
            ],
            [
              699.726722903316,
              340.81497825562707
            ],
            [
              699.7080320011388,
              340.75581159616223
            ],
            [
              699.7068474969068,
              340.6785977450735
            ],
            [
              699.6991476048374,
              340.65798261658193
            ],
            [
              699.6985966401185,
              340.6440769003301
            ],
            [
              699.683819489941,
              340.6059759389062
            ],
            [
              699.6812851712061,
              340.57548575700883
            ],
            [
              699.6535147450592,
              340.5083665977685
            ],
            [
              699.6435466524819,
              340.44810856625423
            ],
            [
              699.5326506312149,
              340.20063615882003
            ],
            [
              699.5288585038247,
              340.18863205609034
            ],
            [
              699.5265726163761,
              340.1803371968307
            ],
            [
              699.5256751931112,
              340.1785551823709
            ],
            [
              699.4928154682642,
              340.0745366533724
            ],
            [
              699.4530148972617,
              339.99900488709164
            ],
            [
              699.412581290971,
              339.8907509035761
            ],
            [
              699.3923437154161,
              339.8544435319686
            ],
            [
              699.3828046950193,
              339.8298484074857
            ],
            [
              699.3458016019092,
              339.764645657135
            ],
            [
              699.3230672904499,
              339.70969843151767
            ],
            [
              699.2787810123867,
              339.63410793690673
            ],
            [
              699.2455003580344,
              339.5598397750773
            ],
            [
              699.0562324912612,
              339.24600875663884
            ],
            [
              699.0519857044231,
              339.23794939209455
            ],
            [
              699.0426108507679,
              339.219333733855
            ],
            [
              699.0400831679,
              339.21536128382695
            ],
            [
              698.961708589716,
              339.0666254699263
            ],
            [
              698.9031740581946,
              338.97684510253157
            ],
            [
              698.8279318304695,
              338.84185622923616
            ],
            [
              698.7900044928028,
              338.78528157957555
            ],
            [
              698.7684653773894,
              338.7473277371525
            ],
            [
              698.7007427126323,
              338.64747724919204
            ],
            [
              698.6503601468393,
              338.5614812424273
            ],
            [
              698.5964858975284,
              338.4836884314979
            ],
            [
              698.547429652621,
              338.4023467248342
            ],
            [
              698.2835730424454,
              338.02644684036557
            ],
            [
              698.2620165180442,
              337.99256908731473
            ],
            [
              698.2563312506798,
              337.9847164667527
            ],
            [
              698.1279051586788,
              337.78773630098
            ],
            [
              698.0528201661385,
              337.68565403958866
            ],
            [
              697.9473491675172,
              337.5283272889218
            ],
            [
              697.8863848282764,
              337.4467856872692
            ],
            [
              697.8497046036074,
              337.3927042605439
            ],
            [
              697.8488017258675,
              337.3915069842918
            ],
            [
              697.8476408617141,
              337.38979540471286
            ],
            [
              697.7409152895358,
              337.2482699635669
            ],
            [
              697.656632884033,
              337.1265686810431
            ],
            [
              697.6001996774907,
              337.052887873008
            ],
            [
              697.5430875666619,
              336.97152384787415
            ],
            [
              697.2113112091126,
              336.5413110229087
            ],
            [
              697.1783205439827,
              336.4957435660662
            ],
            [
              697.1672900932247,
              336.4817262063649
            ],
            [
              697.1262282336226,
              336.4259003036977
            ],
            [
              697.1245156292268,
              336.4235468211092
            ],
            [
              697.1242442958558,
              336.4232030289616
            ],
            [
              696.9845678982163,
              336.2333051272353
            ],
            [
              696.8949765053793,
              336.12074781740324
            ],
            [
              696.7640269254517,
              335.94559889237144
            ],
            [
              696.6765675195367,
              335.8368716959538
            ],
            [
              696.6172101667486,
              335.75815976808906
            ],
            [
              696.4578610324603,
              335.5614178756057
            ],
            [
              696.3339128717662,
              335.3995876129991
            ],
            [
              696.2821234904278,
              335.33643772714026
            ],
            [
              696.2249332714273,
              335.26227944215077
            ],
            [
              695.8315034284645,
              334.7842251183014
            ],
            [
              695.783830732316,
              334.72364324866663
            ],
            [
              695.7665742840679,
              334.70297124163335
            ],
            [
              695.7276048554683,
              334.65359514196774
            ],
            [
              695.7187474271225,
              334.64300339802145
            ],
            [
              695.5236112826938,
              334.39784592505407
            ],
            [
              695.4214717208326,
              334.27657013662173
            ],
            [
              695.2699962201492,
              334.0882598417698
            ],
            [
              695.1527383277538,
              333.9500359751387
            ],
            [
              695.0667451685886,
              333.84386372042235
            ],
            [
              694.843051935274,
              333.5816918294114
            ],
            [
              694.6729128695661,
              333.37423110480336
            ],
            [
              694.6332105032401,
              333.32818632411994
            ],
            [
              694.5842497961451,
              333.26869445245865
            ],
            [
              694.1361859334057,
              332.74988107102274
            ],
            [
              694.0697583626009,
              332.6703055296837
            ],
            [
              694.0531749749449,
              332.6513060049925
            ],
            [
              694.0157849030106,
              332.6065948255456
            ],
            [
              693.9941495857852,
              332.5818338940896
            ],
            [
              693.735842658556,
              332.2751322038939
            ],
            [
              693.6230818303491,
              332.1468734641336
            ],
            [
              693.4562671211211,
              331.95023191063433
            ],
            [
              693.4501016052762,
              331.9432551896527
            ],
            [
              693.4471171542014,
              331.9397371201528
            ],
            [
              693.301286238148,
              331.77471884983214
            ],
            [
              693.186781323849,
              331.64051733882997
            ],
            [
              692.8862987485918,
              331.30220711803054
            ],
            [
              692.6632221998937,
              331.0434943079405
            ],
            [
              692.6433472785548,
              331.0213224103628
            ],
            [
              692.611318231435,
              330.98423595992296
            ],
            [
              692.116406235616,
              330.4323573653472
            ],
            [
              692.0264022622296,
              330.3292401525123
            ],
            [
              692.0116069494499,
              330.31287699309473
            ],
            [
              691.9795556515159,
              330.2761953034802
            ],
            [
              691.9402219503102,
              330.23272037709484
            ],
            [
              691.611166508677,
              329.8584393707659
            ],
            [
              691.4941679560873,
              329.72983329856424
            ],
            [
              691.3035202620115,
              329.51410158975824
            ],
            [
              691.1067725164341,
              329.2986569554319
            ],
            [
              690.9670216959679,
              329.1413129534097
            ],
            [
              690.5927844398194,
              328.733359841688
            ],
            [
              690.2956644021583,
              328.4020399500891
            ],
            [
              690.2939331870459,
              328.4001400127712
            ],
            [
              689.761328131569,
              327.82413805465796
            ],
            [
              689.6434063903922,
              327.69372024748765
            ],
            [
              689.6315779562136,
              327.68101218224706
            ],
            [
              689.6087917312968,
              327.65582692328366
            ],
            [
              689.5571604482349,
              327.60037325366903
            ],
            [
              689.5057483235826,
              327.54363317693225
            ],
            [
              689.4862058538707,
              327.5226596764924
            ],
            [
              689.1388695691468,
              327.140863882247
            ],
            [
              689.0297725869872,
              327.024280245351
            ],
            [
              688.8200079345005,
              326.7945817107262
            ],
            [
              688.5636166111912,
              326.52137983086766
            ],
            [
              688.3966481669594,
              326.339368833123
            ],
            [
              688.3919894198677,
              326.3344252004346
            ],
            [
              688.3819803499922,
              326.3235144028695
            ],
            [
              687.9591380202058,
              325.8748139607327
            ],
            [
              687.6582036856101,
              325.5492991776099
            ],
            [
              687.6451860380001,
              325.5355717389531
            ],
            [
              687.624586645987,
              325.5132938990914
            ],
            [
              687.0603783395293,
              324.9186032298413
            ],
            [
              686.9101107172318,
              324.757160834472
            ],
            [
              686.9025189046544,
              324.7492022896683
            ],
            [
              686.893082517817,
              324.7390673046947
            ],
            [
              686.8697690672576,
              324.7146298364858
            ],
            [
              686.8320309646513,
              324.67412829685446
            ],
            [
              686.7548310908927,
              324.5932235095319
            ],
            [
              686.3080085594507,
              324.11573829655043
            ],
            [
              686.211893302407,
              324.01546340370004
            ],
            [
              685.986066416602,
              323.77482994962037
            ],
            [
              685.6757373659246,
              323.4517763152949
            ],
            [
              685.4493495372604,
              323.211544172808
            ],
            [
              684.96743332747,
              322.7118137782547
            ],
            [
              684.6714864391815,
              322.3997302992747
            ],
            [
              684.6655172643232,
              322.39357249449534
            ],
            [
              684.6509549531827,
              322.3782161849854
            ],
            [
              684.6157128575672,
              322.34186032315205
            ],
            [
              684.5907641461151,
              322.3155637129456
            ],
            [
              684.5594164260907,
              322.2832476697711
            ],
            [
              684.5549766132499,
              322.2785680137763
            ],
            [
              684.015383108096,
              321.7223061668117
            ],
            [
              683.8164022295782,
              321.5137759597807
            ],
            [
              683.8121640702693,
              321.50938142876197
            ],
            [
              683.6693231463822,
              321.3628569622258
            ],
            [
              683.1079264163482,
              320.77716433982675
            ],
            [
              683.0298251049552,
              320.69737233619617
            ],
            [
              682.7915201257965,
              320.44929601389487
            ],
            [
              682.4289940264929,
              320.0795402674864
            ],
            [
              682.1446179204481,
              319.784652108951
            ],
            [
              681.625041281364,
              319.25667368171094
            ],
            [
              681.2984960648145,
              318.9198085615379
            ],
            [
              681.2105631234562,
              318.8308437415684
            ],
            [
              681.1445230080718,
              318.76276361049077
            ],
            [
              680.5159737056315,
              318.1273868138944
            ],
            [
              680.3492373210927,
              317.9562897324894
            ],
            [
              680.3036594066847,
              317.91040040722083
            ],
            [
              680.2135426668602,
              317.81795976157633
            ],
            [
              680.0763214204777,
              317.6799329036898
            ],
            [
              679.5289267198356,
              317.12068851759074
            ],
            [
              679.4737870316942,
              317.0653992987681
            ],
            [
              679.2271810320472,
              316.81387537913196
            ],
            [
              678.8088992019385,
              316.3949933171259
            ],
            [
              678.4584946043133,
              316.0389225194127
            ],
            [
              677.9143264354658,
              315.49592625783623
            ],
            [
              677.5727320701847,
              315.15032333881845
            ],
            [
              677.4622432105276,
              315.0404857671235
            ],
            [
              677.3503201333596,
              314.92734694736515
            ],
            [
              676.6558919320922,
              314.23770958026853
            ],
            [
              676.5009875405289,
              314.0817468052574
            ],
            [
              676.3865597831413,
              313.9685090638061
            ],
            [
              676.2077645875966,
              313.78866418047943
            ],
            [
              676.0976563340034,
              313.67985983205904
            ],
            [
              675.8993556735824,
              313.4812746113854
            ],
            [
              675.5631387692977,
              313.14414593657574
            ],
            [
              675.5357639260698,
              313.11716111191294
            ],
            [
              675.2856773273344,
              312.8667156404191
            ],
            [
              674.8083923795734,
              312.3966810655998
            ],
            [
              674.3837923598107,
              311.97299545405923
            ],
            [
              673.821036894528,
              311.4207429166655
            ],
            [
              673.4673674768795,
              311.0691582398127
            ],
            [
              673.332174578279,
              310.93692242808993
            ],
            [
              673.1659501408421,
              310.77184476682385
            ],
            [
              672.4079234520681,
              310.0312494124163
            ],
            [
              672.2675811213794,
              309.89236660182047
            ],
            [
              672.0749789929494,
              309.7047906026565
            ],
            [
              672.0664531859762,
              309.6963943100989
            ],
            [
              671.7887924660497,
              309.4220216565751
            ],
            [
              671.7159302152446,
              309.3511960877703
            ],
            [
              670.962491482024,
              308.60920274336644
            ],
            [
              670.4234293531704,
              308.08654626901085
            ],
            [
              669.9165842895675,
              307.5891606553419
            ],
            [
              669.342000579248,
              307.03402587696274
            ],
            [
              668.9794766635022,
              306.679431480627
            ],
            [
              668.8175263890719,
              306.5234159486205
            ],
            [
              668.5886216686334,
              306.2997750464346
            ],
            [
              667.7709583410212,
              305.5130873189199
            ],
            [
              667.647204388172,
              305.39256283902836
            ],
            [
              667.4276587776337,
              305.1819480729815
            ],
            [
              667.0873069699062,
              304.8519544296738
            ],
            [
              666.9550734433936,
              304.72341716069826
            ],
            [
              666.9287930016914,
              304.6982646278359
            ],
            [
              666.2572346376211,
              304.04714426877723
            ],
            [
              665.6543049051713,
              303.4711540377627
            ],
            [
              665.0576214216958,
              302.8946675356012
            ],
            [
              664.4787381599634,
              302.3436246132253
            ],
            [
              664.110886200876,
              301.98925275866696
            ],
            [
              663.9202837405207,
              301.8082881080971
            ],
            [
              663.6206640381519,
              301.5200189209984
            ],
            [
              662.7492593899316,
              300.6938601988296
            ],
            [
              662.6433398734227,
              300.59224935754037
            ],
            [
              662.391228111992,
              300.3538747682872
            ],
            [
              661.1751757013868,
              299.19215679152705
            ],
            [
              661.1593136591173,
              299.17721871480944
            ],
            [
              661.1441733898365,
              299.1627549483964
            ],
            [
              660.4869290986771,
              298.5437943606024
            ],
            [
              659.8140283891524,
              297.90325558887776
            ],
            [
              659.2391144589939,
              297.3638220622907
            ],
            [
              658.8698153784458,
              297.01319658273144
            ],
            [
              658.6489200646321,
              296.8064227099897
            ],
            [
              658.2713013078665,
              296.44841104435295
            ],
            [
              657.3542123238141,
              295.59131802464714
            ],
            [
              657.2665276228607,
              295.5084111247239
            ],
            [
              656.9982590694469,
              295.258335238377
            ],
            [
              655.6958756977538,
              294.031814159195
            ],
            [
              654.929024784436,
              293.3197265010169
            ],
            [
              654.2012736978422,
              292.6368880542067
            ],
            [
              653.639247724227,
              292.11700973381414
            ],
            [
              653.2727666598227,
              291.7739571463056
            ],
            [
              653.0203268683572,
              291.5409553699128
            ],
            [
              652.5586948647758,
              291.1095233335133
            ],
            [
              651.6063157365843,
              290.23204724841264
            ],
            [
              651.5363772043911,
              290.16685160693373
            ],
            [
              651.2727763388712,
              289.92458234967404
            ],
            [
              649.9054590165204,
              288.65490949260834
            ],
            [
              649.0474793535881,
              287.86958890236093
            ],
            [
              648.2453776725379,
              287.12763871801866
            ],
            [
              648.2406893150719,
              287.1233638445252
            ],
            [
              648.2240136812892,
              287.10793876173454
            ],
            [
              648.2230758024914,
              287.1070835968455
            ],
            [
              648.2197402594962,
              287.1039981955
            ],
            [
              647.6819655380347,
              286.6136510578847
            ],
            [
              647.346625165765,
              286.30413209503615
            ],
            [
              647.0619595577682,
              286.04509716613796
            ],
            [
              646.5122057253526,
              285.5385805632823
            ],
            [
              645.5373532308272,
              284.65329200809515
            ],
            [
              645.4837755961453,
              284.60405008418957
            ],
            [
              645.2172759014878,
              284.3626215753489
            ],
            [
              645.0601541430283,
              284.2199352763308
            ],
            [
              643.5591781678595,
              282.8460713146324
            ],
            [
              642.7329388187871,
              282.1010903351475
            ],
            [
              641.9577823839137,
              281.39429672088164
            ],
            [
              641.4217225757849,
              280.91269499127685
            ],
            [
              641.1308794165576,
              280.648038724574
            ],
            [
              640.8141097496485,
              280.3639934518824
            ],
            [
              640.1747739991168,
              279.7833962578988
            ],
            [
              639.1926374138071,
              278.90475608605806
            ],
            [
              639.1531825575383,
              278.86901297900454
            ],
            [
              638.9477953212358,
              278.68571516902983
            ],
            [
              638.5936604165545,
              278.36889858958597
            ],
            [
              636.9382267436067,
              276.8762722694697
            ],
            [
              636.1646710374685,
              276.1897049907324
            ],
            [
              635.4456858269826,
              275.5437611693897
            ],
            [
              634.9203018028625,
              275.0790547083201
            ],
            [
              634.67981368924,
              274.86341060173794
            ],
            [
              634.3321503968707,
              274.5564615497857
            ],
            [
              633.6052424346922,
              273.906154305001
            ],
            [
              632.6331480015454,
              273.05020906219323
            ],
            [
              632.6048360353001,
              273.02494205192403
            ],
            [
              632.4503442845471,
              272.8892473627984
            ],
            [
              631.9074507610773,
              272.4112206269988
            ],
            [
              630.110923541716,
              270.81671774327003
            ],
            [
              629.4046651847933,
              270.20042906371356
            ],
            [
              628.7550683079432,
              269.6258553197432
            ],
            [
              628.2501535905675,
              269.18671675745907
            ],
            [
              628.0644479026498,
              269.0227587380191
            ],
            [
              627.6885226809766,
              268.69638460206045
            ],
            [
              626.8803669644316,
              267.9847901134593
            ],
            [
              625.9373085603083,
              267.16865481620243
            ],
            [
              625.9166096105744,
              267.150474314422
            ],
            [
              625.7980295853362,
              267.0481209371384
            ],
            [
              625.0868242719665,
              266.43263439112604
            ],
            [
              623.1704209849237,
              264.7603601593409
            ],
            [
              622.5448521212661,
              264.2246552481088
            ],
            [
              621.9765273750381,
              263.7303671963348
            ],
            [
              621.5023211660199,
              263.32559259892855
            ],
            [
              621.3739216274873,
              263.2141175341242
            ],
            [
              620.9741508977343,
              262.8734721037049
            ],
            [
              620.0961693828264,
              262.11365521270136
            ],
            [
              619.2020686274111,
              261.35476002596425
            ],
            [
              619.1851821731311,
              261.3401843364869
            ],
            [
              619.0834826791644,
              261.25410659870477
            ],
            [
              618.2364494092226,
              260.53516137058574
            ],
            [
              617.3482086216814,
              259.7745177709937
            ],
            [
              616.7511640316546,
              259.26257944017664
            ],
            [
              616.7117108154519,
              259.22945387699787
            ],
            [
              616.2314832777453,
              258.8182117813465
            ],
            [
              615.6977097321704,
              258.37087203325933
            ],
            [
              615.2202602493063,
              257.9633290308079
            ],
            [
              614.7868920218782,
              257.60129656390365
            ],
            [
              614.7159494747516,
              257.5408462790116
            ],
            [
              614.5478681083504,
              257.4006743267736
            ],
            [
              614.5385384183732,
              257.39272646485955
            ],
            [
              614.5356050258279,
              257.39028222493016
            ],
            [
              614.5309852572443,
              257.3863466952273
            ],
            [
              614.2934701543945,
              257.18843790594883
            ],
            [
              613.3682139119278,
              256.403098552793
            ],
            [
              612.5428980196012,
              255.7182016571326
            ],
            [
              612.5261151746258,
              255.70399677495854
            ],
            [
              612.4197489188314,
              255.6160051071793
            ],
            [
              611.481212493164,
              254.8371509855085
            ],
            [
              611.4758213073777,
              254.8326327928992
            ],
            [
              611.2192956997341,
              254.61647746532606
            ],
            [
              611.1411486183342,
              254.55215355662236
            ],
            [
              611.0340779863034,
              254.46242084138896
            ],
            [
              610.0334569185554,
              253.6222830886289
            ],
            [
              609.9526855971993,
              253.55613801238448
            ],
            [
              609.429934839877,
              253.1180361356009
            ],
            [
              608.9955818444214,
              252.76328081317348
            ],
            [
              608.6152818226416,
              252.44558111500587
            ],
            [
              608.2320551566148,
              252.1335834504433
            ],
            [
              608.2159384774035,
              252.12014289817685
            ],
            [
              608.0108311896555,
              251.95344671586412
            ],
            [
              607.883312721672,
              251.84719231222508
            ],
            [
              607.6564098652027,
              251.66309912150516
            ],
            [
              606.8303576119929,
              250.97759114916616
            ],
            [
              606.0922834904737,
              250.38159846441926
            ],
            [
              606.072411358329,
              250.36515920896642
            ],
            [
              605.9398237298825,
              250.25848765565638
            ],
            [
              605.1466943234087,
              249.6180379900391
            ],
            [
              604.8995779556034,
              249.41463320002316
            ],
            [
              604.7203503287361,
              249.2712853016941
            ],
            [
              603.5852287608393,
              248.341713996036
            ],
            [
              603.4677012174153,
              248.2484159574522
            ],
            [
              602.9200664571878,
              247.80113840217015
            ],
            [
              602.5880671770622,
              247.53862379706553
            ],
            [
              602.3068124133956,
              247.3096448736489
            ],
            [
              601.7385602799728,
              246.86176770896978
            ],
            [
              601.5558881384927,
              246.71356024298825
            ],
            [
              601.3437288818084,
              246.54715456862655
            ],
            [
              600.6315676244187,
              245.9720864455244
            ],
            [
              599.9963740651341,
              245.47676695319655
            ],
            [
              599.9711819496366,
              245.45649898307062
            ],
            [
              599.7943825847599,
              245.31925541035932
            ],
            [
              599.1850874287611,
              244.844131311663
            ],
            [
              598.9524005424064,
              244.65802620772556
            ],
            [
              598.6957906187844,
              244.46028352345036
            ],
            [
              597.5660214688544,
              243.5634278361266
            ],
            [
              597.4201271197496,
              243.4522904085814
            ],
            [
              596.8695984068048,
              243.01698275483884
            ],
            [
              596.6371267529461,
              242.84098987199525
            ],
            [
              596.4515239503821,
              242.69470400331346
            ],
            [
              595.9372026939636,
              242.30658241385507
            ],
            [
              595.711203287485,
              242.12932131184482
            ],
            [
              595.5189919094677,
              241.98533568167622
            ],
            [
              594.9305471701566,
              241.52647059198884
            ],
            [
              594.4095759137214,
              241.13920585881561
            ],
            [
              594.3782045613244,
              241.11485330254317
            ],
            [
              594.1473591021265,
              240.94428661458815
            ],
            [
              593.7439106014235,
              240.6443825910071
            ],
            [
              593.5288511105283,
              240.47865852075978
            ],
            [
              593.2174605628012,
              240.2508398189808
            ],
            [
              592.7362418585577,
              239.88426353139
            ],
            [
              592.6556334294156,
              239.82260727356126
            ],
            [
              592.6491986712831,
              239.81795694735993
            ],
            [
              592.1417074117716,
              239.43136710731284
            ],
            [
              591.9799694438693,
              239.31528457805214
            ],
            [
              591.4520658536219,
              238.9156346716151
            ],
            [
              591.3098086325225,
              238.81461797380288
            ],
            [
              591.210569750467,
              238.73972946364125
            ],
            [
              590.7687615074527,
              238.42693593986434
            ],
            [
              590.515365791498,
              238.23711709448585
            ],
            [
              590.3491635839396,
              238.12089251041667
            ],
            [
              589.88818226597,
              237.77822138433248
            ],
            [
              589.4871596311168,
              237.50096660411114
            ],
            [
              589.4504225086872,
              237.47382234353267
            ],
            [
              589.1692659679492,
              237.2811846515361
            ],
            [
              588.9723338268502,
              237.14503179443244
            ],
            [
              588.7796773011573,
              237.00408095345745
            ],
            [
              588.4454428795726,
              236.77848515681896
            ],
            [
              588.1505063134258,
              236.56680336671965
            ],
            [
              587.959277825848,
              236.42860472305375
            ],
            [
              587.9429240916243,
              236.41781751231886
            ],
            [
              587.4754803314039,
              236.0823239069208
            ],
            [
              587.314486097382,
              235.97754379207544
            ],
            [
              586.836902161201,
              235.6384119590204
            ],
            [
              586.7688662597993,
              235.5950708738736
            ],
            [
              586.7406725149765,
              235.5751101308751
            ],
            [
              586.3878704471116,
              235.35077498942417
            ],
            [
              586.1285042524044,
              235.16940117650915
            ],
            [
              585.9948267652909,
              235.08647451057985
            ],
            [
              585.6581953878783,
              234.85373787565985
            ],
            [
              585.3762912812351,
              234.68238368626714
            ],
            [
              585.3367974681121,
              234.6553240383273
            ],
            [
              585.0285341156762,
              234.47100100045174
            ],
            [
              585.0106862858722,
              234.4601522744531
            ],
            [
              584.8464677171858,
              234.3493108516893
            ],
            [
              584.5302029611248,
              234.16544469062038
            ],
            [
              584.3842982387249,
              234.07048530488225
            ],
            [
              584.1382864796666,
              233.90821162134222
            ],
            [
              584.1167558364496,
              233.89636028847949
            ],
            [
              583.7173392771743,
              233.63640741991836
            ],
            [
              583.57720278607,
              233.56187728716955
            ],
            [
              583.1779961445823,
              233.30756965418792
            ],
            [
              582.9049987927331,
              233.16970349979096
            ],
            [
              582.6939748807272,
              233.03879507359662
            ],
            [
              582.5992224246841,
              232.99435441827023
            ],
            [
              582.3768103560952,
              232.85916220636022
            ],
            [
              582.2062741832135,
              232.78345844844435
            ],
            [
              582.1683203561911,
              232.76076433108298
            ],
            [
              581.9683888546202,
              232.67608833294943
            ],
            [
              581.8522052382924,
              232.60854291378956
            ],
            [
              581.6021532756713,
              232.51146778259772
            ],
            [
              581.5616162767601,
              232.4899086020631
            ],
            [
              581.3176716348919,
              232.35563164969295
            ],
            [
              581.2978722714989,
              232.34963910073918
            ],
            [
              580.9931505792171,
              232.18757604352754
            ],
            [
              580.9860667013863,
              232.18583852630792
            ],
            [
              580.9837970082021,
              232.18463142724096
            ],
            [
              580.9266313768666,
              232.1706098977356
            ],
            [
              580.6758679951389,
              232.0439721011743
            ],
            [
              580.6575305941892,
              232.04075031902357
            ],
            [
              580.6547283461081,
              232.03933884938522
            ],
            [
              580.6213476277588,
              232.03387410553518
            ],
            [
              580.6076574857846,
              232.02701166153292
            ],
            [
              580.5066455107592,
              232.01289712140272
            ],
            [
              580.3275746352422,
              231.92890956698136
            ],
            [
              580.2773556354134,
              231.92718039121598
            ],
            [
              580.1525934318388,
              231.87179643659235
            ],
            [
              580.079098537989,
              231.87592656725627
            ],
            [
              580.0483128758488,
              231.8628880683317
            ],
            [
              579.9618098912956,
              231.8746539476503
            ],
            [
              579.8922709694908,
              231.84765755904837
            ],
            [
              579.7663520147328,
              231.8841750631071
            ],
            [
              579.7511639003458,
              231.88150659358328
            ],
            [
              579.5906975452472,
              231.83293924984002
            ],
            [
              579.5896881313453,
              231.83386535062115
            ],
            [
              579.5861393416594,
              231.8327912703933
            ],
            [
              579.5783783746783,
              231.8399117351314
            ],
            [
              579.3852588531046,
              231.79254356993954
            ],
            [
              579.3746318279879,
              231.8097553096946
            ],
            [
              579.3075567814683,
              231.79667865124526
            ],
            [
              579.3044321184344,
              231.80301823591307
            ],
            [
              579.2592100414696,
              231.79507296160276
            ],
            [
              579.2536282584266,
              231.80996532213476
            ],
            [
              579.2418158623033,
              231.8080315195415
            ],
            [
              579.2333939018944,
              231.83498394867968
            ],
            [
              579.2035503493912,
              231.8308138686403
            ],
            [
              579.1913458485643,
              231.8897861414314
            ],
            [
              579.1081988750884,
              231.88692316656926
            ],
            [
              579.1066397002021,
              231.93057501783701
            ],
            [
              579.057821277005,
              231.9333184256505
            ],
            [
              579.0615379809537,
              231.99710626208866
            ],
            [
              579.0443055248621,
              231.99945016965023
            ],
            [
              579.0550659449037,
              232.0904537128137
            ],
            [
              579.0270847936386,
              232.09856847050037
            ],
            [
              579.0649655102558,
              232.288868656594
            ],
            [
              579.0450947362103,
              232.32918418958644
            ],
            [
              579.006802588312,
              232.36431613780826
            ],
            [
              579.0157787160774,
              232.38866304898804
            ],
            [
              579.0101641588241,
              232.4000543449666
            ],
            [
              578.9625990505476,
              232.47709173368526
            ],
            [
              578.9671007840086,
              232.48742501816068
            ],
            [
              578.960265240301,
              232.50129355629872
            ],
            [
              578.9787115280889,
              232.54345120213443
            ],
            [
              578.9675208690694,
              232.5733082078062
            ],
            [
              578.9886021867295,
              232.6183800964466
            ],
            [
              578.9845881902409,
              232.63122591281206
            ],
            [
              578.9894282512354,
              232.64121677316282
            ],
            [
              578.9893648553133,
              232.64141964171787
            ],
            [
              579.0218958773075,
              232.708570134966
            ],
            [
              579.0149155539171,
              232.74229912897084
            ],
            [
              579.0735712388173,
              232.85638491790021
            ],
            [
              579.0713317472898,
              232.91908343253928
            ],
            [
              579.1204834422914,
              233.0087562346695
            ],
            [
              579.1226449062851,
              233.04585230532814
            ],
            [
              579.1799306146271,
              233.14646521623536
            ],
            [
              579.1826760952359,
              233.1696844272286
            ],
            [
              579.2700910415456,
              233.3193514526203
            ],
            [
              579.2774402629652,
              233.35627150927778
            ],
            [
              579.4827227253943,
              233.69533204635906
            ],
            [
              579.5767009996454,
              233.91011254025048
            ],
            [
              579.5855914198314,
              233.93422697761488
            ],
            [
              579.5904183226418,
              233.94146248184077
            ],
            [
              579.6889304150789,
              234.1666046866518
            ],
            [
              579.7154230807677,
              234.20512493079082
            ],
            [
              579.7202530302376,
              234.21621160269564
            ],
            [
              579.7683312386459,
              234.28544197385744
            ],
            [
              579.8004212745589,
              234.35405051857094
            ],
            [
              579.8102525544091,
              234.36802021613173
            ],
            [
              579.8111935333104,
              234.37003208469048
            ],
            [
              579.8612430017332,
              234.4411493761181
            ],
            [
              579.8858965133064,
              234.49203912261885
            ],
            [
              579.9886134082263,
              234.63614945370605
            ],
            [
              580.0367480069572,
              234.72977164363058
            ],
            [
              580.1458354067905,
              234.87941774152966
            ],
            [
              580.2063889241383,
              234.98989213268314
            ],
            [
              580.3058328909066,
              235.12392711187593
            ],
            [
              580.3329477351735,
              235.1715498696236
            ],
            [
              580.4184256252228,
              235.2854662711358
            ],
            [
              580.44686239967,
              235.3341541400085
            ],
            [
              580.5875742610936,
              235.5201910755456
            ],
            [
              580.6232258919118,
              235.57907609159125
            ],
            [
              580.9896325948062,
              236.05782115027438
            ],
            [
              581.4576316895276,
              236.73829021282435
            ],
            [
              581.5591432507259,
              236.86412750284398
            ],
            [
              581.6172067248359,
              236.94773618954122
            ],
            [
              581.6765797891376,
              237.0206340225921
            ],
            [
              581.7268667548035,
              237.09208878335792
            ],
            [
              581.8224904279176,
              237.2090526230276
            ],
            [
              581.8910183621654,
              237.3051963324075
            ],
            [
              582.0921649513233,
              237.5493926608275
            ],
            [
              582.2164688666992,
              237.71991277513433
            ],
            [
              582.3547195522743,
              237.88550722522112
            ],
            [
              582.4583109041183,
              238.02513223355544
            ],
            [
              582.6050319450826,
              238.199556959869
            ],
            [
              582.632205445402,
              238.23577108928993
            ],
            [
              582.7209340654551,
              238.3407331136791
            ],
            [
              582.7793962546032,
              238.41802671497436
            ],
            [
              582.9491875693316,
              238.6181653084737
            ],
            [
              583.005695435392,
              238.69199818718258
            ],
            [
              583.5214042215318,
              239.29661499456867
            ],
            [
              584.1961281596708,
              240.13302644254134
            ],
            [
              584.4092997711649,
              240.37584850203635
            ],
            [
              584.5713179754897,
              240.57477332003896
            ],
            [
              584.607952491659,
              240.6161413450755
            ],
            [
              584.6468133872086,
              240.66367475818194
            ],
            [
              584.7972000528115,
              240.83336403113682
            ],
            [
              584.9208126114376,
              240.98343236234757
            ],
            [
              585.2428225227648,
              241.34483056379713
            ],
            [
              585.4594340244017,
              241.60428434043908
            ],
            [
              585.60634261839,
              241.7675713996815
            ],
            [
              585.7330863229879,
              241.91824669370345
            ],
            [
              585.9216312945902,
              242.12701605619668
            ],
            [
              585.9269923828347,
              242.13335798594395
            ],
            [
              585.9651297974868,
              242.175479564737
            ],
            [
              585.9655246068716,
              242.1759466129464
            ],
            [
              585.9968434535425,
              242.21053729233847
            ],
            [
              586.0873826154367,
              242.31725877304507
            ],
            [
              586.2630020110236,
              242.51086332071432
            ],
            [
              586.3328857312734,
              242.59279497082807
            ],
            [
              586.9813158971394,
              243.3056112804344
            ],
            [
              587.8058723922892,
              244.24485691881873
            ],
            [
              588.1455452388199,
              244.6114799827482
            ],
            [
              588.4623144623505,
              244.9689075446987
            ],
            [
              588.673582842858,
              245.19524188864236
            ],
            [
              588.8602071934391,
              245.40469415167323
            ],
            [
              589.318452952978,
              245.89353546797543
            ],
            [
              589.6378290527816,
              246.24851799632032
            ],
            [
              589.7750126358385,
              246.3937326873014
            ],
            [
              589.9062586577395,
              246.53905689345402
            ],
            [
              590.1285158100154,
              246.77383923451765
            ],
            [
              590.1321613891134,
              246.77786566176908
            ],
            [
              590.1658972992767,
              246.81345344398474
            ],
            [
              590.2505271166076,
              246.9067501863475
            ],
            [
              590.4112290763807,
              247.07609911921017
            ],
            [
              590.4873223008178,
              247.15974805209927
            ],
            [
              591.2482681373695,
              247.9603781570194
            ],
            [
              592.1676927017371,
              248.9527514193666
            ],
            [
              592.605055022913,
              249.4070750766995
            ],
            [
              593.0433098698453,
              249.87658273810464
            ],
            [
              593.1105580859388,
              249.9459998275542
            ],
            [
              593.1649243399559,
              250.0042136462196
            ],
            [
              593.3720033474899,
              250.21772804215271
            ],
            [
              593.5724096482677,
              250.4315148101199
            ],
            [
              593.5748226920313,
              250.43399670795517
            ],
            [
              593.5768492202852,
              250.43615854175366
            ],
            [
              594.1773081632385,
              251.05375082050912
            ],
            [
              594.601509279795,
              251.50278584848425
            ],
            [
              594.7136841429374,
              251.61740239703624
            ],
            [
              594.8330896664061,
              251.74353695805783
            ],
            [
              595.0284053522499,
              251.9428801223022
            ],
            [
              595.0309784565499,
              251.9455944725251
            ],
            [
              595.0653983565504,
              251.98069768209132
            ],
            [
              595.1305173804056,
              252.04932059879127
            ],
            [
              595.25916676918,
              252.1804501229387
            ],
            [
              595.3349016596917,
              252.26013468184314
            ],
            [
              596.1858526427092,
              253.1267395105563
            ],
            [
              597.1501216116551,
              254.12840376787761
            ],
            [
              597.683994278506,
              254.66693738860795
            ],
            [
              598.2477304421759,
              255.2488550359856
            ],
            [
              598.386345241323,
              255.3879004956625
            ],
            [
              598.5126562736073,
              255.51813689228536
            ],
            [
              598.7106570415889,
              255.71645307023445
            ],
            [
              598.9130780924073,
              255.92464994948566
            ],
            [
              599.6647684908372,
              256.67625590199344
            ],
            [
              600.1892339147662,
              257.21213724871217
            ],
            [
              600.2647547028567,
              257.2872048452322
            ],
            [
              600.358983077333,
              257.38337624206224
            ],
            [
              600.5107099728067,
              257.5341105271645
            ],
            [
              600.5119299301078,
              257.53535470326267
            ],
            [
              600.5454378592564,
              257.56863128081466
            ],
            [
              600.5805314694667,
              257.60440143449597
            ],
            [
              600.6642146748326,
              257.68748418235737
            ],
            [
              600.7338271998509,
              257.7583772790465
            ],
            [
              601.6513096484717,
              258.66888924609344
            ],
            [
              602.6174160448165,
              259.64343019553
            ],
            [
              603.100543189746,
              260.1193191243284
            ],
            [
              603.1182209206494,
              260.1371235507012
            ],
            [
              603.2496487739004,
              260.2663137632882
            ],
            [
              603.9303239057929,
              260.94910367597004
            ],
            [
              604.1461848507629,
              261.16063953087365
            ],
            [
              604.3544065299767,
              261.3691929016944
            ],
            [
              604.5310946761404,
              261.54203539756395
            ],
            [
              604.7225661823472,
              261.73348539360677
            ],
            [
              605.6208582287043,
              262.61116700989726
            ],
            [
              606.238953441641,
              263.22555310455976
            ],
            [
              606.2699378096717,
              263.2556610012294
            ],
            [
              606.3289774423058,
              263.31431439152175
            ],
            [
              606.4870948546544,
              263.46793505552006
            ],
            [
              606.5426646649479,
              263.52308267970795
            ],
            [
              607.5034651980794,
              264.4562765073394
            ],
            [
              608.4365315673692,
              265.3753636661563
            ],
            [
              609.032011818502,
              265.9502284928007
            ],
            [
              609.1759451513557,
              266.09171127144106
            ],
            [
              609.2991092924777,
              266.21031758719874
            ],
            [
              609.950165748641,
              266.8483291740732
            ],
            [
              610.2447129654539,
              267.13129572448713
            ],
            [
              610.5394852182568,
              267.4196522045016
            ],
            [
              610.6879286655902,
              267.56197848481486
            ],
            [
              610.8597220925797,
              267.7298302800915
            ],
            [
              611.8619488019399,
              268.68993192493
            ],
            [
              612.5954939772263,
              269.4026155897314
            ],
            [
              612.6332738220299,
              269.4386304372772
            ],
            [
              612.6356514922129,
              269.4409175215708
            ],
            [
              613.3886843927247,
              270.15874976754
            ],
            [
              613.6098723051392,
              270.36960423202834
            ],
            [
              614.4826018482943,
              271.2121200276031
            ],
            [
              615.180333072964,
              271.87390017208116
            ],
            [
              615.4628769103527,
              272.14598816204233
            ],
            [
              615.5764898327998,
              272.253443962887
            ],
            [
              616.1763967497288,
              272.8297644343164
            ],
            [
              616.5473339518567,
              273.1799250777885
            ],
            [
              616.9286120499146,
              273.54549118686003
            ],
            [
              617.044439116778,
              273.6545945398334
            ],
            [
              617.1902165482292,
              273.79424473115944
            ],
            [
              618.068343046861,
              274.6208995834781
            ],
            [
              618.6216874990623,
              275.1485916339187
            ],
            [
              618.7098957317809,
              275.2313649709019
            ],
            [
              618.8777452357184,
              275.39137288851634
            ],
            [
              618.8871795972251,
              275.40021685272467
            ],
            [
              618.9275104308097,
              275.4386624144436
            ],
            [
              618.9654288810091,
              275.4742056610428
            ],
            [
              618.991669807266,
              275.4992177690776
            ],
            [
              619.1772750492502,
              275.673151972778
            ],
            [
              619.2798245082806,
              275.7708569581163
            ],
            [
              619.9771880590605,
              276.4235939130548
            ],
            [
              620.642761150333,
              277.05487289403356
            ],
            [
              621.4289610453869,
              277.7887472324068
            ],
            [
              621.8553738695427,
              278.19205110422143
            ],
            [
              621.9588756149943,
              278.28836095343814
            ],
            [
              622.4920623679261,
              278.7916833903036
            ],
            [
              622.9341673391261,
              279.2024264460806
            ],
            [
              623.3980621377322,
              279.6393923412272
            ],
            [
              623.4791570561902,
              279.7145571177496
            ],
            [
              623.5948078770994,
              279.82342903133656
            ],
            [
              624.2793852808742,
              280.45769386434716
            ],
            [
              624.6725796603174,
              280.8266618151666
            ],
            [
              624.8911006703268,
              281.02869463852284
            ],
            [
              625.2635853719297,
              281.3778469781861
            ],
            [
              625.341203490556,
              281.44948659372096
            ],
            [
              625.3961319410955,
              281.50096108982365
            ],
            [
              625.784121960639,
              281.85892294362566
            ],
            [
              626.0019080382459,
              282.0627721711479
            ],
            [
              626.43489572365,
              282.4615117838575
            ],
            [
              626.8183798688726,
              282.8194731307345
            ],
            [
              626.8265564967529,
              282.82704786435835
            ],
            [
              627.6497213897826,
              283.5837740509251
            ],
            [
              628.2464504850343,
              284.1390389784497
            ],
            [
              628.3397322229608,
              284.2245329213042
            ],
            [
              628.7961870828763,
              284.6486079175155
            ],
            [
              629.3021241494793,
              285.1117142833155
            ],
            [
              629.8418075101282,
              285.61193279226416
            ],
            [
              629.88792639598,
              285.65403890028307
            ],
            [
              629.9712954733701,
              285.73128082158536
            ],
            [
              629.981410165395,
              285.7405133419309
            ],
            [
              629.9992558144985,
              285.7570474503192
            ],
            [
              630.4774789127658,
              286.1935607930771
            ],
            [
              630.684637585634,
              286.3850886080037
            ],
            [
              631.016134447393,
              286.68730836928734
            ],
            [
              631.549370340961,
              287.1794719913824
            ],
            [
              631.6646156076371,
              287.284300662529
            ],
            [
              631.7473389036375,
              287.3606216576508
            ],
            [
              632.3303442997811,
              287.8906474411093
            ],
            [
              632.6558362808227,
              288.19039394854127
            ],
            [
              633.0229858832948,
              288.52335539610476
            ],
            [
              633.327716490652,
              288.8034908007949
            ],
            [
              634.0090248288526,
              289.42051435190393
            ],
            [
              634.5465849048629,
              289.91319525002297
            ],
            [
              634.6297791579867,
              289.9883503554397
            ],
            [
              635.0043766742224,
              290.3312358758563
            ],
            [
              635.5457532235782,
              290.8197893660397
            ],
            [
              636.2610167944159,
              291.4726689391766
            ],
            [
              636.5723629042715,
              291.75282250101094
            ],
            [
              636.588481346126,
              291.7675173962287
            ],
            [
              637.0222061410465,
              292.157638304674
            ],
            [
              637.7069944555203,
              292.78053112357424
            ],
            [
              637.8566107862348,
              292.91472396505304
            ],
            [
              637.9653227348334,
              293.0135569022897
            ],
            [
              638.7300466035518,
              293.6989873072741
            ],
            [
              639.1515604010197,
              294.08125067682204
            ],
            [
              639.4342460572559,
              294.33383931834874
            ],
            [
              639.6695103093692,
              294.5469052330725
            ],
            [
              640.2104168259955,
              295.02972516740056
            ],
            [
              640.683280304438,
              295.45689535323663
            ],
            [
              640.7566169759572,
              295.5222200053146
            ],
            [
              641.0483093422102,
              295.7854514359391
            ],
            [
              641.5691745827382,
              296.24902317674287
            ],
            [
              642.3420668878093,
              296.9444824271478
            ],
            [
              643.0378388247295,
              297.5618350759735
            ],
            [
              643.6743344284903,
              298.1327162976297
            ],
            [
              643.8542635279158,
              298.2918792325108
            ],
            [
              643.9865094371971,
              298.4104126938863
            ],
            [
              644.915567542229,
              299.23157472549485
            ],
            [
              645.4186662286394,
              299.6811094328583
            ],
            [
              645.6201592236605,
              299.8585290159357
            ],
            [
              645.787449786872,
              300.0078546688179
            ],
            [
              646.1943604082504,
              300.3658908514337
            ],
            [
              646.5997765939161,
              300.7270153847128
            ],
            [
              646.6634962884483,
              300.78298589414595
            ],
            [
              646.8744745279694,
              300.97075720648564
            ],
            [
              647.3710222266606,
              301.40663264410483
            ],
            [
              648.1897055540913,
              302.13304354676245
            ],
            [
              648.8219359225986,
              302.68621744895603
            ],
            [
              649.4035092159614,
              303.2006695999176
            ],
            [
              649.609205514557,
              303.38011750457883
            ],
            [
              649.762113746732,
              303.5152677539563
            ],
            [
              650.8355759984452,
              304.4508329302917
            ],
            [
              651.4042367392702,
              304.95155282647937
            ],
            [
              651.5300959417153,
              305.060745892097
            ],
            [
              651.6329477784819,
              305.15124409262893
            ],
            [
              651.9157687137658,
              305.39651026001957
            ],
            [
              652.2532615125899,
              305.69295932522976
            ],
            [
              652.3075742222675,
              305.7399963211259
            ],
            [
              652.4424728010451,
              305.8584118876729
            ],
            [
              652.9123173885073,
              306.26512221165484
            ],
            [
              653.7646355020293,
              307.0108632583568
            ],
            [
              654.333044379319,
              307.5011590208787
            ],
            [
              654.8590478320766,
              307.9600404790732
            ],
            [
              655.0857307682314,
              308.15501236491826
            ],
            [
              655.2561966817749,
              308.3035802090244
            ],
            [
              656.4528364898697,
              309.3316225643905
            ],
            [
              657.0703317044557,
              309.86734974347047
            ],
            [
              657.1276581932336,
              309.91633180797686
            ],
            [
              657.1710360689799,
              309.95394969267903
            ],
            [
              657.3419525611047,
              310.09997089576586
            ],
            [
              657.6128585268416,
              310.334586382177
            ],
            [
              657.6579353447161,
              310.3730588952721
            ],
            [
              657.7231246753498,
              310.4294885626381
            ],
            [
              658.1650539059472,
              310.8065578418955
            ],
            [
              659.0389272084806,
              311.5603398363879
            ],
            [
              659.5447585029805,
              311.99025934569306
            ],
            [
              660.0159515144464,
              312.3955363885994
            ],
            [
              660.258796739982,
              312.60135194619284
            ],
            [
              660.4436206477357,
              312.7601355702783
            ],
            [
              661.7285865215343,
              313.84765820458927
            ],
            [
              662.3780293692745,
              314.40250475441417
            ],
            [
              662.3813113855537,
              314.4052650226902
            ],
            [
              662.3913903274647,
              314.41387687723585
            ],
            [
              662.4603326761652,
              314.47184632004684
            ],
            [
              662.6575926877371,
              314.64020532890237
            ],
            [
              662.6935795773878,
              314.6704523136981
            ],
            [
              662.6965676658732,
              314.67300185396977
            ],
            [
              663.1102890888352,
              315.0206988944684
            ],
            [
              663.9940045292067,
              315.77179221869005
            ],
            [
              664.4396257542081,
              316.1446773415293
            ],
            [
              664.5983087106064,
              316.27916391041356
            ],
            [
              664.7574373928943,
              316.4140733503789
            ],
            [
              664.7609630337257,
              316.41701628174957
            ],
            [
              664.8578038233546,
              316.4990905373649
            ],
            [
              665.1120795654373,
              316.7112558637249
            ],
            [
              665.3080636973465,
              316.87712577806366
            ],
            [
              666.5361809946587,
              317.90015923679874
            ],
            [
              667.3744667983277,
              318.6047385490033
            ],
            [
              667.377629525998,
              318.60737536780186
            ],
            [
              667.8045271743175,
              318.96034591606247
            ],
            [
              667.9907717954533,
              319.1161909354034
            ],
            [
              668.2422737068141,
              319.326896097048
            ],
            [
              668.2624698340317,
              319.34354131910845
            ],
            [
              668.6187668771056,
              319.64168211496957
            ],
            [
              668.8388822707876,
              319.8228072258478
            ],
            [
              668.8537537462825,
              319.83524218853194
            ],
            [
              669.0023597456626,
              319.9574051227964
            ],
            [
              669.2706003737165,
              320.18131158351645
            ],
            [
              669.2871890748064,
              320.194928605671
            ],
            [
              669.3750246283865,
              320.26821777883333
            ],
            [
              669.6361816524551,
              320.4824894441503
            ],
            [
              669.8401926238337,
              320.6524325351947
            ],
            [
              670.9592545377404,
              321.56876002057703
            ],
            [
              671.7597131497109,
              322.2306009003209
            ],
            [
              672.1517861245254,
              322.5490337693866
            ],
            [
              672.4911106723836,
              322.8286979044467
            ],
            [
              672.5363927231659,
              322.8653567698767
            ],
            [
              672.9079117013907,
              323.1710664933067
            ],
            [
              673.1242431008828,
              323.3458374033818
            ],
            [
              673.1674103095347,
              323.38132340593165
            ],
            [
              673.2581381351467,
              323.4545268730677
            ],
            [
              673.4566214933774,
              323.61745417351506
            ],
            [
              673.4845187070439,
              323.63993693132306
            ],
            [
              673.5633191340341,
              323.7045903664696
            ],
            [
              673.8270432745265,
              323.9170068951654
            ],
            [
              674.0360468183173,
              324.08814639096624
            ],
            [
              675.0449520261401,
              324.8987981701971
            ],
            [
              675.8051688464438,
              325.5162292066454
            ],
            [
              676.1475057863817,
              325.78879565014915
            ],
            [
              676.4142798927361,
              326.00476723041163
            ],
            [
              676.4813441959272,
              326.0579892914516
            ],
            [
              676.8604833722271,
              326.3642901753813
            ],
            [
              677.0698305224097,
              326.5299791560778
            ],
            [
              677.1376403364701,
              326.5846912960544
            ],
            [
              677.1789421887748,
              326.6173249021005
            ],
            [
              677.3150649263918,
              326.7270281355139
            ],
            [
              677.3523891374122,
              326.75649564742855
            ],
            [
              677.4223409134786,
              326.8128382841685
            ],
            [
              677.6845766186145,
              327.01972722854725
            ],
            [
              677.8956508497245,
              327.18932462944883
            ],
            [
              677.9176704964448,
              327.20664490533346
            ],
            [
              677.9203887670001,
              327.2088290329029
            ],
            [
              678.8022447745261,
              327.90248155436757
            ],
            [
              679.5154054245161,
              328.4702954223513
            ],
            [
              679.8106329465861,
              328.70010440574407
            ],
            [
              680.0135812373352,
              328.8611636549017
            ],
            [
              680.0990003447931,
              328.9274326671231
            ],
            [
              680.478649314132,
              329.2279079814426
            ],
            [
              680.6750591131851,
              329.37974780509614
            ],
            [
              680.7636460645465,
              329.44968731548965
            ],
            [
              680.7668493788798,
              329.4522183326741
            ],
            [
              680.7669594662833,
              329.4523032503628
            ],
            [
              680.848317524808,
              329.51653554069344
            ],
            [
              680.8931092217241,
              329.5510755929213
            ],
            [
              680.9545665685413,
              329.5995619178498
            ],
            [
              681.2087311455263,
              329.79538167059496
            ],
            [
              681.4454546439385,
              329.98158423673095
            ],
            [
              682.2658962620347,
              330.6113136403351
            ],
            [
              682.894203916266,
              331.1003965763202
            ],
            [
              683.1370661723507,
              331.2845382867024
            ],
            [
              683.1469797097877,
              331.29224195237026
            ],
            [
              683.1548829211793,
              331.2982174461957
            ],
            [
              683.2928890630949,
              331.40528401452224
            ],
            [
              683.3931179403107,
              331.48101553707176
            ],
            [
              683.7666887870374,
              331.7698144247174
            ],
            [
              683.9160314497518,
              331.88213020390106
            ],
            [
              684.0606664113158,
              331.9936620160469
            ],
            [
              684.067052516466,
              331.99845231061806
            ],
            [
              684.0729569795903,
              332.0030054023425
            ],
            [
              684.1170272851282,
              332.03606303426835
            ],
            [
              684.1643667693972,
              332.0725354892963
            ],
            [
              684.3859946608771,
              332.2385937183316
            ],
            [
              684.6419667796948,
              332.43506494330165
            ],
            [
              685.3973264142726,
              332.99830062082094
            ],
            [
              685.9468461666229,
              333.41495452463596
            ],
            [
              686.1567076030525,
              333.56914481348457
            ],
            [
              686.2573761518499,
              333.645208545663
            ],
            [
              686.3687433666953,
              333.72673538943695
            ],
            [
              686.7301714876346,
              333.998553771968
            ],
            [
              686.7332581069794,
              334.000799167993
            ],
            [
              686.7364497992329,
              334.00319953799493
            ],
            [
              686.8370308238714,
              334.07636828538153
            ],
            [
              686.9693694145083,
              334.17563695086966
            ],
            [
              687.0286221385895,
              334.2186244627427
            ],
            [
              687.0572517491994,
              334.2400756546652
            ],
            [
              687.2479312447861,
              334.3782084393318
            ],
            [
              687.5157211553527,
              334.57788661223026
            ],
            [
              688.2027246777651,
              335.0724031972311
            ],
            [
              688.6794144764839,
              335.4226387574456
            ],
            [
              688.8513684514436,
              335.5441516525337
            ],
            [
              688.9128890168904,
              335.5891880443913
            ],
            [
              689.0169404907266,
              335.66243391781273
            ],
            [
              689.0192590784844,
              335.66412995364965
            ],
            [
              689.0300501593955,
              335.6717037709613
            ],
            [
              689.3813589320878,
              335.9272671134216
            ],
            [
              689.4444281611502,
              335.9712778924765
            ],
            [
              689.5563644283714,
              336.0524870130893
            ],
            [
              689.6261556094872,
              336.1010510189673
            ],
            [
              689.6392668751935,
              336.1105491332579
            ],
            [
              689.8008853304348,
              336.22278586989154
            ],
            [
              690.0729903805727,
              336.4186516198703
            ],
            [
              690.6887049566067,
              336.8425227896384
            ],
            [
              691.0982359265389,
              337.1319217046552
            ],
            [
              691.2356464325858,
              337.22426719688707
            ],
            [
              691.2654511509519,
              337.2452478956529
            ],
            [
              691.3785859212012,
              337.32096602251926
            ],
            [
              691.7142604924599,
              337.55520543863014
            ],
            [
              691.7472149644451,
              337.5769844726998
            ],
            [
              691.8399968553784,
              337.64154650224117
            ],
            [
              691.9157190334122,
              337.6914426082675
            ],
            [
              691.9165141552616,
              337.6919947845706
            ],
            [
              691.9315879797922,
              337.70189923605665
            ],
            [
              691.9556991447201,
              337.71778696237976
            ],
            [
              691.9795568001646,
              337.7343416895127
            ],
            [
              692.0756614224543,
              337.7973334803122
            ],
            [
              692.3200374063276,
              337.9655671687493
            ],
            [
              692.861827235694,
              338.31712735032255
            ],
            [
              693.2094463909692,
              338.55074167084734
            ],
            [
              693.3157959914715,
              338.6174897838305
            ],
            [
              693.3208721876151,
              338.62088714843
            ],
            [
              693.396923378824,
              338.6684076997563
            ],
            [
              693.427124086928,
              338.6873625455393
            ],
            [
              693.5070410229708,
              338.740022730672
            ],
            [
              693.7411734465842,
              338.89475675383164
            ],
            [
              693.7445694305512,
              338.8968381413717
            ],
            [
              693.749147570879,
              338.89986375908865
            ],
            [
              693.755841374771,
              338.9039663605986
            ],
            [
              693.8260207087978,
              338.95021008446304
            ],
            [
              693.9522102048994,
              339.02731769453777
            ],
            [
              693.9880494087693,
              339.0508085067234
            ],
            [
              694.0539924702649,
              339.090707442852
            ],
            [
              694.2627361001508,
              339.22615839532
            ],
            [
              694.7282257339265,
              339.5039719105592
            ],
            [
              695.0186518258888,
              339.68625180167714
            ],
            [
              695.1868457973826,
              339.78173706215586
            ],
            [
              695.5195987903109,
              339.9850645087538
            ],
            [
              695.6470232853445,
              340.05457283366803
            ],
            [
              695.6904252636609,
              340.0808332577607
            ],
            [
              695.732536839142,
              340.10336484713395
            ],
            [
              695.9062779675788,
              340.2070570244287
            ],
            [
              696.2933228789971,
              340.409894251221
            ],
            [
              696.5306675225819,
              340.5446369825778
            ],
            [
              696.6557525626031,
              340.60482090283375
            ],
            [
              696.9250790266234,
              340.7517348173437
            ],
            [
              697.0446410179261,
              340.80539967344043
            ],
            [
              697.0912465669591,
              340.83033574105303
            ],
            [
              697.115340858112,
              340.8406862403242
            ],
            [
              697.2549475107177,
              340.9138493938018
            ],
            [
              697.5616116427537,
              341.040669591347
            ],
            [
              697.7493192433279,
              341.1309839827664
            ],
            [
              697.8370375767242,
              341.1610632654654
            ],
            [
              698.0458238241764,
              341.25477602318347
            ],
            [
              698.1456107169361,
              341.2832727167478
            ],
            [
              698.1939735080521,
              341.3040485524437
            ],
            [
              698.2053630475642,
              341.30689140146103
            ],
            [
              698.3119519029946,
              341.35097096046417
            ],
            [
              698.5364919935668,
              341.4009114969959
            ],
            [
              698.6772932833461,
              341.44919332857677
            ],
            [
              698.7427352714913,
              341.4545959337123
            ],
            [
              698.7559677026599,
              341.4584108454931
            ],
            [
              698.8830173319411,
              341.495215436441
            ],
            [
              698.8835756430043,
              341.495200232744
            ],
            [
              698.8925521811211,
              341.497788169954
            ],
            [
              698.8962961180873,
              341.4976500888245
            ],
            [
              698.9113275530233,
              341.50194269864096
            ],
            [
              698.9730089927413,
              341.4984971745197
            ],
            [
              699.0008249936681,
              341.50544009709523
            ],
            [
              699.0043429845032,
              341.50496743393404
            ],
            [
              699.0792936768275,
              341.5216374093372
            ]
          ]
        ]
      }
    }
  ]
}