{
  "type": "FeatureCollection",
  "features": [
    {
      "type": "Feature",
      "properties": {
        "method": "Homography",
        "mode": "tmpl2img",
        "inside_ratio": 0.7935483870967742
      },
      "geometry": {
        "type": "Polygon",
        "coordinates": [
          [
            [
              777.4458962028174,
              114.81904410464796
            ],
            [
              777.5790568580948,
              114.36404937516967
            ],
            [
              777.3052135743748,
              112.95886751090681
            ],
            [
              777.6911706700384,
              110.54478851269647
            ],
            [
              777.5826704930046,
              110.21150481213387
            ],
            [
              777.7061644150267,
              109.25990368658381
            ],
            [
              777.2171207475619,
              107.92378538196283
            ],
            [
              777.2655713096575,
              106.30367777557827
            ],
            [
              775.5184282456354,
              102.65233688018172
            ],
            [
              775.1552665366881,
              100.35996041217936
            ],
            [
              773.8427276339918,
              98.5357306058516
            ],
            [
              773.7426154026508,
              98.1423821630776
            ],
            [
              773.5951260162636,
              97.96282821386073
            ],
            [
              773.1952514406993,
              96.73451981895545
            ],
            [
              773.070227573884,
              96.59404072879455
            ],
            [
              772.5935072687554,
              95.29159113534244
            ],
            [
              771.3856470224204,
              94.01526908489805
            ],
            [
              771.2579568393102,
              93.74841035009655
            ],
            [
              771.4176319488331,
              93.9081569507596
            ],
            [
              771.3629009811718,
              93.77620195885751
            ],
            [
              771.1885682663323,
              93.60339570334928
            ],
            [
              770.6572436619709,
              92.4929844860009
            ],
            [
              767.1795140026486,
              89.27487526122954
            ],
            [
              765.051635356307,
              86.31744699542841
            ],
            [
              762.5970201436184,
              84.5737065149988
            ],
            [
              762.5728640337747,
              84.54429880626328
            ],
            [
              762.3340798518342,
              84.38691567774539
            ],
            [
              762.1500095475997,
              84.25615349594538
            ],
            [
              760.095051591666,
              82.08472003757096
            ],
            [
              758.1546956461427,
              80.92378013603624
            ],
            [
              757.4905917483599,
              80.30925310573532
            ],
            [
              758.1686870339963,
              80.69751671022543
            ],
            [
              758.054151302845,
              80.58398385530772
            ],
            [
              757.3617586583051,
              80.19003769910245
            ],
            [
              756.6767767095956,
              79.5561912119195
            ],
            [
              751.8472579036077,
              76.93715497907466
            ],
            [
              746.995414326246,
              73.49044121039425
            ],
            [
              742.4916164315699,
              71.55235852489194
            ],
            [
              740.2416670800045,
              70.20618490934868
            ],
            [
              737.6052671162923,
              69.21375821885499
            ],
            [
              736.0229449651918,
              68.35566878751493
            ],
            [
              737.4944701737613,
              68.88627531141879
            ],
            [
              737.333019001671,
              68.7944154842312
            ],
            [
              735.8531231778302,
              68.26357484769866
            ],
            [
              735.4579926093352,
              68.04929650711799
            ],
            [
              730.287920954357,
              66.26732927202929
            ],
            [
              729.8200057866693,
              66.09948746759972
            ],
            [
              729.5565224106936,
              65.98610481126182
            ],
            [
              728.8364987989124,
              65.64790129032072
            ],
            [
              729.2400030128102,
              65.51633128757241
            ],
            [
              726.5064243958118,
              64.67358096143255
            ],
            [
              721.4023533721933,
              62.477187626841825
            ],
            [
              715.3522020129415,
              60.83698077296988
            ],
            [
              713.5812834740019,
              60.17034943896582
            ],
            [
              710.3363264784791,
              59.39061846103971
            ],
            [
              707.6459984178598,
              58.463343797278455
            ],
            [
              703.3689895562699,
              57.52592861465653
            ],
            [
              702.7263580535149,
              57.32631424416578
            ],
            [
              710.0038226038631,
              58.991395718820215
            ],
            [
              709.8118680712008,
              58.922541367942884
            ],
            [
              702.5229539511736,
              57.26313280711407
            ],
            [
              700.4246785427146,
              56.61136593453764
            ],
            [
              700.2228237995702,
              56.57046190841639
            ],
            [
              699.4091517123929,
              56.31961036436406
            ],
            [
              696.9342107353548,
              55.84383039799949
            ],
            [
              689.2679344178557,
              53.765489177585174
            ],
            [
              681.9143182916989,
              52.56109182382862
            ],
            [
              681.1483592896487,
              52.37703947351969
            ],
            [
              681.1025072243299,
              52.368391481262684
            ],
            [
              677.9589642821219,
              51.91327205452657
            ],
            [
              677.1753951087852,
              51.784936739960614
            ],
            [
              674.3498248318256,
              51.165641208229836
            ],
            [
              673.4628693399352,
              51.05146958759257
            ],
            [
              672.8576713996905,
              50.91984225398918
            ],
            [
              671.4454031490745,
              50.738979588092484
            ],
            [
              670.626207546364,
              50.57297705674241
            ],
            [
              676.7976470743154,
              51.406458718379696
            ],
            [
              676.5930052668784,
              51.359869561000814
            ],
            [
              670.4148404345937,
              50.53014543570743
            ],
            [
              668.8610781501953,
              50.21528965340304
            ],
            [
              665.5783478928678,
              49.81601336857015
            ],
            [
              664.2924103041158,
              49.568806122652134
            ],
            [
              662.4297782044176,
              49.369855278768895
            ],
            [
              652.0602820429077,
              47.671508027230026
            ],
            [
              644.4989470073957,
              47.044368791202615
            ],
            [
              649.6983009027508,
              47.74656575912075
            ],
            [
              649.6722605939283,
              47.744428417451836
            ],
            [
              644.3960156617908,
              47.035831636681934
            ],
            [
              639.1286642073327,
              46.59895603846489
            ],
            [
              638.9160811077552,
              46.57309969827874
            ],
            [
              635.8472706641088,
              46.180091331973756
            ],
            [
              635.5397224322048,
              46.16243545159507
            ],
            [
              634.863865186291,
              46.080231386969494
            ],
            [
              639.3439883769786,
              46.35734716214875
            ],
            [
              639.1435573508114,
              46.33042938600101
            ],
            [
              634.6608996569587,
              46.05554482542025
            ],
            [
              634.0040784905285,
              45.97565610642804
            ],
            [
              628.4491346101046,
              45.67462831965823
            ],
            [
              627.0049082754282,
              45.58606578631425
            ],
            [
              625.4561383068195,
              45.42063908058804
            ],
            [
              624.4624730123127,
              45.38253805164395
            ],
            [
              611.5094656426888,
              44.308212008953554
            ],
            [
              604.3183495007064,
              44.190853819127575
            ],
            [
              610.865451351721,
              44.595821523693864
            ],
            [
              610.8528522644854,
              44.59559291904274
            ],
            [
              604.2287590115351,
              44.18939171264143
            ],
            [
              599.9568077551692,
              44.11967395860053
            ],
            [
              596.4657539205155,
              43.91925782045543
            ],
            [
              596.073120292832,
              43.92014075970324
            ],
            [
              595.4234850029345,
              43.884936394413025
            ],
            [
              599.2971241626745,
              43.88697507256211
            ],
            [
              599.1149190366511,
              43.875801929428384
            ],
            [
              595.2452093990158,
              43.87527546684731
            ],
            [
              594.4916336789944,
              43.83443846901947
            ],
            [
              586.725165463496,
              43.874116339996704
            ],
            [
              585.1175083953403,
              43.87389762297521
            ],
            [
              584.6065602084631,
              43.8543058633033
            ],
            [
              584.2002638044985,
              43.862528970358966
            ],
            [
              568.5758261852992,
              43.60753994226172
            ],
            [
              562.4133732836829,
              43.86756332722957
            ],
            [
              570.6120471073477,
              43.87187825086106
            ],
            [
              570.6108319103732,
              43.87192403241646
            ],
            [
              562.3367042262454,
              43.87079836173343
            ],
            [
              559.2022862521868,
              44.00305445919004
            ],
            [
              556.2632754515633,
              44.00966359252781
            ],
            [
              555.8639651538547,
              44.03178217853605
            ],
            [
              555.2456196162261,
              44.03494122505773
            ],
            [
              558.3047076966424,
              43.87024982048559
            ],
            [
              558.1506533808347,
              43.87022886186118
            ],
            [
              555.093231550254,
              44.035719755773336
            ],
            [
              554.2515774107658,
              44.04001965675313
            ],
            [
              543.7196155685963,
              44.65134624770723
            ],
            [
              543.300921498867,
              44.674009151195996
            ],
            [
              541.2488502815517,
              44.76059585823487
            ],
            [
              541.1317439847429,
              44.76319152628071
            ],
            [
              541.0593983338678,
              44.76858974273729
            ],
            [
              525.8471546536433,
              45.41046711814347
            ],
            [
              520.9104281493385,
              45.8834368421311
            ],
            [
              529.5611022863983,
              45.4177125358499
            ],
            [
              520.850064310487,
              45.889220080929086
            ],
            [
              518.819815760237,
              46.08373077452981
            ],
            [
              516.6254161061513,
              46.20528290523447
            ],
            [
              516.2254804842439,
              46.24724035783027
            ],
            [
              515.6560146609668,
              46.28029494021758
            ],
            [
              517.8450013199945,
              46.051876916688556
            ],
            [
              517.7246024255146,
              46.058393819432126
            ],
            [
              515.5356019377733,
              46.287284283760975
            ],
            [
              514.6417736679235,
              46.339166449440675
            ],
            [
              502.4484144498901,
              47.64962607332447
            ],
            [
              501.3160337315371,
              47.734120941405116
            ],
            [
              500.38008093007477,
              47.85037437643645
            ],
            [
              484.79280256663094,
              49.343734549232494
            ],
            [
              481.12983054792926,
              49.88305912430519
            ],
            [
              489.62267163108305,
              48.99684176604733
            ],
            [
              481.08700792959684,
              49.88936419305789
            ],
            [
              480.0410531472597,
              50.04336731282714
            ],
            [
              478.67904268586295,
              50.186256533576945
            ],
            [
              478.2839720363763,
              50.24665660039913
            ],
            [
              477.77047392412845,
              50.30184389792815
            ],
            [
              479.1203531849898,
              50.09500531564951
            ],
            [
              479.0351000834679,
              50.103919713857216
            ],
            [
              477.6842849737392,
              50.31110690229247
            ],
            [
              476.77682778622074,
              50.40863425166765
            ],
            [
              468.0702368337283,
              51.7620705700637
            ],
            [
              467.7070893109449,
              51.80490899454584
            ],
            [
              466.4537007478873,
              52.01336050207369
            ],
            [
              464.8223882017853,
              52.26694742934518
            ],
            [
              463.63020377233875,
              52.41502704927078
            ],
            [
              461.8938722685631,
              52.7153016235981
            ],
            [
              460.7743206445668,
              52.88014091279113
            ],
            [
              460.1371596232728,
              52.96132691284601
            ],
            [
              459.7134969480123,
              53.03633328512389
            ],
            [
              446.4988900177757,
              54.982010792607845
            ],
            [
              444.0419238596207,
              55.46998424917723
            ],
            [
              451.7255361895016,
              54.29264378095125
            ],
            [
              444.0161161115161,
              55.47510987778529
            ],
            [
              443.78514209276113,
              55.52098319596857
            ],
            [
              443.2535065162746,
              55.602261884681255
            ],
            [
              442.86801112264794,
              55.6797471632966
            ],
            [
              442.40939322551884,
              55.75103914446941
            ],
            [
              443.0126893966691,
              55.62901484846066
            ],
            [
              442.9609162728619,
              55.636955778253906
            ],
            [
              442.3565365086518,
              55.7592557013919
            ],
            [
              441.47226856617084,
              55.89671482347195
            ],
            [
              434.2068668835914,
              57.376343163671784
            ],
            [
              432.8710318637263,
              57.5985063714032
            ],
            [
              429.6605888374528,
              58.28960321301142
            ],
            [
              428.8237648419796,
              58.43432037588285
            ],
            [
              427.26598806108774,
              58.78092697465723
            ],
            [
              425.08478848449766,
              59.167092376958394
            ],
            [
              422.74840383812494,
              59.69905046274717
            ],
            [
              411.6671658524596,
              61.899874428088054
            ],
            [
              410.2813857864584,
              62.24886383507082
            ],
            [
              409.2537514703353,
              62.458145706046274
            ],
            [
              403.40892452116987,
              63.94067446639051
            ],
            [
              401.2511714170565,
              64.40516374187375
            ],
            [
              397.5165687343936,
              65.40019693324751
            ],
            [
              397.3476110985578,
              65.43779014442158
            ],
            [
              396.4338631204002,
              65.68866885756673
            ],
            [
              396.387692507301,
              65.70097037834618
            ],
            [
              393.498035728631,
              66.35889983826877
            ],
            [
              390.0135006874841,
              67.33839714719575
            ],
            [
              388.1815835477819,
              67.80305929540472
            ],
            [
              381.8679996715539,
              69.3866483449802
            ],
            [
              381.52795639462056,
              69.49001451865762
            ],
            [
              380.66138544181393,
              69.70824834260004
            ],
            [
              380.6265587279604,
              69.71937635288685
            ],
            [
              380.39571874169997,
              69.77792845742187
            ],
            [
              375.9938982527552,
              71.13461457176295
            ],
            [
              373.07508827608024,
              71.91229108862507
            ],
            [
              368.4428509301275,
              73.40187280166326
            ],
            [
              365.5661214496494,
              74.21051692529504
            ],
            [
              361.83619357754554,
              75.47590606078884
            ],
            [
              356.27887721691206,
              77.16521611946864
            ],
            [
              355.43404494172523,
              77.47137173162265
            ],
            [
              353.9675319081273,
              77.92336605400968
            ],
            [
              351.20358872418643,
              78.94547685526697
            ],
            [
              348.37897085362755,
              79.85378504676312
            ],
            [
              345.69903467417043,
              80.87959802557718
            ],
            [
              344.6614177977126,
              81.21114269316794
            ],
            [
              344.61127433993084,
              81.22938177575303
            ],
            [
              343.0798138408772,
              81.83906372865118
            ],
            [
              341.28224513339404,
              82.44889426445145
            ],
            [
              337.7083865726138,
              83.89490684992764
            ],
            [
              334.05797393687135,
              85.21776624809007
            ],
            [
              332.89638589913505,
              85.71551100685333
            ],
            [
              331.1993188888977,
              86.3430892189127
            ],
            [
              329.68933085887437,
              87.00771483916522
            ],
            [
              327.0627682601887,
              88.01309773747353
            ],
            [
              323.36519326954283,
              89.68755108961794
            ],
            [
              322.37124868773935,
              90.083245313563
            ],
            [
              322.1332731424531,
              90.19672592231083
            ],
            [
              320.504669723013,
              90.85567226873377
            ],
            [
              317.24191932864835,
              92.4235076749062
            ],
            [
              315.0440892789578,
              93.36528595805936
            ],
            [
              314.1611515916594,
              93.81183091578424
            ],
            [
              313.0879119138744,
              94.27848214653953
            ],
            [
              312.5956950450952,
              94.53148484890248
            ],
            [
              312.1092786090063,
              94.74447041417118
            ],
            [
              312.0947468860214,
              94.75202211396666
            ],
            [
              311.88857809600614,
              94.84276790611823
            ],
            [
              311.2931096734915,
              95.15441542522149
            ],
            [
              308.9382001991918,
              96.2208403316044
            ],
            [
              305.4488430035345,
              98.09038389144145
            ],
            [
              303.7592786513868,
              98.90226297876069
            ],
            [
              303.4326147385835,
              99.058492869019
            ],
            [
              303.42424425005873,
              99.06325561784634
            ],
            [
              303.00819614146775,
              99.263177425056
            ],
            [
              300.1498885091665,
              100.89801487973988
            ],
            [
              299.01697069115494,
              101.47098706840394
            ],
            [
              298.54686878421825,
              101.75267378898894
            ],
            [
              297.2499429802071,
              102.41930216762714
            ],
            [
              296.73025119657433,
              102.7364888517284
            ],
            [
              296.1072510871448,
              103.06024328870338
            ],
            [
              295.68840608839525,
              103.31987487006882
            ],
            [
              293.76694944077724,
              104.34936159201655
            ],
            [
              290.7313666143593,
              106.2850320738856
            ],
            [
              290.60287827146686,
              106.35852225845981
            ],
            [
              288.8976117112538,
              107.32880688107997
            ],
            [
              288.8519301533612,
              107.35999443462539
            ],
            [
              288.5238970517709,
              107.54761622689038
            ],
            [
              286.1156910741696,
              109.20147931476691
            ],
            [
              285.7273941152638,
              109.43414822198625
            ],
            [
              285.5606086673196,
              109.55372550622064
            ],
            [
              284.159722947356,
              110.40873670767975
            ],
            [
              283.6494741283716,
              110.78250890426735
            ],
            [
              282.9575117008579,
              111.21143917641402
            ],
            [
              282.6801085500754,
              111.41899924529412
            ],
            [
              281.2889337625809,
              112.30609609794453
            ],
            [
              278.75486509526377,
              114.2534274003248
            ],
            [
              277.0876304019276,
              115.39167604291661
            ],
            [
              277.0195485152838,
              115.44835958999299
            ],
            [
              276.76764075855345,
              115.62136013242164
            ],
            [
              276.7615239005321,
              115.62599543857304
            ],
            [
              274.7851267070604,
              117.27590287930556
            ],
            [
              273.55553614276954,
              118.17661396185716
            ],
            [
              273.08376266687105,
              118.59922847818689
            ],
            [
              272.3805399108571,
              119.12539756914785
            ],
            [
              272.2083635850029,
              119.28415426118706
            ],
            [
              271.24190702272796,
              120.02683781210781
            ],
            [
              271.2223071926088,
              120.04351508619524
            ],
            [
              269.2687215909159,
              121.88102875038854
            ],
            [
              267.7969120569962,
              123.10970358830953
            ],
            [
              266.19316046646617,
              124.77182754314434
            ],
            [
              265.1835540779589,
              125.67623259634783
            ],
            [
              265.17622592548025,
              125.68357873183479
            ],
            [
              264.92996892736744,
              125.96199520405379
            ],
            [
              263.7219017735139,
              127.09828526502268
            ],
            [
              262.14432197959945,
              128.96803316378217
            ],
            [
              260.84659536770636,
              130.31299363096855
            ],
            [
              260.6788336981839,
              130.53787815916937
            ],
            [
              260.54293830436035,
              130.67965861361836
            ],
            [
              259.5227093309223,
              132.0751690183974
            ],
            [
              259.5183732601785,
              132.08030813034975
            ],
            [
              258.75512945991846,
              132.94322633345797
            ],
            [
              258.6244839942324,
              133.13974587362904
            ],
            [
              257.82029404645544,
              134.09287196643655
            ],
            [
              257.8089659966051,
              134.1082722732184
            ],
            [
              257.29915195770775,
              134.96850659442214
            ],
            [
              257.18002800907783,
              135.1135176785026
            ],
            [
              256.8352920525767,
              135.6901459690445
            ],
            [
              255.69614353991284,
              137.21717461960515
            ],
            [
              255.50951971408517,
              137.56457190000455
            ],
            [
              255.30326963691016,
              137.8466890875943
            ],
            [
              254.6465432533423,
              139.1234444365275
            ],
            [
              254.13990557269213,
              139.88553903749442
            ],
            [
              253.9199890038873,
              140.36960923899883
            ],
            [
              253.48680094525753,
              141.0579246025363
            ],
            [
              253.1652415253474,
              141.82891658991667
            ],
            [
              252.96209371811355,
              142.1687151244287
            ],
            [
              252.8345133911681,
              142.50191100016292
            ],
            [
              252.33016288432688,
              143.35292643482273
            ],
            [
              252.1990452658678,
              143.72696737698215
            ],
            [
              252.15232940640786,
              143.8139282055508
            ],
            [
              251.99959681726628,
              144.26942776403968
            ],
            [
              251.78837813096627,
              144.68006238185433
            ],
            [
              251.43502345346485,
              145.83940072078732
            ],
            [
              251.13264039340726,
              146.50499235679794
            ],
            [
              251.0096495440603,
              146.99730551820966
            ],
            [
              250.71099963708974,
              147.71336815252775
            ],
            [
              250.5748453303418,
              148.3603437398325
            ],
            [
              250.39629033289506,
              148.86970991238908
            ],
            [
              250.39216344862555,
              148.88048791282122
            ],
            [
              250.39182244778326,
              148.88245550658257
            ],
            [
              250.13345546025144,
              149.61950238535778
            ],
            [
              250.07208390770896,
              150.01791460741353
            ],
            [
              250.0437637965415,
              150.102374631342
            ],
            [
              249.9680961348351,
              150.6523130414554
            ],
            [
              249.80741146114758,
              151.17951110771287
            ],
            [
              249.80651181664774,
              151.18399326355316
            ],
            [
              249.70405743351088,
              152.2233868313035
            ],
            [
              249.64554191727112,
              152.45761530393096
            ],
            [
              249.57593894787937,
              152.73236081365425
            ],
            [
              249.57566368370738,
              152.73732695942363
            ],
            [
              249.55922109869016,
              152.80314405925856
            ],
            [
              249.53499535293975,
              153.30148417018418
            ],
            [
              249.3797517587774,
              154.0391678902453
            ],
            [
              249.37644254731825,
              154.53388346714118
            ],
            [
              249.2151005008873,
              155.58128475600898
            ],
            [
              249.23208311980025,
              156.0015179483714
            ],
            [
              249.22035069611528,
              156.0867870089151
            ],
            [
              249.2585945063592,
              156.7425814911681
            ],
            [
              249.19374732005832,
              157.40045230414435
            ],
            [
              249.2750570986542,
              158.16068477349563
            ],
            [
              249.25319132936738,
              158.5551734395182
            ],
            [
              249.27277014158844,
              158.69563559206821
            ],
            [
              249.2683611920456,
              158.78633069087883
            ],
            [
              249.34463559475205,
              159.28891199310982
            ],
            [
              249.33959366913572,
              160.04266229615453
            ],
            [
              249.4098230717878,
              160.39967513661537
            ],
            [
              249.44421423719777,
              161.25068105644064
            ],
            [
              249.71102361552846,
              162.851920943864
            ],
            [
              249.80855766614144,
              163.14882348008987
            ],
            [
              249.82397039951536,
              163.29292989082708
            ],
            [
              249.98532406844168,
              163.80763407489778
            ],
            [
              250.0245641973692,
              164.089150282978
            ],
            [
              250.1132834934918,
              164.35362634267028
            ],
            [
              250.13002263296852,
              164.46392256551292
            ],
            [
              250.1848350749715,
              164.6189284532367
            ],
            [
              250.21472573414874,
              164.81030124397523
            ],
            [
              250.35325271295554,
              165.19562217904243
            ],
            [
              250.45917764062807,
              165.7340940707895
            ],
            [
              250.6101270739876,
              166.10944802715608
            ],
            [
              250.65834040002588,
              166.33296149163922
            ],
            [
              250.74226325085422,
              166.53587308332575
            ],
            [
              250.82429495302725,
              166.87978928546656
            ],
            [
              250.88908602686544,
              167.02598990944247
            ],
            [
              250.927351923683,
              167.17627862088253
            ],
            [
              251.11170005917896,
              167.58284097832714
            ],
            [
              251.1317756374872,
              167.65903372306929
            ],
            [
              251.28939865668136,
              167.99983123545414
            ],
            [
              251.4381318435074,
              168.50945990321742
            ],
            [
              251.4941578192592,
              168.62068263937812
            ],
            [
              251.57327740040554,
              168.87306722863306
            ],
            [
              251.72936352524775,
              169.1712308282198
            ],
            [
              251.7874457592843,
              169.34437648049305
            ],
            [
              251.93358912281164,
              169.6176128421113
            ],
            [
              252.08856816462753,
              170.0893831652784
            ],
            [
              252.15090022028494,
              170.19588439814135
            ],
            [
              252.15387035082415,
              170.20414599084694
            ],
            [
              252.50849380604757,
              170.82996567121972
            ],
            [
              252.62725939589026,
              171.12529062234188
            ],
            [
              252.66783582749915,
              171.19158952492597
            ],
            [
              252.79072356426315,
              171.48871177493217
            ],
            [
              253.04005258275126,
              171.8936890800894
            ],
            [
              253.21348007248417,
              172.28370717254518
            ],
            [
              253.41244073347102,
              172.59007105030744
            ],
            [
              253.48738846998077,
              172.75211592351403
            ],
            [
              253.84777165701814,
              173.29307553184066
            ],
            [
              254.1341745082266,
              173.86164231408404
            ],
            [
              254.287176190828,
              174.07371584061482
            ],
            [
              254.31525895761993,
              174.12771752624485
            ],
            [
              254.4282260302188,
              174.28170086974754
            ],
            [
              254.45495578682187,
              174.33167605345858
            ],
            [
              254.6164668694308,
              174.54999887642552
            ],
            [
              255.049334320553,
              175.31389919355942
            ],
            [
              255.43776324215682,
              175.81185455023223
            ],
            [
              255.5247191637882,
              175.9604283901417
            ],
            [
              255.59793649832514,
              176.04837970260715
            ],
            [
              255.80223866110146,
              176.38022129817702
            ],
            [
              256.14006488527156,
              176.79012501116705
            ],
            [
              256.391040893704,
              177.1765832325435
            ],
            [
              256.5849428952231,
              177.40175522110047
            ],
            [
              256.70592606154474,
              177.58335915995855
            ],
            [
              256.9913817276512,
              177.90889060431502
            ],
            [
              257.02263673045826,
              177.95510313490018
            ],
            [
              257.35524347025614,
              178.32632167176692
            ],
            [
              257.7844440622799,
              178.92123070541516
            ],
            [
              258.2294649684586,
              179.39074054846097
            ],
            [
              258.82290032561633,
              180.15150860279545
            ],
            [
              259.3150339889665,
              180.6424950497105
            ],
            [
              259.62477491791583,
              181.01832128153413
            ],
            [
              260.05481561565387,
              181.4312037794116
            ],
            [
              260.3838250709966,
              181.81327159063395
            ],
            [
              260.5485695427515,
              181.9654802074664
            ],
            [
              260.72222223486773,
              182.16351240087548
            ],
            [
              261.10994505789375,
              182.5169007038898
            ],
            [
              261.26577527947217,
              182.69082101256762
            ],
            [
              261.844340470377,
              183.20453807119404
            ],
            [
              262.3148767388356,
              183.70096735459558
            ],
            [
              262.67527300123754,
              184.0048281395706
            ],
            [
              263.33420836686486,
              184.66485482550382
            ],
            [
              263.402376436183,
              184.72030946261472
            ],
            [
              263.4105249093141,
              184.72843894078113
            ],
            [
              263.4120746238385,
              184.72982475596837
            ],
            [
              263.60641956847724,
              184.88629828949757
            ],
            [
              263.9147098463245,
              185.13709203582087
            ],
            [
              264.2024265323743,
              185.41332910976013
            ],
            [
              264.72845277974415,
              185.827304760625
            ],
            [
              265.1364374649904,
              186.2042447815448
            ],
            [
              265.2512955377593,
              186.29151682487566
            ],
            [
              265.48302353277944,
              186.50272431140434
            ],
            [
              265.9782125926264,
              186.87506761695826
            ],
            [
              266.30773154628287,
              187.16765263640903
            ],
            [
              267.19102839091465,
              187.81219553104987
            ],
            [
              267.66605515162775,
              188.21270469125673
            ],
            [
              267.8669264821875,
              188.35221520901192
            ],
            [
              268.59223612755494,
              188.94225367689322
            ],
            [
              268.9201124627075,
              189.16452793321633
            ],
            [
              269.02581053336166,
              189.24962894077598
            ],
            [
              269.35636910252146,
              189.46941327033215
            ],
            [
              269.4901914451369,
              189.57472967167388
            ],
            [
              270.1069420134797,
              189.98187436019805
            ],
            [
              270.23352530852276,
              190.0771399156095
            ],
            [
              270.60456170224836,
              190.35906266992305
            ],
            [
              270.62811106185507,
              190.37410193525565
            ],
            [
              270.9796696933142,
              190.63868209391308
            ],
            [
              271.6231326860926,
              191.04630799181206
            ],
            [
              272.1020987828559,
              191.39581019632956
            ],
            [
              273.2359198520108,
              192.09030443809044
            ],
            [
              273.78871393869304,
              192.4650551637252
            ],
            [
              273.7915665573862,
              192.4670363837907
            ],
            [
              273.792068432462,
              192.46732924553228
            ],
            [
              274.55565283180476,
              192.98497915284946
            ],
            [
              274.93960181316487,
              193.20564142893699
            ],
            [
              274.9676497972081,
              193.2244894002105
            ],
            [
              275.2198283864624,
              193.36795527719374
            ],
            [
              275.4282768946115,
              193.5065501281047
            ],
            [
              276.0984768766768,
              193.88138353548666
            ],
            [
              277.1360402664469,
              194.53866719146563
            ],
            [
              277.96579860711375,
              194.98747547239594
            ],
            [
              278.6134172019798,
              195.38415833288215
            ],
            [
              279.87339081962983,
              196.04117730677675
            ],
            [
              281.1950837449694,
              196.80077762701035
            ],
            [
              281.63501502059995,
              197.01759254097868
            ],
            [
              281.73676676107254,
              197.07547970231244
            ],
            [
              282.3009586003811,
              197.3503441754882
            ],
            [
              282.58574814553396,
              197.50962295563588
            ],
            [
              282.9448736938887,
              197.68060914854593
            ],
            [
              283.94241891572875,
              198.2201717346889
            ],
            [
              284.97767545220734,
              198.70282974518983
            ],
            [
              285.8160393698968,
              199.1399984233554
            ],
            [
              287.1949055028543,
              199.75771865465407
            ],
            [
              288.48979326132076,
              200.39588873598396
            ],
            [
              288.98526770552405,
              200.60682357261354
            ],
            [
              289.17736000489964,
              200.70040760731723
            ],
            [
              290.0382076941105,
              201.06215454816342
            ],
            [
              290.4706732047212,
              201.2637789143049
            ],
            [
              290.4752343103418,
              201.26595053948972
            ],
            [
              290.4760134264837,
              201.2662686361467
            ],
            [
              291.3818562600649,
              201.6885913015706
            ],
            [
              292.6418436147305,
              202.1979003299557
            ],
            [
              293.6931664269219,
              202.66888395569902
            ],
            [
              295.1834522575301,
              203.24553291710825
            ],
            [
              296.4268732687673,
              203.77488576454115
            ],
            [
              296.97741796991374,
              203.9781617822192
            ],
            [
              297.27660521964975,
              204.1038867782768
            ],
            [
              298.08279006645364,
              204.39722649029775
            ],
            [
              299.4445757640211,
              204.9476841976118
            ],
            [
              300.94897214521313,
              205.47643452467653
            ],
            [
              302.23603441368,
              205.97444846612368
            ],
            [
              303.82993181826066,
              206.5082955266418
            ],
            [
              305.00055617629414,
              206.94052175133044
            ],
            [
              305.60580981912443,
              207.13456452948054
            ],
            [
              306.0291456247804,
              207.2886001750408
            ],
            [
              306.7664298018774,
              207.52109687370995
            ],
            [
              308.1273685953596,
              207.99942614993125
            ],
            [
              309.8966718409856,
              208.5402401918121
            ],
            [
              311.4432275021649,
              209.0582309930225
            ],
            [
              313.13245420081006,
              209.54758757074697
            ],
            [
              314.21163197059434,
              209.89356921835122
            ],
            [
              314.871477373307,
              210.0769591333778
            ],
            [
              315.4364787597575,
              210.2551278248716
            ],
            [
              316.09167685129626,
              210.43383627681388
            ],
            [
              317.4330773430097,
              210.84385543181122
            ],
            [
              318.7546790306888,
              211.19430868804253
            ],
            [
              318.84753481738574,
              211.22221776339387
            ],
            [
              319.4935555823707,
              211.3903519582216
            ],
            [
              321.32009292562594,
              211.91948642199426
            ],
            [
              322.9967601476482,
              212.33800991816915
            ],
            [
              323.3502537262761,
              212.4377179547462
            ],
            [
              323.4726511188037,
              212.4674713894773
            ],
            [
              324.06694695902917,
              212.632643205771
            ],
            [
              324.78163582375333,
              212.80406466339727
            ],
            [
              325.50642913333417,
              213.0017555480394
            ],
            [
              326.06700922004563,
              213.1333421724889
            ],
            [
              327.3701475390697,
              213.47889943946407
            ],
            [
              328.5966289690123,
              213.75952954085705
            ],
            [
              328.96633695193344,
              213.8557502157924
            ],
            [
              330.0468472479721,
              214.09782669206314
            ],
            [
              331.8782300611625,
              214.55496972422898
            ],
            [
              333.3736601724599,
              214.8742957551876
            ],
            [
              333.94744018117933,
              215.0137752464241
            ],
            [
              334.29927248749937,
              215.08691420896307
            ],
            [
              334.57895966593003,
              215.15399848321525
            ],
            [
              335.34923360772507,
              215.31218620123607
            ],
            [
              336.2526795555156,
              215.5242547449841
            ],
            [
              336.7064167136688,
              215.61512270475296
            ],
            [
              337.9522236834063,
              215.9001746653423
            ],
            [
              339.0538163795379,
              216.11573929987168
            ],
            [
              339.74563558718404,
              216.27073380257934
            ],
            [
              341.3353678854419,
              216.57439561569782
            ],
            [
              343.13502275977714,
              216.95868415166615
            ],
            [
              344.4163423328016,
              217.19005249142552
            ],
            [
              345.23653342318755,
              217.36055396146457
            ],
            [
              346.4619788624475,
              217.57576685532447
            ],
            [
              347.15453736585096,
              217.71568030156558
            ],
            [
              347.4306571741914,
              217.76281952265626
            ],
            [
              347.694330257454,
              217.81562417991628
            ],
            [
              348.0290046375388,
              217.87204467795382
            ],
            [
              349.1977631586671,
              218.10075262449936
            ],
            [
              350.14473769024767,
              218.25711239153648
            ],
            [
              351.20513539149437,
              218.4596636568917
            ],
            [
              353.3860400963588,
              218.8097140679628
            ],
            [
              355.1131789908375,
              219.1215841641996
            ],
            [
              356.149072823948,
              219.27701560760394
            ],
            [
              357.24059102369927,
              219.46870818153644
            ],
            [
              358.48358103232476,
              219.6497765815791
            ],
            [
              359.07147082046964,
              219.7501412271583
            ],
            [
              359.6829769087782,
              219.83670931550938
            ],
            [
              359.8554493766217,
              219.86578528639947
            ],
            [
              360.0585842742397,
              219.89403787435091
            ],
            [
              361.12963657175357,
              220.07088475052208
            ],
            [
              361.8925204247552,
              220.17506347048018
            ],
            [
              363.36907531921327,
              220.41206082603676
            ],
            [
              366.23120350230505,
              220.78979623611252
            ],
            [
              367.84023447738394,
              221.03122445872089
            ],
            [
              368.60098936997724,
              221.1235961035142
            ],
            [
              369.9872773170235,
              221.3255389500584
            ],
            [
              371.23920421917506,
              221.4726709615814
            ],
            [
              371.710671445418,
              221.53941439599095
            ],
            [
              372.7017526807588,
              221.65248623339716
            ],
            [
              372.76457037736026,
              221.66122309997974
            ],
            [
              372.82320929782,
              221.66774832753512
            ],
            [
              373.77467613319214,
              221.79767976677545
            ],
            [
              374.32454242282483,
              221.8579317284695
            ],
            [
              376.26574417485404,
              222.11412592835512
            ],
            [
              379.9081111857424,
              222.4965185127293
            ],
            [
              381.3479664500827,
              222.6713472260508
            ],
            [
              381.8055975980155,
              222.71448045517533
            ],
            [
              383.5082829196798,
              222.91458759876141
            ],
            [
              384.7593830737702,
              223.02813373302902
            ],
            [
              385.10275602442755,
              223.06730893791038
            ],
            [
              386.41059417464294,
              223.18226882808779
            ],
            [
              387.1631240656869,
              223.2647277877011
            ],
            [
              387.4719715529726,
              223.29060765997923
            ],
            [
              389.9268816320742,
              223.54833550748677
            ],
            [
              394.34273453545256,
              223.89789024949988
            ],
            [
              394.8414782227623,
              223.943154745311
            ],
            [
              395.6716489979584,
              224.02140105005026
            ],
            [
              395.70566798198325,
              224.02416285180027
            ],
            [
              395.80075552598356,
              224.03021590433323
            ],
            [
              397.8385820541444,
              224.21516298776413
            ],
            [
              399.07773473134927,
              224.2957193625191
            ],
            [
              399.2813028303158,
              224.31361314111805
            ],
            [
              400.784066477823,
              224.40777999778456
            ],
            [
              401.14763265015625,
              224.43655955234684
            ],
            [
              401.32791998279794,
              224.45166672768056
            ],
            [
              401.3691682762712,
              224.4540961031154
            ],
            [
              404.3868968180927,
              224.69297664215955
            ],
            [
              409.19803294241814,
              224.95363226569177
            ],
            [
              413.0154408016308,
              225.2017990523675
            ],
            [
              414.22996932865226,
              225.25033325528852
            ],
            [
              414.2819052711942,
              225.25358768885397
            ],
            [
              414.90647227568786,
              225.27736722820788
            ],
            [
              415.9240177665579,
              225.3180297225287
            ],
            [
              419.6818170039671,
              225.5216181220293
            ],
            [
              424.9122543843386,
              225.67721181681074
            ],
            [
              429.07706369257113,
              225.84364323080436
            ],
            [
              432.0247965140142,
              225.88879387559103
            ],
            [
              435.847853517411,
              226.00252118389227
            ],
            [
              441.52125252197027,
              226.03425180474656
            ],
            [
              446.0607329119911,
              226.10378336645957
            ],
            [
              449.042456877943,
              226.0763169730168
            ],
            [
              452.9194397606131,
              226.09800046007393
            ],
            [
              459.0580433622017,
              225.98405758142886
            ],
            [
              464.00025289555776,
              225.9385320153179
            ],
            [
              467.00920845825175,
              225.83647049185373
            ],
            [
              470.92655657654797,
              225.76375787669923
            ],
            [
              470.9456690845557,
              225.76317295862563
            ],
            [
              477.18237420500975,
              225.49140431425676
            ],
            [
              482.9224630281826,
              225.2967047921408
            ],
            [
              484.89788363382377,
              225.17991052881948
            ],
            [
              485.0629855955694,
              225.17390518107823
            ],
            [
              486.2239629267245,
              225.10227881526527
            ],
            [
              487.62233831136547,
              225.04681096116866
            ],
            [
              488.1040268497862,
              225.01548591244057
            ],
            [
              490.7973579737961,
              224.89812218683872
            ],
            [
              497.07653225262396,
              224.45986321857706
            ],
            [
              502.8425240544824,
              224.11895619204492
            ],
            [
              504.63969116306913,
              223.96612253389114
            ],
            [
              505.15438938037414,
              223.93436828528976
            ],
            [
              506.36478107712884,
              223.82795710408345
            ],
            [
              507.8028158410355,
              223.73443918646367
            ],
            [
              508.88052089581544,
              223.63599631276003
            ],
            [
              511.70545379090066,
              223.43882832202473
            ],
            [
              517.7350173091056,
              222.8533497803024
            ],
            [
              518.1374924410073,
              222.82197612082857
            ],
            [
              518.3248513072929,
              222.80231696611546
            ],
            [
              523.5600276785226,
              222.357110089107
            ],
            [
              525.2488187253218,
              222.16777325000967
            ],
            [
              526.247324491746,
              222.0799899495021
            ],
            [
              527.5302606170812,
              221.93243747368464
            ],
            [
              528.9782992928888,
              221.80016650784486
            ],
            [
              530.7341986857302,
              221.59111218498998
            ],
            [
              533.656241667483,
              221.3073779712882
            ],
            [
              539.0524465050165,
              220.62741588462583
            ],
            [
              539.8219661686485,
              220.54667187488076
            ],
            [
              540.42252861109,
              220.46659045856217
            ],
            [
              545.2110848530494,
              219.92972705890577
            ],
            [
              546.397464662057,
              219.7624910409165
            ],
            [
              547.6167288365396,
              219.6222615750309
            ],
            [
              548.0183663985569,
              219.56463236610793
            ],
            [
              548.0472059852929,
              219.5613451304282
            ],
            [
              549.2161726625848,
              219.39276440860058
            ],
            [
              549.3014806904279,
              219.38052393454086
            ],
            [
              551.1126297252442,
              219.16489168556234
            ],
            [
              552.2524050279341,
              218.9953549121428
            ],
            [
              553.4452957165571,
              218.85045492830977
            ],
            [
              554.9360833189984,
              218.62595909100781
            ],
            [
              556.6018805205131,
              218.4160562101534
            ],
            [
              559.6870077509226,
              217.93114264731997
            ],
            [
              560.3286614092559,
              217.8478131784549
            ],
            [
              561.6221419986175,
              217.6397485759113
            ],
            [
              562.1145792430088,
              217.57408500924222
            ],
            [
              562.7072760372201,
              217.47698171658493
            ],
            [
              562.9482551644284,
              217.44473250634456
            ],
            [
              563.5737730303155,
              217.3412618583438
            ],
            [
              567.7462976635898,
              216.75308899893403
            ],
            [
              568.4105806931567,
              216.6386431430937
            ],
            [
              569.8203160757422,
              216.4363664076124
            ],
            [
              570.317316284127,
              216.34969560936196
            ],
            [
              571.7555481150963,
              216.14228322975595
            ],
            [
              573.4395829626267,
              215.8438514742346
            ],
            [
              574.1298107152369,
              215.74118300456192
            ],
            [
              574.3123882404593,
              215.70810560871854
            ],
            [
              576.0573863676669,
              215.4453285269788
            ],
            [
              579.522545961762,
              214.8134360549869
            ],
            [
              580.4467457222999,
              214.66817235427317
            ],
            [
              582.2892935392026,
              214.31530543669683
            ],
            [
              584.0467071366322,
              214.0326142508641
            ],
            [
              586.6786040984914,
              213.51935368778396
            ],
            [
              586.8614135252926,
              213.48911408810957
            ],
            [
              587.6363295492192,
              213.3338393353839
            ],
            [
              588.1846697649697,
              213.23384623404849
            ],
            [
              589.1250487854244,
              213.06985555761747
            ],
            [
              591.0541509494495,
              212.73750061500016
            ],
            [
              591.1784894263664,
              212.71176045722962
            ],
            [
              592.7610305467052,
              212.435784512247
            ],
            [
              593.2681150639595,
              212.32999090708884
            ],
            [
              596.2974031421284,
              211.7931636790297
            ],
            [
              597.517694027093,
              211.53191372212578
            ],
            [
              599.3897254648801,
              211.19053764961046
            ],
            [
              605.9844867896629,
              209.7544083405732
            ],
            [
              608.4766784457274,
              209.26839247018023
            ],
            [
              612.056944869998,
              208.4320200694161
            ],
            [
              614.4607250260311,
              207.9085531894858
            ],
            [
              616.2694072313029,
              207.53120581528987
            ],
            [
              616.6827743574069,
              207.4288949484298
            ],
            [
              621.4617045139,
              206.40578208835467
            ],
            [
              622.0255631256307,
              206.2611720064736
            ],
            [
              623.2523309349532,
              205.9940209877213
            ],
            [
              630.44253346891,
              204.13703275453395
            ],
            [
              633.3742177354478,
              203.45217316093004
            ],
            [
              636.9448491433584,
              202.45770263289847
            ],
            [
              638.6458293313885,
              202.01839648274674
            ],
            [
              639.119853267466,
              201.90254372478887
            ],
            [
              639.3308691107679,
              201.84147367652687
            ],
            [
              647.3712608674929,
              199.764910073219
            ],
            [
              655.0401857615651,
              197.41789961047718
            ],
            [
              658.3891022955315,
              196.48517975973184
            ],
            [
              661.8443763001818,
              195.33553388057337
            ],
            [
              662.4269510150892,
              195.15724175095968
            ],
            [
              663.1480834323885,
              194.9485389785022
            ],
            [
              663.4655408501604,
              194.83938999949706
            ],
            [
              671.3691570779765,
              192.42055421268233
            ],
            [
              672.1585923580335,
              192.13270348909245
            ],
            [
              672.2793007064031,
              192.09566298267967
            ],
            [
              673.7296176444382,
              191.55986265351726
            ],
            [
              676.5425709625451,
              190.53417927136303
            ],
            [
              676.6293533531168,
              190.50659198678386
            ],
            [
              676.8906963115753,
              190.4072427939305
            ],
            [
              679.3338112034637,
              189.51641309933157
            ],
            [
              683.0418111486695,
              188.28267972502496
            ],
            [
              686.0703009131563,
              187.0673665926972
            ],
            [
              686.7378925730267,
              186.83783360972808
            ],
            [
              687.1782892635714,
              186.65609162293825
            ],
            [
              694.7463569232473,
              183.89655729880727
            ],
            [
              696.175033989708,
              183.26770171223941
            ],
            [
              696.9005704188024,
              182.99966191533017
            ],
            [
              699.684443050052,
              181.7422289972679
            ],
            [
              700.0156244713176,
              181.61633080170463
            ],
            [
              701.8323413052095,
              180.77754533345262
            ],
            [
              702.7425497927533,
              180.3769021749895
            ],
            [
              706.7024414508876,
              178.78782355528983
            ],
            [
              709.0362643337633,
              177.63578810660758
            ],
            [
              709.3030690575765,
              177.52568369023126
            ],
            [
              709.8637880557372,
              177.24237263708162
            ],
            [
              716.8660873602615,
              174.16019602779238
            ],
            [
              718.7930658180264,
              173.1111547816132
            ],
            [
              720.0361648179346,
              172.5496658739191
            ],
            [
              721.690422607254,
              171.60898933567196
            ],
            [
              721.9523373919891,
              171.48806222624174
            ],
            [
              724.6924160060737,
              169.9075059610944
            ],
            [
              728.5775339067732,
              167.9897110946653
            ],
            [
              730.990031519289,
              166.47116353148996
            ],
            [
              736.9490713522171,
              163.22708026364572
            ],
            [
              739.1421319156716,
              161.6852558010165
            ],
            [
              740.7458722044256,
              160.77330551562355
            ],
            [
              741.4495148384815,
              160.24152871168766
            ],
            [
              741.6042225530539,
              160.15228884597457
            ],
            [
              744.4141514587304,
              158.02134599957395
            ],
            [
              747.7128317879619,
              155.94499037970394
            ],
            [
              749.547250518408,
              154.36996927148823
            ],
            [
              754.084612607916,
              151.17999085410267
            ],
            [
              756.2045546210699,
              149.09043081356526
            ],
            [
              757.93098707054,
              147.78568222987684
            ],
            [
              757.9722459539195,
              147.73940455363936
            ],
            [
              758.0055978219453,
              147.71411176974345
            ],
            [
              760.4897806080628,
              144.974777441854
            ],
            [
              763.0218616135422,
              142.8007476169745
            ],
            [
              764.1884248077314,
              141.22098155152955
            ],
            [
              767.2660531812204,
              138.18746024340643
            ],
            [
              767.6683833242026,
              137.51604656674016
            ],
            [
              767.8603589041842,
              137.32356373750898
            ],
            [
              768.614065411192,
              136.01604365827046
            ],
            [
              770.1049048314508,
              134.3720794443094
            ],
            [
              770.3594880321616,
              133.84535964567598
            ],
            [
              770.3882338324815,
              133.81311716280513
            ],
            [
              770.5474354249657,
              133.4565059717996
            ],
            [
              771.7323772180358,
              131.00492118181072
            ],
            [
              773.349963713574,
              128.8143769692958
            ],
            [
              773.7960688338261,
              127.29008679439818
            ],
            [
              775.4571622420375,
              124.51803291794343
            ],
            [
              775.5397514461265,
              124.00145512920426
            ],
            [
              775.8666843096511,
              123.43429632182797
            ],
            [
              776.0410855724936,
              122.09042096898186
            ],
            [
              776.8430787781676,
              120.43113748669596
            ],
            [
              776.8775952551824,
              119.27696291064915
            ],
            [
              776.90777910848,
              119.20935115056923
            ],
            [
              776.9126588812915,
              119.18663769898156
            ],
            [
              776.9022431239798,
              118.4527784627479
            ],
            [
              776.9593626508143,
              116.54279484580807
            ],
            [
              777.4722969466453,
              114.98569285199157
            ],
            [
              777.4458962028174,
              114.81904410464796
            ]
          ]
        ]
      }
    }
  ]
}