{
  "type": "FeatureCollection",
  "features": [
    {
      "type": "Feature",
      "properties": {
        "method": "Homography",
        "mode": "tmpl2img",
        "inside_ratio": 1.0
      },
      "geometry": {
        "type": "Polygon",
        "coordinates": [
          [
            [
              487.0116942414393,
              329.6347318299061
            ],
            [
              487.0846494488254,
              330.2631053529234
            ],
            [
              487.1944754783756,
              330.8718526974553
            ],
            [
              487.2692962311649,
              331.47852027194745
            ],
            [
              487.4375631962639,
              332.37523605882103
            ],
            [
              487.5236175385215,
              333.0235673802805
            ],
            [
              487.56116599134435,
              333.21409727261556
            ],
            [
              487.5880438130436,
              333.4133530096381
            ],
            [
              488.00148948068454,
              335.4837086995138
            ],
            [
              488.18938910345156,
              336.6973179142139
            ],
            [
              488.4525228902345,
              337.88428898483113
            ],
            [
              488.7825038887424,
              339.7736164280259
            ],
            [
              488.8532283805609,
              340.06604307870305
            ],
            [
              489.016070588293,
              340.9686502470074
            ],
            [
              489.14984932410454,
              341.50022385201567
            ],
            [
              489.24867919258907,
              342.0269006315662
            ],
            [
              489.4546860819964,
              342.82227422572385
            ],
            [
              489.56259001566724,
              343.36980477150587
            ],
            [
              489.61614609205606,
              343.56920520897745
            ],
            [
              489.65825070663993,
              343.7800467661557
            ],
            [
              490.2073493560967,
              345.8001415033729
            ],
            [
              490.45323099538575,
              346.9092898046162
            ],
            [
              490.7513812909605,
              347.9143921261101
            ],
            [
              491.1557150102762,
              349.58620272862674
            ],
            [
              491.296100125517,
              350.02841234800394
            ],
            [
              491.5846665049002,
              351.1750390495135
            ],
            [
              491.7358570603387,
              351.62966491641725
            ],
            [
              491.85171602300943,
              352.0769856823492
            ],
            [
              492.0870582775552,
              352.7689263979813
            ],
            [
              492.20800633834625,
              353.21924124291564
            ],
            [
              492.2795917046542,
              353.42377318910854
            ],
            [
              492.33910718126003,
              353.64272637936114
            ],
            [
              493.0267359522022,
              355.58490020908147
            ],
            [
              493.3248495708526,
              356.58987888799476
            ],
            [
              493.6427621514146,
              357.420339330694
            ],
            [
              494.10362697611595,
              358.8720520594337
            ],
            [
              494.33234534022137,
              359.43723419032807
            ],
            [
              494.7820234989416,
              360.7894041201228
            ],
            [
              494.94396590858383,
              361.1686534871145
            ],
            [
              495.06982153675824,
              361.53868747692695
            ],
            [
              495.32567923385795,
              362.12697948325643
            ],
            [
              495.4510856348351,
              362.4852875646705
            ],
            [
              495.5425680446408,
              362.6907448978823
            ],
            [
              495.62155321609094,
              362.9138346512374
            ],
            [
              496.4485270598132,
              364.74963961754366
            ],
            [
              496.79381674083845,
              365.6516153143165
            ],
            [
              497.11658660372564,
              366.3173262913383
            ],
            [
              497.61554111076185,
              367.5502844432221
            ],
            [
              497.94273095052193,
              368.19404609061473
            ],
            [
              497.9723524990803,
              368.26619604783
            ],
            [
              497.9852258308677,
              368.29091320190963
            ],
            [
              498.5949767107078,
              369.7188753749695
            ],
            [
              498.7609629479107,
              370.02570589013806
            ],
            [
              498.88981094646186,
              370.32196528916603
            ],
            [
              498.8949613275386,
              370.33133995596614
            ],
            [
              498.9158906186363,
              370.3794624419381
            ],
            [
              499.1806171496545,
              370.86131964266076
            ],
            [
              499.2786380703467,
              371.08146160225874
            ],
            [
              499.39168985207294,
              371.2831870951364
            ],
            [
              499.49203648137166,
              371.5059472728804
            ],
            [
              500.4568944240596,
              373.2066918682713
            ],
            [
              500.8450899818519,
              374.00734296297315
            ],
            [
              501.15829691910676,
              374.52082581799516
            ],
            [
              501.67651050216955,
              375.5404358100932
            ],
            [
              502.131766307846,
              376.2567365398601
            ],
            [
              502.1926159283324,
              376.369218880054
            ],
            [
              502.28733450790264,
              376.5510811798244
            ],
            [
              502.30788331393506,
              376.5822940837578
            ],
            [
              503.00515849633405,
              377.8712280763159
            ],
            [
              503.1403228923921,
              378.06880548669994
            ],
            [
              503.3199868561958,
              378.395831169914
            ],
            [
              503.6216556653444,
              378.83098444574597
            ],
            [
              503.6726600604401,
              378.9219948357004
            ],
            [
              503.80871275877246,
              379.1149055702907
            ],
            [
              503.93209940228513,
              379.33239786403124
            ],
            [
              505.0309277117498,
              380.86975771993855
            ],
            [
              505.4585966098353,
              381.5708936804483
            ],
            [
              505.7484576287519,
              381.9472485557782
            ],
            [
              506.2669734284685,
              382.763082733187
            ],
            [
              506.85647925726573,
              383.5009205453419
            ],
            [
              507.02203904442706,
              383.74292861083694
            ],
            [
              507.17986966868494,
              383.9826677034897
            ],
            [
              507.2134310611213,
              384.0226971011574
            ],
            [
              507.31668770635326,
              384.1736331550767
            ],
            [
              507.5195175544208,
              384.47587425769535
            ],
            [
              507.5364599609125,
              384.49579150471124
            ],
            [
              507.6800768504229,
              384.70846811126324
            ],
            [
              507.69246010587693,
              384.72292083558074
            ],
            [
              507.98853599583185,
              385.155711639415
            ],
            [
              508.07448737559247,
              385.2541354201097
            ],
            [
              508.28411222006645,
              385.5565164916709
            ],
            [
              508.7904374448295,
              386.1296507275687
            ],
            [
              508.9179603275915,
              386.30806673576075
            ],
            [
              509.6359814432647,
              387.09657395542416
            ],
            [
              509.74246021107444,
              387.24136094451194
            ],
            [
              510.1900494145695,
              387.71420103882065
            ],
            [
              510.60881743389854,
              388.25792846479237
            ],
            [
              510.86235766555365,
              388.5147616579702
            ],
            [
              511.36238948179187,
              389.1406119265925
            ],
            [
              512.0169459150081,
              389.78189315248875
            ],
            [
              512.3520570595024,
              390.16122181388835
            ],
            [
              512.8580474513326,
              390.7517724710112
            ],
            [
              512.8638862357818,
              390.75863646120234
            ],
            [
              512.8640774905447,
              390.75881024026535
            ],
            [
              513.0534975818672,
              390.9798858994156
            ],
            [
              513.1526585511278,
              391.06919979103094
            ],
            [
              513.5149575119333,
              391.4840719380553
            ],
            [
              513.540427335379,
              391.5063961341049
            ],
            [
              513.7786798904849,
              391.77608583046316
            ],
            [
              514.3432986218282,
              392.26599515978523
            ],
            [
              514.4201066662035,
              392.3503432328299
            ],
            [
              515.0769174168862,
              392.90254274829033
            ],
            [
              515.2135091502207,
              393.021060892935
            ],
            [
              515.3037541797632,
              393.1163971252421
            ],
            [
              515.5761978394233,
              393.33575922407283
            ],
            [
              515.8923190721765,
              393.6100518263555
            ],
            [
              516.2643887062196,
              393.98695387293594
            ],
            [
              516.4696314332562,
              394.14427274685335
            ],
            [
              516.9328947493748,
              394.59814051469334
            ],
            [
              517.6170976471119,
              395.1066105977445
            ],
            [
              518.1110714296004,
              395.5352225991617
            ],
            [
              518.9158430125307,
              396.2600771711392
            ],
            [
              519.0487034393133,
              396.34878871649767
            ],
            [
              519.7678050128436,
              396.9727399778392
            ],
            [
              520.3855416442734,
              397.36565441799627
            ],
            [
              520.4029213450352,
              397.3802660276984
            ],
            [
              520.5651294966854,
              397.4798821598869
            ],
            [
              521.3173602713567,
              397.958342265153
            ],
            [
              521.332574837665,
              397.9705925014121
            ],
            [
              521.3811776011457,
              397.99893359344196
            ],
            [
              522.0707543552938,
              398.43754229903357
            ],
            [
              522.3877447455153,
              398.68051593300623
            ],
            [
              522.533919901725,
              398.76058082851324
            ],
            [
              522.9429952082342,
              399.06458795236773
            ],
            [
              522.9512551566959,
              399.069834158706
            ],
            [
              523.6043767342771,
              399.41301039950673
            ],
            [
              524.3113857208912,
              399.862706962777
            ],
            [
              525.2268102361237,
              400.47394031016586
            ],
            [
              525.3900831488796,
              400.54881779781226
            ],
            [
              526.208964870879,
              401.06967156783105
            ],
            [
              528.6757268384655,
              402.12464859080455
            ],
            [
              528.9348268502062,
              402.26656610883765
            ],
            [
              529.2332348235778,
              402.3706379306384
            ],
            [
              529.7903352689212,
              402.6633608219625
            ],
            [
              530.3719912589544,
              402.8501016389875
            ],
            [
              530.9076056380668,
              403.07917151705203
            ],
            [
              531.9395222830195,
              403.5524118392571
            ],
            [
              532.1375099813204,
              403.6051731498235
            ],
            [
              533.0527462771942,
              403.99659853882633
            ],
            [
              535.6527098970932,
              404.609473771185
            ],
            [
              535.8548868162385,
              404.6799843546115
            ],
            [
              536.1720487053453,
              404.731894673673
            ],
            [
              536.4027291875509,
              404.78627172459153
            ],
            [
              537.0236532712611,
              404.98561957398096
            ],
            [
              537.5287439344395,
              405.05170103458534
            ],
            [
              537.8482706179124,
              405.1270213155563
            ],
            [
              539.0003830741687,
              405.4340452550735
            ],
            [
              539.2372476683338,
              405.45443729400085
            ],
            [
              540.2427117906765,
              405.69144986328337
            ],
            [
              542.9407806414475,
              405.8397422636268
            ],
            [
              543.0904151556695,
              405.8642331486972
            ],
            [
              543.3327143648902,
              405.8612838905556
            ],
            [
              543.9949689978082,
              405.8976830095546
            ],
            [
              544.5858239865851,
              405.97498509314147
            ],
            [
              545.0118995348631,
              405.9535759754661
            ],
            [
              545.0758261375045,
              405.9570895364175
            ],
            [
              546.3490699136183,
              406.0667050605685
            ],
            [
              546.6285712353354,
              406.04243216864876
            ],
            [
              547.7154175104436,
              406.1021678729049
            ],
            [
              550.4728422786907,
              405.77437448443175
            ],
            [
              550.5772245468833,
              405.7731039468362
            ],
            [
              550.7518283284123,
              405.74120956053747
            ],
            [
              551.8599412245802,
              405.6094808239134
            ],
            [
              552.4037532533149,
              405.5821557737895
            ],
            [
              552.6993643014628,
              405.51522284080505
            ],
            [
              553.9186935554361,
              405.4093319383428
            ],
            [
              554.2438838612194,
              405.32608573592336
            ],
            [
              555.4006145815198,
              405.1885774757818
            ],
            [
              558.1760193167443,
              404.385053277689
            ],
            [
              558.2447176968572,
              404.3725043359954
            ],
            [
              558.3634987154821,
              404.3307749839288
            ],
            [
              559.91735284394,
              403.88090928446195
            ],
            [
              560.3970052236742,
              403.77230529015935
            ],
            [
              560.5438242607408,
              403.7133497337379
            ],
            [
              561.6361536296087,
              403.43372186622156
            ],
            [
              562.0090384362512,
              403.2753327475071
            ],
            [
              563.2216637060296,
              402.92425827713936
            ],
            [
              565.9722429218493,
              401.6577219195622
            ],
            [
              566.0163652537485,
              401.64222115736527
            ],
            [
              566.095257621631,
              401.60107836285033
            ],
            [
              567.8164106767499,
              400.8085533162153
            ],
            [
              569.4227126344515,
              400.12624943323544
            ],
            [
              569.8438913320257,
              399.87497614476666
            ],
            [
              571.0961864959735,
              399.29834219566084
            ],
            [
              573.7790374063374,
              397.5939458441741
            ],
            [
              573.8104133675273,
              397.5775831115062
            ],
            [
              573.8684476685011,
              397.5371441322131
            ],
            [
              575.5016243219134,
              396.49959846813584
            ],
            [
              577.19480455654,
              395.48945486881047
            ],
            [
              577.6631086981714,
              395.12642261610756
            ],
            [
              578.9369691919288,
              394.31714798609187
            ],
            [
              581.510510610971,
              392.21206534366087
            ],
            [
              581.5408318178008,
              392.1909371723068
            ],
            [
              581.598855258979,
              392.13980197003673
            ],
            [
              583.1046265985079,
              390.9081244509396
            ],
            [
              584.8650844223466,
              389.5434067114922
            ],
            [
              585.3772353630624,
              389.0491960389476
            ],
            [
              586.6531231084302,
              388.0055566684693
            ],
            [
              589.0785410664226,
              385.5480652710641
            ],
            [
              589.118502410339,
              385.5128479285092
            ],
            [
              589.1976118303159,
              385.4274199295156
            ],
            [
              590.5400197719568,
              384.0672601444642
            ],
            [
              592.343712939152,
              382.32674901314857
            ],
            [
              592.5365042874248,
              382.1009174655088
            ],
            [
              592.5878626425368,
              382.05135146681954
            ],
            [
              592.943036216019,
              381.6324664959537
            ],
            [
              594.1514924638349,
              380.40802976602714
            ],
            [
              596.3941437272742,
              377.65609105459487
            ],
            [
              596.4526339864024,
              377.59292909739895
            ],
            [
              596.5723731242407,
              377.43738724407746
            ],
            [
              597.7210648141613,
              376.0278372259411
            ],
            [
              599.5398563809229,
              373.8973447633973
            ],
            [
              599.7424080333608,
              373.61341643630834
            ],
            [
              600.033485782178,
              373.2701248644377
            ],
            [
              600.4248347934978,
              372.7145011868992
            ],
            [
              600.8827032227136,
              372.16160919407764
            ],
            [
              600.9433076247135,
              372.07384987511335
            ],
            [
              601.3382846801844,
              371.58917681571086
            ],
            [
              602.2003596648316,
              370.32383713968056
            ],
            [
              602.2072610633489,
              370.3151804685418
            ],
            [
              602.252622656899,
              370.2471263678345
            ],
            [
              603.3689844241828,
              368.60854867785804
            ],
            [
              603.4523756162065,
              368.5002230226481
            ],
            [
              603.6287719138055,
              368.22723681541623
            ],
            [
              604.561139952904,
              366.85872213451927
            ],
            [
              606.3633668828381,
              364.33243675952684
            ],
            [
              606.522074342533,
              364.0679543742214
            ],
            [
              606.6181662599887,
              363.9327788681114
            ],
            [
              606.6620709105373,
              363.8590908789892
            ],
            [
              607.0736096150049,
              363.27480257928505
            ],
            [
              607.3858255196001,
              362.7446433475092
            ],
            [
              607.7708608966798,
              362.18708578822594
            ],
            [
              607.9234265172038,
              361.9236124656912
            ],
            [
              608.1208818307929,
              361.6337907599864
            ],
            [
              608.1443637833755,
              361.5927647913133
            ],
            [
              608.159570734524,
              361.57044419919487
            ],
            [
              608.9100363115983,
              360.2592872335146
            ],
            [
              608.9673248076151,
              360.17333970010867
            ],
            [
              608.9802362796916,
              360.1521986504299
            ],
            [
              609.3646982963548,
              359.46493603799166
            ],
            [
              609.7527694305915,
              358.78692736394254
            ],
            [
              609.883959402684,
              358.5856825669343
            ],
            [
              610.0219384937993,
              358.33334266568284
            ],
            [
              610.0285844042916,
              358.3230576317691
            ],
            [
              610.220669666688,
              357.9698977108041
            ],
            [
              610.2261825865362,
              357.9598155335901
            ],
            [
              610.8680776871578,
              356.83834473181173
            ],
            [
              611.0815010665967,
              356.4697730530643
            ],
            [
              612.7265934772149,
              353.7282638278133
            ],
            [
              612.7752844684686,
              353.6318035533967
            ],
            [
              612.8326461349703,
              353.5362995364376
            ],
            [
              612.943232252743,
              353.3170152028597
            ],
            [
              613.0950927459872,
              353.0621380034514
            ],
            [
              613.1071590039143,
              353.0379708114056
            ],
            [
              613.3238780169643,
              352.6726968521228
            ],
            [
              613.3593332721563,
              352.6013090887757
            ],
            [
              613.6109809991887,
              352.173997847821
            ],
            [
              613.8484727772004,
              351.6913490060842
            ],
            [
              614.161407918242,
              351.15092540962627
            ],
            [
              614.3722451419942,
              350.7161271275578
            ],
            [
              614.4488076778705,
              350.5823628280595
            ],
            [
              615.144868373824,
              349.13232939362507
            ],
            [
              615.2498343438702,
              348.94469268659094
            ],
            [
              615.7688001937028,
              347.83608665622893
            ],
            [
              615.8234675722329,
              347.72334905779724
            ],
            [
              616.0929700317314,
              347.23047565598586
            ],
            [
              616.5930268789574,
              346.1363282341736
            ],
            [
              617.3065312585148,
              344.6649064759815
            ],
            [
              618.712621427428,
              341.8767306014241
            ],
            [
              618.8611611761673,
              341.5235947679581
            ],
            [
              619.2435366623239,
              340.75369674992845
            ],
            [
              619.3115665488045,
              340.58883462303606
            ],
            [
              619.5535925042371,
              340.09697108128057
            ],
            [
              619.7231114039035,
              339.6813230416364
            ],
            [
              619.9668793517687,
              339.17861349601134
            ],
            [
              620.8605981445222,
              336.9590743917287
            ],
            [
              620.9204966946603,
              336.83112012672683
            ],
            [
              621.1401572049674,
              336.26479306785257
            ],
            [
              621.4034770758648,
              335.6108415619064
            ],
            [
              621.6899683773318,
              334.983985394217
            ],
            [
              621.6972123951966,
              334.96658679155337
            ],
            [
              622.27967855605,
              333.43480647764585
            ],
            [
              622.6409821348605,
              332.53751369585643
            ],
            [
              623.9576249694895,
              329.40734975838296
            ],
            [
              624.123168682068,
              328.92850410337877
            ],
            [
              624.5008491516487,
              328.013241580845
            ],
            [
              624.5917590245532,
              327.7437524027485
            ],
            [
              624.8169135991659,
              327.19168972566587
            ],
            [
              624.9273456455894,
              326.8593593817802
            ],
            [
              625.1070415459426,
              326.41308692896934
            ],
            [
              626.0701115330952,
              323.4824465616896
            ],
            [
              626.1111923512294,
              323.3760077997087
            ],
            [
              626.1406887708082,
              323.2810501974553
            ],
            [
              626.3078184304975,
              322.8415295183516
            ],
            [
              626.8368315994903,
              321.14930275387064
            ],
            [
              627.3036808097025,
              319.72867168951916
            ],
            [
              628.4965543504342,
              316.2782095547105
            ],
            [
              628.6656864636542,
              315.6671833568491
            ],
            [
              629.0223225352528,
              314.6099872709116
            ],
            [
              629.1245894483642,
              314.2283204596667
            ],
            [
              629.3260038912384,
              313.62219086917935
            ],
            [
              629.3880797869632,
              313.38580578582577
            ],
            [
              629.5108434744632,
              313.01223353974683
            ],
            [
              630.1566960053829,
              310.5295984982619
            ],
            [
              630.260067966659,
              310.1989284699734
            ],
            [
              630.6622765673397,
              308.58616410833815
            ],
            [
              631.233487187725,
              306.3904500183104
            ],
            [
              632.2684267048139,
              302.651508039024
            ],
            [
              632.4263304573552,
              301.906006975452
            ],
            [
              632.7454167892299,
              300.71515590650034
            ],
            [
              632.8460403752132,
              300.21788783053336
            ],
            [
              633.017406144739,
              299.56532678022165
            ],
            [
              633.0433395789513,
              299.43343932110184
            ],
            [
              633.1181597349226,
              299.14583320031613
            ],
            [
              633.4841173233016,
              297.27122902818655
            ],
            [
              633.5070200852631,
              297.1793941987024
            ],
            [
              633.658429476074,
              296.37832149137006
            ],
            [
              633.9404040498536,
              294.9339171963255
            ],
            [
              633.9715554218682,
              294.8044963919537
            ],
            [
              634.0199170099621,
              294.52661500752475
            ],
            [
              634.3795850389495,
              292.6842288700449
            ],
            [
              635.2238300509704,
              288.69834795063554
            ],
            [
              635.3546694834449,
              287.8205839786397
            ],
            [
              635.6200751786822,
              286.50898513079295
            ],
            [
              635.7050154345476,
              285.8971809681385
            ],
            [
              635.840724777856,
              285.2070155115366
            ],
            [
              635.8437950249971,
              285.1838675278588
            ],
            [
              635.8812407763468,
              284.99205305555023
            ],
            [
              635.9135299206479,
              284.74775620067584
            ],
            [
              635.916414292124,
              284.73290722758964
            ],
            [
              636.2984723522859,
              281.8353152737087
            ],
            [
              636.518843903766,
              280.16800329965133
            ],
            [
              636.540223655269,
              280.0451571487721
            ],
            [
              636.5642421420473,
              279.8245241809435
            ],
            [
              636.7026155256154,
              278.7776032069567
            ],
            [
              637.3260478409123,
              274.59517582230666
            ],
            [
              637.4134068041626,
              273.5920502511641
            ],
            [
              637.6098877216301,
              272.1768456229533
            ],
            [
              637.6568504701053,
              271.55794468729084
            ],
            [
              637.765800319278,
              270.73363961295837
            ],
            [
              637.7699946094,
              270.67504541815066
            ],
            [
              637.7772990955556,
              270.61964697855615
            ],
            [
              637.9122564960943,
              268.687648150242
            ],
            [
              638.2434694220625,
              264.06060657576944
            ],
            [
              638.5518051326973,
              260.52004903743546
            ],
            [
              638.5791651538358,
              259.40317437553574
            ],
            [
              638.6928332314484,
              257.90519391438215
            ],
            [
              638.6946000017247,
              257.75831646601296
            ],
            [
              638.7155040333076,
              257.4662873341645
            ],
            [
              638.7195870443885,
              257.1302110076477
            ],
            [
              638.758774954064,
              256.5692117937633
            ],
            [
              638.7998472984451,
              250.52391707009605
            ],
            [
              638.8000584801329,
              250.50653451509726
            ],
            [
              638.8215002595712,
              249.96770295745608
            ],
            [
              638.8160852057833,
              249.73176361077452
            ],
            [
              638.8916062180812,
              246.64888934474766
            ],
            [
              638.8573039690457,
              245.79460666462012
            ],
            [
              638.8740096952026,
              244.41954327040037
            ],
            [
              638.8587644625586,
              244.11078252657825
            ],
            [
              638.8615701337569,
              243.87753781143283
            ],
            [
              638.8468470458162,
              243.6061886277586
            ],
            [
              638.8524617715385,
              242.77977678459348
            ],
            [
              638.5308717615811,
              237.3047266268658
            ],
            [
              638.5152087446871,
              236.62227320758006
            ],
            [
              638.467379775042,
              236.08371321349347
            ],
            [
              638.3496570702893,
              233.15188015425647
            ],
            [
              638.2909408250778,
              232.61068587461074
            ],
            [
              638.2475158206782,
              231.73120197371924
            ],
            [
              638.1619412412676,
              230.9832503090108
            ],
            [
              638.123273037151,
              230.27058828737438
            ],
            [
              638.1127507216587,
              230.18624161595966
            ],
            [
              638.0672011026214,
              229.41076215086517
            ],
            [
              638.0657544979831,
              229.39950209376005
            ],
            [
              638.0598580635061,
              229.29899700145486
            ],
            [
              637.4270540136525,
              224.3695190774367
            ],
            [
              637.372097727998,
              223.75070464151167
            ],
            [
              637.2467982056909,
              222.96534502667606
            ],
            [
              637.2318319356045,
              222.84875933471264
            ],
            [
              636.9433894618091,
              220.19015239792216
            ],
            [
              636.8996858178502,
              219.95069774795732
            ],
            [
              636.8522190619411,
              219.53582174909042
            ],
            [
              636.7044694300128,
              218.73578090664864
            ],
            [
              636.6292015217465,
              218.10028050297473
            ],
            [
              636.6094363010592,
              218.00036188638725
            ],
            [
              636.4186533788763,
              216.51418270760814
            ],
            [
              635.5023196035995,
              212.03120084266712
            ],
            [
              635.4171025896161,
              211.49707269873673
            ],
            [
              635.2447540747065,
              210.77111240526057
            ],
            [
              635.1288944815826,
              210.20429224775347
            ],
            [
              634.7140924444509,
              207.95820495179206
            ],
            [
              634.7104150382952,
              207.94167693379086
            ],
            [
              634.6129352489146,
              207.57418672452485
            ],
            [
              634.5180641644938,
              207.21592566351052
            ],
            [
              633.9532861085137,
              204.45286066364835
            ],
            [
              632.7960731743894,
              200.4568656825284
            ],
            [
              632.6858928959158,
              199.9927682266017
            ],
            [
              632.4660932170057,
              199.31740533371007
            ],
            [
              632.0029498026302,
              197.71811560509448
            ],
            [
              631.6684343387176,
              196.45488702743552
            ],
            [
              631.6493449931575,
              196.40171281862075
            ],
            [
              631.6410105138428,
              196.3702925665727
            ],
            [
              631.4968180934261,
              195.97038214124348
            ],
            [
              630.7077102142471,
              193.24549804094647
            ],
            [
              629.3559376596716,
              189.7610508156876
            ],
            [
              629.2236808965326,
              189.3546748346373
            ],
            [
              628.9527834829022,
              188.7218453311284
            ],
            [
              628.1422370988345,
              186.6325100436714
            ],
            [
              627.891760637262,
              185.93479688025926
            ],
            [
              627.834411496054,
              185.81288165687022
            ],
            [
              627.814371196056,
              185.7573008928488
            ],
            [
              627.7498314793424,
              185.6210109809055
            ],
            [
              626.7353377356806,
              183.0059631326936
            ],
            [
              625.2371902245973,
              180.04203918139578
            ],
            [
              625.0838650803369,
              179.68386420436775
            ],
            [
              624.7547777313385,
              179.08763787406295
            ],
            [
              623.54467982802,
              176.69358913552065
            ],
            [
              623.4318799077571,
              176.45379430708982
            ],
            [
              623.3817842955503,
              176.37131781931436
            ],
            [
              622.0974682640748,
              173.83043648515527
            ],
            [
              620.5012815726096,
              171.3813361478662
            ],
            [
              620.3265748710063,
              171.06481004652215
            ],
            [
              619.9286873895893,
              170.50277938866395
            ],
            [
              616.8616522096831,
              165.79689070174308
            ],
            [
              615.214356080858,
              163.84361354237328
            ],
            [
              615.017180340053,
              163.56509557812612
            ],
            [
              614.5363972324274,
              163.0397255768161
            ],
            [
              611.1000572613993,
              158.96509427054852
            ],
            [
              609.445825352159,
              157.4770639256658
            ],
            [
              609.2248249138783,
              157.23556833502198
            ],
            [
              608.6436662688342,
              156.75549819432956
            ],
            [
              604.887898374286,
              153.3770743081786
            ],
            [
              603.2670378045492,
              152.31409685688797
            ],
            [
              603.021030424299,
              152.11088074945687
            ],
            [
              602.325711757007,
              151.69676530996836
            ],
            [
              599.4245895871902,
              149.79417880282026
            ],
            [
              599.2903054490241,
              149.70141780587394
            ],
            [
              599.2642469667966,
              149.68902442177608
            ],
            [
              598.3019801308012,
              149.0579596849945
            ],
            [
              596.7257238251781,
              148.36154424867226
            ],
            [
              596.431974193272,
              148.18659387894988
            ],
            [
              595.551669031744,
              147.84282792167798
            ],
            [
              593.168832940736,
              146.79005253856474
            ],
            [
              592.5428821864593,
              146.4923510815095
            ],
            [
              592.4104866485915,
              146.45500292636376
            ],
            [
              591.419387677906,
              146.01711943009715
            ],
            [
              589.922649937965,
              145.64465253673623
            ],
            [
              589.5782938457182,
              145.5101788259551
            ],
            [
              588.4847382665587,
              145.28682465622623
            ],
            [
              587.7965624668226,
              145.11557040414553
            ],
            [
              587.7674228015161,
              145.10561560347057
            ],
            [
              587.7583158604356,
              145.103357200775
            ],
            [
              587.7296422243483,
              145.09891713607908
            ],
            [
              586.6574786432118,
              144.8321065736242
            ],
            [
              585.568162477498,
              144.52481563457383
            ],
            [
              585.3182598497947,
              144.4988386602231
            ],
            [
              584.316349777219,
              144.24951085735853
            ],
            [
              582.9242570509593,
              144.15111954087016
            ],
            [
              582.5283344068845,
              144.07025399079976
            ],
            [
              581.1904746077277,
              144.0285780363506
            ],
            [
              580.5042423822177,
              143.98007602868086
            ],
            [
              580.3480672641483,
              143.95589257228565
            ],
            [
              580.2074784684718,
              143.95910113842535
            ],
            [
              579.9525900397805,
              143.94108595338335
            ],
            [
              578.4380152406864,
              143.7836483502856
            ],
            [
              578.0627620494204,
              143.8075153510718
            ],
            [
              577.0672857280279,
              143.7371563699861
            ],
            [
              575.8002871488978,
              143.86066716321898
            ],
            [
              575.3530522715856,
              143.8467352546678
            ],
            [
              573.7361099680479,
              144.0618892996728
            ],
            [
              573.1346731827896,
              144.12051914792502
            ],
            [
              572.8238274784593,
              144.12761337614353
            ],
            [
              572.7217984927547,
              144.147213411887
            ],
            [
              571.2219875283718,
              144.24260497761517
            ],
            [
              570.7145939597349,
              144.35643567494455
            ],
            [
              569.7394761845469,
              144.45149305850722
            ],
            [
              569.7325704029754,
              144.45328353400876
            ],
            [
              569.7257920489528,
              144.45394395097625
            ],
            [
              569.7234894818828,
              144.4545408312457
            ],
            [
              569.7212307718347,
              144.4547608969706
            ],
            [
              568.6012257387798,
              144.74514875187901
            ],
            [
              568.1208127057515,
              144.8090736099916
            ],
            [
              567.4646387818026,
              145.00060475674672
            ],
            [
              567.453100576971,
              145.00229843026628
            ],
            [
              567.3510128358632,
              145.03377112763343
            ],
            [
              566.2618621546168,
              145.3516842164686
            ],
            [
              566.1560761571121,
              145.37911174401128
            ],
            [
              563.9867221416731,
              145.86579327800666
            ],
            [
              563.3666454352967,
              146.102337783029
            ],
            [
              562.3928761737823,
              146.35481054759887
            ],
            [
              561.3928714479816,
              146.77289792149458
            ],
            [
              560.8968756571375,
              146.91767454113958
            ],
            [
              560.141263894777,
              147.256469406833
            ],
            [
              560.0956996696777,
              147.27051643198467
            ],
            [
              559.7649396980046,
              147.42520249444564
            ],
            [
              559.0010562123418,
              147.76770616606922
            ],
            [
              556.7955306440787,
              148.6090616765856
            ],
            [
              556.0783764823991,
              148.99481066489142
            ],
            [
              555.1240845614549,
              149.3937861825512
            ],
            [
              555.0781058977618,
              149.42030816943318
            ],
            [
              555.0778898888859,
              149.4203984777411
            ],
            [
              554.2500574696569,
              149.89791914198548
            ],
            [
              553.7430308042362,
              150.12525550646473
            ],
            [
              552.8989010097265,
              150.6362333940794
            ],
            [
              552.8181890993909,
              150.67397982253547
            ],
            [
              552.3259488602578,
              150.9830590611264
            ],
            [
              551.8790590964036,
              151.25357526492937
            ],
            [
              549.7081063881038,
              152.42130579710033
            ],
            [
              548.9004216600174,
              152.98376307117678
            ],
            [
              547.9306160915743,
              153.54317846548784
            ],
            [
              547.1755576687226,
              154.10075023680224
            ],
            [
              546.7173651199262,
              154.37810836612516
            ],
            [
              545.7979299164301,
              155.0820232746339
            ],
            [
              545.6815469815242,
              155.15510049597486
            ],
            [
              545.0747173086911,
              155.63571116332645
            ],
            [
              544.8983862265511,
              155.7707093416484
            ],
            [
              542.7803594751437,
              157.24566548677737
            ],
            [
              541.9509533920742,
              157.95885150790028
            ],
            [
              540.9612834155317,
              158.6896718327075
            ],
            [
              540.282933580929,
              159.3042763776558
            ],
            [
              539.8741441498408,
              159.6172434838681
            ],
            [
              538.8945429082382,
              160.5304252420551
            ],
            [
              538.7426214993935,
              160.65074739004135
            ],
            [
              538.0956408125999,
              161.2739405757182
            ],
            [
              536.0643542431145,
              163.0205942545764
            ],
            [
              536.0597097500798,
              163.0249816337149
            ],
            [
              535.2354320891976,
              163.8774585310663
            ],
            [
              534.2230307458397,
              164.79472339232774
            ],
            [
              533.6234932580858,
              165.4440841704308
            ],
            [
              533.2637873861847,
              165.77940105917298
            ],
            [
              532.2407140804918,
              166.9135995588626
            ],
            [
              532.0541167257115,
              167.09333629961412
            ],
            [
              531.4611322823386,
              167.77253524234857
            ],
            [
              529.6376765806162,
              169.6526432848143
            ],
            [
              529.5592640057644,
              169.7478131290346
            ],
            [
              529.4191020143938,
              169.89277018076436
            ],
            [
              528.6727109015068,
              170.80629078651614
            ],
            [
              527.7649809402005,
              171.7894557195586
            ],
            [
              527.2446245684225,
              172.45235929129376
            ],
            [
              526.9329182843551,
              172.79792279858464
            ],
            [
              525.8842514272201,
              174.16024342412652
            ],
            [
              525.6646588034267,
              174.41176280137623
            ],
            [
              525.1783398741758,
              175.06496880153645
            ],
            [
              523.5215774248859,
              177.07579199558248
            ],
            [
              523.3362329297862,
              177.33769570961104
            ],
            [
              523.1023612733034,
              177.623935153802
            ],
            [
              522.4348643178546,
              178.57971243274034
            ],
            [
              521.6323461212812,
              179.60207366006654
            ],
            [
              521.2103400308192,
              180.2283341035518
            ],
            [
              521.1850284824357,
              180.26091652790825
            ],
            [
              521.1648538374054,
              180.29120163358775
            ],
            [
              520.9244703554904,
              180.60348324449748
            ],
            [
              519.8689111492598,
              182.1964014724167
            ],
            [
              519.6189215212619,
              182.53217850093267
            ],
            [
              519.2290933030417,
              183.14134864070593
            ],
            [
              517.7460582299433,
              185.2369727565473
            ],
            [
              517.4681700696207,
              185.69143552786755
            ],
            [
              517.1539041262072,
              186.1414274653906
            ],
            [
              516.5652071869127,
              187.121748726437
            ],
            [
              515.8665777192363,
              188.15852049384904
            ],
            [
              515.8518877399813,
              188.18200373090082
            ],
            [
              515.4908479162527,
              188.8032281531078
            ],
            [
              515.2778321340309,
              189.12468498879502
            ],
            [
              514.2345551505133,
              190.94612870080522
            ],
            [
              513.9577919758999,
              191.37861627836176
            ],
            [
              513.6538641873049,
              191.9294127775107
            ],
            [
              512.347909809239,
              194.0651915930367
            ],
            [
              511.9938858281967,
              194.73409256578682
            ],
            [
              511.614285657599,
              195.3662176765199
            ],
            [
              511.11165360637307,
              196.33830399817566
            ],
            [
              510.4909855355707,
              197.4062586622369
            ],
            [
              510.1861140238584,
              198.01424939166813
            ],
            [
              510.02901546135325,
              198.28852572804436
            ],
            [
              509.01733459840216,
              200.33201484804462
            ],
            [
              508.71855895912574,
              200.87347430758228
            ],
            [
              508.4897621803025,
              201.3548635931565
            ],
            [
              507.3607253796423,
              203.48809143830596
            ],
            [
              507.0895919015686,
              204.08122736275158
            ],
            [
              507.0858068790473,
              204.08842950951026
            ],
            [
              507.0306305062149,
              204.21021225239963
            ],
            [
              506.9487872696809,
              204.38925382300624
            ],
            [
              506.52040244018974,
              205.21774661836443
            ],
            [
              506.1072765429456,
              206.1484806336874
            ],
            [
              505.56927505664777,
              207.22139136340306
            ],
            [
              505.318386100471,
              207.80350243652452
            ],
            [
              505.21083328413795,
              208.02074783284087
            ],
            [
              505.1264177139868,
              208.21882616239256
            ],
            [
              505.08463415974956,
              208.3033718373117
            ],
            [
              504.2391357422651,
              210.29819765009464
            ],
            [
              503.9351087603554,
              210.93787156671675
            ],
            [
              503.7706785346335,
              211.3417352207427
            ],
            [
              502.8150728888471,
              213.43223338484617
            ],
            [
              502.574184013641,
              214.04627521667928
            ],
            [
              502.5184522484063,
              214.1692837960053
            ],
            [
              502.3198792189239,
              214.68113264723502
            ],
            [
              501.9056972040562,
              215.61424599677989
            ],
            [
              501.5751855402531,
              216.4884542505271
            ],
            [
              501.11802455557745,
              217.54915646492145
            ],
            [
              500.91801530380724,
              218.09370254082708
            ],
            [
              500.85307491972793,
              218.24608299360168
            ],
            [
              500.7479967351572,
              218.5350128391459
            ],
            [
              500.64069130527156,
              218.78818379366754
            ],
            [
              499.9658257242493,
              220.66215586321638
            ],
            [
              499.92744213901676,
              220.75507256021942
            ],
            [
              499.92178841237785,
              220.76991190910294
            ],
            [
              499.8576025324643,
              220.95279769939373
            ],
            [
              499.6381150969758,
              221.49188956847593
            ],
            [
              499.52742856609393,
              221.81265834482156
            ],
            [
              498.738659241178,
              223.82328403581823
            ],
            [
              498.530355298412,
              224.44914328988966
            ],
            [
              498.4323047153943,
              224.70188193424366
            ],
            [
              498.1847752920045,
              225.45613965218845
            ],
            [
              497.80035181641614,
              226.47294544780965
            ],
            [
              497.5447012407065,
              227.27790236981593
            ],
            [
              497.1654716986362,
              228.3103944029288
            ],
            [
              497.01235638626923,
              228.80677375137438
            ],
            [
              496.9826684081698,
              228.88840575674283
            ],
            [
              496.8662017265174,
              229.26921623376018
            ],
            [
              496.70880611515395,
              229.70627360914284
            ],
            [
              496.2449109414247,
              231.24649403526223
            ],
            [
              496.15906831454856,
              231.49108671955227
            ],
            [
              496.1530494512477,
              231.5115643286064
            ],
            [
              496.14612014788594,
              231.53131421551265
            ],
            [
              495.9878833615645,
              232.0702350793692
            ],
            [
              495.85521178989734,
              232.45471634694803
            ],
            [
              495.78788223510855,
              232.68903603003233
            ],
            [
              495.1564773030836,
              234.58612263592863
            ],
            [
              494.9821453422636,
              235.2150132605469
            ],
            [
              494.8529872537396,
              235.6085765136121
            ],
            [
              494.57740150977025,
              236.62092243293532
            ],
            [
              494.23145720480534,
              237.7101836721365
            ],
            [
              494.0422164253918,
              238.43556995612826
            ],
            [
              493.7369757650135,
              239.42511932106478
            ],
            [
              493.6259232762869,
              239.8639370993944
            ],
            [
              493.62382110491336,
              239.8708105577612
            ],
            [
              493.572726873886,
              240.07413974671078
            ],
            [
              493.5022086985579,
              240.3527884234424
            ],
            [
              493.3147860475785,
              240.97506735995464
            ],
            [
              493.0265920301963,
              242.14851846002992
            ],
            [
              492.9127014630261,
              242.5360013442703
            ],
            [
              492.90266459474304,
              242.57783449232883
            ],
            [
              492.89070610193795,
              242.61856257723443
            ],
            [
              492.6706710865568,
              243.53752494053344
            ],
            [
              492.6111385394774,
              243.7447095507575
            ],
            [
              492.57707354791836,
              243.89114525517957
            ],
            [
              492.0909279515364,
              245.64488224246563
            ],
            [
              491.97627918338816,
              246.15615410537154
            ],
            [
              491.9714434611566,
              246.17367709091104
            ],
            [
              491.94697935851457,
              246.28360342839966
            ],
            [
              491.8034248394163,
              246.81094141587545
            ],
            [
              491.54997750829455,
              247.96880603317672
            ],
            [
              491.29089291390824,
              248.95245881543457
            ],
            [
              491.25979466004793,
              249.1009803982977
            ],
            [
              491.22315065246516,
              249.24144198686608
            ],
            [
              491.11228466839293,
              249.77784676710186
            ],
            [
              490.9506905551212,
              250.41007206555466
            ],
            [
              490.9252418380354,
              250.5355307063376
            ],
            [
              490.85513870513984,
              250.81253936574691
            ],
            [
              490.8264553513374,
              250.95598381279856
            ],
            [
              490.8111480852997,
              251.01646956603884
            ],
            [
              490.646751883702,
              251.83860871036964
            ],
            [
              490.4815789999888,
              252.51114974319316
            ],
            [
              490.32932260320035,
              253.30339085550773
            ],
            [
              490.20373812815535,
              253.82682045398545
            ],
            [
              490.1917821328793,
              253.89044830233726
            ],
            [
              490.1768163350046,
              253.95295201324262
            ],
            [
              489.930922235132,
              255.26619670006912
            ],
            [
              489.9278517143889,
              255.2793959949429
            ],
            [
              489.9172808535443,
              255.33817959802897
            ],
            [
              489.5619106659126,
              256.9229395635398
            ],
            [
              489.50164626576907,
              257.27139704272054
            ],
            [
              489.43607384827556,
              257.5660383709006
            ],
            [
              489.3893778938326,
              257.83942425800285
            ],
            [
              489.30393707119833,
              258.2297574485698
            ],
            [
              489.12803498339275,
              259.2820125208979
            ],
            [
              488.84759228151574,
              260.62137370108434
            ],
            [
              488.73913347088825,
              261.3127413357437
            ],
            [
              488.6236033640659,
              261.88228871686255
            ],
            [
              488.59330598150905,
              262.08237838146306
            ],
            [
              488.5478452398064,
              262.3072962038763
            ],
            [
              488.5316168297149,
              262.4163185755313
            ],
            [
              488.49587069033174,
              262.5950836574561
            ],
            [
              488.36328799647436,
              263.4900283044206
            ],
            [
              488.3215767781801,
              263.70403472263126
            ],
            [
              488.29536646455875,
              263.88674700717013
            ],
            [
              488.2293550378907,
              264.2302266060024
            ],
            [
              488.17235192741674,
              264.6375250603498
            ],
            [
              488.05070654130964,
              265.28490187888303
            ],
            [
              488.03900948262776,
              265.3703202697263
            ],
            [
              488.0231617220381,
              265.4549582802161
            ],
            [
              487.789868617252,
              267.1691430246286
            ],
            [
              487.58687727048874,
              268.3428683554168
            ],
            [
              487.5654883297619,
              268.5175584216566
            ],
            [
              487.46596601693113,
              269.100221226203
            ],
            [
              487.4133326913737,
              269.5394472499653
            ],
            [
              487.37229103501966,
              269.78496048750077
            ],
            [
              487.2646057421973,
              270.7120768270422
            ],
            [
              486.99729095665947,
              272.41606740129487
            ],
            [
              486.9266609906848,
              273.08921821867534
            ],
            [
              486.869578405767,
              273.46620244332195
            ],
            [
              486.8363638712122,
              273.7968981716998
            ],
            [
              486.7644377166698,
              274.28240593378024
            ],
            [
              486.7639918322492,
              274.2860472035386
            ],
            [
              486.7625627342069,
              274.3008144658459
            ],
            [
              486.76042474015475,
              274.31517749838616
            ],
            [
              486.75771098651575,
              274.3429683550272
            ],
            [
              486.75373636224884,
              274.3697974565223
            ],
            [
              486.6754307738275,
              275.17933034548827
            ],
            [
              486.6534133305896,
              275.3328141004825
            ],
            [
              486.6106156815737,
              275.79643821038843
            ],
            [
              486.57554091707186,
              276.0470543127573
            ],
            [
              486.5730000972935,
              276.0759314875787
            ],
            [
              486.4696389804077,
              276.8307315205723
            ],
            [
              486.4604392932886,
              276.93748773438074
            ],
            [
              486.44592010642816,
              277.04417142159946
            ],
            [
              486.27877389860686,
              279.00736024904495
            ],
            [
              486.076467638568,
              280.6956095328251
            ],
            [
              486.03502736361713,
              281.29812971846206
            ],
            [
              486.0237097745316,
              281.39556848186356
            ],
            [
              485.97258363717356,
              282.1822135430118
            ],
            [
              485.75555867353773,
              284.2506066060001
            ],
            [
              485.7215919768275,
              284.8959639413262
            ],
            [
              485.7030602886025,
              285.0804720254358
            ],
            [
              485.6968597492164,
              285.20687442269326
            ],
            [
              485.6567543345008,
              285.6175837125529
            ],
            [
              485.6480359550839,
              285.800665457556
            ],
            [
              485.62076004805016,
              286.0826471687561
            ],
            [
              485.5826713391325,
              286.9320914965244
            ],
            [
              485.57832517680475,
              286.9791731864998
            ],
            [
              485.5633621665965,
              287.34746758746024
            ],
            [
              485.47405242768167,
              288.3838473535094
            ],
            [
              485.4696295935606,
              288.5110341895612
            ],
            [
              485.45871597416226,
              288.6392183461971
            ],
            [
              485.3908092701858,
              290.6647279289707
            ],
            [
              485.2803601255714,
              292.27060142233483
            ],
            [
              485.2554970523068,
              293.75163163028645
            ],
            [
              485.13516176783116,
              296.03796695496584
            ],
            [
              485.13518824240833,
              296.0665572046827
            ],
            [
              485.1349536908865,
              296.0710136459903
            ],
            [
              485.1354115758687,
              296.5655291269227
            ],
            [
              485.12120122998584,
              296.86393950735476
            ],
            [
              485.1224118364069,
              297.19667738335977
            ],
            [
              485.0982200259534,
              297.73619675144334
            ],
            [
              485.10809554340653,
              298.90761943098164
            ],
            [
              485.07488088254826,
              299.8627688915721
            ],
            [
              485.0775350375964,
              300.00901830059377
            ],
            [
              485.0725506673835,
              300.15769124524115
            ],
            [
              485.1132087799829,
              302.2273830884567
            ],
            [
              485.087772742624,
              303.7425433138162
            ],
            [
              485.14344783038206,
              305.2446788378608
            ],
            [
              485.1457428046427,
              307.72324956966196
            ],
            [
              485.1888099103541,
              308.48186609377797
            ],
            [
              485.19524136474513,
              309.2447579198731
            ],
            [
              485.26486062746807,
              310.33104401613735
            ],
            [
              485.2803574152131,
              311.1849489294749
            ],
            [
              485.2923873261663,
              311.34842564980164
            ],
            [
              485.29568119150366,
              311.51609910512076
            ],
            [
              485.45347880807003,
              313.6094352126335
            ],
            [
              485.5060450399035,
              315.02769259492936
            ],
            [
              485.6436979437948,
              316.4946074435431
            ],
            [
              485.79449076518966,
              319.1507860775664
            ],
            [
              485.87400261118995,
              319.83563285659227
            ],
            [
              485.91795971648236,
              320.52150614003637
            ],
            [
              486.04057802686845,
              321.51572966988266
            ],
            [
              486.0958451404754,
              322.2667648616562
            ],
            [
              486.11952398993446,
              322.44516073751953
            ],
            [
              486.13344679767533,
              322.62986008098085
            ],
            [
              486.41593799099917,
              324.7240770725692
            ],
            [
              486.5395371828219,
              326.0412268357264
            ],
            [
              486.7521721410502,
              327.41459704734405
            ],
            [
              486.99079977637837,
              329.51509922552157
            ],
            [
              487.0116942414393,
              329.6347318299061
            ]
          ]
        ]
      }
    }
  ]
}