{
  "type": "FeatureCollection",
  "features": [
    {
      "type": "Feature",
      "properties": {
        "method": "Homography",
        "mode": "tmpl2img",
        "inside_ratio": 0.9264413518886679
      },
      "geometry": {
        "type": "Polygon",
        "coordinates": [
          [
            [
              577.8311302525066,
              272.8006835860335
            ],
            [
              575.012383633468,
              271.6814723933053
            ],
            [
              572.4377145830797,
              270.59179647197726
            ],
            [
              572.1670734044793,
              270.49510069745827
            ],
            [
              571.8125282812279,
              270.34670978272834
            ],
            [
              571.4825318744973,
              270.23013075746223
            ],
            [
              571.0832435029796,
              270.06463759991226
            ],
            [
              570.9830829148015,
              270.0298568093422
            ],
            [
              570.907401956705,
              269.99867312954945
            ],
            [
              570.816518201333,
              269.9672669900082
            ],
            [
              570.7589707486803,
              269.94355518210546
            ],
            [
              569.8062997453952,
              269.6143453523475
            ],
            [
              568.9550156716638,
              269.27633460066534
            ],
            [
              565.7413149941129,
              268.1992797526678
            ],
            [
              562.9764955057391,
              267.21145386743797
            ],
            [
              562.7496206747161,
              267.1450236026976
            ],
            [
              562.4201040266298,
              267.0286140635018
            ],
            [
              561.9407143417762,
              266.8898919453557
            ],
            [
              561.3743989959344,
              266.6932387926412
            ],
            [
              561.260141145468,
              266.6610913873628
            ],
            [
              561.1450165493459,
              266.6213083473034
            ],
            [
              560.4597066355562,
              266.42917654188517
            ],
            [
              559.9331186298198,
              266.25269334653376
            ],
            [
              556.3065697731384,
              265.2584609761556
            ],
            [
              553.4115261659013,
              264.4107754378812
            ],
            [
              553.2306481891317,
              264.36943966175664
            ],
            [
              552.9308952749179,
              264.28269945750225
            ],
            [
              552.3051475078597,
              264.1415287615204
            ],
            [
              551.573060439873,
              263.9355499199973
            ],
            [
              551.539349186047,
              263.9282870214253
            ],
            [
              551.442431978088,
              263.9011155508772
            ],
            [
              551.0389596219729,
              263.8143253161087
            ],
            [
              550.8443375635516,
              263.7609689273942
            ],
            [
              549.2982516845248,
              263.43162458513024
            ],
            [
              549.2650891696776,
              263.42285350625343
            ],
            [
              549.1373040047117,
              263.3973398093202
            ],
            [
              546.7921939818702,
              262.897788828051
            ],
            [
              546.6963310410471,
              262.8761618422482
            ],
            [
              543.8368136443054,
              262.2226805669569
            ],
            [
              543.7027741768244,
              262.2008058470173
            ],
            [
              543.4367227112059,
              262.14078378614596
            ],
            [
              542.7334273281994,
              262.02773675125616
            ],
            [
              541.7494767100578,
              261.816080850034
            ],
            [
              541.7434742340299,
              261.81498790974166
            ],
            [
              541.7345455578453,
              261.81366200522115
            ],
            [
              541.7254666865479,
              261.811709067103
            ],
            [
              537.3127213742896,
              261.156417601559
            ],
            [
              536.6792510299011,
              261.05459417735847
            ],
            [
              534.3480581774871,
              260.67415256767106
            ],
            [
              534.2603100029244,
              260.66577588381193
            ],
            [
              534.0309940572357,
              260.6289158555263
            ],
            [
              533.4046469762802,
              260.5703765343007
            ],
            [
              532.7251735330809,
              260.4681849237094
            ],
            [
              532.6151778183803,
              260.4588336751418
            ],
            [
              532.1418322582285,
              260.38854198961144
            ],
            [
              527.6998580205021,
              260.037198551451
            ],
            [
              526.5513976667901,
              259.9298617543259
            ],
            [
              525.0415437105707,
              259.7857269125532
            ],
            [
              524.9981815233456,
              259.78469588461786
            ],
            [
              524.8076362156772,
              259.76688723935956
            ],
            [
              524.3584941174452,
              259.7568944966484
            ],
            [
              523.8508827834444,
              259.7137400903859
            ],
            [
              523.550424966301,
              259.70899401949686
            ],
            [
              522.7678219677706,
              259.6470930688109
            ],
            [
              518.3996998948686,
              259.62432020056065
            ],
            [
              516.1212937861903,
              259.57362905822055
            ],
            [
              516.0129618724886,
              259.571053237286
            ],
            [
              516.0107835531215,
              259.57117037013035
            ],
            [
              515.8599648037864,
              259.5678148775969
            ],
            [
              515.5808188128725,
              259.58310508044
            ],
            [
              515.242413282755,
              259.5777595825095
            ],
            [
              514.7736987626733,
              259.6054163227063
            ],
            [
              513.7026939815825,
              259.5998327217056
            ],
            [
              513.2728113795938,
              259.63218584062923
            ],
            [
              513.267497741216,
              259.63217636419654
            ],
            [
              513.1902441519783,
              259.638399879819
            ],
            [
              509.49743516212806,
              259.9163220098778
            ],
            [
              507.27951109685284,
              260.0378086510682
            ],
            [
              507.1585273725741,
              260.05475340894833
            ],
            [
              506.9818685223696,
              260.06517725484076
            ],
            [
              506.37219377541453,
              260.15152879840156
            ],
            [
              505.0434785971896,
              260.251528379647
            ],
            [
              504.53303600517285,
              260.3358208111413
            ],
            [
              504.4833052465495,
              260.3398270994738
            ],
            [
              503.93879532440155,
              260.43395132113335
            ],
            [
              501.2906473583926,
              260.8712557986881
            ],
            [
              499.1486967139798,
              261.1746318943836
            ],
            [
              499.13752008581054,
              261.17671952395534
            ],
            [
              498.45620430666395,
              261.33932429553795
            ],
            [
              496.8836488785762,
              261.5990097582598
            ],
            [
              496.3130497469151,
              261.7521410140782
            ],
            [
              496.223138301627,
              261.7676831455585
            ],
            [
              495.4450454462018,
              261.9850866693146
            ],
            [
              492.9913838731138,
              262.6435739630443
            ],
            [
              491.3179378558606,
              263.04296337356317
            ],
            [
              490.75368992438933,
              263.24410218936697
            ],
            [
              489.3118048659836,
              263.63105978791384
            ],
            [
              489.2966522795695,
              263.6369821030577
            ],
            [
              489.2792702059858,
              263.64164692183255
            ],
            [
              488.685296035396,
              263.87379870596425
            ],
            [
              488.5799379888381,
              263.9032363372397
            ],
            [
              487.8370160493503,
              264.20534462489
            ],
            [
              485.5540491339237,
              265.0976306345865
            ],
            [
              484.1608120614422,
              265.59428120119674
            ],
            [
              484.11017899512524,
              265.6196213184542
            ],
            [
              484.10880295018666,
              265.6201129830709
            ],
            [
              483.99472357065343,
              265.67740280802093
            ],
            [
              483.7239512831493,
              265.81291507324545
            ],
            [
              482.3778108351158,
              266.33904722206137
            ],
            [
              481.73972686228177,
              266.6847997300249
            ],
            [
              481.6399343991436,
              266.72538021171187
            ],
            [
              481.0552703720745,
              267.0556796739984
            ],
            [
              478.81298275110015,
              268.27068679149886
            ],
            [
              477.7456887689721,
              268.8048309113754
            ],
            [
              477.6865748543729,
              268.84530867412576
            ],
            [
              477.6746347081662,
              268.8513049276811
            ],
            [
              477.4267345087029,
              269.02183997333896
            ],
            [
              476.2219243566117,
              269.67467901877126
            ],
            [
              475.5743066574319,
              270.1520893792259
            ],
            [
              475.4813515574205,
              270.20460333275656
            ],
            [
              475.02369436429376,
              270.55798936261453
            ],
            [
              472.9125248897953,
              272.1142997925472
            ],
            [
              472.143614363117,
              272.640804898545
            ],
            [
              472.08132039376693,
              272.6990473421473
            ],
            [
              472.0613404741944,
              272.7127918913989
            ],
            [
              471.9189330580905,
              272.8467551209414
            ],
            [
              470.8783002866036,
              273.61388805630514
            ],
            [
              470.25818238150947,
              274.2377422108
            ],
            [
              470.1732337795117,
              274.30333639275403
            ],
            [
              469.8205773150577,
              274.6779838753024
            ],
            [
              467.9241073701115,
              276.58588017096685
            ],
            [
              467.4160925847497,
              277.0608542784018
            ],
            [
              467.3561677486658,
              277.13896681470106
            ],
            [
              467.33106409333647,
              277.16258192433736
            ],
            [
              467.2664793334936,
              277.2474704578856
            ],
            [
              466.40424499044695,
              278.1148998170943
            ],
            [
              465.8500242336984,
              278.8961334519041
            ],
            [
              465.7744242600352,
              278.9764477029399
            ],
            [
              465.5117593119426,
              279.3729541612374
            ],
            [
              463.90745390916584,
              281.6343947982625
            ],
            [
              463.6142033143172,
              282.01664945655017
            ],
            [
              463.562292478714,
              282.11615760404555
            ],
            [
              463.5353324495634,
              282.15159316721883
            ],
            [
              463.5214813509451,
              282.17846454113163
            ],
            [
              462.84688423795956,
              283.129381568689
            ],
            [
              462.39715231303927,
              284.0746161039499
            ],
            [
              462.3327222259133,
              284.17187668568045
            ],
            [
              462.1507314087924,
              284.59253697187586
            ],
            [
              460.909580189206,
              287.2011554203498
            ],
            [
              460.7779049180251,
              287.4535644241364
            ],
            [
              460.75531901383744,
              287.52537743421345
            ],
            [
              460.24254247057075,
              288.6031174626718
            ],
            [
              459.93488275811444,
              289.7143312597749
            ],
            [
              459.88423932116746,
              289.8313903675946
            ],
            [
              459.77839716389434,
              290.27953022579
            ],
            [
              458.96406150347553,
              293.220770124135
            ],
            [
              458.9355360715283,
              293.3114681592818
            ],
            [
              458.9323390508423,
              293.3353461495485
            ],
            [
              458.6163122459441,
              294.4767804409856
            ],
            [
              458.48610885472317,
              295.75112977112155
            ],
            [
              458.45296931338254,
              295.8914438930169
            ],
            [
              458.42279643754097,
              296.3707920984523
            ],
            [
              457.9818211976509,
              300.6867818460242
            ],
            [
              458.06112419861444,
              302.11657979171594
            ],
            [
              458.0505780887347,
              302.2841229478916
            ],
            [
              458.09893127934237,
              302.79822469429604
            ],
            [
              458.3411975206974,
              307.166177608608
            ],
            [
              458.65768644107436,
              308.7390323386149
            ],
            [
              458.67641362372615,
              308.93814385915414
            ],
            [
              458.8087610794838,
              309.48982784608353
            ],
            [
              459.68522880515064,
              313.84560878899754
            ],
            [
              460.26131191593515,
              315.544715959874
            ],
            [
              460.31772857964495,
              315.7798861019561
            ],
            [
              460.54139640535186,
              316.37080086936743
            ],
            [
              461.9937032992407,
              320.6542540926654
            ],
            [
              462.8457839963405,
              322.45883187294373
            ],
            [
              462.9501017233093,
              322.7344320187205
            ],
            [
              463.2734985384201,
              323.36466645121874
            ],
            [
              465.2359176609626,
              327.5207727403831
            ],
            [
              466.3738517301888,
              329.40662247286184
            ],
            [
              466.5380388456748,
              329.72658967327226
            ],
            [
              466.96987698434464,
              330.3943897754615
            ],
            [
              469.37133116820274,
              334.37421765181915
            ],
            [
              470.7980904267406,
              336.3143887266758
            ],
            [
              471.0357294581773,
              336.6818768090307
            ],
            [
              471.5842669931659,
              337.38346679626073
            ],
            [
              474.35034333940945,
              341.144901169768
            ],
            [
              476.06189257614693,
              343.11043546324635
            ],
            [
              476.3879324437216,
              343.5274466829615
            ],
            [
              477.0602620346667,
              344.2569577870928
            ],
            [
              480.1151700418522,
              347.7651983463914
            ],
            [
              482.1005558164309,
              349.72592766645477
            ],
            [
              482.53096207800013,
              350.19293990469646
            ],
            [
              483.3323715895137,
              350.9424455513623
            ],
            [
              486.60079242264766,
              354.17027595082783
            ],
            [
              488.84243456191126,
              356.0956453224333
            ],
            [
              489.393745387179,
              356.61125010459097
            ],
            [
              490.32717217643903,
              357.37090165253034
            ],
            [
              493.7359533209424,
              360.29873865880546
            ],
            [
              496.2101232101334,
              362.1586288857537
            ],
            [
              496.8989225631582,
              362.71919507130343
            ],
            [
              497.964518977309,
              363.47744840410013
            ],
            [
              501.4441770840176,
              366.09318717535103
            ],
            [
              501.44780173276786,
              366.0955774125197
            ],
            [
              501.45118279302625,
              366.09811903352437
            ],
            [
              501.4656752823527,
              366.10767540446045
            ],
            [
              501.47920520998923,
              366.11784617119906
            ],
            [
              501.5118122972794,
              366.139347320483
            ],
            [
              501.54225319669456,
              366.1622305051998
            ],
            [
              504.2053397922346,
              367.91826963764385
            ],
            [
              504.9639639536288,
              368.45808873902024
            ],
            [
              506.0401517881561,
              369.1281445515538
            ],
            [
              509.7421912892446,
              371.56926916411055
            ],
            [
              511.6062982142158,
              372.6459291777617
            ],
            [
              511.77497931855766,
              372.7540748704235
            ],
            [
              512.3583050439953,
              373.08026889978527
            ],
            [
              512.7649436788647,
              373.3151328726123
            ],
            [
              513.5022797762646,
              373.7742128974928
            ],
            [
              513.5289883983216,
              373.78975240748935
            ],
            [
              514.5869119513455,
              374.3674546889486
            ],
            [
              516.8819445199284,
              375.69300622438703
            ],
            [
              516.9089989450888,
              375.7089871782031
            ],
            [
              516.9147590124151,
              375.71195902771206
            ],
            [
              518.3506401505682,
              376.54128688712643
            ],
            [
              520.3173088721796,
              377.530920423006
            ],
            [
              520.6868812180162,
              377.7375841914225
            ],
            [
              521.321860043764,
              378.04522031514745
            ],
            [
              521.7250104029206,
              378.2653693812993
            ],
            [
              522.7821188343311,
              378.77122010912495
            ],
            [
              525.2987894342914,
              380.0376162220649
            ],
            [
              525.7039892413851,
              380.2466750365598
            ],
            [
              525.7952454761136,
              380.287434375308
            ],
            [
              527.2815140995159,
              381.0353291564065
            ],
            [
              529.3190823786578,
              381.91973451928106
            ],
            [
              529.9146013119339,
              382.2082530159781
            ],
            [
              529.927285350009,
              382.2139491092556
            ],
            [
              531.6018805935655,
              382.9105817975298
            ],
            [
              533.9539148241643,
              383.9314809293559
            ],
            [
              534.7451771602477,
              384.2848960104378
            ],
            [
              534.9332916091253,
              384.3565788707387
            ],
            [
              536.4474232177101,
              385.01378684185516
            ],
            [
              538.2838646905816,
              385.6902914392749
            ],
            [
              539.0194127154933,
              385.9962798862921
            ],
            [
              541.139783854867,
              386.74234916780466
            ],
            [
              542.774040534852,
              387.3443733399375
            ],
            [
              543.9472481736427,
              387.79143564579715
            ],
            [
              544.2410910572798,
              387.88480244576414
            ],
            [
              545.760537318375,
              388.444532987878
            ],
            [
              547.3812841885639,
              388.93847020670955
            ],
            [
              548.2323338556268,
              389.2379187333621
            ],
            [
              550.8398455790455,
              389.9924979674964
            ],
            [
              551.6855300595153,
              390.25022793630467
            ],
            [
              553.2250918053396,
              390.739414374225
            ],
            [
              553.6305360797332,
              390.8429860541268
            ],
            [
              555.1333860707844,
              391.30099313626954
            ],
            [
              556.5242774559323,
              391.6374969961157
            ],
            [
              557.4822077459879,
              391.91470928940385
            ],
            [
              560.6104164301112,
              392.626072776636
            ],
            [
              560.6148625619162,
              392.6271484469026
            ],
            [
              562.4945126790711,
              393.10730942723217
            ],
            [
              563.0140049370149,
              393.207582460776
            ],
            [
              564.479591685835,
              393.5621576657043
            ],
            [
              564.4904416319521,
              393.56409667224045
            ],
            [
              564.5262924481923,
              393.57277020965785
            ],
            [
              565.6808109788662,
              393.77909481322047
            ],
            [
              566.6863934114548,
              394.00776709764176
            ],
            [
              569.9186367125033,
              394.54032296469074
            ],
            [
              571.6728770230828,
              394.87892858357924
            ],
            [
              572.2593455747887,
              394.9547481322804
            ],
            [
              573.7609809116664,
              395.2231061597564
            ],
            [
              573.7666703293135,
              395.2239399561567
            ],
            [
              573.7723597289486,
              395.2247737499251
            ],
            [
              574.7449738363589,
              395.33552738227036
            ],
            [
              575.7640559998234,
              395.50343497294455
            ],
            [
              579.0604041373948,
              395.83399935462376
            ],
            [
              580.6796955307566,
              396.04334381531453
            ],
            [
              581.3086774372224,
              396.08295023976723
            ],
            [
              582.813474952433,
              396.25430472606797
            ],
            [
              582.8390712400408,
              396.25548421657805
            ],
            [
              582.8748304819998,
              396.25955621408553
            ],
            [
              583.66886943284,
              396.2961454682145
            ],
            [
              584.6367116190556,
              396.39320261767665
            ],
            [
              587.9559855086711,
              396.5015252452104
            ],
            [
              589.4371453287795,
              396.59479254577093
            ],
            [
              590.051536969661,
              396.5902583002125
            ],
            [
              591.6427806107476,
              396.6635826855111
            ],
            [
              592.351736460421,
              396.6449780933227
            ],
            [
              593.228714313204,
              396.67359776993425
            ],
            [
              596.5271450165768,
              396.54246794135497
            ],
            [
              597.8705352783489,
              396.5325536441551
            ],
            [
              598.4357301174921,
              396.4853204490257
            ],
            [
              600.0618495423087,
              396.4426474267749
            ],
            [
              600.6850381168606,
              396.37716999862823
            ],
            [
              601.467689817919,
              396.3460555103665
            ],
            [
              604.6998113821314,
              395.96183270249077
            ],
            [
              605.9087199315517,
              395.8608045092762
            ],
            [
              606.425228750917,
              395.7740573371485
            ],
            [
              608.0598105754151,
              395.6023144356595
            ],
            [
              608.5980992064553,
              395.49841848244245
            ],
            [
              609.2849216409371,
              395.41677153969613
            ],
            [
              612.4045316378304,
              394.7698390211608
            ],
            [
              613.4844681980529,
              394.5884646879923
            ],
            [
              613.4947468538628,
              394.5862631581225
            ],
            [
              613.9540034223719,
              394.46466680764865
            ],
            [
              615.5685973633502,
              394.15303143790294
            ],
            [
              616.0243028866455,
              394.01918501860087
            ],
            [
              616.6156955771296,
              393.89654431573155
            ],
            [
              619.7071595655774,
              392.94141632253155
            ],
            [
              620.6804580936019,
              392.68371821421647
            ],
            [
              621.055801059554,
              392.541370992343
            ],
            [
              622.5246403353207,
              392.10995450177813
            ],
            [
              622.9014213754851,
              391.95452827090514
            ],
            [
              623.3996090136638,
              391.8006099458353
            ],
            [
              626.372888140541,
              390.52488835368393
            ],
            [
              627.2575357430952,
              390.1893895166956
            ],
            [
              627.5589227108302,
              390.0332588844542
            ],
            [
              628.869170737417,
              389.4927674834004
            ],
            [
              629.1719158885784,
              389.3239314361349
            ],
            [
              629.5808513391347,
              389.1484727046171
            ],
            [
              632.3798905057226,
              387.53580268903346
            ],
            [
              633.1692200067228,
              387.1268981005089
            ],
            [
              633.406324569968,
              386.9624705786948
            ],
            [
              634.5484989603549,
              386.3254984963418
            ],
            [
              634.7832119542019,
              386.15112594566847
            ],
            [
              635.1084614716608,
              385.9637330178973
            ],
            [
              637.6526923444719,
              384.0193367911199
            ],
            [
              637.6859022342459,
              383.9946645601784
            ],
            [
              638.3642442304279,
              383.52424723940777
            ],
            [
              638.5461152308018,
              383.3555966847254
            ],
            [
              639.5142732705331,
              382.6363344740419
            ],
            [
              639.6879557495635,
              382.46391250644746
            ],
            [
              639.9365679939983,
              382.27391374681866
            ],
            [
              642.143116979502,
              380.026569762268
            ],
            [
              642.2425147294842,
              379.92789339764414
            ],
            [
              642.7970955114198,
              379.41362583271837
            ],
            [
              642.931883458375,
              379.2435278053055
            ],
            [
              643.7237242830653,
              378.45743381480173
            ],
            [
              643.8442563705124,
              378.2939794583895
            ],
            [
              644.0246166587025,
              378.1102846429186
            ],
            [
              645.8609747260449,
              375.5590944347739
            ],
            [
              645.9882868331576,
              375.38644564911556
            ],
            [
              646.4282637436501,
              374.83120902539633
            ],
            [
              646.5230179181448,
              374.6612933084337
            ],
            [
              647.1398995380283,
              373.8247360871836
            ],
            [
              647.2159180370137,
              373.6767174794893
            ],
            [
              647.3375891286719,
              373.50768394342373
            ],
            [
              648.7720762848094,
              370.64666058264527
            ],
            [
              648.8918768622084,
              370.41339216904817
            ],
            [
              649.2244828648328,
              369.81695419999335
            ],
            [
              649.2850203701441,
              369.64788699026747
            ],
            [
              649.73189139659,
              368.7777668481997
            ],
            [
              649.7726651619469,
              368.65102880598846
            ],
            [
              649.8462157736247,
              368.5043352526175
            ],
            [
              650.8464279952345,
              365.3134268440568
            ],
            [
              650.9294219019902,
              365.0554549554783
            ],
            [
              651.1589667078708,
              364.41438955897047
            ],
            [
              651.1898125943192,
              364.2460765166667
            ],
            [
              651.4750601849036,
              363.35943480357736
            ],
            [
              651.4903620046391,
              363.25912836535747
            ],
            [
              651.5271841742634,
              363.1416571246553
            ],
            [
              652.0546899138544,
              359.5598479203133
            ],
            [
              652.0847673277267,
              359.36268455630074
            ],
            [
              652.2116403606452,
              358.670391722052
            ],
            [
              652.2160359477848,
              358.5021929320665
            ],
            [
              652.3512531099171,
              357.61581783777865
            ],
            [
              652.351227310981,
              357.54633356638817
            ],
            [
              652.363343715414,
              357.4640621412767
            ],
            [
              652.349980173918,
              353.376766897608
            ],
            [
              652.3693663364778,
              352.6349481181436
            ],
            [
              652.3493409863279,
              352.4658960626363
            ],
            [
              652.3490179765223,
              351.59593387726136
            ],
            [
              652.3440429399193,
              351.56083896354113
            ],
            [
              652.3439053018391,
              351.5187417792424
            ],
            [
              652.2190306967971,
              350.64368637864453
            ],
            [
              652.2187553642773,
              350.6312152019491
            ],
            [
              652.2069142243381,
              350.55878052717196
            ],
            [
              651.7155951688961,
              347.11587560083984
            ],
            [
              651.6261631814123,
              346.3608994733404
            ],
            [
              651.5844682019956,
              346.1970069443859
            ],
            [
              651.4638091824243,
              345.35149214432704
            ],
            [
              651.4627122063863,
              345.3475066141912
            ],
            [
              651.4621598792075,
              345.343610391302
            ],
            [
              651.4616113030221,
              345.3416170104629
            ],
            [
              651.461335224326,
              345.3396694991059
            ],
            [
              651.4555480054879,
              345.3186433712803
            ],
            [
              651.4526148505594,
              345.29801255034704
            ],
            [
              651.1928022921061,
              344.35525043219315
            ],
            [
              651.1823663490212,
              344.29141163390443
            ],
            [
              651.0844289588285,
              343.9620043402861
            ],
            [
              650.1925035961984,
              340.72554244962726
            ],
            [
              649.9834124309407,
              339.9036574087798
            ],
            [
              649.922092255392,
              339.74432133406276
            ],
            [
              649.6852419583598,
              338.88488063163044
            ],
            [
              649.2676708633849,
              337.85143343099355
            ],
            [
              649.2484988178893,
              337.7869492579478
            ],
            [
              649.118041657945,
              337.4811159321483
            ],
            [
              647.7099479262669,
              333.9962230774048
            ],
            [
              647.4500481213427,
              333.3208920893002
            ],
            [
              647.3887333658192,
              333.2012487788956
            ],
            [
              647.0479222819091,
              332.35777502116605
            ],
            [
              646.4577640870946,
              331.24457408648647
            ],
            [
              646.4285810094171,
              331.1761596145825
            ],
            [
              646.262805654738,
              330.8768287751126
            ],
            [
              645.9406619751841,
              330.26917704998397
            ],
            [
              645.9235687232264,
              330.2306148725625
            ],
            [
              645.877156029789,
              330.14938734208977
            ],
            [
              644.3034535961349,
              327.18095102210043
            ],
            [
              644.0427214042905,
              326.6721850278309
            ],
            [
              643.9902724403514,
              326.5902050858603
            ],
            [
              643.5579169505928,
              325.7746635250884
            ],
            [
              642.7839657287926,
              324.5952914653302
            ],
            [
              642.7418050068216,
              324.51916432130514
            ],
            [
              642.5317475355739,
              324.2109531741391
            ],
            [
              642.1623586615468,
              323.64806638626806
            ],
            [
              642.090342121159,
              323.5220291904748
            ],
            [
              641.920468891059,
              323.2794668817673
            ],
            [
              639.9936969355407,
              320.3433890698088
            ],
            [
              639.7859312717624,
              320.0186425775952
            ],
            [
              639.7495294244604,
              319.9713186700641
            ],
            [
              639.2400247883023,
              319.19491892384104
            ],
            [
              638.2751332335432,
              317.9653482487005
            ],
            [
              638.2152442623964,
              317.8774749234096
            ],
            [
              637.9471742213581,
              317.5474268957251
            ],
            [
              637.5658725459937,
              317.06153046922134
            ],
            [
              637.4092681082018,
              316.83791469432646
            ],
            [
              637.0812610701416,
              316.4439853610854
            ],
            [
              635.0492712435159,
              313.8546009989923
            ],
            [
              634.8063190479294,
              313.5449406686098
            ],
            [
              634.7121110337714,
              313.422466352595
            ],
            [
              634.697799745433,
              313.4066248860061
            ],
            [
              634.1251537029183,
              312.67674565071457
            ],
            [
              632.963222649624,
              311.4111821295422
            ],
            [
              632.8839232509195,
              311.3135486527062
            ],
            [
              632.562213167806,
              310.9744066682059
            ],
            [
              632.1838175934915,
              310.56226204562563
            ],
            [
              631.9173500863728,
              310.2422403533019
            ],
            [
              631.417344860919,
              309.727427717401
            ],
            [
              628.2548770902586,
              306.2828998892532
            ],
            [
              626.8902713867515,
              304.9951300070231
            ],
            [
              626.7908274945122,
              304.8902977349548
            ],
            [
              626.419131918152,
              304.5505186321514
            ],
            [
              626.0620993455856,
              304.2135892226225
            ],
            [
              625.659788602264,
              303.7993642431931
            ],
            [
              624.9744406789052,
              303.18717252986505
            ],
            [
              621.6762666294462,
              300.0747062721593
            ],
            [
              620.1133878755875,
              298.786231431709
            ],
            [
              619.986841557599,
              298.67055129687844
            ],
            [
              619.5483143237318,
              298.32037120246275
            ],
            [
              619.2595434356843,
              298.08230153583764
            ],
            [
              618.6899043549353,
              297.57346753644157
            ],
            [
              617.8041405007313,
              296.8824323458788
            ],
            [
              614.4444857416604,
              294.1126521444554
            ],
            [
              612.9128813693579,
              293.0051361413579
            ],
            [
              612.8743329045591,
              292.97414109414325
            ],
            [
              612.7179444017742,
              292.86417558059156
            ],
            [
              612.6928278510196,
              292.84601359149764
            ],
            [
              612.5306024206378,
              292.7164706300923
            ],
            [
              612.0069768807894,
              292.35006898660134
            ],
            [
              611.8375874213682,
              292.22758204385457
            ],
            [
              611.0689706703121,
              291.62794002806964
            ],
            [
              609.9738787084756,
              290.87991859892844
            ],
            [
              606.6219698918122,
              288.4561251425303
            ],
            [
              605.930118293912,
              288.01721462334615
            ],
            [
              605.8777727136691,
              287.9795893337436
            ],
            [
              605.4950782926663,
              287.7412253311422
            ],
            [
              604.8529742068853,
              287.33387462398053
            ],
            [
              604.7338554656247,
              287.25011556674275
            ],
            [
              604.6086829773046,
              287.1731881070773
            ],
            [
              604.4882559870994,
              287.08892054605576
            ],
            [
              603.8632978443778,
              286.7059810757607
            ],
            [
              602.865942660352,
              286.0247204363643
            ],
            [
              602.8400765632291,
              286.0081917720002
            ],
            [
              601.4038635421886,
              285.1457594889538
            ],
            [
              600.1999628979235,
              284.3820051543262
            ],
            [
              599.305041925821,
              283.80481475970333
            ],
            [
              599.1683169061255,
              283.72752913772416
            ],
            [
              598.2781179626784,
              283.1627871010924
            ],
            [
              597.056979777698,
              282.4854943198477
            ],
            [
              596.6908137351796,
              282.25742513796894
            ],
            [
              595.9807991156678,
              281.8760257851817
            ],
            [
              595.933105434294,
              281.8468017590645
            ],
            [
              595.7249591644256,
              281.7356313283475
            ],
            [
              594.8445405269958,
              281.20694829569163
            ],
            [
              592.8895577123034,
              280.1740729623111
            ],
            [
              592.4843218509405,
              279.9493127124213
            ],
            [
              590.687395099201,
              278.93357614881484
            ],
            [
              590.3825754756384,
              278.7835989009154
            ],
            [
              589.488874848915,
              278.28791627423465
            ],
            [
              587.6875918772715,
              277.42115431299135
            ],
            [
              586.989995528851,
              277.0464256968601
            ],
            [
              586.9773691733566,
              277.04014873536374
            ],
            [
              586.8215202318977,
              276.9681490081768
            ],
            [
              586.4852553590919,
              276.79049031471453
            ],
            [
              584.0473721087238,
              275.6665542869551
            ],
            [
              581.7038949712205,
              274.51351745982646
            ],
            [
              581.393076583476,
              274.3819699457944
            ],
            [
              581.018923072827,
              274.1999438420848
            ],
            [
              580.8371522008812,
              274.1238656670099
            ],
            [
              580.6011196682513,
              274.0095142657144
            ],
            [
              580.5757870184287,
              273.9990146355993
            ],
            [
              580.3361978359445,
              273.8837263699763
            ],
            [
              578.8691663587042,
              273.27924882401146
            ],
            [
              577.8311302525066,
              272.8006835860335
            ]
          ]
        ]
      }
    }
  ]
}