{
  "type": "FeatureCollection",
  "features": [
    {
      "type": "Feature",
      "properties": {
        "method": "Homography",
        "mode": "tmpl2img",
        "inside_ratio": 1.0
      },
      "geometry": {
        "type": "Polygon",
        "coordinates": [
          [
            [
              406.311729509812,
              119.56420821557717
            ],
            [
              405.82705777039763,
              117.62380857549647
            ],
            [
              405.7124482122208,
              117.25068120526629
            ],
            [
              405.36405097843686,
              115.89099030861396
            ],
            [
              405.04952055744155,
              114.90979642964552
            ],
            [
              405.00501907819313,
              114.74336846067855
            ],
            [
              404.9852847817962,
              114.6684603417416
            ],
            [
              404.9836815573484,
              114.66356975923405
            ],
            [
              404.83539655385493,
              114.10900904851975
            ],
            [
              404.6823289113015,
              113.64766267760363
            ],
            [
              404.5159157339961,
              113.0377503806261
            ],
            [
              404.36493791999186,
              112.59302476329216
            ],
            [
              404.31567689349083,
              112.41543493936344
            ],
            [
              403.4713304025051,
              109.95441021337037
            ],
            [
              402.9445356119016,
              108.23935644301841
            ],
            [
              402.69404886452145,
              107.5617809346246
            ],
            [
              402.08287528314816,
              105.65519340925913
            ],
            [
              401.76171599264,
              104.83507168122763
            ],
            [
              401.68592793559594,
              104.60388275073056
            ],
            [
              401.66107997902753,
              104.54160859997913
            ],
            [
              401.5258356497505,
              104.13398175304299
            ],
            [
              401.3190123850565,
              103.62083820205571
            ],
            [
              401.07165811190254,
              102.89222265974787
            ],
            [
              400.9351555082443,
              102.5621971931857
            ],
            [
              400.9160604938653,
              102.50654077365688
            ],
            [
              400.2599870496215,
              100.92982697021357
            ],
            [
              400.0938589024876,
              100.52817514966272
            ],
            [
              399.68975497607755,
              99.43505974038936
            ],
            [
              399.68297668170663,
              99.41825985072022
            ],
            [
              399.4357229652788,
              98.85979536550921
            ],
            [
              399.3842048931627,
              98.72185183810141
            ],
            [
              399.2529210580204,
              98.42853978920989
            ],
            [
              398.35649254309175,
              96.1393937970261
            ],
            [
              398.0457999103529,
              95.48096430164765
            ],
            [
              397.9536846840829,
              95.25010437271689
            ],
            [
              397.90034133516247,
              95.13886686873848
            ],
            [
              397.78994741261096,
              94.86497152378989
            ],
            [
              397.76485108554334,
              94.81309018169692
            ],
            [
              397.7548909818876,
              94.78837813424691
            ],
            [
              397.5128531919961,
              94.288018617848
            ],
            [
              397.18438314850187,
              93.49386908185197
            ],
            [
              396.0650349717929,
              91.24652442151162
            ],
            [
              395.7070016283091,
              90.43784534585113
            ],
            [
              395.33629632232174,
              89.73889998399116
            ],
            [
              394.2245924651596,
              87.38294257606168
            ],
            [
              393.9363314075126,
              86.87267100665679
            ],
            [
              393.82703439050425,
              86.64475266986824
            ],
            [
              393.75359560685405,
              86.51658628013965
            ],
            [
              393.63122549075814,
              86.26361317152431
            ],
            [
              393.2814037945049,
              85.6577551781264
            ],
            [
              392.8947090292321,
              84.88137796682645
            ],
            [
              391.6867791866947,
              82.857927325125
            ],
            [
              391.3545020527305,
              82.23143626096187
            ],
            [
              390.9856263259563,
              81.64941634613666
            ],
            [
              389.7257093972243,
              79.4191470416866
            ],
            [
              389.4703165316548,
              79.04134788401102
            ],
            [
              389.3433339258116,
              78.81973606881465
            ],
            [
              389.2782605898325,
              78.72469089075149
            ],
            [
              389.1557940643714,
              78.51259048599107
            ],
            [
              388.6854649849334,
              77.8303082253522
            ],
            [
              388.2420197612332,
              77.08747574380676
            ],
            [
              386.96220466752163,
              75.30117665186876
            ],
            [
              386.66265979251654,
              74.82854841969377
            ],
            [
              386.2982453519719,
              74.34894656304964
            ],
            [
              384.89716126691377,
              72.27634212288721
            ],
            [
              384.6834995284582,
              72.0136490080094
            ],
            [
              384.5387682330926,
              71.80225656083961
            ],
            [
              384.4850025309364,
              71.73691288977514
            ],
            [
              384.3621753467335,
              71.55873379652236
            ],
            [
              383.7585996238031,
              70.82975198384202
            ],
            [
              383.5366112720633,
              70.51991223192448
            ],
            [
              383.45370806158195,
              70.4036044860954
            ],
            [
              383.4511272058401,
              70.40059803520639
            ],
            [
              383.26443279243466,
              70.1400197198115
            ],
            [
              381.9299274077472,
              68.59985112830788
            ],
            [
              381.6674760114831,
              68.2544417182356
            ],
            [
              381.30817671943663,
              67.86375268671495
            ],
            [
              379.7750840228603,
              65.97884386415838
            ],
            [
              379.61042701650354,
              65.81264060811313
            ],
            [
              379.4483897040919,
              65.61570999216798
            ],
            [
              379.4087302790356,
              65.576101912472
            ],
            [
              379.2888951091753,
              65.43136835870861
            ],
            [
              378.5872780869969,
              64.734677509134
            ],
            [
              378.30465447032907,
              64.4054479397664
            ],
            [
              378.2526360354644,
              64.35584526787304
            ],
            [
              377.99886251628664,
              64.06296222065747
            ],
            [
              376.6270908547259,
              62.77370952929472
            ],
            [
              376.4038558305322,
              62.53097185256904
            ],
            [
              376.08065604797656,
              62.245654890329206
            ],
            [
              375.83281037225163,
              61.99954938130304
            ],
            [
              374.39454451374405,
              60.54777715470035
            ],
            [
              374.28458375200177,
              60.458589398818866
            ],
            [
              374.106230572161,
              60.28046712520952
            ],
            [
              374.0818704595802,
              60.260903115944
            ],
            [
              373.96739935320807,
              60.14723573070809
            ],
            [
              373.1764026516346,
              59.515354782912276
            ],
            [
              372.91138547212057,
              59.26264513802222
            ],
            [
              372.80531548338513,
              59.181833183311845
            ],
            [
              372.4811621173252,
              58.87717927383746
            ],
            [
              371.06527857750996,
              57.818138717438295
            ],
            [
              370.90575968991845,
              57.677317321871605
            ],
            [
              370.67089992595055,
              57.5138553659576
            ],
            [
              369.55036573088046,
              56.61872621079004
            ],
            [
              368.78971716515895,
              56.00177396788044
            ],
            [
              368.7385864037651,
              55.96962332658085
            ],
            [
              368.5454747713046,
              55.81453218098088
            ],
            [
              368.537252761434,
              55.80940958268736
            ],
            [
              368.430348260306,
              55.724009836565216
            ],
            [
              367.5520932439313,
              55.179540331740704
            ],
            [
              367.3069093339337,
              54.99274111298392
            ],
            [
              367.2196908965419,
              54.94174867348953
            ],
            [
              366.8858930683615,
              54.69207740622777
            ],
            [
              365.3688286379594,
              53.823623678296215
            ],
            [
              365.20640873925373,
              53.710579732944616
            ],
            [
              365.0553102059244,
              53.63167302782913
            ],
            [
              363.4717719231103,
              52.649966930350786
            ],
            [
              363.4076667955676,
              52.6089341194328
            ],
            [
              363.39889843535974,
              52.60478940098964
            ],
            [
              362.7097922235594,
              52.177581686934225
            ],
            [
              361.7480372275108,
              51.742735059043866
            ],
            [
              361.52366051733077,
              51.611552752190924
            ],
            [
              361.45328258463246,
              51.58214302738335
            ],
            [
              361.11977988941743,
              51.39122716835051
            ],
            [
              359.622074867296,
              50.78150525817054
            ],
            [
              359.4391084172434,
              50.698779050198254
            ],
            [
              359.338533571592,
              50.646256834968106
            ],
            [
              359.26388766009825,
              50.61955496954213
            ],
            [
              357.77226907228334,
              49.94513652028692
            ],
            [
              357.60650149550554,
              49.8667798017851
            ],
            [
              357.58196505393664,
              49.8590927139209
            ],
            [
              356.837424372888,
              49.52245707822428
            ],
            [
              355.7975545631747,
              49.21871178820735
            ],
            [
              355.5937651603611,
              49.133551709965964
            ],
            [
              355.53991341994015,
              49.119640445944206
            ],
            [
              355.21064738198504,
              48.98559487978983
            ],
            [
              353.7894299392673,
              48.63213990142642
            ],
            [
              353.3455252133768,
              48.50247562187156
            ],
            [
              353.33465729254556,
              48.4985880176673
            ],
            [
              353.3269643576402,
              48.49705400807443
            ],
            [
              351.95964493530437,
              48.09766090077224
            ],
            [
              351.68331104078396,
              48.01108751068102
            ],
            [
              351.63927006692114,
              48.00407961165463
            ],
            [
              350.84486224088886,
              47.77203360622242
            ],
            [
              349.73386628755884,
              47.61979189962028
            ],
            [
              349.54933506482644,
              47.57212282635355
            ],
            [
              349.5114524297807,
              47.56821231188794
            ],
            [
              349.1901454297896,
              47.488303667853366
            ],
            [
              347.84876993659634,
              47.36147387001108
            ],
            [
              346.06280815310845,
              47.116740422494644
            ],
            [
              345.66901436784855,
              47.054079067771326
            ],
            [
              345.6017337908651,
              47.05355860120809
            ],
            [
              344.76395168808375,
              46.938755863447746
            ],
            [
              343.5903843801477,
              46.95699764230444
            ],
            [
              343.42278321851813,
              46.939696660831984
            ],
            [
              343.3999970898253,
              46.94083329348602
            ],
            [
              343.0902395527065,
              46.91154508446902
            ],
            [
              341.82940643160765,
              46.98437005637992
            ],
            [
              340.11087780373504,
              47.011082643704135
            ],
            [
              339.5950148596811,
              47.00709205051255
            ],
            [
              339.5009021584402,
              47.0205640264458
            ],
            [
              338.6270867440305,
              47.03414650053597
            ],
            [
              337.4010158286891,
              47.240078421080845
            ],
            [
              337.24715434108583,
              47.247753440965845
            ],
            [
              337.2383304024622,
              47.24954787991564
            ],
            [
              336.94353409054185,
              47.26657513973173
            ],
            [
              335.76163519454997,
              47.51543019581066
            ],
            [
              334.1335081666915,
              47.78889180520034
            ],
            [
              333.493513949144,
              47.88050522808543
            ],
            [
              333.36927984312996,
              47.917252248651195
            ],
            [
              332.4675390824267,
              48.06870939877575
            ],
            [
              331.2147727708366,
              48.47279609848415
            ],
            [
              330.78360321934895,
              48.56358112525659
            ],
            [
              329.67711395574315,
              48.968776450225086
            ],
            [
              328.16121773382815,
              49.4577371572271
            ],
            [
              327.39782847174075,
              49.6835389262725
            ],
            [
              327.25467597887996,
              49.74832587740919
            ],
            [
              326.4831042413632,
              49.994487421440915
            ],
            [
              326.453687986661,
              50.00851031723782
            ],
            [
              326.31979040647263,
              50.051699721978565
            ],
            [
              325.8809096989791,
              50.263160226991
            ],
            [
              325.8146030749252,
              50.28526488850803
            ],
            [
              325.1889346760162,
              50.59656605986143
            ],
            [
              325.05247392580424,
              50.66231526838667
            ],
            [
              324.64532286189166,
              50.81141360406815
            ],
            [
              323.6092410639117,
              51.35769044577916
            ],
            [
              322.28220142181357,
              51.99708167009014
            ],
            [
              322.2137521689975,
              52.029711817918496
            ],
            [
              321.3427047363591,
              52.42392435539551
            ],
            [
              321.1919790435556,
              52.51679687375863
            ],
            [
              320.4359284432951,
              52.87721049168693
            ],
            [
              320.3768691215555,
              52.91510454863718
            ],
            [
              320.21986005107516,
              52.990754302131734
            ],
            [
              319.70220210971615,
              53.32648861594843
            ],
            [
              319.55341362017026,
              53.400518295501165
            ],
            [
              318.8833253484842,
              53.84944188493879
            ],
            [
              318.56519543378465,
              54.01717671571788
            ],
            [
              317.5935271267606,
              54.69409933316715
            ],
            [
              316.6028005806489,
              55.33664892153143
            ],
            [
              316.29413279951507,
              55.53469851188773
            ],
            [
              315.36462095532005,
              56.10743501227693
            ],
            [
              315.2048448596247,
              56.23361509295327
            ],
            [
              314.47152318583596,
              56.704134097424465
            ],
            [
              314.38377552359805,
              56.77582872606655
            ],
            [
              314.2056185916617,
              56.89137490147862
            ],
            [
              313.6174349033834,
              57.37730909302883
            ],
            [
              313.3872386222765,
              57.53152838794669
            ],
            [
              312.7977656171922,
              58.03511540854525
            ],
            [
              312.5816576961165,
              58.18566919169471
            ],
            [
              311.667949415731,
              58.987897202270446
            ],
            [
              310.90914880472485,
              59.614788373877076
            ],
            [
              310.49670511847927,
              59.95177737355097
            ],
            [
              309.502067838139,
              60.737272924223504
            ],
            [
              309.332337435126,
              60.903129313105445
            ],
            [
              308.6287374732502,
              61.478008879048566
            ],
            [
              308.513945182923,
              61.59361124632823
            ],
            [
              308.3170761776937,
              61.75625666272505
            ],
            [
              307.66850461826175,
              62.41704510181113
            ],
            [
              307.35979299432444,
              62.680777563833686
            ],
            [
              306.85439928976245,
              63.21415280730732
            ],
            [
              306.73535976088255,
              63.31866848970116
            ],
            [
              305.8732758167132,
              64.24608990085677
            ],
            [
              305.2938355096878,
              64.8364448901487
            ],
            [
              304.8584644445487,
              65.27488832247128
            ],
            [
              303.7957948144629,
              66.31330303363806
            ],
            [
              303.61592775735966,
              66.52619345856432
            ],
            [
              302.9487145970119,
              67.19811507103681
            ],
            [
              302.80928285518667,
              67.36779805624481
            ],
            [
              302.5966316970005,
              67.58445483812974
            ],
            [
              301.89975560996123,
              68.44311441719393
            ],
            [
              301.51748781447213,
              68.84654678418055
            ],
            [
              301.0979672640726,
              69.38331978033897
            ],
            [
              301.0694005404333,
              69.41405158010676
            ],
            [
              300.71920292887296,
              69.8679455438524
            ],
            [
              300.08980875700706,
              70.67325006368046
            ],
            [
              299.8238037289552,
              71.00100957453708
            ],
            [
              299.4180401413352,
              71.4948080162375
            ],
            [
              298.2890065511962,
              72.83113076834314
            ],
            [
              298.09968701258055,
              73.09919229429504
            ],
            [
              297.4750797818616,
              73.85931490412936
            ],
            [
              297.31424987262415,
              74.09316971318792
            ],
            [
              297.0892657762361,
              74.37038506480164
            ],
            [
              296.444289320932,
              75.32089222724817
            ],
            [
              296.34573620110666,
              75.44549153151563
            ],
            [
              296.2651870235148,
              75.566821225143
            ],
            [
              295.90963947555105,
              76.02174130574129
            ],
            [
              294.5133816251502,
              78.16577357352158
            ],
            [
              294.21586523857553,
              78.59837742255029
            ],
            [
              293.02749125417483,
              80.28102120027913
            ],
            [
              292.8304069637181,
              80.61290371225297
            ],
            [
              292.2540563951395,
              81.45094654151525
            ],
            [
              292.0771055192192,
              81.75684729061268
            ],
            [
              291.8402261517299,
              82.10593838314041
            ],
            [
              291.3324732815504,
              82.99687408137125
            ],
            [
              291.2194852371719,
              83.16706582282958
            ],
            [
              291.1042215677326,
              83.3731447601128
            ],
            [
              291.0328175978013,
              83.48138409295429
            ],
            [
              290.9222221088613,
              83.68020049653002
            ],
            [
              290.58858418461284,
              84.19252024830735
            ],
            [
              289.31296562507083,
              86.53530605691944
            ],
            [
              289.29428791538334,
              86.56759482268636
            ],
            [
              288.0596588541989,
              88.64666359690044
            ],
            [
              287.95626920974973,
              88.85368305356675
            ],
            [
              287.94103167191906,
              88.87936910535001
            ],
            [
              287.8432064104569,
              89.07612673617771
            ],
            [
              287.3344882586782,
              89.95556439311105
            ],
            [
              287.1475942929273,
              90.33993071919093
            ],
            [
              286.9047019125747,
              90.76612524254416
            ],
            [
              286.8156878593881,
              90.95229482470413
            ],
            [
              286.8070046289817,
              90.96753174137318
            ],
            [
              286.60361349417144,
              91.3929147191354
            ],
            [
              286.56376766314486,
              91.4633005147101
            ],
            [
              286.4791922691353,
              91.64219542776337
            ],
            [
              286.399977341805,
              91.78382312467747
            ],
            [
              286.32080387224374,
              91.95212400728488
            ],
            [
              286.24696394032236,
              92.08486531386828
            ],
            [
              285.9748556781637,
              92.6660389101597
            ],
            [
              285.6096678252846,
              93.33673855841184
            ],
            [
              284.5339643117553,
              95.70624265254135
            ],
            [
              283.43646382265297,
              97.903793056615
            ],
            [
              283.3431747740441,
              98.12711776014558
            ],
            [
              283.2349047265438,
              98.34488316875138
            ],
            [
              283.1176536692565,
              98.62791083469833
            ],
            [
              282.7677422768235,
              99.34753897156301
            ],
            [
              282.64455317081814,
              99.6508718144974
            ],
            [
              282.32493571870856,
              100.31643648638332
            ],
            [
              282.26358448004515,
              100.46988096631914
            ],
            [
              282.2325851547153,
              100.53471459503237
            ],
            [
              282.00502736388825,
              101.10600403409269
            ],
            [
              281.8992628603835,
              101.3297184120243
            ],
            [
              281.4093918272942,
              102.58031817515655
            ],
            [
              281.042407655267,
              103.38625933161295
            ],
            [
              280.07997327943764,
              105.93127167926995
            ],
            [
              280.06312559370446,
              105.97340912314657
            ],
            [
              279.1703748137819,
              108.10191995303016
            ],
            [
              279.0564606193056,
              108.43106328788679
            ],
            [
              278.94456243061853,
              108.70116987711297
            ],
            [
              278.8168978173179,
              109.07584142278493
            ],
            [
              278.60746274767894,
              109.5915407175081
            ],
            [
              278.56101720905536,
              109.7303053963864
            ],
            [
              278.14249944302253,
              110.77705265612404
            ],
            [
              278.0942245630918,
              110.92417079625511
            ],
            [
              278.0776312637393,
              110.96582868300794
            ],
            [
              277.8393608958318,
              111.69430846173738
            ],
            [
              277.6801480944581,
              112.10076542333692
            ],
            [
              277.3173760303472,
              113.23654286152495
            ],
            [
              277.0469709200027,
              113.95158833577815
            ],
            [
              276.21270971697305,
              116.64778869059771
            ],
            [
              275.3532499570588,
              119.13110916570808
            ],
            [
              275.1849547472086,
              119.73490887055739
            ],
            [
              275.12863789212446,
              119.90018821144979
            ],
            [
              275.0264684271156,
              120.2731858067419
            ],
            [
              274.43994944821054,
              122.0606077838071
            ],
            [
              274.4039980449928,
              122.19747086243824
            ],
            [
              274.39936312187797,
              122.21164151988076
            ],
            [
              274.16518234331625,
              123.10552348256064
            ],
            [
              273.9682265769265,
              123.72215838342862
            ],
            [
              273.71752569664847,
              124.71182908521068
            ],
            [
              273.5373896376659,
              125.2940003576857
            ],
            [
              272.7945737548378,
              128.31097790410112
            ],
            [
              271.97544051450006,
              131.24981620610075
            ],
            [
              271.7444387792457,
              132.32212348523075
            ],
            [
              271.2764565498925,
              134.10368089096715
            ],
            [
              271.03501801049174,
              135.3013382300014
            ],
            [
              270.82651375905505,
              136.12443286221426
            ],
            [
              270.6713772795205,
              136.93442853394347
            ],
            [
              270.5676160173981,
              137.35585920774716
            ],
            [
              269.96357170255914,
              140.58888705471045
            ],
            [
              269.2097599901281,
              144.08807196534946
            ],
            [
              269.0279615325877,
              145.25735406170296
            ],
            [
              268.7114505115982,
              146.82740890099683
            ],
            [
              268.6845175106139,
              147.01526368722142
            ],
            [
              268.68080047878146,
              147.03375350132112
            ],
            [
              268.5140686018807,
              148.19812806286424
            ],
            [
              268.46768390935256,
              148.44031094785367
            ],
            [
              268.44999190422925,
              148.53115796090717
            ],
            [
              268.4492500147302,
              148.5365576520637
            ],
            [
              268.3181361029951,
              149.22112714421837
            ],
            [
              268.2385999347226,
              149.82145761899653
            ],
            [
              268.19451644312255,
              150.05740579767
            ],
            [
              268.1185643765525,
              150.64200480873197
            ],
            [
              268.11714338263613,
              150.64969199304306
            ],
            [
              268.0952209157921,
              150.82167818289554
            ],
            [
              267.7515357051174,
              153.46700494428427
            ],
            [
              267.1152366820847,
              157.55952072044818
            ],
            [
              266.99311886052834,
              158.81258742429455
            ],
            [
              266.80337773770947,
              160.13601135633414
            ],
            [
              266.80179685974116,
              160.15580344024812
            ],
            [
              266.78599327617843,
              160.26616800292751
            ],
            [
              266.69716123377987,
              161.28877792001092
            ],
            [
              266.63208810434884,
              161.76239939916204
            ],
            [
              266.59297699662596,
              162.24244320545967
            ],
            [
              266.5049063291339,
              162.90719116574599
            ],
            [
              266.4775163322451,
              163.2730642010782
            ],
            [
              266.4736831399805,
              163.30256807775612
            ],
            [
              266.4627721810186,
              163.4494660799675
            ],
            [
              266.4601687293728,
              163.46954383290924
            ],
            [
              266.4285315186242,
              163.89719386865227
            ],
            [
              266.4094213231868,
              164.0471172200704
            ],
            [
              266.208644849885,
              166.8621763399246
            ],
            [
              265.7520658988432,
              171.5471917942733
            ],
            [
              265.7129626053851,
              172.52264440746904
            ],
            [
              265.6625680376776,
              173.09252799938986
            ],
            [
              265.65618261563793,
              173.27223602430456
            ],
            [
              265.5930714873606,
              173.99875388783076
            ],
            [
              265.5674068354528,
              174.8301358695065
            ],
            [
              265.5174643798923,
              175.44312199690617
            ],
            [
              265.4916391153705,
              176.4423205266042
            ],
            [
              265.4455644784395,
              177.05778124879123
            ],
            [
              265.4438370161369,
              177.1570240824813
            ],
            [
              265.43136437073144,
              177.31317759284784
            ],
            [
              265.42622494527933,
              177.83237743895134
            ],
            [
              265.423029009556,
              177.8771872109707
            ],
            [
              265.37753370773,
              180.85714289750246
            ],
            [
              265.3751361336923,
              180.94990680538368
            ],
            [
              265.17614497503655,
              185.9138479092666
            ],
            [
              265.19414956335055,
              186.92145008821157
            ],
            [
              265.1588927613504,
              188.06356064614232
            ],
            [
              265.1750936008481,
              188.68969992631654
            ],
            [
              265.1556218098974,
              189.44307787816948
            ],
            [
              265.1962954196735,
              190.7708802868246
            ],
            [
              265.18918339671325,
              191.1567575009806
            ],
            [
              265.1967133830874,
              191.3542946080689
            ],
            [
              265.19369631662266,
              191.5276252935783
            ],
            [
              265.2089618393162,
              191.89864999267945
            ],
            [
              265.2073552977641,
              192.00387893816153
            ],
            [
              265.27091932769207,
              193.52180681960556
            ],
            [
              265.25675183773427,
              194.95304824340852
            ],
            [
              265.25721663723914,
              194.9713089809782
            ],
            [
              265.3784374252902,
              197.2348684248303
            ],
            [
              265.43681326113455,
              200.50179229857827
            ],
            [
              265.50262444739747,
              201.34829878963149
            ],
            [
              265.52764336071135,
              202.31524401313655
            ],
            [
              265.5625657971321,
              202.7278885809715
            ],
            [
              265.5897098845631,
              203.6140156023015
            ],
            [
              265.7195126344322,
              205.06909390442274
            ],
            [
              265.7282878009977,
              205.29929631578233
            ],
            [
              265.7839468816679,
              205.87351718848794
            ],
            [
              265.7953701533876,
              206.15115694165922
            ],
            [
              265.80297512627965,
              206.22745704402314
            ],
            [
              265.80487437220717,
              206.2728115999381
            ],
            [
              265.9268766900994,
              207.47589141480486
            ],
            [
              265.9945534142504,
              208.73962093301338
            ],
            [
              266.2550199841683,
              211.0744314586414
            ],
            [
              266.4173866847482,
              213.29875133514628
            ],
            [
              266.45266562803346,
              213.56834938934583
            ],
            [
              266.57435251919844,
              215.1335657165272
            ],
            [
              266.6696028079522,
              215.80867147354542
            ],
            [
              266.7354316655767,
              216.58650725154484
            ],
            [
              266.7647505105471,
              216.7861257524187
            ],
            [
              266.85434642266955,
              217.79048866324322
            ],
            [
              267.08994776440807,
              219.34720302036948
            ],
            [
              267.09748850118217,
              219.42499892354897
            ],
            [
              267.18031986292567,
              219.94432841112769
            ],
            [
              267.21353734732105,
              220.16380990680588
            ],
            [
              267.2488721093335,
              220.51225032724437
            ],
            [
              267.4313202537788,
              221.61873375256795
            ],
            [
              267.52402981650647,
              222.44977807033672
            ],
            [
              267.8017828595702,
              224.05058842715334
            ],
            [
              267.9684584723439,
              225.15188232247473
            ],
            [
              268.1662457557125,
              226.66335238867413
            ],
            [
              268.2915188075434,
              227.30433036364371
            ],
            [
              268.6173489784556,
              229.61371784232378
            ],
            [
              268.7119941962681,
              230.06472673983063
            ],
            [
              268.7767639400541,
              230.49268690897958
            ],
            [
              268.8266905758605,
              230.83289075389308
            ],
            [
              268.83200685001253,
              230.85769939331325
            ],
            [
              268.97334647190934,
              231.7915880418578
            ],
            [
              269.52198590704523,
              234.29788102688437
            ],
            [
              269.56109983768414,
              234.5350931732947
            ],
            [
              269.7558356395099,
              235.36615265754145
            ],
            [
              269.80061087256934,
              235.57069473987093
            ],
            [
              269.863272735764,
              235.93184203271903
            ],
            [
              270.0401026835896,
              236.66474049648915
            ],
            [
              270.79408907352064,
              240.10909881061897
            ],
            [
              270.91568127930105,
              240.73124319598386
            ],
            [
              270.9933497489071,
              241.01936081680853
            ],
            [
              271.41649684173905,
              242.95238006854797
            ],
            [
              271.58005917374874,
              243.73179680756212
            ],
            [
              271.60991039607535,
              243.8359312742907
            ],
            [
              271.76259463488225,
              244.5334229457639
            ],
            [
              271.77263189208355,
              244.58026227110534
            ],
            [
              271.77351654004144,
              244.5833163594137
            ],
            [
              271.9574815509866,
              245.42370475821434
            ],
            [
              272.71743572173517,
              248.005152850636
            ],
            [
              272.7494883925171,
              248.14194164755048
            ],
            [
              272.8916765936682,
              248.59702244458987
            ],
            [
              275.8024189216442,
              258.48436897063635
            ],
            [
              276.78990599915903,
              261.07351015984017
            ],
            [
              276.8060837699172,
              261.12528796385584
            ],
            [
              276.8719515177019,
              261.28862936117963
            ],
            [
              280.48701042898165,
              270.76713104667874
            ],
            [
              285.97210649113197,
              282.06735196236156
            ],
            [
              292.2000584167649,
              292.1886646008289
            ],
            [
              299.09503863835005,
              300.9497672463098
            ],
            [
              306.56425395863585,
              308.1911314139917
            ],
            [
              314.5000555628128,
              313.78116342708137
            ],
            [
              316.6421047548274,
              314.77429210462253
            ],
            [
              316.72572130342104,
              314.82784858410696
            ],
            [
              316.9701484571032,
              314.92638460064217
            ],
            [
              322.78286911565414,
              317.62136453019315
            ],
            [
              324.9207006629881,
              318.131493901681
            ],
            [
              325.1295674071294,
              318.21569443605307
            ],
            [
              325.7134625260314,
              318.3206627402773
            ],
            [
              331.2847892649911,
              319.650092746692
            ],
            [
              332.53012641504296,
              319.6782592663364
            ],
            [
              332.59809387681116,
              319.69238948454597
            ],
            [
              332.97512795044514,
              319.6883241266782
            ],
            [
              333.3710009684382,
              319.6972778185663
            ],
            [
              333.71960852401935,
              319.759947881675
            ],
            [
              334.65315745436874,
              319.7262771026951
            ],
            [
              336.00224391399945,
              319.756790181243
            ],
            [
              336.02895268465784,
              319.75997852329436
            ],
            [
              336.05155050218144,
              319.757905377218
            ],
            [
              339.8763030093524,
              319.84441204462433
            ],
            [
              340.8911448244985,
              319.6569374887503
            ],
            [
              340.91598968093217,
              319.6569343198641
            ],
            [
              341.05737276171845,
              319.62622973879024
            ],
            [
              341.2013918082905,
              319.5996246990756
            ],
            [
              341.32953642374827,
              319.5982429838549
            ],
            [
              341.34584596120067,
              319.5945422782495
            ],
            [
              341.37780692679735,
              319.5941977110932
            ],
            [
              341.9566216711658,
              319.4628593841495
            ],
            [
              342.3607500344703,
              319.4482834831364
            ],
            [
              343.3226103783681,
              319.2077660828961
            ],
            [
              347.9993534201505,
              318.3438183113322
            ],
            [
              348.34539970286545,
              318.20937226956516
            ],
            [
              348.4994911181039,
              318.1799962006388
            ],
            [
              348.52631988511956,
              318.16908570819106
            ],
            [
              348.71431275932815,
              318.1327448307572
            ],
            [
              349.57076795217546,
              317.7773505704205
            ],
            [
              349.6214182982964,
              317.7663506852209
            ],
            [
              349.8246450344821,
              317.677533362432
            ],
            [
              350.0395041173788,
              317.6287798834444
            ],
            [
              350.552692076836,
              317.3998524240095
            ],
            [
              350.918991765983,
              317.3082575791805
            ],
            [
              352.16772784348416,
              316.7243197938781
            ],
            [
              352.83657645052034,
              316.46445846245797
            ],
            [
              352.8863063769161,
              316.4494184971706
            ],
            [
              352.9193994198118,
              316.4322800489165
            ],
            [
              355.9711149039754,
              315.246626314303
            ],
            [
              356.51854240624783,
              314.91887732319265
            ],
            [
              356.9187887197708,
              314.756108591364
            ],
            [
              357.0233821851952,
              314.69017602520955
            ],
            [
              357.03507987837946,
              314.68540071568003
            ],
            [
              357.06012133099495,
              314.6695718720489
            ],
            [
              357.33638707554934,
              314.5549327633535
            ],
            [
              358.107657955443,
              314.05756166914165
            ],
            [
              358.12794508817905,
              314.048695469499
            ],
            [
              358.25584064268986,
              313.9635632470172
            ],
            [
              358.4983463536699,
              313.8553841378062
            ],
            [
              358.94085129977077,
              313.55705107964747
            ],
            [
              359.26559202600674,
              313.405194827639
            ],
            [
              360.63275163136876,
              312.4556691045072
            ],
            [
              360.85586147420577,
              312.3220915520493
            ],
            [
              361.0264029242377,
              312.23377039568214
            ],
            [
              361.03681528373386,
              312.22721712970497
            ],
            [
              361.13107394430835,
              312.1573197621089
            ],
            [
              363.6875376914489,
              310.62674555739954
            ],
            [
              364.4103212732133,
              310.0336724075698
            ],
            [
              365.03884977066514,
              309.63746699862554
            ],
            [
              365.0867116262531,
              309.59591881159946
            ],
            [
              365.15471647571314,
              309.5529325621579
            ],
            [
              365.33154737663807,
              309.3990767197476
            ],
            [
              365.63777875218494,
              309.2015966406794
            ],
            [
              366.37716610696094,
              308.5435511009439
            ],
            [
              366.62979100713426,
              308.3732335492478
            ],
            [
              366.9996763081794,
              308.03368447726615
            ],
            [
              367.28078805115325,
              307.8384455088442
            ],
            [
              368.51331781666613,
              306.68302795146826
            ],
            [
              368.69105012003916,
              306.5512308299309
            ],
            [
              368.88027713833844,
              306.3658929069614
            ],
            [
              371.05329465563665,
              304.58284418235843
            ],
            [
              371.9048439287379,
              303.6798270118043
            ],
            [
              372.86257108027183,
              302.8465342053312
            ],
            [
              373.17470163463025,
              302.49382911656545
            ],
            [
              373.49938262652233,
              302.2048670763311
            ],
            [
              374.0713798856775,
              301.5419683147449
            ],
            [
              374.3215809404118,
              301.3122875577569
            ],
            [
              374.61986592865685,
              300.95853098520143
            ],
            [
              374.8568650677232,
              300.7363595017795
            ],
            [
              375.85192806789814,
              299.53752709263455
            ],
            [
              375.91976822160126,
              299.4710812262108
            ],
            [
              376.1894016293381,
              299.1363093386727
            ],
            [
              377.9886754217399,
              297.2282868901918
            ],
            [
              378.786352219121,
              296.15270778153524
            ],
            [
              380.0610945294223,
              294.7122589262771
            ],
            [
              380.48585590015904,
              294.10810715860686
            ],
            [
              380.81748521739325,
              293.7237754853654
            ],
            [
              381.2337026627559,
              293.114729564704
            ],
            [
              381.47622174848357,
              292.8271095907657
            ],
            [
              381.70657880901024,
              292.483958573361
            ],
            [
              381.90043812938586,
              292.25040066190957
            ],
            [
              383.7018823099853,
              289.53384929469416
            ],
            [
              383.82618463605394,
              289.3570500959072
            ],
            [
              385.36682128114825,
              287.2796716452242
            ],
            [
              385.7659267998242,
              286.5980923897478
            ],
            [
              386.668228408391,
              285.31471977315454
            ],
            [
              387.1779514492807,
              284.4165826822479
            ],
            [
              387.5055752604724,
              283.937174747907
            ],
            [
              387.7831741838,
              283.4319682395846
            ],
            [
              388.0125633735266,
              283.09025900934216
            ],
            [
              388.1809123601103,
              282.7795377608953
            ],
            [
              388.33388946604873,
              282.54885053185734
            ],
            [
              389.9975837127225,
              279.44836246189465
            ],
            [
              390.97823997481373,
              277.7204363299252
            ],
            [
              391.30485762161663,
              277.1708143937449
            ],
            [
              391.3893752517243,
              276.9960118641732
            ],
            [
              391.41628133313907,
              276.9486030798865
            ],
            [
              391.97533684155763,
              275.99386650182043
            ],
            [
              392.05428841238773,
              275.82442823165457
            ],
            [
              392.6182337477777,
              274.83075091606804
            ],
            [
              393.181573028248,
              273.60733996648
            ],
            [
              393.49518485839457,
              273.0365930205842
            ],
            [
              393.6554820640194,
              272.67513994064115
            ],
            [
              393.8664985553982,
              272.2856673992638
            ],
            [
              393.98053879945445,
              272.025661593485
            ],
            [
              394.09597837955124,
              271.8105264857977
            ],
            [
              395.6007441041249,
              268.3535959337549
            ],
            [
              396.25495936953655,
              266.9328284729279
            ],
            [
              396.6361195772644,
              266.14449864880794
            ],
            [
              396.7411078463258,
              265.87705375553315
            ],
            [
              397.8617425967323,
              263.4433572751561
            ],
            [
              398.44504472505224,
              261.87518763592664
            ],
            [
              398.7358437886018,
              261.2194668031883
            ],
            [
              398.80287486641,
              261.0309869918191
            ],
            [
              398.9908584950661,
              260.6023941275319
            ],
            [
              399.05957752393516,
              260.4075437821017
            ],
            [
              399.1417022008615,
              260.21887700155423
            ],
            [
              400.4678044291014,
              256.43713040742466
            ],
            [
              400.84626887710795,
              255.41965348068422
            ],
            [
              401.25551875840887,
              254.37713899975228
            ],
            [
              401.3743475693153,
              253.99994843931623
            ],
            [
              402.3651450727489,
              251.33625412368002
            ],
            [
              402.9212567485813,
              249.4578906337627
            ],
            [
              403.3546346075478,
              248.22906323464926
            ],
            [
              403.387827774096,
              248.10987772321872
            ],
            [
              403.4415303375373,
              247.95673003815912
            ],
            [
              404.5709984358922,
              243.88560239038057
            ],
            [
              404.7311194561784,
              243.34476591534343
            ],
            [
              405.14156246527733,
              242.04192338537345
            ],
            [
              405.26555981636056,
              241.53960104697003
            ],
            [
              406.1094537869681,
              238.68920301966853
            ],
            [
              406.1132200181297,
              238.67479717852908
            ],
            [
              406.83874094612077,
              235.71880768923035
            ],
            [
              406.94168236771515,
              235.34917962244108
            ],
            [
              406.94951029644295,
              235.3123408611949
            ],
            [
              406.9801574376176,
              235.2018743292612
            ],
            [
              407.0728649089119,
              234.76491656559546
            ],
            [
              407.65202255434355,
              232.4052549121444
            ],
            [
              407.65744122634806,
              232.38167180470728
            ],
            [
              408.23651739576604,
              229.5040345970369
            ],
            [
              408.28550279183753,
              229.30559117476133
            ],
            [
              408.39026712074553,
              228.7399970616807
            ],
            [
              408.4001776966044,
              228.6907478552016
            ],
            [
              408.55502166200097,
              228.04167738830674
            ],
            [
              408.58705399603997,
              227.86380544740436
            ],
            [
              409.0657547267483,
              225.77785914468794
            ],
            [
              409.3809856306063,
              223.90674320270767
            ],
            [
              409.4987318383523,
              223.36502411931957
            ],
            [
              409.5204330265026,
              223.2288032826268
            ],
            [
              409.7549276588535,
              222.1235606445807
            ],
            [
              409.85875522488766,
              221.44255290727105
            ],
            [
              410.0796534110419,
              220.3448305813533
            ],
            [
              410.40776515585196,
              218.11320334049617
            ],
            [
              410.56030018881654,
              217.2187139731987
            ],
            [
              410.5682307978657,
              217.16898594092487
            ],
            [
              410.6510894361654,
              216.534432384784
            ],
            [
              410.68977334317185,
              216.32558849389315
            ],
            [
              410.75115303375964,
              215.84680738292948
            ],
            [
              410.7983620573239,
              215.58466099553138
            ],
            [
              410.84337976822485,
              215.22641094189663
            ],
            [
              411.060707808871,
              213.93641698345704
            ],
            [
              411.0695792091178,
              213.885645503991
            ],
            [
              411.0703479227866,
              213.87919616337197
            ],
            [
              411.2911623797884,
              212.56850788485391
            ],
            [
              411.38825648072356,
              211.69925045861243
            ],
            [
              411.4612813385658,
              211.04587674884885
            ],
            [
              411.5317765000177,
              210.60337056861232
            ],
            [
              411.5438243563895,
              210.4886008550956
            ],
            [
              411.67750750444054,
              209.62081040454643
            ],
            [
              411.7097679137278,
              209.30171198101738
            ],
            [
              411.77407348787375,
              208.8799300283201
            ],
            [
              411.7908341142498,
              208.706364321858
            ],
            [
              411.86731079022735,
              208.18621398858767
            ],
            [
              412.13622804720006,
              205.38221067991327
            ],
            [
              412.1820153999044,
              205.04682224372345
            ],
            [
              412.2364880607824,
              204.39302678343452
            ],
            [
              412.3307794398057,
              203.6709182489361
            ],
            [
              412.35698257469835,
              203.3208261632777
            ],
            [
              412.3663116729475,
              203.24805622943566
            ],
            [
              412.381530629333,
              203.0431356961926
            ],
            [
              412.39261921470796,
              202.9638909261122
            ],
            [
              412.3939170573402,
              202.95084512745788
            ],
            [
              412.396003059307,
              202.92195250871512
            ],
            [
              412.43586915425374,
              202.60715906278813
            ],
            [
              412.43607293050167,
              202.60728364461346
            ],
            [
              412.43687677908,
              202.59920258512722
            ],
            [
              412.4402569547433,
              202.5725118057502
            ],
            [
              412.47442044158913,
              202.09933298152842
            ],
            [
              412.6036222135256,
              201.01535820391032
            ],
            [
              412.63481443929095,
              200.5459497621678
            ],
            [
              412.77484517867236,
              199.29305579733932
            ],
            [
              412.8430798905549,
              198.1116948884133
            ],
            [
              412.8752216752065,
              197.80550735586232
            ],
            [
              412.8787643872261,
              197.7387795826392
            ],
            [
              412.94447898181784,
              197.08877470061958
            ],
            [
              412.95874581264604,
              196.8058085489838
            ],
            [
              413.034387926367,
              196.0170873656686
            ],
            [
              413.051516708966,
              195.6512874815886
            ],
            [
              413.0548939782218,
              195.61631396025234
            ],
            [
              413.0751212523589,
              195.14719215625297
            ],
            [
              413.16275234049897,
              193.2757549014181
            ],
            [
              413.2458510974553,
              192.27838137175198
            ],
            [
              413.2468217616639,
              192.26147858399673
            ],
            [
              413.21101344553335,
              192.24509749623078
            ],
            [
              413.23717948164085,
              191.68629929099976
            ],
            [
              413.31526131914393,
              190.64534111909026
            ],
            [
              413.3206452146335,
              190.44562383173087
            ],
            [
              413.33846065156075,
              190.20759721785157
            ],
            [
              413.34072239078915,
              190.10068250209062
            ],
            [
              413.4092296258208,
              189.15182815721838
            ],
            [
              413.415976155389,
              188.7903313367847
            ],
            [
              413.4552819009208,
              188.1988234110268
            ],
            [
              413.4696904875099,
              187.26306310138077
            ],
            [
              413.53700733426973,
              186.0975933707842
            ],
            [
              413.5372816621368,
              186.04649094581524
            ],
            [
              413.5374500748661,
              186.04357536028076
            ],
            [
              413.5375603014208,
              186.02304135555374
            ],
            [
              413.5387748890569,
              186.00201475261073
            ],
            [
              413.5387795653597,
              186.00114337787352
            ],
            [
              413.5492929986182,
              185.81913793693676
            ],
            [
              413.552862830128,
              185.15242244248813
            ],
            [
              413.5616183926274,
              184.98926106438913
            ],
            [
              413.5620584176953,
              184.83979815199228
            ],
            [
              413.57192914921603,
              184.64402356510135
            ],
            [
              413.57204318020393,
              184.5349970072569
            ],
            [
              413.59995332445817,
              183.9389518724228
            ],
            [
              413.59923545703606,
              183.275282743821
            ],
            [
              413.6149912569182,
              182.92400319609104
            ],
            [
              413.61328169203387,
              182.66588624362277
            ],
            [
              413.62197316645893,
              182.46430890136898
            ],
            [
              413.6003835657039,
              180.06864218584434
            ],
            [
              413.6358156326732,
              178.7542785770426
            ],
            [
              413.6188759735443,
              177.91842476358644
            ],
            [
              413.65624789544773,
              175.9159387724945
            ],
            [
              413.6481020102811,
              175.6761929554326
            ],
            [
              413.6500598487613,
              175.54904186166775
            ],
            [
              413.61036896148306,
              174.4123556785151
            ],
            [
              413.6188364023204,
              172.83094378814232
            ],
            [
              413.61597612123404,
              172.76938261622783
            ],
            [
              413.61601186458995,
              172.76271223332446
            ],
            [
              413.587193483814,
              172.14246674324707
            ],
            [
              413.58708629924956,
              172.0433745062701
            ],
            [
              413.5639655475044,
              171.56756775869445
            ],
            [
              413.5629215202792,
              170.95944908821724
            ],
            [
              413.5319315700993,
              170.38331908049682
            ],
            [
              413.53045789844856,
              170.1608182338943
            ],
            [
              413.5075138315124,
              169.76345249738432
            ],
            [
              413.50551364157553,
              169.54150358308564
            ],
            [
              413.42091632976513,
              168.1504995720589
            ],
            [
              413.3991390767198,
              167.07594430149055
            ],
            [
              413.3119151550769,
              165.78170136501817
            ],
            [
              413.21630545162543,
              162.9677620567529
            ],
            [
              413.09703001612314,
              161.59289136527275
            ],
            [
              413.02682209387797,
              160.08183675456044
            ],
            [
              413.02654026950614,
              160.0779524314301
            ],
            [
              412.9189275021286,
              158.98704266198317
            ],
            [
              412.8802430365629,
              158.26786495060114
            ],
            [
              412.6763153523897,
              156.35056665385193
            ],
            [
              412.63152992042785,
              155.68603302737225
            ],
            [
              412.44109106088837,
              154.03197791184311
            ],
            [
              412.23444254975374,
              151.6499704164692
            ],
            [
              412.19094239453165,
              151.14045707517414
            ],
            [
              412.1890241932774,
              151.12643959123528
            ],
            [
              412.12678111654407,
              150.40897264935168
            ],
            [
              411.9955126872934,
              149.47574492206232
            ],
            [
              411.937309388599,
              148.87235955669348
            ],
            [
              411.8871143687468,
              148.52717758423344
            ],
            [
              411.81502930732984,
              147.79642509408896
            ],
            [
              411.78298061700264,
              147.58578011788396
            ],
            [
              411.77000068784736,
              147.45505486340838
            ],
            [
              411.6416171509499,
              146.62248531349016
            ],
            [
              411.57456344685784,
              145.9920561828414
            ],
            [
              411.36501979221623,
              144.68576994326958
            ],
            [
              411.3610620632287,
              144.65139512137685
            ],
            [
              411.3568920143705,
              144.6215121168452
            ],
            [
              411.2966594773266,
              144.2596146448412
            ],
            [
              411.07355570098207,
              142.86879518272542
            ],
            [
              411.031346860201,
              142.519576832578
            ],
            [
              410.96317906873867,
              142.13656700879713
            ],
            [
              410.80250477562447,
              140.99428393090434
            ],
            [
              410.60457286514315,
              139.54787293829742
            ],
            [
              410.5833871406657,
              139.4365091205031
            ],
            [
              410.4274378830549,
              138.32781777648748
            ],
            [
              410.19360101747884,
              137.13933676890048
            ],
            [
              410.0196294614951,
              135.99588179785977
            ],
            [
              409.955248497089,
              135.68635420907802
            ],
            [
              409.9077643935502,
              135.37841894209006
            ],
            [
              409.7600116493105,
              134.68021737666393
            ],
            [
              409.6851030155317,
              134.21324013652588
            ],
            [
              408.96486771603577,
              130.894272764414
            ],
            [
              408.93779215636704,
              130.75666063744745
            ],
            [
              408.8737332914102,
              130.3967373650181
            ],
            [
              408.8707361833395,
              130.38231106514002
            ],
            [
              408.83133322495075,
              130.21558077919758
            ],
            [
              408.7671509147296,
              129.88937277718574
            ],
            [
              408.49447574020996,
              128.45604211713382
            ],
            [
              408.4482851058186,
              128.26873029670614
            ],
            [
              408.15935055113334,
              126.80021407353844
            ],
            [
              407.8810097264087,
              125.71393252807331
            ],
            [
              407.6798262771838,
              124.74669277765115
            ],
            [
              407.5746509178438,
              124.35335480919174
            ],
            [
              407.47545207614144,
              123.88459338672637
            ],
            [
              407.32043778597483,
              123.31645855924899
            ],
            [
              407.2520220295856,
              123.00118705929222
            ],
            [
              406.4300645822696,
              120.03796666553325
            ],
            [
              406.35612737785493,
              119.74195657627698
            ],
            [
              406.32345039547505,
              119.60368668898758
            ],
            [
              406.311729509812,
              119.56420821557717
            ]
          ]
        ]
      }
    }
  ]
}