{
  "type": "FeatureCollection",
  "features": [
    {
      "type": "Feature",
      "properties": {
        "method": "Homography",
        "mode": "tmpl2img",
        "inside_ratio": 1.0
      },
      "geometry": {
        "type": "Polygon",
        "coordinates": [
          [
            [
              265.8317232805456,
              286.4635398809695
            ],
            [
              265.83250664448565,
              286.48277784156187
            ],
            [
              265.8779803890781,
              286.69832622378493
            ],
            [
              265.9049175886091,
              286.8350508648333
            ],
            [
              265.9684419942496,
              287.77745737520826
            ],
            [
              266.2069508129321,
              288.7868970846355
            ],
            [
              266.2176993664647,
              288.9089372834521
            ],
            [
              266.3227024284159,
              289.31324925558914
            ],
            [
              266.3680706368892,
              289.7444687475606
            ],
            [
              266.76335874572453,
              291.1922246294188
            ],
            [
              266.8776221455377,
              291.7721892359294
            ],
            [
              266.8844720551147,
              291.81837180907763
            ],
            [
              266.89046510586576,
              291.83737601008204
            ],
            [
              267.3924860239579,
              294.3854742175495
            ],
            [
              267.64531004256713,
              295.0755788783074
            ],
            [
              267.687138858912,
              295.2738500736318
            ],
            [
              267.8232504435799,
              295.62755412359206
            ],
            [
              268.0220517322308,
              296.46893984733094
            ],
            [
              268.45749663794646,
              297.5332272344072
            ],
            [
              268.50473400436266,
              297.7151136709994
            ],
            [
              268.61070758514427,
              297.95820136474316
            ],
            [
              268.7138430222797,
              298.3359383428802
            ],
            [
              269.42259427203805,
              299.9268273358912
            ],
            [
              269.55843969270586,
              300.2976289648901
            ],
            [
              269.559396215891,
              300.3006621377378
            ],
            [
              269.5600177733886,
              300.3019364703008
            ],
            [
              270.5067324822439,
              302.88607478368607
            ],
            [
              270.88484316817267,
              303.58350988276334
            ],
            [
              271.0306938765304,
              303.962522340534
            ],
            [
              271.2376171949109,
              304.3282251882344
            ],
            [
              271.532504615941,
              305.04897070319515
            ],
            [
              272.1827789579175,
              306.15200387034025
            ],
            [
              272.28875672909663,
              306.3951011762259
            ],
            [
              272.34369279038833,
              306.4836319722163
            ],
            [
              272.48558761467723,
              306.80213428763085
            ],
            [
              273.5607260334959,
              308.5192461655347
            ],
            [
              275.02586855972885,
              311.22174006753863
            ],
            [
              275.52923098917927,
              311.9129449678477
            ],
            [
              275.84390169199014,
              312.46907355212727
            ],
            [
              276.1271692591845,
              312.8427081557469
            ],
            [
              276.4794322939495,
              313.4402372074741
            ],
            [
              276.5089302561733,
              313.47797848469565
            ],
            [
              276.51623415279107,
              313.4903677293167
            ],
            [
              277.3059544618385,
              314.5007794333099
            ],
            [
              277.6610815378464,
              315.06795563098734
            ],
            [
              279.1554318409629,
              316.89235473638524
            ],
            [
              280.26140810103425,
              318.41105411854824
            ],
            [
              280.52814792295175,
              318.78411827555726
            ],
            [
              280.55245207103184,
              318.81070853554604
            ],
            [
              280.9262174780059,
              319.323953993986
            ],
            [
              281.5657937120645,
              320.01634371119445
            ],
            [
              282.094740713747,
              320.7140335500748
            ],
            [
              282.44625852728376,
              321.0775678612445
            ],
            [
              282.867217820053,
              321.6161663896669
            ],
            [
              283.7772070589386,
              322.5349156241936
            ],
            [
              284.2062453076962,
              323.0587131538875
            ],
            [
              285.85703137666906,
              324.6619335171644
            ],
            [
              287.7573290576704,
              326.719149692351
            ],
            [
              288.73982230681025,
              327.5862746329878
            ],
            [
              289.73820751237565,
              328.61878924251675
            ],
            [
              290.11106134064704,
              328.92974264453113
            ],
            [
              290.57694129684415,
              329.40010738606117
            ],
            [
              291.581603615105,
              330.2215580841755
            ],
            [
              292.0749537013883,
              330.70069279421693
            ],
            [
              293.9326373939477,
              332.16932848915127
            ],
            [
              295.7477454115281,
              333.7712992236343
            ],
            [
              297.1135268595336,
              334.7696732301142
            ],
            [
              298.7161605122694,
              336.10624093772674
            ],
            [
              299.0965558119554,
              336.36607312779387
            ],
            [
              299.5876535057367,
              336.76761356188337
            ],
            [
              300.6605559503594,
              337.488243320508
            ],
            [
              301.208917886034,
              337.9217637931698
            ],
            [
              303.2042063548333,
              339.22190539275744
            ],
            [
              304.84352701001666,
              340.4202341098504
            ],
            [
              305.4528373374056,
              340.7921361402784
            ],
            [
              305.64798768231475,
              340.9334439528256
            ],
            [
              306.7514315808922,
              341.59480002674104
            ],
            [
              308.9572585739324,
              343.10150859798443
            ],
            [
              309.3320943184473,
              343.3126019398202
            ],
            [
              309.82893208676546,
              343.6463098951419
            ],
            [
              310.9789264399124,
              344.2879583299102
            ],
            [
              311.5376574658984,
              344.6520307240814
            ],
            [
              313.5972065106599,
              345.7631784743249
            ],
            [
              314.9810093578644,
              346.6078040541836
            ],
            [
              315.88854589194017,
              347.0711872317456
            ],
            [
              316.4029669767136,
              347.37950875983427
            ],
            [
              317.4683829317701,
              347.9088018490137
            ],
            [
              320.1871262346764,
              349.4257461540972
            ],
            [
              320.37701677194684,
              349.5326853366127
            ],
            [
              320.38752135239145,
              349.53755819323305
            ],
            [
              320.56716320662764,
              349.6377907850545
            ],
            [
              321.0942235213497,
              349.88307120025917
            ],
            [
              321.2514018822224,
              349.97029948999557
            ],
            [
              322.2019993649211,
              350.4055521268515
            ],
            [
              322.97858208666264,
              350.8245264388954
            ],
            [
              324.20536816106437,
              351.37116782773734
            ],
            [
              324.2085966398634,
              351.37287987161716
            ],
            [
              324.2361011114486,
              351.38486206753055
            ],
            [
              325.0276997356403,
              351.7375890672625
            ],
            [
              326.0869016343197,
              352.2784117482969
            ],
            [
              327.3190459423469,
              352.80255985081806
            ],
            [
              328.21515835111654,
              353.24774382128703
            ],
            [
              329.1239578419392,
              353.61990456282007
            ],
            [
              332.2396092906535,
              355.0698492079057
            ],
            [
              332.6767991702372,
              355.2382988482678
            ],
            [
              332.87800225773475,
              355.33163278033607
            ],
            [
              333.3563877086138,
              355.5128420445329
            ],
            [
              333.69253416146887,
              355.6667543287798
            ],
            [
              334.65028926087825,
              356.0253013360066
            ],
            [
              335.437202535902,
              356.3759405994712
            ],
            [
              336.9992541348422,
              356.94507068816034
            ],
            [
              337.08216169843934,
              356.9811889850179
            ],
            [
              337.43752765438165,
              357.1069119913293
            ],
            [
              338.07848306128614,
              357.37957125545
            ],
            [
              339.652410228193,
              357.931390965212
            ],
            [
              340.98708241363136,
              358.4779500194777
            ],
            [
              341.7078360831345,
              358.71796521543564
            ],
            [
              344.7660369701923,
              359.8962926736651
            ],
            [
              345.71885177620504,
              360.1956621704765
            ],
            [
              346.3501927488221,
              360.43480998088074
            ],
            [
              346.76779524035595,
              360.5616337519473
            ],
            [
              347.0782851017893,
              360.67786932265597
            ],
            [
              348.02546420929855,
              360.96244624844746
            ],
            [
              348.8074907600882,
              361.2473759143379
            ],
            [
              350.6233897161482,
              361.7778222639985
            ],
            [
              350.87367089008296,
              361.86557097795765
            ],
            [
              352.4931043538815,
              362.32409738446563
            ],
            [
              353.2678963650482,
              362.5675330374989
            ],
            [
              354.61024129993206,
              363.01454176768453
            ],
            [
              355.11534107842533,
              363.14799063614976
            ],
            [
              358.047459437819,
              364.0692470989138
            ],
            [
              359.56343389091836,
              364.4476046925136
            ],
            [
              360.6715187571334,
              364.78412447924995
            ],
            [
              361.0143708140517,
              364.8649215897096
            ],
            [
              361.2896337599456,
              364.9476234591945
            ],
            [
              362.2095087886318,
              365.1622697015403
            ],
            [
              362.9724067699384,
              365.3851215557133
            ],
            [
              365.2411567875713,
              365.89850632638314
            ],
            [
              365.5259400547691,
              365.9785131087779
            ],
            [
              366.7437281037967,
              366.23966578837997
            ],
            [
              368.0718572476667,
              366.5711408642414
            ],
            [
              368.96570099528856,
              366.8072970491874
            ],
            [
              369.2340128946843,
              366.8611921992753
            ],
            [
              371.9761776324804,
              367.5455829218998
            ],
            [
              373.04728900734597,
              367.7438441148496
            ],
            [
              373.0536400740482,
              367.74541115654006
            ],
            [
              373.7872262793066,
              367.8808054520978
            ],
            [
              373.90214369329476,
              367.902076502085
            ],
            [
              375.7086080372754,
              368.3277910229586
            ],
            [
              375.9652803553541,
              368.3720803665511
            ],
            [
              376.196750124693,
              368.4260921775707
            ],
            [
              377.07390657373975,
              368.57608362141576
            ],
            [
              377.8046079321627,
              368.74143059504297
            ],
            [
              380.4256598840037,
              369.173733953426
            ],
            [
              380.83025930700586,
              369.2604996459983
            ],
            [
              382.2723709674616,
              369.4801750581035
            ],
            [
              383.92485384382843,
              369.8121052216571
            ],
            [
              383.94468301974507,
              369.81549065165456
            ],
            [
              385.15419878984727,
              369.984815906125
            ],
            [
              388.75593103588216,
              370.65149142515247
            ],
            [
              390.1295724656869,
              370.81615850026833
            ],
            [
              391.3177468200045,
              371.0211804622283
            ],
            [
              391.479646489534,
              371.03942722680887
            ],
            [
              391.65991812157534,
              371.0702532013462
            ],
            [
              392.48055280681086,
              371.16200842920443
            ],
            [
              393.16735258934506,
              371.27528579188373
            ],
            [
              396.12647131399723,
              371.5905561655114
            ],
            [
              396.6613250192838,
              371.67202989001964
            ],
            [
              396.69122696620485,
              371.6756908902239
            ],
            [
              396.9781450352791,
              371.7026434442503
            ],
            [
              396.98519924505655,
              371.7035071031995
            ],
            [
              398.34048576741753,
              371.8308202769102
            ],
            [
              400.06954884871897,
              372.0728791681576
            ],
            [
              400.99389454590533,
              372.1471362047897
            ],
            [
              403.6802062003355,
              372.484977289048
            ],
            [
              404.5536801466474,
              372.5452674010917
            ],
            [
              406.04064288820035,
              372.72351901765796
            ],
            [
              406.81378788744234,
              372.7676485920107
            ],
            [
              407.34606718265314,
              372.82763867729864
            ],
            [
              407.40767908225934,
              372.8310115768129
            ],
            [
              407.53067157519405,
              372.84476337700755
            ],
            [
              408.28287204029095,
              372.8857231918061
            ],
            [
              408.91560530843316,
              372.9531358482137
            ],
            [
              411.8384607728038,
              373.09879572593655
            ],
            [
              412.6709797676293,
              373.1770010601397
            ],
            [
              414.83454501629865,
              373.25902074335465
            ],
            [
              416.5379990535435,
              373.39586721673857
            ],
            [
              417.03476816136236,
              373.40675410945244
            ],
            [
              419.48897472268396,
              373.5761517076175
            ],
            [
              421.19321360402233,
              373.5986394175238
            ],
            [
              422.0347750731604,
              373.6505697106659
            ],
            [
              422.30179595361903,
              373.6516731983715
            ],
            [
              423.64316851550393,
              373.7282360685617
            ],
            [
              423.66833935293545,
              373.7288933668217
            ],
            [
              424.44699400553014,
              373.727139286318
            ],
            [
              424.89734538932765,
              373.74958245131114
            ],
            [
              427.36335845983353,
              373.7339818338412
            ],
            [
              428.55334083218685,
              373.77909347412816
            ],
            [
              431.23818225919996,
              373.731269932722
            ],
            [
              432.2571464938094,
              373.7575698663932
            ],
            [
              432.54998221595844,
              373.748493830964
            ],
            [
              432.74695285522887,
              373.7510928906686
            ],
            [
              433.1772771214196,
              373.76052361823344
            ],
            [
              433.25278091433887,
              373.7577673743692
            ],
            [
              435.4265897088901,
              373.78645113584133
            ],
            [
              437.14254827532386,
              373.71300393658237
            ],
            [
              438.49064290397416,
              373.71857505836937
            ],
            [
              438.76710603371316,
              373.7036987169213
            ],
            [
              438.9666945056868,
              373.7035631368271
            ],
            [
              439.14101965878643,
              373.6940379568523
            ],
            [
              439.88094851775963,
              373.6923711141809
            ],
            [
              439.9880965460422,
              373.6860017574259
            ],
            [
              440.1796057826958,
              373.6855701162242
            ],
            [
              440.7946172073225,
              373.649012320795
            ],
            [
              440.9550736953678,
              373.6479972327924
            ],
            [
              442.6233048702421,
              373.54282694618877
            ],
            [
              443.8604237871988,
              373.53132210858956
            ],
            [
              444.2538618606963,
              373.4994290924664
            ],
            [
              444.4776626853679,
              373.4954426566579
            ],
            [
              447.1704776327719,
              373.29535193494
            ],
            [
              448.4547334970067,
              373.255548212788
            ],
            [
              449.03508711525967,
              373.2039743557082
            ],
            [
              451.3362165342611,
              373.1054804210249
            ],
            [
              453.0249078070521,
              372.93649360041377
            ],
            [
              454.8864855160771,
              372.8363230435663
            ],
            [
              455.34967445863145,
              372.783823831425
            ],
            [
              456.3182479123,
              372.72624943725765
            ],
            [
              456.34942182189957,
              372.7225617170324
            ],
            [
              456.3996248050347,
              372.71957751120414
            ],
            [
              456.9927986205746,
              372.64940826318923
            ],
            [
              457.25392737283295,
              372.6333140167682
            ],
            [
              459.03870528044655,
              372.41540803989625
            ],
            [
              459.4167182396983,
              372.38989648610027
            ],
            [
              459.49445174934965,
              372.37961397168095
            ],
            [
              460.28602356153465,
              372.32079590275674
            ],
            [
              462.6281224319301,
              372.0099682902761
            ],
            [
              463.90025743256297,
              371.9068460334032
            ],
            [
              463.9206379068258,
              371.9044411097208
            ],
            [
              464.3159982890123,
              371.84601688956644
            ],
            [
              464.49186597022236,
              371.8303881860104
            ],
            [
              465.3369569486762,
              371.7044305980065
            ],
            [
              467.0584961387877,
              371.5321566963226
            ],
            [
              468.02429166463315,
              371.3778091271515
            ],
            [
              468.3122722951423,
              371.3472959164575
            ],
            [
              468.836026664017,
              371.2625113343122
            ],
            [
              469.2747343441834,
              371.21425638887456
            ],
            [
              469.30802900297624,
              371.2086683812454
            ],
            [
              469.60655398910825,
              371.1758325072354
            ],
            [
              469.75201022765555,
              371.1514202672327
            ],
            [
              471.0468197279774,
              371.00466270810614
            ],
            [
              471.3556296773547,
              370.95036318007493
            ],
            [
              472.294963572152,
              370.83924507049403
            ],
            [
              473.02392872312095,
              370.7079329737141
            ],
            [
              473.52833448193246,
              370.64634938444726
            ],
            [
              474.50479099997955,
              370.4649359388377
            ],
            [
              474.54606187232946,
              370.4597456720974
            ],
            [
              474.99805609938454,
              370.37329343389706
            ],
            [
              475.0918785649122,
              370.355862389692
            ],
            [
              475.81901404441265,
              370.2593618585137
            ],
            [
              476.44974854130976,
              370.1367835057405
            ],
            [
              476.69243624011517,
              370.10468100871725
            ],
            [
              478.4474305360645,
              369.7577502194337
            ],
            [
              479.28182967751883,
              369.63444722464027
            ],
            [
              479.4201215642527,
              369.6053886112122
            ],
            [
              480.2003105797664,
              369.48910441331003
            ],
            [
              481.2761054031625,
              369.25998482275577
            ],
            [
              482.4334300377256,
              369.07502823585475
            ],
            [
              482.9760766753063,
              368.95376997905595
            ],
            [
              483.38378903864714,
              368.863568888698
            ],
            [
              484.3194233118475,
              368.7065393336377
            ],
            [
              484.6316571766455,
              368.63489528419166
            ],
            [
              484.7190184951367,
              368.62039094484675
            ],
            [
              485.0552875520497,
              368.54148691736077
            ],
            [
              486.7959063771666,
              368.2354255975426
            ],
            [
              486.92819662223866,
              368.20328845204824
            ],
            [
              487.77854015783146,
              368.05011186674847
            ],
            [
              487.8131858645798,
              368.04156957072945
            ],
            [
              487.8246124531935,
              368.0395112386912
            ],
            [
              488.63469879429766,
              367.83977525664955
            ],
            [
              489.3566592688524,
              367.7056440026116
            ],
            [
              490.60178083551654,
              367.38879308698836
            ],
            [
              490.70195468587264,
              367.36963298925247
            ],
            [
              490.74109344787786,
              367.35937157347905
            ],
            [
              490.91767736907036,
              367.32505385930506
            ],
            [
              491.43185089007136,
              367.1909639841705
            ],
            [
              491.9038406502038,
              367.0976601025519
            ],
            [
              493.84648052459926,
              366.5827836143519
            ],
            [
              495.4128848738903,
              366.2491754621423
            ],
            [
              496.1787663468451,
              366.03284554576715
            ],
            [
              496.53332266232394,
              365.9544045439188
            ],
            [
              497.01860748138847,
              365.8158664361674
            ],
            [
              497.3023775420987,
              365.75245599462653
            ],
            [
              497.69616972548584,
              365.63715964935506
            ],
            [
              498.54954002741204,
              365.4413483969935
            ],
            [
              498.5905817653304,
              365.4305888042716
            ],
            [
              499.4600622628609,
              365.1706590233053
            ],
            [
              499.9887333404463,
              365.04030916860074
            ],
            [
              500.65270810924545,
              364.88255878812765
            ],
            [
              500.7486030356,
              364.8529546705791
            ],
            [
              502.7307909541465,
              364.36422374100965
            ],
            [
              503.68157242882575,
              364.06032777624154
            ],
            [
              504.56053837444455,
              363.83665390205476
            ],
            [
              505.99071588937545,
              363.36408037508426
            ],
            [
              506.4903634765083,
              363.2316539802548
            ],
            [
              508.4430231073045,
              362.568699025433
            ],
            [
              509.9656980329773,
              362.13860618341863
            ],
            [
              511.36346799299497,
              361.6355831673688
            ],
            [
              511.51012776929224,
              361.59264342169615
            ],
            [
              511.85175753124304,
              361.46618187167076
            ],
            [
              513.1216734349227,
              361.0865425771484
            ],
            [
              513.8496960483262,
              360.8103152134208
            ],
            [
              514.0194781322807,
              360.7560481798291
            ],
            [
              514.7592700531206,
              360.52766397003154
            ],
            [
              514.8763261495722,
              360.48217593705647
            ],
            [
              516.8979369143381,
              359.83601341694595
            ],
            [
              517.957960195555,
              359.40974408401644
            ],
            [
              518.9667472190849,
              359.07641060850176
            ],
            [
              520.0103315458358,
              358.64143780574307
            ],
            [
              520.311999136403,
              358.53901748593273
            ],
            [
              522.2392665822057,
              357.7216508575833
            ],
            [
              523.7004350765762,
              357.19581226897844
            ],
            [
              525.4804262442881,
              356.39736720693656
            ],
            [
              526.7819934762314,
              355.9035247374881
            ],
            [
              527.3535063795013,
              355.63354008469014
            ],
            [
              528.0158707047759,
              355.3761451159633
            ],
            [
              528.1556287998452,
              355.30893472409764
            ],
            [
              530.1713401549423,
              354.49835258886026
            ],
            [
              531.3041059320627,
              353.9341184522123
            ],
            [
              532.4097876416831,
              353.47326305235936
            ],
            [
              533.100409680135,
              353.11536960003104
            ],
            [
              533.2204299200794,
              353.06446823754055
            ],
            [
              534.2409507183743,
              352.5305954886947
            ],
            [
              534.407770205979,
              352.45864644207404
            ],
            [
              535.1409949698086,
              352.0639561567534
            ],
            [
              536.4666321875469,
              351.4693192227175
            ],
            [
              538.2039132753677,
              350.5077707069446
            ],
            [
              539.4186240125686,
              349.9339371945922
            ],
            [
              539.8223134417116,
              349.6983656458547
            ],
            [
              540.2805817287435,
              349.4779820527749
            ],
            [
              540.4426210517977,
              349.38219581041733
            ],
            [
              542.4052485551232,
              348.4046049816192
            ],
            [
              543.5699128321096,
              347.68987429473486
            ],
            [
              544.7344254474834,
              347.0864017482492
            ],
            [
              546.5356458746381,
              345.9302871390716
            ],
            [
              546.8045012831797,
              345.7855639612023
            ],
            [
              547.1299446565806,
              345.5674002127185
            ],
            [
              548.1238876911007,
              345.0172736636347
            ],
            [
              549.775687586657,
              343.89010911717116
            ],
            [
              550.8896613496495,
              343.24005363975317
            ],
            [
              551.145126454856,
              343.0556279310818
            ],
            [
              551.4217326991504,
              342.89211778887807
            ],
            [
              551.6031111929626,
              342.76006448106233
            ],
            [
              553.4650263009459,
              341.617445195543
            ],
            [
              554.6172197773216,
              340.7431231955983
            ],
            [
              555.7981108989566,
              339.98516739134647
            ],
            [
              557.543027917398,
              338.5897875317874
            ],
            [
              557.7830470393393,
              338.4260019270913
            ],
            [
              557.8534162787406,
              338.37882930566997
            ],
            [
              557.8659542067193,
              338.3694272657378
            ],
            [
              558.5439523582186,
              337.9067710560006
            ],
            [
              560.0662096788701,
              336.61530765935254
            ],
            [
              561.0663757635086,
              335.89326642868895
            ],
            [
              561.1975002046271,
              335.77483277715874
            ],
            [
              561.3198278587603,
              335.68577165960295
            ],
            [
              561.5145794752208,
              335.5091816320162
            ],
            [
              563.2291639782494,
              334.20809897316946
            ],
            [
              563.2579231577126,
              334.18074730137283
            ],
            [
              563.2901198768596,
              334.15631537278654
            ],
            [
              564.2995467768422,
              333.1962910331945
            ],
            [
              565.1325412857159,
              332.53372576154266
            ],
            [
              565.1984612258858,
              332.4678703621601
            ],
            [
              565.4732160347982,
              332.2481537094077
            ],
            [
              566.7817902629779,
              330.92193811344686
            ],
            [
              566.8565382581032,
              330.85949837126327
            ],
            [
              566.8811751134822,
              330.8335792427695
            ],
            [
              567.612644271396,
              330.2130102821827
            ],
            [
              568.3046287177043,
              329.46872660777257
            ],
            [
              568.3180619731484,
              329.45710683847375
            ],
            [
              568.4156760932962,
              329.3492864249916
            ],
            [
              568.9591752498263,
              328.764710353376
            ],
            [
              568.9663695011053,
              328.757868197348
            ],
            [
              569.8351708697927,
              327.9731531766087
            ],
            [
              569.8503829605535,
              327.95554821119276
            ],
            [
              569.8541357409077,
              327.9521601092733
            ],
            [
              570.0419554065551,
              327.73492275314754
            ],
            [
              571.2309180687502,
              326.6041493463865
            ],
            [
              571.5496992934725,
              326.30191529599415
            ],
            [
              571.5532060116255,
              326.29763456107884
            ],
            [
              571.6520591824632,
              326.2036193826777
            ],
            [
              572.4644427243023,
              325.2090028325719
            ],
            [
              573.1173771810546,
              324.55670765013696
            ],
            [
              573.3171745614641,
              324.2984479090036
            ],
            [
              573.6490266514209,
              323.9621219996417
            ],
            [
              574.6372573294591,
              322.6574866775252
            ],
            [
              575.2315375345622,
              322.0182915958232
            ],
            [
              575.8701058279302,
              321.1154397773061
            ],
            [
              575.9219618456643,
              321.058161821388
            ],
            [
              576.2178855816899,
              320.6237248168159
            ],
            [
              576.2713445017138,
              320.54814091507257
            ],
            [
              576.4547084140203,
              320.32364500578245
            ],
            [
              576.5884747522997,
              320.16906798010757
            ],
            [
              576.6060115033234,
              320.1491238264076
            ],
            [
              576.6069123968712,
              320.1477619004677
            ],
            [
              576.9799464112394,
              319.71669314908013
            ],
            [
              576.9969543024432,
              319.6905810351957
            ],
            [
              577.1191845334339,
              319.54920621096466
            ],
            [
              577.2399824735851,
              319.36221910804784
            ],
            [
              578.5216801046764,
              317.79301243349045
            ],
            [
              579.1347817622709,
              316.7785608788948
            ],
            [
              579.622614599283,
              316.14798413193677
            ],
            [
              579.7846224763712,
              315.862074901854
            ],
            [
              580.0213233378689,
              315.54958884819024
            ],
            [
              580.786751971459,
              314.163946948812
            ],
            [
              581.3193804936496,
              313.4108800726784
            ],
            [
              581.8527138167916,
              312.3513978568941
            ],
            [
              581.927583299813,
              312.2414841528367
            ],
            [
              582.1146510214594,
              311.84800333607893
            ],
            [
              582.2369319512953,
              311.64567460669707
            ],
            [
              582.578338840048,
              311.1215146468435
            ],
            [
              582.6129573472203,
              311.0452146585763
            ],
            [
              582.8022644119229,
              310.7521800294407
            ],
            [
              582.8726740173048,
              310.593761731946
            ],
            [
              583.8266691633144,
              309.01526027642296
            ],
            [
              584.2419579708297,
              307.9958317151594
            ],
            [
              584.5814952492362,
              307.396621086668
            ],
            [
              584.6996062898568,
              307.0805760741024
            ],
            [
              584.8494244191822,
              306.8093629679607
            ],
            [
              585.3738297539082,
              305.35659825725884
            ],
            [
              585.8132075730349,
              304.483761392984
            ],
            [
              586.1905876922467,
              303.2746221233108
            ],
            [
              586.270758344188,
              303.1059900721917
            ],
            [
              586.3535395965018,
              302.8124350532789
            ],
            [
              586.3996061842038,
              302.69935327887623
            ],
            [
              586.608626332809,
              302.23866805009544
            ],
            [
              586.6425172754483,
              302.11179187257716
            ],
            [
              586.8441944208795,
              301.65802778965815
            ],
            [
              586.8780061945404,
              301.52500274157654
            ],
            [
              587.5134284835617,
              299.9652023854151
            ],
            [
              587.7361060172404,
              298.9554203783675
            ],
            [
              587.9454093880922,
              298.39536023400586
            ],
            [
              588.0106780615182,
              298.05171420097173
            ],
            [
              588.091577699994,
              297.8275972210395
            ],
            [
              588.3593856892867,
              296.32571651693894
            ],
            [
              588.6691188889984,
              295.3333203734921
            ],
            [
              588.8424495403808,
              293.9863786055719
            ],
            [
              588.9079604964319,
              293.75406670636096
            ],
            [
              588.9264486449514,
              293.56152861230856
            ],
            [
              589.0332607832278,
              293.1616602477168
            ],
            [
              589.0460203037615,
              293.0153156206874
            ],
            [
              589.0791481516667,
              292.8650898471554
            ],
            [
              589.2057983774532,
              292.36681216007105
            ],
            [
              589.2136913581223,
              292.2549730257347
            ],
            [
              589.5476846806085,
              290.74040421448433
            ],
            [
              589.5866020528508,
              289.75431823141673
            ],
            [
              589.6844142937126,
              289.2393270910609
            ],
            [
              589.6885222019977,
              288.87185195146736
            ],
            [
              589.7194358644646,
              288.69848657382653
            ],
            [
              589.720069247135,
              287.1664501625635
            ],
            [
              589.8627129308351,
              286.0579749218439
            ],
            [
              589.7893521483079,
              284.61704878693354
            ],
            [
              589.792160725683,
              284.5458852262314
            ],
            [
              589.8167252259562,
              284.29006717847113
            ],
            [
              589.811756329099,
              284.23274791891305
            ],
            [
              589.8333040573211,
              283.98560742182536
            ],
            [
              589.8200806896131,
              283.8384508978889
            ],
            [
              589.8358103379269,
              283.43989403683753
            ],
            [
              589.8682480348109,
              282.9802699626112
            ],
            [
              589.8577162608926,
              282.8848431087922
            ],
            [
              589.9147478009409,
              281.4397814556628
            ],
            [
              589.7822167038213,
              280.4903599625075
            ],
            [
              589.7874219904297,
              280.02471825419735
            ],
            [
              589.7231816077058,
              279.63822095937826
            ],
            [
              589.7232316425498,
              279.5171959062475
            ],
            [
              589.451161249987,
              277.9744246597094
            ],
            [
              589.3891691907666,
              276.7567989039073
            ],
            [
              589.0640655484239,
              275.3456946192938
            ],
            [
              589.0440325507133,
              275.2021829529229
            ],
            [
              589.0084266921485,
              274.80594241147867
            ],
            [
              588.9672257198313,
              274.6519569483429
            ],
            [
              588.8806286234797,
              274.0315957929541
            ],
            [
              588.8330363243385,
              273.6003689732408
            ],
            [
              588.8089213126722,
              273.51790154643567
            ],
            [
              588.6192789623874,
              272.1593485179724
            ],
            [
              588.5788524771409,
              272.033171474299
            ],
            [
              588.5776353182441,
              272.02453279655765
            ],
            [
              588.4518956607769,
              271.63692046065023
            ],
            [
              588.3300740899973,
              271.25669730842606
            ],
            [
              588.2620605449289,
              270.84749907404733
            ],
            [
              588.1238083277987,
              270.4476890116959
            ],
            [
              588.1116213761219,
              270.3785830775827
            ],
            [
              587.6825402059669,
              269.1715905955657
            ],
            [
              587.5599188587972,
              268.8169832737008
            ],
            [
              587.2629890429015,
              267.5281667830639
            ],
            [
              586.6963357062494,
              266.15755801702386
            ],
            [
              586.6847787217176,
              266.1214869578376
            ],
            [
              586.5765925007966,
              265.717149283481
            ],
            [
              586.5179389556429,
              265.5866656408432
            ],
            [
              586.4978052798332,
              265.5120522348468
            ],
            [
              586.4696727103951,
              265.45010926046166
            ],
            [
              586.241494187912,
              264.7379303209867
            ],
            [
              586.121593245265,
              264.327898497222
            ],
            [
              586.0870143126139,
              264.2557757669418
            ],
            [
              585.6854462119846,
              263.0024222922124
            ],
            [
              585.5894215825995,
              262.8128924139785
            ],
            [
              585.5650806409033,
              262.73785762013966
            ],
            [
              585.2366862708976,
              262.09845256855766
            ],
            [
              585.1342234091672,
              261.80214134848325
            ],
            [
              584.9181524189022,
              261.3954505353494
            ],
            [
              584.9112246314243,
              261.3759628765625
            ],
            [
              584.7147028750721,
              261.0125159252143
            ],
            [
              584.0588474501363,
              259.7780587880504
            ],
            [
              583.517413816485,
              258.4684508910705
            ],
            [
              582.7387533697245,
              257.1792982752419
            ],
            [
              582.5734485604642,
              256.81155283716265
            ],
            [
              582.4798429891023,
              256.66520531274745
            ],
            [
              582.4056796268862,
              256.50191062122457
            ],
            [
              582.3425417207977,
              256.40432047902226
            ],
            [
              581.9723667384999,
              255.67368272719364
            ],
            [
              581.7745680978948,
              255.26112580551828
            ],
            [
              581.729718969099,
              255.19475349321797
            ],
            [
              581.1553236189732,
              254.06103309794602
            ],
            [
              580.9820858072992,
              253.81447063296866
            ],
            [
              580.9108893645914,
              253.6758465599673
            ],
            [
              580.5416460119055,
              253.1579497622288
            ],
            [
              580.4473304030765,
              252.98042805234468
            ],
            [
              578.9997450155553,
              250.9889846147017
            ],
            [
              578.2035483553685,
              249.6707989903074
            ],
            [
              577.2506246067366,
              248.4895897615191
            ],
            [
              577.0514482119936,
              248.17818765298034
            ],
            [
              576.9179991934791,
              248.01978716809347
            ],
            [
              576.758722506146,
              247.7735985386057
            ],
            [
              576.6394902404377,
              247.63382763741689
            ],
            [
              576.1471592703227,
              246.93311261225867
            ],
            [
              575.8508113037914,
              246.49454668418156
            ],
            [
              575.7939162692828,
              246.43035594370153
            ],
            [
              575.0884618581315,
              245.42631082877782
            ],
            [
              574.8185804817862,
              245.13083894272165
            ],
            [
              574.6778899508029,
              244.93350790092686
            ],
            [
              574.3090868598018,
              244.53604547691424
            ],
            [
              574.2613315931441,
              244.47034854932525
            ],
            [
              573.0013584991243,
              243.1266948048086
            ],
            [
              572.4103265997652,
              242.4897343857943
            ],
            [
              571.3892259837937,
              241.22401561990264
            ],
            [
              570.2971371845249,
              240.16099761577485
            ],
            [
              570.0787412444155,
              239.90176736297914
            ],
            [
              569.901502483805,
              239.73517189060252
            ],
            [
              569.6282368630903,
              239.41483425519198
            ],
            [
              569.428319578942,
              239.22946635846517
            ],
            [
              568.8588375132421,
              238.60598524869127
            ],
            [
              568.4260966081055,
              238.11775355361218
            ],
            [
              568.35388788282,
              238.05315562523214
            ],
            [
              567.5604951198671,
              237.18453230916455
            ],
            [
              567.1771140460162,
              236.8498539246688
            ],
            [
              566.9458901103122,
              236.60066179962092
            ],
            [
              564.3575618119426,
              234.37953042915348
            ],
            [
              563.1576564319147,
              233.2115658615718
            ],
            [
              561.9632517348372,
              232.27361760778146
            ],
            [
              561.7378701639482,
              232.06177032821435
            ],
            [
              561.5136778616477,
              231.89082880889745
            ],
            [
              561.1005823807395,
              231.50779719281664
            ],
            [
              560.793240395252,
              231.27695357582505
            ],
            [
              560.2179371495015,
              230.77473378980804
            ],
            [
              559.591629762955,
              230.21443917798905
            ],
            [
              559.4999355727705,
              230.1479433086055
            ],
            [
              558.6616980139643,
              229.41619098400852
            ],
            [
              558.1508503017097,
              229.0533430009221
            ],
            [
              557.8101161880521,
              228.7609476238541
            ],
            [
              554.9645092840806,
              226.77760919749585
            ],
            [
              553.6059017751614,
              225.71071491645282
            ],
            [
              552.346750961177,
              224.90125603747052
            ],
            [
              552.1243142523313,
              224.73165311816902
            ],
            [
              551.8506235717914,
              224.56018167212366
            ],
            [
              551.2756201710393,
              224.12829839198116
            ],
            [
              550.8334294562648,
              223.85588134755145
            ],
            [
              550.35151372624,
              223.5135833466823
            ],
            [
              549.4523927483484,
              222.86154823978467
            ],
            [
              549.3367278832249,
              222.7927951595741
            ],
            [
              548.4953934381028,
              222.19520707374897
            ],
            [
              547.8462389659483,
              221.81629882417786
            ],
            [
              547.3794929410127,
              221.49098497803146
            ],
            [
              544.3412763505052,
              219.75484908455795
            ],
            [
              542.8432268134202,
              218.7918115473141
            ],
            [
              541.5565998490225,
              218.11081653545904
            ],
            [
              541.3449240353893,
              217.97819836306243
            ],
            [
              541.0196589104258,
              217.80998694599413
            ],
            [
              540.2650420118117,
              217.34509589708566
            ],
            [
              539.7517958237966,
              217.08470954642956
            ],
            [
              539.7116024938828,
              217.06012297181434
            ],
            [
              539.6129429190082,
              217.0105647082362
            ],
            [
              539.4026826557491,
              216.88783683416912
            ],
            [
              538.1253732603675,
              216.1285833200536
            ],
            [
              537.9814990268287,
              216.05829899032224
            ],
            [
              537.1762577701782,
              215.58828365789117
            ],
            [
              536.381244164072,
              215.2062274901344
            ],
            [
              535.7748149475277,
              214.8596940886023
            ],
            [
              532.6082110681352,
              213.37455008645628
            ],
            [
              530.9893696971563,
              212.5177182858635
            ],
            [
              529.7112588558674,
              211.96182846834503
            ],
            [
              529.516287942553,
              211.86099892622283
            ],
            [
              529.1377168552173,
              211.69984483081925
            ],
            [
              528.1906295537635,
              211.2193568857781
            ],
            [
              527.5676058873114,
              210.96000156565142
            ],
            [
              527.4097392609596,
              210.8807026644695
            ],
            [
              527.240401430961,
              210.81114092406813
            ],
            [
              525.7377277743619,
              210.07706639138038
            ],
            [
              525.5621525074315,
              210.0069445280482
            ],
            [
              524.8285682157317,
              209.654409173872
            ],
            [
              524.038147189076,
              209.34347756974122
            ],
            [
              523.9334299529932,
              209.29385648469054
            ],
            [
              523.782095142995,
              209.23508281248115
            ],
            [
              523.126859033677,
              208.92777567372718
            ],
            [
              519.8941364167362,
              207.69205919248813
            ],
            [
              518.1727762277244,
              206.9433865653275
            ],
            [
              516.9369896798954,
              206.50611182576898
            ],
            [
              516.7630705663945,
              206.43207612060777
            ],
            [
              516.3297187496773,
              206.28183928515912
            ],
            [
              515.1824862013026,
              205.80426374369014
            ],
            [
              514.450316583644,
              205.55714326791752
            ],
            [
              514.1547605064442,
              205.43573274128954
            ],
            [
              513.9291736214815,
              205.3609247906195
            ],
            [
              512.4249232695093,
              204.76015203121838
            ],
            [
              512.2153199153317,
              204.69267688804518
            ],
            [
              511.584434003207,
              204.44450235565827
            ],
            [
              510.8328751709735,
              204.20601375590164
            ],
            [
              510.76530313697674,
              204.17977090683382
            ],
            [
              510.4337880703752,
              204.07581686209028
            ],
            [
              509.5744834388695,
              203.74734547082926
            ],
            [
              506.33460799256443,
              202.75453053597113
            ],
            [
              504.5288374322462,
              202.11557079583164
            ],
            [
              503.36618848447876,
              201.7875699915598
            ],
            [
              503.21635830333037,
              201.73562602503017
            ],
            [
              502.72696425369537,
              201.60030002353034
            ],
            [
              501.3772802726172,
              201.14475729204142
            ],
            [
              500.5393815922454,
              200.92067152899241
            ],
            [
              500.0897841041434,
              200.7715783460136
            ],
            [
              499.7990718692379,
              200.69566015161104
            ],
            [
              498.3288980443227,
              200.22238437926669
            ],
            [
              498.0906295287919,
              200.16217611881876
            ],
            [
              497.8995897069131,
              200.1011238503635
            ],
            [
              497.88707767458857,
              200.09798523543674
            ],
            [
              497.5820487050364,
              200.00119183921197
            ],
            [
              496.8883512415788,
              199.82833887990427
            ],
            [
              496.86127849966084,
              199.81984960956206
            ],
            [
              496.333200157936,
              199.68973769674142
            ],
            [
              495.26275436545234,
              199.36171441703908
            ],
            [
              492.0702266486531,
              198.60080878198045
            ],
            [
              490.19816509041823,
              198.07267198030397
            ],
            [
              489.1357760019476,
              197.84209911570696
            ],
            [
              489.0120435934102,
              197.80788494388892
            ],
            [
              488.46556497699714,
              197.6916768157667
            ],
            [
              486.9165329318522,
              197.27740712426203
            ],
            [
              486.04939570241885,
              197.100927364763
            ],
            [
              484.44705792339056,
              196.6907841370542
            ],
            [
              484.0367490992508,
              196.610889910044
            ],
            [
              483.5962763579017,
              196.49958650316506
            ],
            [
              483.3756589021745,
              196.45782875352486
            ],
            [
              483.2130045164215,
              196.41702726980927
            ],
            [
              483.15205386218344,
              196.4055792808143
            ],
            [
              482.96399562970555,
              196.3587196284152
            ],
            [
              482.7439439106125,
              196.31765395743182
            ],
            [
              482.69886206402686,
              196.30642047511617
            ],
            [
              481.5229311988506,
              196.0869710789546
            ],
            [
              480.3411344813589,
              195.80530217531003
            ],
            [
              478.0670877044313,
              195.40582949054803
            ],
            [
              477.6597393245045,
              195.31221322808804
            ],
            [
              476.896864149873,
              195.1858585764547
            ],
            [
              475.3249342363176,
              194.84469883842004
            ],
            [
              474.3856680711205,
              194.6976009004011
            ],
            [
              474.28927379866644,
              194.6771027553164
            ],
            [
              473.68494497316874,
              194.58451448699532
            ],
            [
              471.9449786219149,
              194.23039655414465
            ],
            [
              471.4330551336045,
              194.156732632463
            ],
            [
              469.861030833607,
              193.8506323029207
            ],
            [
              468.9147280327857,
              193.72071110806453
            ],
            [
              468.3766653008173,
              193.61886835593825
            ],
            [
              468.1775590171782,
              193.59301140285157
            ],
            [
              468.04736479421166,
              193.56855781739387
            ],
            [
              467.9845624097079,
              193.5604731837567
            ],
            [
              467.6124017818914,
              193.4910214604724
            ],
            [
              465.9732721977243,
              193.28135738272627
            ],
            [
              464.9617612889761,
              193.10366931469343
            ],
            [
              462.8088047888658,
              192.85246001813087
            ],
            [
              461.69141009814365,
              192.66738646799627
            ],
            [
              460.8719542202071,
              192.58122588749106
            ],
            [
              460.0553156266627,
              192.4533325834661
            ],
            [
              460.0157922777142,
              192.4482882771562
            ],
            [
              459.2365826947271,
              192.37090363977865
            ],
            [
              459.18898527480707,
              192.3636113139786
            ],
            [
              458.6509685074445,
              192.3115639512874
            ],
            [
              457.76149846530393,
              192.18944552305845
            ],
            [
              456.6090196551316,
              192.0236080283206
            ],
            [
              456.4573963149866,
              192.01040081407854
            ],
            [
              454.9497186840616,
              191.80340652102436
            ],
            [
              453.4577597616031,
              191.68047518407295
            ],
            [
              452.9722395265377,
              191.61837139843755
            ],
            [
              452.8210557073001,
              191.59873789993634
            ],
            [
              452.8156757447671,
              191.59834503734822
            ],
            [
              452.2022320921981,
              191.5198783322783
            ],
            [
              450.0911439175268,
              191.36854957160662
            ],
            [
              449.277836424532,
              191.27365197233962
            ],
            [
              447.3170476209424,
              191.1560135571331
            ],
            [
              445.4273163652707,
              190.95732031885575
            ],
            [
              444.62364084862264,
              190.9196673735368
            ],
            [
              444.4967654677155,
              190.90706716230392
            ],
            [
              443.58648975581326,
              190.86712275127576
            ],
            [
              439.8470254251351,
              190.55900612505556
            ],
            [
              438.0876190011182,
              190.50810301565969
            ],
            [
              436.61480575643185,
              190.40252760403297
            ],
            [
              434.0380324317112,
              190.3593330071468
            ],
            [
              433.44214024273305,
              190.32358218450332
            ],
            [
              431.74002503742446,
              190.3160579919834
            ],
            [
              429.03622621753664,
              190.1893825029387
            ],
            [
              427.59582437692325,
              190.20455463584037
            ],
            [
              424.68578376153596,
              190.1203614023918
            ],
            [
              422.67317431129646,
              190.16882324806167
            ],
            [
              420.9951489235602,
              190.14069441364214
            ],
            [
              417.9689316933355,
              190.25518293649262
            ],
            [
              417.6056797487843,
              190.2535771829293
            ],
            [
              416.4521109140573,
              190.31256763734712
            ],
            [
              416.10899618462236,
              190.32554843005508
            ],
            [
              412.68456387587105,
              190.36161887970476
            ],
            [
              411.6031929378101,
              190.435378554613
            ],
            [
              409.5967389229901,
              190.4836921828793
            ],
            [
              408.89197189557206,
              190.5383685520905
            ],
            [
              408.7203214947452,
              190.54274631018836
            ],
            [
              407.29305544407373,
              190.65907505956784
            ],
            [
              405.4986166875009,
              190.7269626654326
            ],
            [
              405.1804199016553,
              190.75662206789957
            ],
            [
              405.1783792858516,
              190.75669997249304
            ],
            [
              405.0676739584077,
              190.7671312165078
            ],
            [
              403.9570213542673,
              190.87065612327604
            ],
            [
              403.8885554743802,
              190.87361285880883
            ],
            [
              403.23140831783155,
              190.9382911530447
            ],
            [
              402.034736810115,
              191.0498339575393
            ],
            [
              401.91647226749467,
              191.05588169296706
            ],
            [
              401.5745896652752,
              191.09272467791087
            ],
            [
              400.7216188046315,
              191.172230842578
            ],
            [
              400.14822539455184,
              191.21671514530092
            ],
            [
              396.53500704927256,
              191.46317064092386
            ],
            [
              395.85528940579934,
              191.54976442829212
            ],
            [
              394.70763563647495,
              191.63880029232405
            ],
            [
              393.80556401622584,
              191.75836766115233
            ],
            [
              393.1731508264007,
              191.80991224558932
            ],
            [
              391.7394597256352,
              192.00946579598659
            ],
            [
              390.26452748789205,
              192.14694552802985
            ],
            [
              390.19275372619,
              192.15774237481807
            ],
            [
              390.1774655119092,
              192.15916968295772
            ],
            [
              389.9827199560173,
              192.18851571389126
            ],
            [
              389.76712104643576,
              192.20883058842074
            ],
            [
              385.4502453690584,
              192.86584454435413
            ],
            [
              383.6081737599375,
              193.1100065937509
            ],
            [
              380.74524573405216,
              193.4747341877242
            ],
            [
              380.4860417329456,
              193.52383749501976
            ],
            [
              380.1424047047069,
              193.56938573573277
            ],
            [
              379.07577681233414,
              193.77210691523902
            ],
            [
              377.9926875730381,
              193.92286066058614
            ],
            [
              376.5725362772241,
              194.2066164690628
            ],
            [
              375.4119314186219,
              194.38120496130512
            ],
            [
              375.36247868482644,
              194.39162659225974
            ],
            [
              375.3006265543543,
              194.40094703362877
            ],
            [
              375.13712395532895,
              194.43546692971566
            ],
            [
              374.74980207277656,
              194.49441601726662
            ],
            [
              370.4667442610241,
              195.4083225492994
            ],
            [
              366.0204430750463,
              196.25337772487654
            ],
            [
              365.8459979134502,
              196.29723052683582
            ],
            [
              365.46689293253814,
              196.36904773758783
            ],
            [
              364.4593211165941,
              196.62691856735168
            ],
            [
              363.3147581376809,
              196.8556099711286
            ],
            [
              362.2726930444071,
              197.13160756763529
            ],
            [
              361.42906878816774,
              197.30728865144496
            ],
            [
              361.09271669180424,
              197.39882522288684
            ],
            [
              361.06911297697656,
              197.4037994515347
            ],
            [
              361.04102568183544,
              197.41154101353385
            ],
            [
              360.93603804101474,
              197.43370679238797
            ],
            [
              360.8046437612294,
              197.46999370763427
            ],
            [
              360.259222286387,
              197.58637417002535
            ],
            [
              358.2134267601033,
              198.15779975110553
            ],
            [
              358.0556559297116,
              198.19282593818716
            ],
            [
              357.3105912403402,
              198.4099771094354
            ],
            [
              356.13196926000165,
              198.7391863296791
            ],
            [
              352.4559793443174,
              199.66327305271554
            ],
            [
              351.88192512707434,
              199.8458886583155
            ],
            [
              350.8445339062484,
              200.11139125641725
            ],
            [
              350.8350973025037,
              200.11414182905224
            ],
            [
              350.0747557886936,
              200.36230916832835
            ],
            [
              349.26891294377356,
              200.57574179341273
            ],
            [
              348.63125427021777,
              200.79015103131377
            ],
            [
              347.8413361693724,
              201.0051233637219
            ],
            [
              347.0505124806865,
              201.27579209035477
            ],
            [
              346.42185797827034,
              201.45138601443202
            ],
            [
              344.23985053121845,
              202.21948076014007
            ],
            [
              343.81296734623567,
              202.34389704898416
            ],
            [
              342.4501985060159,
              202.84626809477376
            ],
            [
              339.5575152693277,
              203.7664757776488
            ],
            [
              339.1246441456092,
              203.93630851189485
            ],
            [
              337.8858505818723,
              204.34063748387914
            ],
            [
              336.94130268510014,
              204.72083325128574
            ],
            [
              335.97774243120415,
              205.04482511133781
            ],
            [
              335.6983385167319,
              205.16120740519926
            ],
            [
              334.9779027237369,
              205.40778504506133
            ],
            [
              334.15568265176523,
              205.7539621105825
            ],
            [
              333.9889841918454,
              205.811927490914
            ],
            [
              333.77961621134295,
              205.9016180648013
            ],
            [
              333.3572110344284,
              206.05031013154144
            ],
            [
              331.0990463373714,
              207.03075633480847
            ],
            [
              330.42819630671335,
              207.27805846083987
            ],
            [
              329.33927093441713,
              207.77550359107343
            ],
            [
              327.42733300674524,
              208.52563366022494
            ],
            [
              327.40857015491684,
              208.53376050089472
            ],
            [
              327.09350444964247,
              208.68473092159348
            ],
            [
              325.73360180128583,
              209.2321136776968
            ],
            [
              324.74668371290414,
              209.71540717025357
            ],
            [
              322.9440235729518,
              210.47437623295957
            ],
            [
              322.1166536657527,
              210.89788254296408
            ],
            [
              321.8720106794835,
              211.00268447963205
            ],
            [
              321.4812475875507,
              211.20659624603425
            ],
            [
              321.17723636299354,
              211.33859133535412
            ],
            [
              318.9250721935302,
              212.53155918577588
            ],
            [
              318.900001348822,
              212.54439221346803
            ],
            [
              318.02495971132424,
              212.9441305356656
            ],
            [
              317.1400015036268,
              213.44039717193562
            ],
            [
              315.8325021054271,
              214.08067923596792
            ],
            [
              315.61453835692015,
              214.18512119285987
            ],
            [
              315.59022708686473,
              214.1993212400743
            ],
            [
              314.4761477805616,
              214.74488554298338
            ],
            [
              313.6828815218683,
              215.21488233825806
            ],
            [
              311.83768312597493,
              216.15938510186982
            ],
            [
              311.02677309650824,
              216.66205098120798
            ],
            [
              310.71658772933506,
              216.82391490191105
            ],
            [
              310.18065760017225,
              217.16346196720514
            ],
            [
              309.98583340078113,
              217.26666004197932
            ],
            [
              308.3310228810792,
              218.33308920155034
            ],
            [
              307.5322826591795,
              218.8282112760328
            ],
            [
              306.7173653746498,
              219.28520038139408
            ],
            [
              306.1242539359235,
              219.69324090101915
            ],
            [
              304.2038788433856,
              220.83103055154547
            ],
            [
              303.58767430826344,
              221.27339009156503
            ],
            [
              301.74918182475,
              222.41303247763148
            ],
            [
              300.976370819146,
              222.99498438880983
            ],
            [
              300.61586425807116,
              223.22338905982048
            ],
            [
              299.97736553162787,
              223.7165356327221
            ],
            [
              299.87838792595704,
              223.7803209444381
            ],
            [
              299.0600357303009,
              224.42503829527854
            ],
            [
              298.7138346172361,
              224.6924278535916
            ],
            [
              298.55821528018254,
              224.79523569575503
            ],
            [
              298.20152044543585,
              225.08453728920043
            ],
            [
              297.2905296022485,
              225.77054312817302
            ],
            [
              296.6094703266715,
              226.23908877164243
            ],
            [
              296.59543675851415,
              226.24980849591026
            ],
            [
              296.25522166097517,
              226.53719487609104
            ],
            [
              294.9994047767748,
              227.4387179055058
            ],
            [
              294.54016231390733,
              227.84165946617117
            ],
            [
              292.76075711324086,
              229.1816096606689
            ],
            [
              292.04733524038727,
              229.84132038027897
            ],
            [
              291.65444475589555,
              230.14477062683085
            ],
            [
              290.9612893611489,
              230.80542357701256
            ],
            [
              290.9413512737611,
              230.82113127712506
            ],
            [
              290.79793977931485,
              230.96111360549617
            ],
            [
              289.8955238930784,
              231.82121470557536
            ],
            [
              289.66239518459537,
              232.01029652082366
            ],
            [
              289.240507415009,
              232.43683150062262
            ],
            [
              288.917602142294,
              232.73542631239138
            ],
            [
              288.3176802881855,
              233.24219209465446
            ],
            [
              287.9683461530768,
              233.60780278741896
            ],
            [
              286.9372062181142,
              234.5125299593404
            ],
            [
              286.61233126420444,
              234.86714103508208
            ],
            [
              284.94622858203246,
              236.40780840348444
            ],
            [
              284.31278952694066,
              237.14217153155138
            ],
            [
              283.90801231300355,
              237.52796851529513
            ],
            [
              282.3499865120544,
              239.40325339319818
            ],
            [
              282.06214670380643,
              239.69426383639876
            ],
            [
              282.05744917471657,
              239.69961695370688
            ],
            [
              281.66991508713687,
              240.19969723472656
            ],
            [
              281.2367242748481,
              240.6530717466342
            ],
            [
              280.9194945526993,
              241.07611070335633
            ],
            [
              280.84665940300295,
              241.1605504737321
            ],
            [
              280.0833028229616,
              241.99377782718253
            ],
            [
              279.86879826346967,
              242.29421149367758
            ],
            [
              278.3706586056467,
              244.0310455530305
            ],
            [
              277.8367870853937,
              244.83547064573673
            ],
            [
              277.442967418888,
              245.30948337697254
            ],
            [
              276.26267415423183,
              247.1772887600877
            ],
            [
              276.01011190809936,
              247.5031991846477
            ],
            [
              275.6985449117376,
              248.03846301507855
            ],
            [
              275.4114464420799,
              248.42132070028362
            ],
            [
              275.1637148304547,
              248.86319326242048
            ],
            [
              274.96663135692575,
              249.16015402069243
            ],
            [
              274.49493107014246,
              249.8208143206711
            ],
            [
              274.3665326082592,
              250.0643687488181
            ],
            [
              273.090021430532,
              251.98778586987578
            ],
            [
              272.6740181593417,
              252.8563103949221
            ],
            [
              272.31607505564045,
              253.42275271565805
            ],
            [
              271.4960551831733,
              255.25822883002587
            ],
            [
              271.2887924706386,
              255.61430066915477
            ],
            [
              271.0618628754244,
              256.1795620583474
            ],
            [
              270.89168173553696,
              256.48310982048406
            ],
            [
              270.7116478822641,
              256.9533135460865
            ],
            [
              270.4818398076739,
              257.43310291957937
            ],
            [
              270.2202262952362,
              257.9293481898499
            ],
            [
              270.1545444977597,
              258.11642447809504
            ],
            [
              269.15087555198085,
              260.21186736243976
            ],
            [
              268.8695213311987,
              261.1372816562969
            ],
            [
              268.57411473116196,
              261.7984994835869
            ],
            [
              268.0928596750123,
              263.57508432152616
            ],
            [
              267.936334783013,
              263.9649738720808
            ],
            [
              267.80148406891976,
              264.55393888613975
            ],
            [
              267.71790513991635,
              264.7722262976139
            ],
            [
              267.6096403142704,
              265.28121060979004
            ],
            [
              267.419892594162,
              265.90531801414204
            ],
            [
              267.29790548130126,
              266.2527642955104
            ],
            [
              267.2735371760433,
              266.386701927793
            ],
            [
              266.59003630072755,
              268.63483411558076
            ],
            [
              266.45839583928404,
              269.60881556581523
            ],
            [
              266.2535304426311,
              270.3650897136765
            ],
            [
              266.16668569165347,
              271.22849745109613
            ],
            [
              266.16388321393,
              271.2395004304554
            ],
            [
              266.1562438654481,
              271.3323097534737
            ],
            [
              266.08318338384845,
              272.05867472572555
            ],
            [
              265.9855495093528,
              272.4850939451878
            ],
            [
              265.9485517665031,
              273.0904691298697
            ],
            [
              265.920913969367,
              273.2204024215177
            ],
            [
              265.89478855076567,
              273.77883318930463
            ],
            [
              265.79701561185095,
              274.50223561279006
            ],
            [
              265.75694943651246,
              274.7224548113692
            ],
            [
              265.7555208135115,
              274.8092473281375
            ],
            [
              265.4342478101356,
              277.1862820353127
            ],
            [
              265.4655129115065,
              278.19953481323114
            ],
            [
              265.3800800897318,
              279.0489051957055
            ],
            [
              265.44355813971254,
              279.9906240038493
            ],
            [
              265.4380850853625,
              280.0571153377084
            ],
            [
              265.48050845659833,
              280.5387947241848
            ],
            [
              265.4872405974312,
              280.63866835996265
            ],
            [
              265.4588799921147,
              281.10271847103985
            ],
            [
              265.52344174626455,
              281.7163703602201
            ],
            [
              265.52151007828405,
              281.7576597588713
            ],
            [
              265.57979348037924,
              282.25198697359235
            ],
            [
              265.5950225027847,
              282.3967370424967
            ],
            [
              265.6182424647764,
              283.1492595022349
            ],
            [
              265.6162852252471,
              283.268166829837
            ],
            [
              265.62338940374275,
              283.3160637020354
            ],
            [
              265.69985591678847,
              285.79422316306005
            ],
            [
              265.8317232805456,
              286.4635398809695
            ]
          ]
        ]
      }
    }
  ]
}